<?xml version="1.0" encoding="utf-8" ?>
<kml xmlns="http://www.opengis.net/kml/2.2">
<Document id="root_doc">
<Folder><name>peixoto_setores</name>
  <Placemark id="peixoto_setores.1">
	<Style><LineStyle><color>ff0000ff</color></LineStyle><PolyStyle><fill>0</fill></PolyStyle></Style>
      <Polygon><outerBoundaryIs><LinearRing><coordinates>-54.9938076902354,-10.2510798466415 -54.9897081002602,-10.2536102432787 -54.9834842995969,-10.2603290105026 -54.9795637300215,-10.2658734535732 -54.982958465561,-10.2663354175848 -54.9847083292411,-10.2683792583632 -54.9901329066497,-10.2640255975269 -54.9914068074088,-10.2659574470299 -54.9946125576709,-10.2689252158314 -54.9952005118674,-10.2717809933575 -55.0048877572009,-10.2641935844402 -54.9996576494353,-10.2580261263801 -54.9938076902354,-10.2510798466415</coordinates></LinearRing></outerBoundaryIs></Polygon>
  </Placemark>
  <Placemark id="peixoto_setores.2">
	<Style><LineStyle><color>ff0000ff</color></LineStyle><PolyStyle><fill>0</fill></PolyStyle></Style>
      <Polygon><outerBoundaryIs><LinearRing><coordinates>-54.9938076902354,-10.2510798466415 -55.0048877572009,-10.2641935844402 -55.005231386681,-10.2639317610872 -55.0027879207846,-10.2610998254537 -54.9944106213012,-10.2509879030635 -54.9901145330811,-10.2455549114509 -54.9899552954862,-10.2452906820352 -54.9834738004149,-10.2373987968377 -54.9829330925375,-10.2378642605766 -54.9813407165886,-10.2393875169102 -54.9873321162993,-10.2462591414717 -54.9885691549392,-10.2463329850342 -54.9894390801445,-10.2458925305042 -54.9938076902354,-10.2510798466415</coordinates></LinearRing></outerBoundaryIs></Polygon>
  </Placemark>
  <Placemark id="peixoto_setores.3">
	<Style><LineStyle><color>ff0000ff</color></LineStyle><PolyStyle><fill>0</fill></PolyStyle></Style>
      <Polygon><outerBoundaryIs><LinearRing><coordinates>-55.0084755827814,-10.2379226630986 -55.0072852581845,-10.2378536122933 -55.0072391890607,-10.2373299301696 -55.0059566614372,-10.2373255240544 -55.0054776097049,-10.236965458386 -55.005456484141,-10.2361598100117 -55.0051127608002,-10.2361585561222 -55.0050166824497,-10.2339608654805 -55.0046593999905,-10.2332463703246 -55.0035464439165,-10.2328787401123 -55.0023741275418,-10.2323068182164 -55.0019405492974,-10.2314912570534 -55.0017970604757,-10.2313267698675 -55.001625573835,-10.2311657824089 -55.0012785873808,-10.2309805582569 -55.0011763829795,-10.2303374275435 -55.0011740949717,-10.2302391685179 -54.9994124782997,-10.2303612654977 -54.9993375937335,-10.2379504464459 -54.9997085975922,-10.2435214793267 -55.0079184435918,-10.2432996835253 -55.0078511020865,-10.2414087765553 -55.0085488467365,-10.2413192546288 -55.0084755827814,-10.2379226630986</coordinates></LinearRing></outerBoundaryIs></Polygon>
  </Placemark>
  <Placemark id="peixoto_setores.4">
	<Style><LineStyle><color>ff0000ff</color></LineStyle><PolyStyle><fill>0</fill></PolyStyle></Style>
      <Polygon><outerBoundaryIs><LinearRing><coordinates>-55.0084755827814,-10.2379226630986 -55.0096136233095,-10.2379943266196 -55.00956419853,-10.2362989209003 -55.0065122868949,-10.2293789528585 -55.0048624144452,-10.2294533010828 -55.0027415819177,-10.2304141286389 -55.0011733231837,-10.2301754008569 -55.0012785873808,-10.2309805582569 -55.001625573835,-10.2311657824089 -55.0017970604757,-10.2313267698675 -55.0019405492974,-10.2314912570534 -55.0023741275418,-10.2323068182164 -55.0035464439165,-10.2328787401123 -55.0046593999905,-10.2332463703246 -55.0050166824497,-10.2339608654805 -55.0051127608002,-10.2361585561222 -55.005456484141,-10.2361598100117 -55.0054776097049,-10.236965458386 -55.0059566614372,-10.2373255240544 -55.0072391890607,-10.2373299301696 -55.0072852581845,-10.2378536122933 -55.0084755827814,-10.2379226630986</coordinates></LinearRing></outerBoundaryIs></Polygon>
  </Placemark>
  <Placemark id="peixoto_setores.5">
	<Style><LineStyle><color>ff0000ff</color></LineStyle><PolyStyle><fill>0</fill></PolyStyle></Style>
      <Polygon><outerBoundaryIs><LinearRing><coordinates>-54.9979001140599,-10.2388564332833 -54.9914080943249,-10.2312795467186 -54.9834738004149,-10.2373987968377 -54.9899552954862,-10.2452906820352 -54.9963989497553,-10.2402062343796 -54.9979001140599,-10.2388564332833</coordinates></LinearRing></outerBoundaryIs></Polygon>
  </Placemark>
  <Placemark id="peixoto_setores.6">
	<Style><LineStyle><color>ff0000ff</color></LineStyle><PolyStyle><fill>0</fill></PolyStyle></Style>
      <Polygon><outerBoundaryIs><LinearRing><coordinates>-54.9914080943249,-10.2312795467186 -54.9964967455533,-10.2270455617202 -54.9974435107238,-10.228200325773 -54.9969523537281,-10.2286228973268 -54.9994122287392,-10.2313029493239 -54.9993375937335,-10.2379504464459 -54.9988170426283,-10.2381057417645 -54.9979001140599,-10.2388564332833 -54.9914080943249,-10.2312795467186</coordinates></LinearRing></outerBoundaryIs></Polygon>
  </Placemark>
  <Placemark id="peixoto_setores.7">
	<Style><LineStyle><color>ff0000ff</color></LineStyle><PolyStyle><fill>0</fill></PolyStyle></Style>
      <Polygon><outerBoundaryIs><LinearRing><coordinates>-54.9829330925375,-10.2378642605766 -54.978848910708,-10.2326575411962 -54.9728477532169,-10.2242651949861 -54.9711608846292,-10.225497099017 -54.9770366454209,-10.2340427966198 -54.9728967494,-10.2372561829477 -54.9773046560103,-10.2427227570846 -54.9813407165886,-10.2393875169102 -54.9829330925375,-10.2378642605766</coordinates></LinearRing></outerBoundaryIs></Polygon>
  </Placemark>
  <Placemark id="peixoto_setores.8">
	<Style><LineStyle><color>ff0000ff</color></LineStyle><PolyStyle><fill>0</fill></PolyStyle></Style>
      <Polygon><outerBoundaryIs><LinearRing><coordinates>-54.9813407165886,-10.2393875169102 -54.9773046560103,-10.2427227570846 -54.9753273100518,-10.2442748861689 -54.9785015627677,-10.2481902061533 -54.9800697489499,-10.2500210872984 -54.9835656682581,-10.2495874723019 -54.9839856355414,-10.2487102073102 -54.9842749463365,-10.2479635988067 -54.9849935570211,-10.2474223076416 -54.9857716630709,-10.2467666920494 -54.9873321162993,-10.2462591414717 -54.9813407165886,-10.2393875169102</coordinates></LinearRing></outerBoundaryIs></Polygon>
  </Placemark>
  <Placemark id="peixoto_setores.9">
	<Style><LineStyle><color>ff0000ff</color></LineStyle><PolyStyle><fill>0</fill></PolyStyle></Style>
      <Polygon><outerBoundaryIs><LinearRing><coordinates>-54.9897081002602,-10.2536102432787 -54.9938076902354,-10.2510798466415 -54.9894390801445,-10.2458925305042 -54.9885691549392,-10.2463329850342 -54.9873321162993,-10.2462591414717 -54.9857716630709,-10.2467666920494 -54.9849935570211,-10.2474223076416 -54.9842749463365,-10.2479635988067 -54.9839856355414,-10.2487102073102 -54.9835656682581,-10.2495874723019 -54.983117703156,-10.249811454853 -54.9818484687,-10.251080689309 -54.9815568247533,-10.2517246391433 -54.9822427713159,-10.2521212749108 -54.9824620875638,-10.2527885562608 -54.983166699339,-10.2529005475364 -54.9836473285632,-10.2525692400129 -54.9846645826493,-10.2524852465562 -54.989702727596,-10.253604316534 -54.9897081002602,-10.2536102432787</coordinates></LinearRing></outerBoundaryIs></Polygon>
  </Placemark>
  <Placemark id="peixoto_setores.10">
	<Style><LineStyle><color>ff0000ff</color></LineStyle><PolyStyle><fill>0</fill></PolyStyle></Style>
      <Polygon><outerBoundaryIs><LinearRing><coordinates>-55.0086394649312,-10.2558572338679 -55.0027303885931,-10.2504002936634 -54.9998341508925,-10.2481333355836 -54.998237345044,-10.2493996168829 -54.9977195058507,-10.2487824713149 -54.9969328035043,-10.2494730210835 -54.9962467305719,-10.2487704898605 -54.9944106213012,-10.2509879030635 -54.9999626128788,-10.2577369966097 -55.0027879207846,-10.2610998254537 -55.0086394649312,-10.2558572338679</coordinates></LinearRing></outerBoundaryIs></Polygon>
  </Placemark>
  <Placemark id="peixoto_setores.11">
	<Style><LineStyle><color>ff0000ff</color></LineStyle><PolyStyle><fill>0</fill></PolyStyle></Style>
      <Polygon><outerBoundaryIs><LinearRing><coordinates>-54.9944106213012,-10.2509879030635 -54.9962163732994,-10.2488086461682 -54.9991408917585,-10.2442675246946 -54.9980956613262,-10.2425285222161 -54.9963989497553,-10.2402062343796 -54.9899552954862,-10.2452906820352 -54.9901145330811,-10.2455549114509 -54.9944106213012,-10.2509879030635</coordinates></LinearRing></outerBoundaryIs></Polygon>
  </Placemark>
  <Placemark id="peixoto_setores.12">
	<Style><LineStyle><color>ff0000ff</color></LineStyle><PolyStyle><fill>0</fill></PolyStyle></Style>
      <Polygon><outerBoundaryIs><LinearRing><coordinates>-54.9991408917585,-10.2442675246946 -54.9997085975922,-10.2435214793267 -54.9993375937335,-10.2379504464459 -54.9988170426283,-10.2381057417645 -54.9979001140599,-10.2388564332833 -54.9963989497553,-10.2402062343796 -54.9980956613262,-10.2425285222161 -54.9991408917585,-10.2442675246946</coordinates></LinearRing></outerBoundaryIs></Polygon>
  </Placemark>
  <Placemark id="peixoto_setores.13">
	<Style><LineStyle><color>ff0000ff</color></LineStyle><PolyStyle><fill>0</fill></PolyStyle></Style>
      <Polygon><outerBoundaryIs><LinearRing><coordinates>-54.9753273100518,-10.2442748861689 -54.9743119178792,-10.2452156680524 -54.9775294258366,-10.249007705161 -54.9785015627677,-10.2481902061533 -54.9753273100518,-10.2442748861689</coordinates></LinearRing></outerBoundaryIs></Polygon>
  </Placemark>
</Folder>
</Document></kml>
