{"type": "FeatureCollection", "name": "setores_pgv_peixoto_poligonos", "crs": {"type": "name", "properties": {"name": "urn:ogc:def:crs:OGC:1.3:CRS84"}}, "properties": {"municipio": "Peixoto de Azevedo - MT", "n_poligonos": 13, "nota": "13 polígonos originais de s.geojson classificados com os setores da Tabela I. Um polígono pode conter vários setores (geometria ainda não subdividida)."}, "features": [{"type": "Feature", "properties": {"id": 1, "bairro": "Liberdade e Mãe de Deus", "setores": ["15", "16", "17", "18", "23", "24"], "setores_txt": "15, 16, 17, 18, 23, 24", "zona_fundo": "07", "zona_via": "04", "upfm_fundo": 0.74, "upfm_via": 1.27, "rs_m2_fundo": 22.87, "rs_m2_via": 39.24, "upfm_2026": 30.9, "via_excecao": "Av. Brasil entre Rua Getúlio Vargas e Rua Goiás (Z04); Av. Brasil além da Rua Goiás até Presílio/Orquídea permanece Z07", "confianca": "alta", "evidencia": "Rua Presílio de Souza (setor 18), Rua Orquídea (setor 24), Rua Goiás, Av. Brasil, ruas de estados.", "fonte": "Tabela I — LC 77/2019 e Decreto 001/2026; rótulos do MAPA TRIBUTAÇÃO"}, "geometry": {"type": "Polygon", "coordinates": [[[-54.9938076902354, -10.2510798466415], [-54.9897081002602, -10.2536102432787], [-54.9834842995969, -10.2603290105026], [-54.9795637300215, -10.2658734535732], [-54.982958465561, -10.2663354175848], [-54.9847083292411, -10.2683792583632], [-54.9901329066497, -10.2640255975269], [-54.9914068074088, -10.2659574470299], [-54.9946125576709, -10.2689252158314], [-54.9952005118674, -10.2717809933575], [-55.0048877572009, -10.2641935844402], [-54.9996576494353, -10.2580261263801], [-54.9938076902354, -10.2510798466415]]]}}, {"type": "Feature", "properties": {"id": 2, "bairro": "Aeroporto A", "setores": ["25"], "setores_txt": "25", "zona_fundo": "09", "zona_via": null, "upfm_fundo": 0.66, "upfm_via": null, "rs_m2_fundo": 20.39, "rs_m2_via": null, "upfm_2026": 30.9, "via_excecao": null, "confianca": "media", "evidencia": "Polígono isolado a noroeste, sem malha viária. Rótulos CAD 'Alameda São Judas Tadeu' são MTEXT (\\pxqc;) — possível cartela, não o bairro 35.", "fonte": "Tabela I — LC 77/2019 e Decreto 001/2026; rótulos do MAPA TRIBUTAÇÃO"}, "geometry": {"type": "Polygon", "coordinates": [[[-54.9938076902354, -10.2510798466415], [-55.0048877572009, -10.2641935844402], [-55.005231386681, -10.2639317610872], [-55.0027879207846, -10.2610998254537], [-54.9944106213012, -10.2509879030635], [-54.9901145330811, -10.2455549114509], [-54.9899552954862, -10.2452906820352], [-54.9834738004149, -10.2373987968377], [-54.9829330925375, -10.2378642605766], [-54.9813407165886, -10.2393875169102], [-54.9873321162993, -10.2462591414717], [-54.9885691549392, -10.2463329850342], [-54.9894390801445, -10.2458925305042], [-54.9938076902354, -10.2510798466415]]]}}, {"type": "Feature", "properties": {"id": 3, "bairro": "Centro Novo / Alvorada / Bela Vista", "setores": ["03", "04", "05", "10", "11", "12", "26"], "setores_txt": "03, 04, 05, 10, 11, 12, 26", "zona_fundo": "03", "zona_via": "01", "upfm_fundo": 2.1, "upfm_via": 3.19, "rs_m2_fundo": 64.89, "rs_m2_via": 98.57, "upfm_2026": 30.9, "via_excecao": "Av. Brasil entre BR-163 e Rua Getúlio Vargas → Z01; Bela Vista 03-05 fundo Z05; Padre Cícero (26) fundo Z06", "confianca": "alta", "evidencia": "Rua Getúlio Vargas, SETOR INDUSTRIAL 1, Quarteirão A/B/Central Oeste, Vila Olímpica, ruas de presidentes.", "fonte": "Tabela I — LC 77/2019 e Decreto 001/2026; rótulos do MAPA TRIBUTAÇÃO"}, "geometry": {"type": "Polygon", "coordinates": [[[-55.0084755827814, -10.2379226630986], [-55.0072852581845, -10.2378536122933], [-55.0072391890607, -10.2373299301696], [-55.0059566614372, -10.2373255240544], [-55.0054776097049, -10.236965458386], [-55.005456484141, -10.2361598100117], [-55.0051127608002, -10.2361585561222], [-55.0050166824497, -10.2339608654805], [-55.0046593999905, -10.2332463703246], [-55.0035464439165, -10.2328787401123], [-55.0023741275418, -10.2323068182164], [-55.0019405492974, -10.2314912570534], [-55.0017970604757, -10.2313267698675], [-55.001625573835, -10.2311657824089], [-55.0012785873808, -10.2309805582569], [-55.0011763829795, -10.2303374275435], [-55.0011740949717, -10.2302391685179], [-54.9994124782997, -10.2303612654977], [-54.9993375937335, -10.2379504464459], [-54.9997085975922, -10.2435214793267], [-55.0079184435918, -10.2432996835253], [-55.0078511020865, -10.2414087765553], [-55.0085488467365, -10.2413192546288], [-55.0084755827814, -10.2379226630986]]]}}, {"type": "Feature", "properties": {"id": 4, "bairro": "Setor Industrial (Centro Novo e Bela Vista Setor II)", "setores": ["02", "13", "14"], "setores_txt": "02, 13, 14", "zona_fundo": "01", "zona_via": null, "upfm_fundo": 3.19, "upfm_via": null, "rs_m2_fundo": 98.57, "rs_m2_via": null, "upfm_2026": 30.9, "via_excecao": "BR-163 / Av. Industrial, quadras 01–08 (setores 13 e 14) e quadras 01–02 do Setor II Bela Vista (setor 02)", "confianca": "alta", "evidencia": "AV: INDUSTRIAL (10 rótulos), ruas B1–B7 (Palmas, Goiânia, Anápolis…), Getúlio Vargas.", "fonte": "Tabela I — LC 77/2019 e Decreto 001/2026; rótulos do MAPA TRIBUTAÇÃO"}, "geometry": {"type": "Polygon", "coordinates": [[[-55.0084755827814, -10.2379226630986], [-55.0096136233095, -10.2379943266196], [-55.00956419853, -10.2362989209003], [-55.0065122868949, -10.2293789528585], [-55.0048624144452, -10.2294533010828], [-55.0027415819177, -10.2304141286389], [-55.0011733231837, -10.2301754008569], [-55.0012785873808, -10.2309805582569], [-55.001625573835, -10.2311657824089], [-55.0017970604757, -10.2313267698675], [-55.0019405492974, -10.2314912570534], [-55.0023741275418, -10.2323068182164], [-55.0035464439165, -10.2328787401123], [-55.0046593999905, -10.2332463703246], [-55.0050166824497, -10.2339608654805], [-55.0051127608002, -10.2361585561222], [-55.005456484141, -10.2361598100117], [-55.0054776097049, -10.236965458386], [-55.0059566614372, -10.2373255240544], [-55.0072391890607, -10.2373299301696], [-55.0072852581845, -10.2378536122933], [-55.0084755827814, -10.2379226630986]]]}}, {"type": "Feature", "properties": {"id": 5, "bairro": "Nova Esperança", "setores": ["08"], "setores_txt": "08", "zona_fundo": "06", "zona_via": "02", "upfm_fundo": 0.94, "upfm_via": 2.28, "rs_m2_fundo": 29.05, "rs_m2_via": 70.45, "upfm_2026": 30.9, "via_excecao": "BR-163 no bairro Nova Esperança → Z02", "confianca": "media", "evidencia": "BR-163, Av. Rotary Internacional, ruas com nomes de cidades de MT (Dourados, Rondonópolis, Cáceres, Tangará).", "fonte": "Tabela I — LC 77/2019 e Decreto 001/2026; rótulos do MAPA TRIBUTAÇÃO"}, "geometry": {"type": "Polygon", "coordinates": [[[-54.9979001140599, -10.2388564332833], [-54.9914080943249, -10.2312795467186], [-54.9834738004149, -10.2373987968377], [-54.9899552954862, -10.2452906820352], [-54.9963989497553, -10.2402062343796], [-54.9979001140599, -10.2388564332833]]]}}, {"type": "Feature", "properties": {"id": 6, "bairro": "Periferia sul (Beira Rio, Acrivale, Distrito Industrial, São Judas, chácaras)", "setores": ["29", "30", "31", "32", "35"], "setores_txt": "29, 30, 31, 32, 35", "zona_fundo": "10", "zona_via": "02", "upfm_fundo": 0.52, "upfm_via": 2.28, "rs_m2_fundo": 16.07, "rs_m2_via": 70.45, "upfm_2026": 30.9, "via_excecao": "BR-163 entre Santa Izabel/Acrivale e Beira Rio → Z02; Distrito Industrial posto/armazéns Z06, quadras 07–08 Z10", "confianca": "media", "evidencia": "Estrada das Chácaras, Reserva Técnica — Expansão Urbana. Maior polígono (297 ha); agrupa setores 29–32 e 35 até subdivisão.", "fonte": "Tabela I — LC 77/2019 e Decreto 001/2026; rótulos do MAPA TRIBUTAÇÃO"}, "geometry": {"type": "Polygon", "coordinates": [[[-54.9914080943249, -10.2312795467186], [-54.9964967455533, -10.2270455617202], [-54.9974435107238, -10.228200325773], [-54.9969523537281, -10.2286228973268], [-54.9994122287392, -10.2313029493239], [-54.9993375937335, -10.2379504464459], [-54.9988170426283, -10.2381057417645], [-54.9979001140599, -10.2388564332833], [-54.9914080943249, -10.2312795467186]]]}}, {"type": "Feature", "properties": {"id": 7, "bairro": "Jerusalém (loteamento Felicidade I no CAD)", "setores": ["19", "20"], "setores_txt": "19, 20", "zona_fundo": "08", "zona_via": null, "upfm_fundo": 0.66, "upfm_via": null, "rs_m2_fundo": 20.39, "rs_m2_via": null, "upfm_2026": 30.9, "via_excecao": null, "confianca": "media", "evidencia": "Rótulo CAD FELICIDADE I; sem faixa de BR; leste da sede. LC 77: Jerusalém em toda a extensão = setores 19 e 20.", "fonte": "Tabela I — LC 77/2019 e Decreto 001/2026; rótulos do MAPA TRIBUTAÇÃO"}, "geometry": {"type": "Polygon", "coordinates": [[[-54.9829330925375, -10.2378642605766], [-54.978848910708, -10.2326575411962], [-54.9728477532169, -10.2242651949861], [-54.9711608846292, -10.225497099017], [-54.9770366454209, -10.2340427966198], [-54.9728967494, -10.2372561829477], [-54.9773046560103, -10.2427227570846], [-54.9813407165886, -10.2393875169102], [-54.9829330925375, -10.2378642605766]]]}}, {"type": "Feature", "properties": {"id": 8, "bairro": "Santa Izabel", "setores": ["06", "07"], "setores_txt": "06, 07", "zona_fundo": "06", "zona_via": "02", "upfm_fundo": 0.94, "upfm_via": 2.28, "rs_m2_fundo": 29.05, "rs_m2_via": 70.45, "upfm_2026": 30.9, "via_excecao": "BR-163 em Santa Izabel → Z02", "confianca": "alta", "evidencia": "Rua Santa Izabel / Rua Nobres (8+ rótulos), malha densa de lotes.", "fonte": "Tabela I — LC 77/2019 e Decreto 001/2026; rótulos do MAPA TRIBUTAÇÃO"}, "geometry": {"type": "Polygon", "coordinates": [[[-54.9813407165886, -10.2393875169102], [-54.9773046560103, -10.2427227570846], [-54.9753273100518, -10.2442748861689], [-54.9785015627677, -10.2481902061533], [-54.9800697489499, -10.2500210872984], [-54.9835656682581, -10.2495874723019], [-54.9839856355414, -10.2487102073102], [-54.9842749463365, -10.2479635988067], [-54.9849935570211, -10.2474223076416], [-54.9857716630709, -10.2467666920494], [-54.9873321162993, -10.2462591414717], [-54.9813407165886, -10.2393875169102]]]}}, {"type": "Feature", "properties": {"id": 9, "bairro": "Aeroporto", "setores": ["01"], "setores_txt": "01", "zona_fundo": "07", "zona_via": "01", "upfm_fundo": 0.74, "upfm_via": 3.19, "rs_m2_fundo": 22.87, "rs_m2_via": 98.57, "upfm_2026": 30.9, "via_excecao": "BR-163 / Av. Brasil entre Av. Brasil e Córrego das Lavadeiras → Z01", "confianca": "alta", "evidencia": "Avenida Marginal (BR-163), ruas com nomes de capitais (Natal, Salvador, Belém, Brasília…).", "fonte": "Tabela I — LC 77/2019 e Decreto 001/2026; rótulos do MAPA TRIBUTAÇÃO"}, "geometry": {"type": "Polygon", "coordinates": [[[-54.9897081002602, -10.2536102432787], [-54.9938076902354, -10.2510798466415], [-54.9894390801445, -10.2458925305042], [-54.9885691549392, -10.2463329850342], [-54.9873321162993, -10.2462591414717], [-54.9857716630709, -10.2467666920494], [-54.9849935570211, -10.2474223076416], [-54.9842749463365, -10.2479635988067], [-54.9839856355414, -10.2487102073102], [-54.9835656682581, -10.2495874723019], [-54.983117703156, -10.249811454853], [-54.9818484687, -10.251080689309], [-54.9815568247533, -10.2517246391433], [-54.9822427713159, -10.2521212749108], [-54.9824620875638, -10.2527885562608], [-54.983166699339, -10.2529005475364], [-54.9836473285632, -10.2525692400129], [-54.9846645826493, -10.2524852465562], [-54.989702727596, -10.253604316534], [-54.9897081002602, -10.2536102432787]]]}}, {"type": "Feature", "properties": {"id": 10, "bairro": "Centro Antigo e Feirinha", "setores": ["09", "34"], "setores_txt": "09, 34", "zona_fundo": "04", "zona_via": "01", "upfm_fundo": 1.27, "upfm_via": 3.19, "rs_m2_fundo": 39.24, "rs_m2_via": 98.57, "upfm_2026": 30.9, "via_excecao": "BR-163 e Av. Brasil (Centro Antigo e Feirinha, Travessa dos Garimpeiros–Lavadeiras) → Z01", "confianca": "alta", "evidencia": "Travessa dos Garimpeiros, Rua Ministro César Cals (sede da prefeitura), Rua do Comércio, Av. Brasil.", "fonte": "Tabela I — LC 77/2019 e Decreto 001/2026; rótulos do MAPA TRIBUTAÇÃO"}, "geometry": {"type": "Polygon", "coordinates": [[[-55.0086394649312, -10.2558572338679], [-55.0027303885931, -10.2504002936634], [-54.9998341508925, -10.2481333355836], [-54.998237345044, -10.2493996168829], [-54.9977195058507, -10.2487824713149], [-54.9969328035043, -10.2494730210835], [-54.9962467305719, -10.2487704898605], [-54.9944106213012, -10.2509879030635], [-54.9999626128788, -10.2577369966097], [-55.0027879207846, -10.2610998254537], [-55.0086394649312, -10.2558572338679]]]}}, {"type": "Feature", "properties": {"id": 11, "bairro": "Centro Novo — faixa da Av. Brasil (setor 10)", "setores": ["10"], "setores_txt": "10", "zona_fundo": "01", "zona_via": null, "upfm_fundo": 3.19, "upfm_via": null, "rs_m2_fundo": 98.57, "rs_m2_via": null, "upfm_2026": 30.9, "via_excecao": "Av. Brasil entre BR-163 e Rua Getúlio Vargas", "confianca": "media", "evidencia": "Av. Brasil / Maranhão, Ministro Cezar Cals, Rua do Comércio; bolsão entre Liberdade, Centro Novo e Feirinha.", "fonte": "Tabela I — LC 77/2019 e Decreto 001/2026; rótulos do MAPA TRIBUTAÇÃO"}, "geometry": {"type": "Polygon", "coordinates": [[[-54.9944106213012, -10.2509879030635], [-54.9962163732994, -10.2488086461682], [-54.9991408917585, -10.2442675246946], [-54.9980956613262, -10.2425285222161], [-54.9963989497553, -10.2402062343796], [-54.9899552954862, -10.2452906820352], [-54.9901145330811, -10.2455549114509], [-54.9944106213012, -10.2509879030635]]]}}, {"type": "Feature", "properties": {"id": 12, "bairro": "Jerusalém — fragmento leste", "setores": ["19"], "setores_txt": "19", "zona_fundo": "08", "zona_via": null, "upfm_fundo": 0.66, "upfm_via": null, "rs_m2_fundo": 20.39, "rs_m2_via": null, "upfm_2026": 30.9, "via_excecao": null, "confianca": "baixa", "evidencia": "Apenas Rua L3 no CAD; 8 ha vizinho do polígono 7 (Felicidade I / Jerusalém).", "fonte": "Tabela I — LC 77/2019 e Decreto 001/2026; rótulos do MAPA TRIBUTAÇÃO"}, "geometry": {"type": "Polygon", "coordinates": [[[-54.9991408917585, -10.2442675246946], [-54.9997085975922, -10.2435214793267], [-54.9993375937335, -10.2379504464459], [-54.9988170426283, -10.2381057417645], [-54.9979001140599, -10.2388564332833], [-54.9963989497553, -10.2402062343796], [-54.9980956613262, -10.2425285222161], [-54.9991408917585, -10.2442675246946]]]}}, {"type": "Feature", "properties": {"id": 13, "bairro": "Faixa da BR-163", "setores": ["01", "06", "07", "08", "29", "31"], "setores_txt": "01, 06, 07, 08, 29, 31", "zona_fundo": "02", "zona_via": "01", "upfm_fundo": 2.28, "upfm_via": 3.19, "rs_m2_fundo": 70.45, "rs_m2_via": 98.57, "upfm_2026": 30.9, "via_excecao": "Trechos de BR-163 da sede: Z01 (Aeroporto/Centro) e Z02 (Santa Izabel, Nova Esperança, Acrivale, Beira Rio)", "confianca": "alta", "evidencia": "18 rótulos BR 163 / BR-163; Lions e Rotary. Corredor que a Tabela I trata como exceção de via.", "fonte": "Tabela I — LC 77/2019 e Decreto 001/2026; rótulos do MAPA TRIBUTAÇÃO"}, "geometry": {"type": "Polygon", "coordinates": [[[-54.9753273100518, -10.2442748861689], [-54.9743119178792, -10.2452156680524], [-54.9775294258366, -10.249007705161], [-54.9785015627677, -10.2481902061533], [-54.9753273100518, -10.2442748861689]]]}}]}