{
"type": "FeatureCollection",
"name": "setores100926",
"crs": { "type": "name", "properties": { "name": "urn:ogc:def:crs:OGC:1.3:CRS84" } },
"features": [
{ "type": "Feature", "properties": { "fid": 11.0, "Layer": "ZONA 10", "PaperSpace": null, "SubClasses": "AcDbEntity:AcDbPolyline", "Linetype": null, "EntityHand": "2E0", "Text": null, "ogr_style": "PEN(c:#000000)", "font": null, "angle": null, "size": null, "size_u": null, "anchor": null, "color": "#000000", "underline": null, "plaintext": null, "fcolor": null, "flnum": null, "bold": null, "italic": null, "dx": null, "dx_u": null, "dy": null, "dy_u": null, "path": "//192.168.1.253/pgv/344 - PEIXOTO DE AZEVEDO MT/05 - PGV/shapes setores/ZONA 10.shp" }, "geometry": { "type": "MultiPolygon", "coordinates": [ [ [ [ -55.005472805494676, -10.233977566151493 ], [ -55.008483433567534, -10.237925493955011 ], [ -55.009566627279263, -10.237926035263744 ], [ -55.009543909366052, -10.236340897472566 ], [ -55.009488878068858, -10.236198717580315 ], [ -55.008279217187905, -10.233373952761566 ], [ -55.00644909337624, -10.229390728859242 ], [ -55.00515221730835, -10.229468873254618 ], [ -55.004802105091528, -10.229504265205788 ], [ -55.002965649241034, -10.23025310860281 ], [ -55.001710352093113, -10.230191355374201 ], [ -55.005472805494676, -10.233977566151493 ] ] ] ] } },
{ "type": "Feature", "properties": { "fid": 8.0, "Layer": "ZONA 09", "PaperSpace": null, "SubClasses": "AcDbEntity:AcDbPolyline", "Linetype": null, "EntityHand": "2DD", "Text": null, "ogr_style": "PEN(c:#000000)", "font": null, "angle": null, "size": null, "size_u": null, "anchor": null, "color": "#000000", "underline": null, "plaintext": null, "fcolor": null, "flnum": null, "bold": null, "italic": null, "dx": null, "dx_u": null, "dy": null, "dy_u": null, "path": "//192.168.1.253/pgv/344 - PEIXOTO DE AZEVEDO MT/05 - PGV/shapes setores/ZONA 09.shp" }, "geometry": { "type": "MultiPolygon", "coordinates": [ [ [ [ -54.987343978015865, -10.246425720498751 ], [ -54.986008756038473, -10.246630188082072 ], [ -54.985576569150105, -10.246782730483584 ], [ -54.984725491564795, -10.247466452578804 ], [ -54.984489381621579, -10.24800413981886 ], [ -54.984574638705176, -10.248249598940729 ], [ -54.984651590967097, -10.248472697908047 ], [ -54.984422087639828, -10.248617846492763 ], [ -54.984465666797128, -10.248748660952375 ], [ -54.984628863588888, -10.248896172691977 ], [ -54.984613208801477, -10.249156330147553 ], [ -54.984701506361638, -10.249737367481789 ], [ -54.984047314643455, -10.249897371230851 ], [ -54.984165082993187, -10.250121653042884 ], [ -54.983932964979125, -10.250442424663825 ], [ -54.983571760660709, -10.250869631339494 ], [ -54.984149203176415, -10.251491856323449 ], [ -54.984718159453848, -10.252104045258452 ], [ -54.985132755508303, -10.252254440676335 ], [ -54.986215424589197, -10.252645871882487 ], [ -54.986264551809576, -10.252663739037724 ], [ -54.987012276975506, -10.25202867528081 ], [ -54.987132263799026, -10.251995086393073 ], [ -54.987632556889892, -10.252442437952274 ], [ -54.988270754036556, -10.252013852468385 ], [ -54.988764128765212, -10.252993704356523 ], [ -54.988892788022511, -10.253005179935554 ], [ -54.989160919053369, -10.253377667930849 ], [ -54.989592010860093, -10.253460157926991 ], [ -54.990813196411466, -10.252820338338363 ], [ -54.991303187008874, -10.252563918081162 ], [ -54.991634206977729, -10.252390490209754 ], [ -54.991647654581591, -10.252370576852041 ], [ -54.992057428084202, -10.252120757395975 ], [ -54.992436090848869, -10.25188605400262 ], [ -54.992832251790816, -10.251641591840894 ], [ -54.993794025423618, -10.2510020890959 ], [ -54.993770495414381, -10.250973430077064 ], [ -54.993666168669051, -10.25084799415939 ], [ -54.99347690209084, -10.250620551645365 ], [ -54.993183365277929, -10.250894817586834 ], [ -54.993195709687683, -10.250912319415386 ], [ -54.993157434218737, -10.250939684135284 ], [ -54.992788306722623, -10.250429000581105 ], [ -54.992869102112934, -10.250372942840476 ], [ -54.992759836657491, -10.250217642620042 ], [ -54.992572247080119, -10.250222778112782 ], [ -54.992416781805495, -10.249971603279519 ], [ -54.992394018440862, -10.249978966412426 ], [ -54.992352892516159, -10.250005469291926 ], [ -54.992280265339659, -10.250053318038519 ], [ -54.992240037142793, -10.250079612087543 ], [ -54.992106761214899, -10.249864940617238 ], [ -54.992341177148859, -10.249635309043279 ], [ -54.9923171637015, -10.2495967629495 ], [ -54.992244532719404, -10.249503818933778 ], [ -54.992215296855406, -10.249525962971626 ], [ -54.992140627763142, -10.249429909934909 ], [ -54.99193003031322, -10.249497651524351 ], [ -54.991856116014375, -10.249399927285848 ], [ -54.991921038673453, -10.249349873551331 ], [ -54.99184474015513, -10.249252496881947 ], [ -54.99161750112544, -10.249310458965159 ], [ -54.991495918807715, -10.249134459544713 ], [ -54.991535939057414, -10.249107266403083 ], [ -54.991506739223496, -10.249067456330785 ], [ -54.991346970659301, -10.248850473202056 ], [ -54.991312425545949, -10.248746726077448 ], [ -54.991151621338616, -10.248578218215902 ], [ -54.991215344558178, -10.248519611262141 ], [ -54.991087746825485, -10.248347965821525 ], [ -54.991149410226718, -10.248295265038161 ], [ -54.991069177697518, -10.248187320974299 ], [ -54.990961146366971, -10.248096710735361 ], [ -54.990689853739184, -10.248133400303892 ], [ -54.99065437319971, -10.248030222782823 ], [ -54.990561436501764, -10.247749992895789 ], [ -54.990364953287674, -10.247794104235103 ], [ -54.990345879564899, -10.247726491599231 ], [ -54.9902437213021, -10.247371181268052 ], [ -54.990074126170384, -10.247400993317752 ], [ -54.990055369381189, -10.247366350604922 ], [ -54.989908838395216, -10.24715503048021 ], [ -54.989760035123226, -10.247256765418419 ], [ -54.989669980798979, -10.247050411278027 ], [ -54.989549788294674, -10.247116390151904 ], [ -54.989316674116594, -10.247238228397975 ], [ -54.989253417960569, -10.247157258213782 ], [ -54.989537769301251, -10.246995246088881 ], [ -54.989454617671697, -10.246837274381873 ], [ -54.9895595575111, -10.246792315653419 ], [ -54.98941357270985, -10.246572613474786 ], [ -54.989345182267094, -10.246613308766104 ], [ -54.989290446434431, -10.246532302940036 ], [ -54.988902554407865, -10.246742901423787 ], [ -54.988870766592989, -10.246702546049692 ], [ -54.988772987740234, -10.246579206471315 ], [ -54.988576754937824, -10.246324607155461 ], [ -54.988472109325464, -10.246211645187527 ], [ -54.987343978015865, -10.246425720498751 ] ] ] ] } },
{ "type": "Feature", "properties": { "fid": 1.0, "Layer": "ZONA 08", "PaperSpace": null, "SubClasses": "AcDbEntity:AcDbPolyline", "Linetype": null, "EntityHand": "2D6", "Text": null, "ogr_style": "PEN(c:#000000)", "font": null, "angle": null, "size": null, "size_u": null, "anchor": null, "color": "#000000", "underline": null, "plaintext": null, "fcolor": null, "flnum": null, "bold": null, "italic": null, "dx": null, "dx_u": null, "dy": null, "dy_u": null, "path": "//192.168.1.253/pgv/344 - PEIXOTO DE AZEVEDO MT/05 - PGV/shapes setores/ZONA 08.shp" }, "geometry": { "type": "MultiPolygon", "coordinates": [ [ [ [ -54.991453213623828, -10.231181845414744 ], [ -54.9935887234654, -10.233693548786299 ], [ -54.995069647941854, -10.235460840054809 ], [ -54.999360196607206, -10.231904847443088 ], [ -54.999358931898499, -10.231522802466896 ], [ -54.99920885083953, -10.231218908182436 ], [ -54.998963093049895, -10.230888995350288 ], [ -54.998671302583567, -10.23057878276874 ], [ -54.997049660108644, -10.228647814392504 ], [ -54.997482024145533, -10.228258996199484 ], [ -54.996492794989734, -10.227099956632355 ], [ -54.994237454293192, -10.228924206606655 ], [ -54.991453213623828, -10.231181845414744 ] ] ] ] } },
{ "type": "Feature", "properties": { "fid": 10.0, "Layer": "ZONA 07", "PaperSpace": null, "SubClasses": "AcDbEntity:AcDbPolyline", "Linetype": null, "EntityHand": "2DF", "Text": null, "ogr_style": "PEN(c:#000000)", "font": null, "angle": null, "size": null, "size_u": null, "anchor": null, "color": "#000000", "underline": null, "plaintext": null, "fcolor": null, "flnum": null, "bold": null, "italic": null, "dx": null, "dx_u": null, "dy": null, "dy_u": null, "path": "//192.168.1.253/pgv/344 - PEIXOTO DE AZEVEDO MT/05 - PGV/shapes setores/ZONA 07.shp" }, "geometry": { "type": "MultiPolygon", "coordinates": [ [ [ [ -55.008483433567534, -10.237925493955011 ], [ -55.005472805494676, -10.233977566151493 ], [ -55.001710352093113, -10.230191355374201 ], [ -55.001145684437994, -10.230202366645274 ], [ -54.999346676278414, -10.230318953064982 ], [ -54.998671302583567, -10.23057878276874 ], [ -54.998963093049895, -10.230888995350288 ], [ -54.99920885083953, -10.231218908182436 ], [ -54.999358931898499, -10.231522802466896 ], [ -54.999358380483798, -10.231906352672347 ], [ -54.995069647941854, -10.235460840054809 ], [ -54.997621583660049, -10.238579450042961 ], [ -54.997676885996363, -10.238644878151741 ], [ -54.997770017086324, -10.238581449949146 ], [ -54.998131265465375, -10.23829610516546 ], [ -54.998219321122768, -10.238195960577226 ], [ -54.998496119200865, -10.237776755993821 ], [ -54.998736472223335, -10.237892091557072 ], [ -54.998922462818342, -10.237783102613937 ], [ -54.998940279611595, -10.23781969806614 ], [ -54.998941396289133, -10.237970532265738 ], [ -54.999054618693229, -10.237957657315123 ], [ -54.999053138767458, -10.237737101435112 ], [ -54.99914992320182, -10.237736241410978 ], [ -54.999281419353707, -10.237735072893068 ], [ -54.999520786527583, -10.237723663726332 ], [ -54.999707324858377, -10.237722728122945 ], [ -55.00107358589252, -10.237715872224628 ], [ -55.001076199873928, -10.237926037320817 ], [ -55.001168214514031, -10.237924695552673 ], [ -55.001181697257735, -10.237910794575781 ], [ -55.001304918071241, -10.237706512321761 ], [ -55.002958668731338, -10.237689835214335 ], [ -55.003091932588063, -10.23768729080167 ], [ -55.004779281225836, -10.237671043616722 ], [ -55.004907463189902, -10.237676507674193 ], [ -55.005382696945304, -10.237679079375276 ], [ -55.005494047189721, -10.237665609556077 ], [ -55.005969286310361, -10.237637124637008 ], [ -55.006094527932731, -10.237646861364274 ], [ -55.006326434430136, -10.237660055091299 ], [ -55.006555508672456, -10.237630568303173 ], [ -55.006666521703046, -10.23765918462537 ], [ -55.007024349787976, -10.237647019411032 ], [ -55.007150486573487, -10.237642730997106 ], [ -55.007276105253858, -10.237601892952325 ], [ -55.007475301920657, -10.237583881750082 ], [ -55.007490021424289, -10.23759577772833 ], [ -55.007516676220604, -10.237826887949858 ], [ -55.007523144432817, -10.237943681225335 ], [ -55.008483433567534, -10.237925493955011 ] ] ] ] } },
{ "type": "Feature", "properties": { "fid": 12.0, "Layer": "ZONA 07", "PaperSpace": null, "SubClasses": "AcDbEntity:AcDbPolyline", "Linetype": null, "EntityHand": "2E1", "Text": null, "ogr_style": "PEN(c:#000000)", "font": null, "angle": null, "size": null, "size_u": null, "anchor": null, "color": "#000000", "underline": null, "plaintext": null, "fcolor": null, "flnum": null, "bold": null, "italic": null, "dx": null, "dx_u": null, "dy": null, "dy_u": null, "path": "//192.168.1.253/pgv/344 - PEIXOTO DE AZEVEDO MT/05 - PGV/shapes setores/ZONA 07.shp" }, "geometry": { "type": "MultiPolygon", "coordinates": [ [ [ [ -55.00849516019391, -10.238465183094094 ], [ -55.007761019951261, -10.238565463464512 ], [ -55.007639281245012, -10.238575075254531 ], [ -55.007580682478611, -10.238246364996456 ], [ -55.007277361687933, -10.238243528693671 ], [ -55.007163261959825, -10.23824767233811 ], [ -55.006689166173437, -10.23825381189196 ], [ -55.006561703406881, -10.238259720045169 ], [ -55.006325706196641, -10.238264157946553 ], [ -55.006211613889249, -10.238266303378062 ], [ -55.006209080761941, -10.238070716356592 ], [ -55.006105305652767, -10.238068692367593 ], [ -55.005951426569801, -10.238064547710636 ], [ -55.005849161997176, -10.238066109810433 ], [ -55.005852682132222, -10.238269616116449 ], [ -55.005507257075358, -10.238271971541989 ], [ -55.005373612053461, -10.238271498729906 ], [ -55.004921320436274, -10.238275834172869 ], [ -55.004778051557871, -10.238280515086474 ], [ -55.004319753442502, -10.238282685366181 ], [ -55.004186999075756, -10.238284833365679 ], [ -55.003733535680425, -10.238298368600468 ], [ -55.003602266970162, -10.23829285043656 ], [ -55.003136503627921, -10.238316956187171 ], [ -55.002962628179489, -10.238319890274909 ], [ -55.002492627908609, -10.238328243337245 ], [ -55.002365688904376, -10.238329594265245 ], [ -55.00190128216034, -10.238333131418834 ], [ -55.001775164342256, -10.238335291102649 ], [ -55.001323309229448, -10.238340444886976 ], [ -55.001176884537152, -10.238341622313564 ], [ -55.000715559621078, -10.23833878742577 ], [ -55.000592157764764, -10.238351341712754 ], [ -55.000355219277836, -10.238350057411271 ], [ -55.000052799307049, -10.238348370726948 ], [ -55.000050232338026, -10.238137685313365 ], [ -54.99989699294364, -10.238139032506123 ], [ -54.999901584764132, -10.238354101537892 ], [ -54.99940565224891, -10.238365708388498 ], [ -54.999460374103329, -10.243525773373884 ], [ -55.007926043705169, -10.243291304725179 ], [ -55.00785870180858, -10.241400397434059 ], [ -55.008485633169272, -10.241388232316341 ], [ -55.00855644687821, -10.24131087564907 ], [ -55.00849516019391, -10.238465183094094 ] ] ] ] } },
{ "type": "Feature", "properties": { "fid": 4.0, "Layer": "ZONA 06", "PaperSpace": null, "SubClasses": "AcDbEntity:AcDbPolyline", "Linetype": null, "EntityHand": "2D9", "Text": null, "ogr_style": "PEN(c:#000000)", "font": null, "angle": null, "size": null, "size_u": null, "anchor": null, "color": "#000000", "underline": null, "plaintext": null, "fcolor": null, "flnum": null, "bold": null, "italic": null, "dx": null, "dx_u": null, "dy": null, "dy_u": null, "path": "//192.168.1.253/pgv/344 - PEIXOTO DE AZEVEDO MT/05 - PGV/shapes setores/ZONA 06.shp" }, "geometry": { "type": "MultiPolygon", "coordinates": [ [ [ [ -55.001972449598142, -10.257730376715216 ], [ -55.006651964181685, -10.253883009405641 ], [ -55.004790194019343, -10.252303830474492 ], [ -55.004823677871393, -10.252260496786157 ], [ -55.003710348067955, -10.251299443842619 ], [ -55.002737564133774, -10.250459706455525 ], [ -55.001807434819284, -10.251175914547364 ], [ -54.999499159554162, -10.248478550710985 ], [ -54.998337067910747, -10.2494052726069 ], [ -54.99831338921831, -10.249391660021065 ], [ -54.997795550299195, -10.248774514265289 ], [ -54.996940490797016, -10.24946457286757 ], [ -54.99684306845905, -10.249461248148942 ], [ -54.996244017777947, -10.248642219582306 ], [ -54.995891016335293, -10.249086676016455 ], [ -54.995096501275896, -10.250798976506958 ], [ -54.996493910226889, -10.252504453719494 ], [ -54.998081739298158, -10.254403288890645 ], [ -55.000048486625268, -10.256733127561885 ], [ -55.000048526809898, -10.256831816188031 ], [ -55.000342197087768, -10.257190801524072 ], [ -55.000382786831288, -10.257238686459543 ], [ -55.001087228855191, -10.256644558375948 ], [ -55.001136103299494, -10.256699758414209 ], [ -55.001972449598142, -10.257730376715216 ] ] ] ] } },
{ "type": "Feature", "properties": { "fid": 6.0, "Layer": "ZONA 06", "PaperSpace": null, "SubClasses": "AcDbEntity:AcDbPolyline", "Linetype": null, "EntityHand": "2DB", "Text": null, "ogr_style": "PEN(c:#000000)", "font": null, "angle": null, "size": null, "size_u": null, "anchor": null, "color": "#000000", "underline": null, "plaintext": null, "fcolor": null, "flnum": null, "bold": null, "italic": null, "dx": null, "dx_u": null, "dy": null, "dy_u": null, "path": "//192.168.1.253/pgv/344 - PEIXOTO DE AZEVEDO MT/05 - PGV/shapes setores/ZONA 06.shp" }, "geometry": { "type": "MultiPolygon", "coordinates": [ [ [ [ -54.982344860893598, -10.238576317051812 ], [ -54.981860845275499, -10.238005637848905 ], [ -54.981073644682326, -10.237065538104005 ], [ -54.980305995495073, -10.236127232780053 ], [ -54.978777652777531, -10.234245676083045 ], [ -54.977994491580816, -10.233314888076682 ], [ -54.978170831981579, -10.233172895419752 ], [ -54.977303837440736, -10.232087449083613 ], [ -54.976604414426774, -10.231086152707707 ], [ -54.976964327148089, -10.230730589653298 ], [ -54.975615669242273, -10.228785553999145 ], [ -54.974039263445235, -10.229848726185432 ], [ -54.97548289569913, -10.231828820011428 ], [ -54.976235579504291, -10.232862147650062 ], [ -54.976710476210087, -10.233496819618678 ], [ -54.977120561409606, -10.234024322115557 ], [ -54.976083775996457, -10.2348605892601 ], [ -54.974987377311344, -10.235741922962632 ], [ -54.975230343261515, -10.236102966996446 ], [ -54.97481144087719, -10.236484539529631 ], [ -54.974775943453309, -10.236516259382931 ], [ -54.975243662794007, -10.237085745053571 ], [ -54.975264555313672, -10.237166853772239 ], [ -54.975995347504679, -10.238065797870744 ], [ -54.976786172355496, -10.239000833356183 ], [ -54.977307477323251, -10.238594779332681 ], [ -54.978052370836593, -10.239494457646282 ], [ -54.978828300847113, -10.240547099101608 ], [ -54.979361877866232, -10.240945988093168 ], [ -54.979443807337148, -10.240998979224278 ], [ -54.982344860893598, -10.238576317051812 ] ] ] ] } },
{ "type": "Feature", "properties": { "fid": 9.0, "Layer": "ZONA 06", "PaperSpace": null, "SubClasses": "AcDbEntity:AcDbPolyline", "Linetype": null, "EntityHand": "2DE", "Text": null, "ogr_style": "PEN(c:#000000)", "font": null, "angle": null, "size": null, "size_u": null, "anchor": null, "color": "#000000", "underline": null, "plaintext": null, "fcolor": null, "flnum": null, "bold": null, "italic": null, "dx": null, "dx_u": null, "dy": null, "dy_u": null, "path": "//192.168.1.253/pgv/344 - PEIXOTO DE AZEVEDO MT/05 - PGV/shapes setores/ZONA 06.shp" }, "geometry": { "type": "MultiPolygon", "coordinates": [ [ [ [ -54.983571760660709, -10.250869631339494 ], [ -54.983932964979125, -10.250442424663825 ], [ -54.984165082993187, -10.250121653042884 ], [ -54.984047314643455, -10.249897371230851 ], [ -54.984701506361638, -10.249737367481789 ], [ -54.984613208801477, -10.249156330147553 ], [ -54.984629052269554, -10.248895754909501 ], [ -54.984465666797128, -10.248748660952375 ], [ -54.984422087639828, -10.248617846492763 ], [ -54.984651590967097, -10.248472697908047 ], [ -54.984489381621579, -10.24800413981886 ], [ -54.984725491564795, -10.247466452578804 ], [ -54.982981764455083, -10.245416043674151 ], [ -54.981569132237254, -10.246576709707309 ], [ -54.980825347446391, -10.245690286859892 ], [ -54.978079237964828, -10.24798124494591 ], [ -54.977198526085338, -10.246943282008056 ], [ -54.976374487827471, -10.247629213325293 ], [ -54.977537026487639, -10.248999326814333 ], [ -54.978361066937346, -10.248313392800412 ], [ -54.980472619801048, -10.250504096430651 ], [ -54.981940151498527, -10.252247708906378 ], [ -54.983571760660709, -10.250869631339494 ] ] ] ] } },
{ "type": "Feature", "properties": { "fid": 15.0, "Layer": "ZONA 06", "PaperSpace": null, "SubClasses": "AcDbEntity:AcDbPolyline", "Linetype": null, "EntityHand": "2E4", "Text": null, "ogr_style": "PEN(c:#000000)", "font": null, "angle": null, "size": null, "size_u": null, "anchor": null, "color": "#000000", "underline": null, "plaintext": null, "fcolor": null, "flnum": null, "bold": null, "italic": null, "dx": null, "dx_u": null, "dy": null, "dy_u": null, "path": "//192.168.1.253/pgv/344 - PEIXOTO DE AZEVEDO MT/05 - PGV/shapes setores/ZONA 06.shp" }, "geometry": { "type": "MultiPolygon", "coordinates": [ [ [ [ -54.989592272839531, -10.253460474542996 ], [ -54.989526997922077, -10.253595301862763 ], [ -54.991403608594027, -10.258535532787784 ], [ -54.992910400352493, -10.261688594310089 ], [ -54.997369754417221, -10.25814631400778 ], [ -54.997696483028363, -10.257621616612386 ], [ -54.997122722066223, -10.256915834264523 ], [ -54.996839331126765, -10.257163454796434 ], [ -54.996780561247242, -10.257098844595568 ], [ -54.996640805809939, -10.257216005574065 ], [ -54.996135710904383, -10.25658284735397 ], [ -54.996313914531044, -10.256427670891101 ], [ -54.996172468058461, -10.256250361285502 ], [ -54.996864833228514, -10.255647459751858 ], [ -54.996750129751213, -10.255518241276384 ], [ -54.997219062127115, -10.255129582972248 ], [ -54.99704486966538, -10.254920914866204 ], [ -54.996140198106758, -10.255352962169443 ], [ -54.995200748905816, -10.254187365845199 ], [ -54.995905852683109, -10.253613355175188 ], [ -54.995335567018074, -10.252913871968627 ], [ -54.995099350777913, -10.25296710233164 ], [ -54.994888849386648, -10.252723860422648 ], [ -54.994661148586431, -10.252449883126303 ], [ -54.994432289248394, -10.252564610426026 ], [ -54.99403010403617, -10.252078734361595 ], [ -54.99364935981135, -10.252399772203832 ], [ -54.993365050849924, -10.252068992737872 ], [ -54.994134618624415, -10.251504406012458 ], [ -54.993794025423618, -10.2510020890959 ], [ -54.992832251790816, -10.251641591840894 ], [ -54.992436090848869, -10.25188605400262 ], [ -54.992057428084202, -10.252120757395975 ], [ -54.991647654581591, -10.252370576852041 ], [ -54.991634206977729, -10.252390490209754 ], [ -54.991303187008874, -10.252563918081162 ], [ -54.990813196411466, -10.252820338338363 ], [ -54.989592272839531, -10.253460474542996 ] ] ] ] } },
{ "type": "Feature", "properties": { "fid": 7.0, "Layer": "ZONA 05", "PaperSpace": null, "SubClasses": "AcDbEntity:AcDbPolyline", "Linetype": null, "EntityHand": "2DC", "Text": null, "ogr_style": "PEN(c:#000000)", "font": null, "angle": null, "size": null, "size_u": null, "anchor": null, "color": "#000000", "underline": null, "plaintext": null, "fcolor": null, "flnum": null, "bold": null, "italic": null, "dx": null, "dx_u": null, "dy": null, "dy_u": null, "path": "//192.168.1.253/pgv/344 - PEIXOTO DE AZEVEDO MT/05 - PGV/shapes setores/ZONA 05.shp" }, "geometry": { "type": "MultiPolygon", "coordinates": [ [ [ [ -54.979443807337148, -10.240998979224278 ], [ -54.975143553259834, -10.244521363230939 ], [ -54.974319518877806, -10.245207289782705 ], [ -54.976374487827485, -10.247629213325293 ], [ -54.977198526085338, -10.246943282008056 ], [ -54.978079237964828, -10.24798124494591 ], [ -54.978869693805173, -10.247318372635593 ], [ -54.980825347446391, -10.245690286859892 ], [ -54.981569132237254, -10.246576709707309 ], [ -54.982981764455083, -10.245416043674151 ], [ -54.984725491564795, -10.247466452578804 ], [ -54.985576569150105, -10.246782730483584 ], [ -54.986008756038473, -10.246630188082072 ], [ -54.987343978015865, -10.246425720498751 ], [ -54.984245805695053, -10.242842186075539 ], [ -54.984303894603308, -10.242791381848255 ], [ -54.981382665018991, -10.239379852075526 ], [ -54.979443807337148, -10.240998979224278 ] ] ] ] } },
{ "type": "Feature", "properties": { "fid": 3.0, "Layer": "ZONA 04", "PaperSpace": null, "SubClasses": "AcDbEntity:AcDbPolyline", "Linetype": null, "EntityHand": "2D8", "Text": null, "ogr_style": "PEN(c:#000000)", "font": null, "angle": null, "size": null, "size_u": null, "anchor": null, "color": "#000000", "underline": null, "plaintext": null, "fcolor": null, "flnum": null, "bold": null, "italic": null, "dx": null, "dx_u": null, "dy": null, "dy_u": null, "path": "//192.168.1.253/pgv/344 - PEIXOTO DE AZEVEDO MT/05 - PGV/shapes setores/ZONA 04.shp" }, "geometry": { "type": "MultiPolygon", "coordinates": [ [ [ [ -54.997676885996363, -10.238644878151741 ], [ -54.997891392890139, -10.23891302308936 ], [ -54.998344319695725, -10.238532005748997 ], [ -54.998445915767931, -10.23863603590269 ], [ -54.998380100718258, -10.238685499805628 ], [ -54.998564499108795, -10.238931546328972 ], [ -54.998362615162129, -10.239064214852919 ], [ -54.998300637894154, -10.239103907181732 ], [ -54.998104853438086, -10.239251983051757 ], [ -54.998046009160738, -10.239301562996397 ], [ -54.997927442685565, -10.239399835059222 ], [ -54.997979815039798, -10.239457333908764 ], [ -54.997909863091017, -10.239515967776507 ], [ -54.997842094523349, -10.239567882751187 ], [ -54.997828594827418, -10.239580393182148 ], [ -54.997767340773535, -10.2396238857449 ], [ -54.997634879457216, -10.239722611188602 ], [ -54.99767015775231, -10.23976534676215 ], [ -54.997643240521455, -10.239798282483724 ], [ -54.997518369437387, -10.239919671854953 ], [ -54.997389404617081, -10.240049900207081 ], [ -54.997197186519301, -10.240230274376151 ], [ -54.997219642720253, -10.240258449502706 ], [ -54.99701216897936, -10.240435672658448 ], [ -54.996875736750873, -10.240274785405534 ], [ -54.996808418483432, -10.240330607292659 ], [ -54.996748695938109, -10.240261921001686 ], [ -54.996577019322899, -10.240410955579129 ], [ -54.996576335317442, -10.240566423005092 ], [ -54.996395286897659, -10.240704741677101 ], [ -54.996499585591721, -10.240845630134556 ], [ -54.996394270789203, -10.240906985290554 ], [ -54.996155328941306, -10.241068492282965 ], [ -54.996139146477304, -10.241045991903297 ], [ -54.995715889240671, -10.241316838323154 ], [ -54.995663317286315, -10.241422703254958 ], [ -54.995583694870497, -10.241492862913594 ], [ -54.995535835987987, -10.24143412697414 ], [ -54.995484196235068, -10.241475407247496 ], [ -54.995461442008988, -10.241493596728944 ], [ -54.995418914217495, -10.241527592973055 ], [ -54.995378500759607, -10.241559899029081 ], [ -54.995352165756479, -10.241580950922462 ], [ -54.995284733727175, -10.241640572232168 ], [ -54.995275872510113, -10.241648407042547 ], [ -54.995200422799364, -10.24170803250006 ], [ -54.995117127220531, -10.241768208960064 ], [ -54.995100044860756, -10.241781261319106 ], [ -54.995062537650618, -10.241809919973299 ], [ -54.995046745512667, -10.241821986487984 ], [ -54.99502394550781, -10.241842017988214 ], [ -54.994957502399068, -10.241900089598964 ], [ -54.994889759646234, -10.241958625940834 ], [ -54.994890489113878, -10.241959454153685 ], [ -54.994887275614232, -10.241961635977583 ], [ -54.994810965701049, -10.242013447007965 ], [ -54.994737261722868, -10.242067148999221 ], [ -54.99466215361619, -10.242118852548822 ], [ -54.994654423205844, -10.242124174071519 ], [ -54.994580544229123, -10.242176915765615 ], [ -54.9945688832954, -10.24218524042265 ], [ -54.994513227839988, -10.242229512392521 ], [ -54.994498179662202, -10.24224148268792 ], [ -54.9944431432518, -10.242286459931631 ], [ -54.994421589524627, -10.242304074213951 ], [ -54.994345946224129, -10.242365863602641 ], [ -54.994273169998131, -10.242419350711064 ], [ -54.994269136902552, -10.242422547373611 ], [ -54.99419886510843, -10.242478245317228 ], [ -54.994195619328728, -10.242474628783656 ], [ -54.994192316490135, -10.242477536894564 ], [ -54.994124110867894, -10.242537591128746 ], [ -54.994124699696769, -10.242538247217672 ], [ -54.994053476347418, -10.242600958480207 ], [ -54.994035785169835, -10.242581246487985 ], [ -54.993951820797051, -10.242648346558212 ], [ -54.993869513015504, -10.242710643367925 ], [ -54.993803666627599, -10.242768444486858 ], [ -54.993793797527715, -10.242777111772439 ], [ -54.993774073027424, -10.242794434309813 ], [ -54.993725162160324, -10.242827629406204 ], [ -54.993715545178318, -10.242834156310627 ], [ -54.993655647162093, -10.242874808200565 ], [ -54.993578722179556, -10.242939433635616 ], [ -54.993503450909856, -10.243002095126519 ], [ -54.993495940735649, -10.243008347160277 ], [ -54.99341684383505, -10.243079835205636 ], [ -54.993396490801182, -10.243054492373931 ], [ -54.993316702659769, -10.243117357187977 ], [ -54.993191162093595, -10.243216820954601 ], [ -54.993156401198299, -10.243244361429729 ], [ -54.993092144956542, -10.243295270548925 ], [ -54.993086252501051, -10.243299939038801 ], [ -54.993017372569426, -10.243354511389178 ], [ -54.992888518988757, -10.243456599700226 ], [ -54.992927458172687, -10.243501965849605 ], [ -54.992853952026451, -10.243563972403534 ], [ -54.992838373508285, -10.24354585456188 ], [ -54.992769378812802, -10.243605292359828 ], [ -54.99270218231851, -10.243663180997245 ], [ -54.99285763351962, -10.243830935227086 ], [ -54.992770910984383, -10.243904090402602 ], [ -54.992614493971672, -10.243725886884095 ], [ -54.992528524464142, -10.243797446598611 ], [ -54.992525155694167, -10.243793504425586 ], [ -54.992406164711973, -10.243892550613134 ], [ -54.992257678617044, -10.243980663760738 ], [ -54.992144155559082, -10.243846170171825 ], [ -54.99211741701982, -10.243846115217968 ], [ -54.992042325883602, -10.243905296383158 ], [ -54.992004428722268, -10.243935164048329 ], [ -54.992123008821089, -10.244063990055066 ], [ -54.99203891244602, -10.244135336272693 ], [ -54.992004286270372, -10.244164712630354 ], [ -54.991941894134229, -10.244217645210385 ], [ -54.991913603586731, -10.244241646488135 ], [ -54.991864314176311, -10.244283468970833 ], [ -54.991878978481353, -10.244300423957378 ], [ -54.991815749375256, -10.244357663560274 ], [ -54.991812765978487, -10.244360364347909 ], [ -54.991801767998389, -10.244348445743922 ], [ -54.991709993496272, -10.24443152665352 ], [ -54.991737712083811, -10.244457695872752 ], [ -54.991654022891304, -10.244532092629793 ], [ -54.991593512061797, -10.244585884595606 ], [ -54.99149985178228, -10.244678396882223 ], [ -54.991427490479985, -10.24474443108374 ], [ -54.991369626563873, -10.244795644964785 ], [ -54.991267160171077, -10.244887694355359 ], [ -54.991481620320549, -10.245109767855805 ], [ -54.99141103759807, -10.245179388560084 ], [ -54.991374257288925, -10.245215090618814 ], [ -54.991420778939542, -10.245265175367571 ], [ -54.990825805465924, -10.245810985541452 ], [ -54.99087283902557, -10.245872546286467 ], [ -54.99103932919531, -10.246072380934184 ], [ -54.991150568257055, -10.246214142382923 ], [ -54.991208821169245, -10.246288378994286 ], [ -54.991312390351574, -10.246354377870098 ], [ -54.990926693569286, -10.246692315099494 ], [ -54.991101088626181, -10.246900950946326 ], [ -54.991248115764712, -10.246772252456807 ], [ -54.991372194224056, -10.246924874851887 ], [ -54.991227195269055, -10.24705229819747 ], [ -54.991273133734992, -10.247107430266816 ], [ -54.991333366275889, -10.247167675203764 ], [ -54.991361639983182, -10.247200866418924 ], [ -54.991390951127237, -10.247235275498634 ], [ -54.991609050350348, -10.247059537743693 ], [ -54.991681789388331, -10.247142015064655 ], [ -54.991705804408284, -10.24716924519783 ], [ -54.991723537120635, -10.24718757486011 ], [ -54.991730476035769, -10.247194747364546 ], [ -54.991765046712615, -10.247241523194321 ], [ -54.991756302124379, -10.247248830949735 ], [ -54.991699399452898, -10.247296383865551 ], [ -54.991729662226071, -10.247331086492753 ], [ -54.991579478970948, -10.247456592806905 ], [ -54.991604786621515, -10.247486302030898 ], [ -54.991752920085077, -10.2473625087003 ], [ -54.991828843204161, -10.247442932339647 ], [ -54.991702795204191, -10.247559669583145 ], [ -54.991665852370041, -10.247557988468976 ], [ -54.991740990228649, -10.247648402592301 ], [ -54.991933932141208, -10.247846346085032 ], [ -54.99197212223465, -10.247885526132359 ], [ -54.992039565788041, -10.247827679537265 ], [ -54.992055166601645, -10.247845426605259 ], [ -54.992117533768877, -10.247798332741372 ], [ -54.992171765036773, -10.247850576569256 ], [ -54.992114905672615, -10.247898540322 ], [ -54.992068497946001, -10.247937885138386 ], [ -54.992126137657216, -10.248004511411532 ], [ -54.992088950608931, -10.248042380795139 ], [ -54.99215584062685, -10.248111181922853 ], [ -54.992224752387564, -10.248197999357226 ], [ -54.992293796535961, -10.248146057925652 ], [ -54.99231758460116, -10.248178929059282 ], [ -54.992375775447698, -10.248263329789244 ], [ -54.992362866732861, -10.248271475917948 ], [ -54.992386706486386, -10.24831053612567 ], [ -54.992421427304045, -10.24837950903493 ], [ -54.99236479853824, -10.248413617651735 ], [ -54.992413785031857, -10.248490939803689 ], [ -54.99252489389805, -10.248566509035333 ], [ -54.992572851810216, -10.248628637913864 ], [ -54.992643169782539, -10.248575972881678 ], [ -54.992676431129297, -10.248609012302662 ], [ -54.992747441467912, -10.24867954881722 ], [ -54.992791476068106, -10.248639169515155 ], [ -54.992831004184637, -10.248680619208386 ], [ -54.992854718164004, -10.248705485986726 ], [ -54.992922545187369, -10.248741940980816 ], [ -54.993151708944424, -10.249001906537313 ], [ -54.993369460225523, -10.249244858270298 ], [ -54.993529514224527, -10.249423435103289 ], [ -54.993845374028908, -10.2497509563444 ], [ -54.99389294642711, -10.249726572120441 ], [ -54.995038896829691, -10.248489154820264 ], [ -54.995082711430172, -10.24842894148084 ], [ -54.995891016335293, -10.249086676016455 ], [ -54.997451985709475, -10.247121279228695 ], [ -54.999111855083868, -10.244630523825849 ], [ -54.999460374103329, -10.243525773373884 ], [ -54.99940565224891, -10.238365708388498 ], [ -54.99953054011965, -10.238363357322557 ], [ -54.999901584764132, -10.238354101537892 ], [ -54.99989699294364, -10.238139032506123 ], [ -54.999984685602165, -10.238137866628078 ], [ -55.000050232338026, -10.238137685313365 ], [ -55.000052799307049, -10.238348370726948 ], [ -55.000120683177528, -10.238348785961726 ], [ -55.000592157764608, -10.238351341712804 ], [ -55.000715559621234, -10.238338787425755 ], [ -55.001176884535958, -10.238341622313571 ], [ -55.001323309229448, -10.238340444886946 ], [ -55.001775164342256, -10.238335291102649 ], [ -55.00190128216034, -10.238333131418834 ], [ -55.002365688904383, -10.238329594265245 ], [ -55.002492627908609, -10.238328243337245 ], [ -55.002962628179489, -10.238319890274909 ], [ -55.003136503627928, -10.238316956187171 ], [ -55.003602266969807, -10.238292850436542 ], [ -55.00373353568019, -10.238298368600454 ], [ -55.004186999075756, -10.238284833365679 ], [ -55.004319753442502, -10.238282685366181 ], [ -55.004778051557871, -10.238280515086474 ], [ -55.004911540678783, -10.238275927909804 ], [ -55.0051405928983, -10.238273732414607 ], [ -55.005373612053461, -10.238271498729906 ], [ -55.005507257075358, -10.238271971541989 ], [ -55.005621069366711, -10.238271195505764 ], [ -55.005733720829312, -10.238270427345441 ], [ -55.005852682132222, -10.238269616116433 ], [ -55.005849161997176, -10.238066109810381 ], [ -55.005951426569801, -10.238064547710636 ], [ -55.006209080761941, -10.238070716356592 ], [ -55.006211613889249, -10.238266303378026 ], [ -55.006325706196641, -10.238264157946553 ], [ -55.006561703406881, -10.238259720045169 ], [ -55.006689166172933, -10.238253811891957 ], [ -55.007163261959825, -10.23824767233811 ], [ -55.007277361687564, -10.238243528693687 ], [ -55.007580682478611, -10.238246364996456 ], [ -55.007639281245012, -10.238575075254531 ], [ -55.007761019951261, -10.238565463464512 ], [ -55.008495160193903, -10.238465183094094 ], [ -55.008486058223134, -10.238042571016932 ], [ -55.008483433567534, -10.237925493955011 ], [ -55.007523144432817, -10.237943681225335 ], [ -55.007516522190905, -10.237826893422184 ], [ -55.007490114667341, -10.237595853085292 ], [ -55.007475301920664, -10.237583881750082 ], [ -55.007277043157977, -10.237601588043855 ], [ -55.007150486573487, -10.237642730997106 ], [ -55.006666521703046, -10.23765918462537 ], [ -55.006555508672456, -10.237630568303173 ], [ -55.006326434430136, -10.237660055091299 ], [ -55.006094527932731, -10.237646861364274 ], [ -55.005969286310361, -10.237637124637008 ], [ -55.005494047189721, -10.237665609556077 ], [ -55.005382696947429, -10.237679079375289 ], [ -55.004907463189447, -10.237676507674173 ], [ -55.004779281225801, -10.237671043616722 ], [ -55.003091932588056, -10.23768729080162 ], [ -55.002958668731345, -10.237689835214351 ], [ -55.001304918071668, -10.237706512321745 ], [ -55.001181697257735, -10.237910794575798 ], [ -55.001168214514038, -10.237924695552673 ], [ -55.001076199873928, -10.237926037320817 ], [ -55.00107358589252, -10.237715872224628 ], [ -54.999520786527583, -10.237723663726332 ], [ -54.999281419353707, -10.237735072893068 ], [ -54.99914992320182, -10.237736241410978 ], [ -54.999053138767458, -10.237737101435112 ], [ -54.999054618693229, -10.237957657315123 ], [ -54.998941396289133, -10.237970532265738 ], [ -54.998940279611595, -10.23781969806614 ], [ -54.998922462818342, -10.237783102613937 ], [ -54.998736472223335, -10.237892091557072 ], [ -54.998496119200865, -10.237776755993821 ], [ -54.998219321122768, -10.238195960577226 ], [ -54.998131265465375, -10.23829610516546 ], [ -54.997770017086324, -10.238581449949146 ], [ -54.997676885996363, -10.238644878151741 ] ] ] ] } },
{ "type": "Feature", "properties": { "fid": 2.0, "Layer": "ZONA 03", "PaperSpace": null, "SubClasses": "AcDbEntity:AcDbPolyline", "Linetype": null, "EntityHand": "2D7", "Text": null, "ogr_style": "PEN(c:#000000)", "font": null, "angle": null, "size": null, "size_u": null, "anchor": null, "color": "#000000", "underline": null, "plaintext": null, "fcolor": null, "flnum": null, "bold": null, "italic": null, "dx": null, "dx_u": null, "dy": null, "dy_u": null, "path": "//192.168.1.253/pgv/344 - PEIXOTO DE AZEVEDO MT/05 - PGV/shapes setores/ZONA 03.shp" }, "geometry": { "type": "MultiPolygon", "coordinates": [ [ [ [ -54.991453213623828, -10.231181845414744 ], [ -54.988709443949077, -10.233414663221016 ], [ -54.98531132324581, -10.236184489697559 ], [ -54.987110163996071, -10.238393261946529 ], [ -54.988160875074087, -10.239664254326607 ], [ -54.988880225013375, -10.240527489975868 ], [ -54.991458743013922, -10.243603207233178 ], [ -54.991547174892069, -10.243524857680182 ], [ -54.992111859890954, -10.243066515853029 ], [ -54.992217629533094, -10.242980445661455 ], [ -54.99278173336311, -10.242521403867654 ], [ -54.992887502657219, -10.242435333386563 ], [ -54.993451604631161, -10.241976290048745 ], [ -54.993627886177485, -10.24183283873905 ], [ -54.994191986100077, -10.241373793694903 ], [ -54.994297754661574, -10.241287722604406 ], [ -54.994861852728263, -10.240828676016621 ], [ -54.994967620941779, -10.240742604636713 ], [ -54.995531717152652, -10.240283556505512 ], [ -54.995637485018214, -10.240197484836228 ], [ -54.996201579373356, -10.239738435161783 ], [ -54.996307346890973, -10.239652363203142 ], [ -54.996871439390453, -10.239193311985659 ], [ -54.996977206560139, -10.239107239737729 ], [ -54.997541297204044, -10.238648186977365 ], [ -54.997621583660049, -10.238579450042961 ], [ -54.996798413145818, -10.237544797963897 ], [ -54.995069647941854, -10.235460840054809 ], [ -54.9935887234654, -10.233693548786299 ], [ -54.991453213623828, -10.231181845414744 ] ] ] ] } },
{ "type": "Feature", "properties": { "fid": 5.0, "Layer": "ZONA 02", "PaperSpace": null, "SubClasses": "AcDbEntity:AcDbPolyline", "Linetype": null, "EntityHand": "2DA", "Text": null, "ogr_style": "PEN(c:#000000)", "font": null, "angle": null, "size": null, "size_u": null, "anchor": null, "color": "#000000", "underline": null, "plaintext": null, "fcolor": null, "flnum": null, "bold": null, "italic": null, "dx": null, "dx_u": null, "dy": null, "dy_u": null, "path": "//192.168.1.253/pgv/344 - PEIXOTO DE AZEVEDO MT/05 - PGV/shapes setores/ZONA 02.shp" }, "geometry": { "type": "MultiPolygon", "coordinates": [ [ [ [ -55.001972449598149, -10.257730376715216 ], [ -55.001136103299494, -10.256699758414209 ], [ -55.001087228855191, -10.256644558375948 ], [ -55.000382786831288, -10.257238686459543 ], [ -55.000048526800406, -10.256831816176643 ], [ -55.000048486625268, -10.256733127561885 ], [ -54.998081739298158, -10.254403288890645 ], [ -54.996493910226889, -10.252504453719494 ], [ -54.995096501275896, -10.250798976506958 ], [ -54.994701061156057, -10.251651200577601 ], [ -54.999722003284255, -10.257636638268529 ], [ -55.000036336305136, -10.257600706003279 ], [ -55.000900235752496, -10.258611895990359 ], [ -55.001972449598149, -10.257730376715216 ] ] ] ] } },
{ "type": "Feature", "properties": { "fid": 13.0, "Layer": "ZONA 02", "PaperSpace": null, "SubClasses": "AcDbEntity:AcDbPolyline", "Linetype": null, "EntityHand": "2E2", "Text": null, "ogr_style": "PEN(c:#000000)", "font": null, "angle": null, "size": null, "size_u": null, "anchor": null, "color": "#000000", "underline": null, "plaintext": null, "fcolor": null, "flnum": null, "bold": null, "italic": null, "dx": null, "dx_u": null, "dy": null, "dy_u": null, "path": "//192.168.1.253/pgv/344 - PEIXOTO DE AZEVEDO MT/05 - PGV/shapes setores/ZONA 02.shp" }, "geometry": { "type": "MultiPolygon", "coordinates": [ [ [ [ -54.982344860893598, -10.238576317051812 ], [ -54.983035832422686, -10.237999787709823 ], [ -54.980665280912689, -10.235009107902858 ], [ -54.977187547796049, -10.230633943599134 ], [ -54.976964327148089, -10.230730589653298 ], [ -54.976604414426774, -10.231086152707707 ], [ -54.977303837440736, -10.232087449083613 ], [ -54.978170831981579, -10.233172895419752 ], [ -54.977994491580816, -10.233314888076682 ], [ -54.978777652777531, -10.234245676083045 ], [ -54.980305995495073, -10.236127232780053 ], [ -54.981073644682326, -10.237065538104005 ], [ -54.981860845275499, -10.238005637848905 ], [ -54.982344860893598, -10.238576317051812 ] ] ] ] } },
{ "type": "Feature", "properties": { "fid": 14.0, "Layer": "ZONA 01", "PaperSpace": null, "SubClasses": "AcDbEntity:AcDbPolyline", "Linetype": null, "EntityHand": "2E3", "Text": null, "ogr_style": "PEN(c:#000000)", "font": null, "angle": null, "size": null, "size_u": null, "anchor": null, "color": "#000000", "underline": null, "plaintext": null, "fcolor": null, "flnum": null, "bold": null, "italic": null, "dx": null, "dx_u": null, "dy": null, "dy_u": null, "path": "//192.168.1.253/pgv/344 - PEIXOTO DE AZEVEDO MT/05 - PGV/shapes setores/ZONA 01.shp" }, "geometry": { "type": "MultiPolygon", "coordinates": [ [ [ [ -54.98531132324581, -10.236184489697559 ], [ -54.983035832422686, -10.237999787709823 ], [ -54.982344860893598, -10.238576317051812 ], [ -54.981382665018991, -10.239379852075526 ], [ -54.984303894603308, -10.242791381848255 ], [ -54.984245805695053, -10.242842186075539 ], [ -54.987343978015865, -10.246425720498751 ], [ -54.988472109325464, -10.246211645187527 ], [ -54.988576754937824, -10.246324607155461 ], [ -54.988772987740234, -10.246579206471315 ], [ -54.988902554407865, -10.246742901423787 ], [ -54.989290446434431, -10.246532302940036 ], [ -54.989345182267094, -10.246613308766104 ], [ -54.98941357270985, -10.246572613474786 ], [ -54.9895595575111, -10.246792315653419 ], [ -54.989454617671697, -10.246837274381873 ], [ -54.989537769301251, -10.246995246088881 ], [ -54.989253417960569, -10.247157258213782 ], [ -54.989316674116594, -10.247238228397975 ], [ -54.989549788294674, -10.247116390151904 ], [ -54.989669980798979, -10.247050411278027 ], [ -54.989760155237484, -10.247256683297863 ], [ -54.989908838395216, -10.24715503048021 ], [ -54.990055369381189, -10.247366350604922 ], [ -54.990074126170384, -10.247400993317752 ], [ -54.9902437213021, -10.247371181268052 ], [ -54.990345879564899, -10.247726491599231 ], [ -54.990364953287674, -10.247794104235103 ], [ -54.990561436501764, -10.247749992895789 ], [ -54.99065437319971, -10.248030222782823 ], [ -54.990689853739184, -10.248133400303892 ], [ -54.990961146366971, -10.248096710735361 ], [ -54.991069177697518, -10.248187320974299 ], [ -54.991149410226718, -10.248295265038161 ], [ -54.991087746825485, -10.248347965821525 ], [ -54.991215344558178, -10.248519611262141 ], [ -54.991151621338616, -10.248578218215902 ], [ -54.991312425545949, -10.248746726077448 ], [ -54.991346970659301, -10.248850473202056 ], [ -54.991535939057414, -10.249107266403083 ], [ -54.991495918807715, -10.249134459544713 ], [ -54.99161750112544, -10.249310458965159 ], [ -54.99184474015513, -10.249252496881947 ], [ -54.991921038673453, -10.249349873551331 ], [ -54.991856116014375, -10.249399927285848 ], [ -54.99193003031322, -10.249497651524351 ], [ -54.992140627763142, -10.249429909934909 ], [ -54.992215296855406, -10.249525962971626 ], [ -54.992244532719404, -10.249503818933778 ], [ -54.9923171637015, -10.2495967629495 ], [ -54.992341177148859, -10.249635309043279 ], [ -54.992106761214899, -10.249864940617238 ], [ -54.992240037142786, -10.250079612087543 ], [ -54.992352892516159, -10.250005469291926 ], [ -54.992394018440862, -10.249978966412426 ], [ -54.992416781805495, -10.249971603279519 ], [ -54.992572247080119, -10.250222778112782 ], [ -54.992759836657491, -10.250217642620042 ], [ -54.992869102112934, -10.250372942840476 ], [ -54.992788306722623, -10.250429000581105 ], [ -54.99315769620069, -10.250940000748757 ], [ -54.993195709687683, -10.250912319415386 ], [ -54.993183365277929, -10.250894817586834 ], [ -54.99347690209084, -10.250620551645365 ], [ -54.993794025423618, -10.2510020890959 ], [ -54.994134618624415, -10.251504406012442 ], [ -54.993365050849945, -10.252068992737872 ], [ -54.993495165762276, -10.25222037512677 ], [ -54.99364935981135, -10.252399772203832 ], [ -54.99403010403617, -10.252078734361595 ], [ -54.994432289248394, -10.252564610426008 ], [ -54.994661148586431, -10.252449883126303 ], [ -54.994888849386648, -10.252723860422648 ], [ -54.99509935077792, -10.25296710233164 ], [ -54.995335567018074, -10.252913871968627 ], [ -54.995905852683109, -10.253613355175188 ], [ -54.995200748905816, -10.254187365845219 ], [ -54.99542851677522, -10.25446996358891 ], [ -54.995570871889981, -10.254646587134141 ], [ -54.995855534696318, -10.254999774720376 ], [ -54.996140198106758, -10.255352962169443 ], [ -54.99704486966538, -10.254920914866204 ], [ -54.997219062127115, -10.255129582972248 ], [ -54.996750129751213, -10.255518241276384 ], [ -54.996864833228528, -10.255647459751858 ], [ -54.996517596147491, -10.255949829286264 ], [ -54.996172468058461, -10.256250361285502 ], [ -54.996313914531044, -10.256427670891101 ], [ -54.996135710904383, -10.25658284735397 ], [ -54.996640805809939, -10.257216005574065 ], [ -54.996780561247242, -10.257098844595568 ], [ -54.996839331126765, -10.257163454796434 ], [ -54.997122722066223, -10.256915834264523 ], [ -54.997696483028371, -10.257621616612404 ], [ -54.997369754417221, -10.25814631400778 ], [ -54.997903339227179, -10.25882065280053 ], [ -54.998180567318236, -10.259177308703592 ], [ -54.999019993661527, -10.258521705035243 ], [ -54.99966524954997, -10.258017747507225 ], [ -54.999722003284255, -10.257636638268529 ], [ -54.994701061156057, -10.251651200577601 ], [ -54.995891016335293, -10.249086676016455 ], [ -54.995082711430172, -10.24842894148084 ], [ -54.995038896829691, -10.248489154820264 ], [ -54.99389294642711, -10.249726572120441 ], [ -54.993845374028908, -10.2497509563444 ], [ -54.993529514224527, -10.249423435103289 ], [ -54.993127922248775, -10.248975366969713 ], [ -54.992922545187369, -10.248741940980816 ], [ -54.992854718164004, -10.248705485986726 ], [ -54.992790561970473, -10.248638210980422 ], [ -54.992747441467912, -10.24867954881722 ], [ -54.992643169782539, -10.248575972881678 ], [ -54.992572851810216, -10.248628637913864 ], [ -54.99252489389805, -10.248566509035333 ], [ -54.992413785031857, -10.248490939803689 ], [ -54.99236479853824, -10.248413617651735 ], [ -54.992421427304045, -10.24837950903493 ], [ -54.992386706486386, -10.24831053612567 ], [ -54.992362866732861, -10.248271475917948 ], [ -54.992375775447698, -10.248263329789244 ], [ -54.992293796535961, -10.248146057925652 ], [ -54.992224752387564, -10.248197999357226 ], [ -54.99215584062685, -10.248111181922853 ], [ -54.992088950608931, -10.248042380795139 ], [ -54.992126137657216, -10.248004511411532 ], [ -54.992068497946001, -10.247937885138386 ], [ -54.992171765036773, -10.247850576569256 ], [ -54.992117533768877, -10.247798332741372 ], [ -54.992055166601645, -10.247845426605259 ], [ -54.992039565788041, -10.247827679537265 ], [ -54.99197212223465, -10.247885526132359 ], [ -54.991740990228649, -10.247648402592301 ], [ -54.991665852370041, -10.247557988468976 ], [ -54.991702795204191, -10.247559669583145 ], [ -54.991828843204161, -10.247442932339647 ], [ -54.991752920085077, -10.2473625087003 ], [ -54.991604786621515, -10.247486302030898 ], [ -54.991579478970948, -10.247456592806905 ], [ -54.991729662226071, -10.247331086492753 ], [ -54.991699399452898, -10.247296383865551 ], [ -54.991756302124379, -10.247248830949735 ], [ -54.991765046712615, -10.247241523194321 ], [ -54.991730476035769, -10.247194747364546 ], [ -54.991723537120635, -10.24718757486011 ], [ -54.991705804408284, -10.24716924519783 ], [ -54.991609050350348, -10.247059537743693 ], [ -54.991390951127237, -10.247235275498634 ], [ -54.991333366275889, -10.247167675203764 ], [ -54.991273133734992, -10.247107430266816 ], [ -54.991227195269055, -10.24705229819747 ], [ -54.991372194224056, -10.246924874851887 ], [ -54.991248115764712, -10.246772252456807 ], [ -54.991101088626181, -10.246900950946326 ], [ -54.990926693569286, -10.246692315099494 ], [ -54.991312390351574, -10.246354377870098 ], [ -54.991208821169245, -10.246288378994286 ], [ -54.99103932919531, -10.246072380934184 ], [ -54.99087283902557, -10.245872546286467 ], [ -54.990825805465924, -10.245810985541452 ], [ -54.991420778939542, -10.245265175367571 ], [ -54.991374257288925, -10.245215090618814 ], [ -54.99141103759807, -10.245179388560084 ], [ -54.991481620320549, -10.245109767855805 ], [ -54.991267160171077, -10.244887694355359 ], [ -54.991737712083811, -10.244457695872752 ], [ -54.991709993496272, -10.24443152665352 ], [ -54.991801767998389, -10.244348445743922 ], [ -54.991812765978487, -10.244360364347909 ], [ -54.991878978481353, -10.244300423957378 ], [ -54.991864314176311, -10.244283468970833 ], [ -54.992123008821089, -10.244063990055066 ], [ -54.992004428722268, -10.243935164048329 ], [ -54.99211741701982, -10.243846115217968 ], [ -54.992144155559082, -10.243846170171825 ], [ -54.992257678617044, -10.243980663760738 ], [ -54.992406164711973, -10.243892550613134 ], [ -54.992525169760249, -10.24379349271717 ], [ -54.992528524464142, -10.243797446598611 ], [ -54.992614493971672, -10.243725886884095 ], [ -54.992770910984383, -10.243904090402602 ], [ -54.99285763351962, -10.243830935227086 ], [ -54.99270218231851, -10.243663180997245 ], [ -54.992769378812802, -10.243605292359828 ], [ -54.992838373508285, -10.24354585456188 ], [ -54.992853952026451, -10.243563972403534 ], [ -54.992927458172687, -10.243501965849605 ], [ -54.992888518988757, -10.243456599700226 ], [ -54.99295840712702, -10.243401228635785 ], [ -54.992999500760646, -10.243368670900825 ], [ -54.993017372569426, -10.243354511389178 ], [ -54.993086252501051, -10.243299939038801 ], [ -54.993092144956542, -10.243295270548925 ], [ -54.993156401198299, -10.243244361429729 ], [ -54.993191162093595, -10.243216820954601 ], [ -54.99323363429972, -10.243183170924219 ], [ -54.993316702659769, -10.243117357187977 ], [ -54.993396490801182, -10.243054492373931 ], [ -54.99341684383505, -10.243079835205636 ], [ -54.993495940735649, -10.243008347160277 ], [ -54.993503450909856, -10.243002095126519 ], [ -54.993578722179556, -10.242939433635616 ], [ -54.993655647162093, -10.242874808200565 ], [ -54.993715545178318, -10.242834156310627 ], [ -54.993725162160324, -10.242827629406204 ], [ -54.993774073027424, -10.242794434309813 ], [ -54.993793797527715, -10.242777111772439 ], [ -54.993803666627599, -10.242768444486858 ], [ -54.993869513015504, -10.242710643367925 ], [ -54.993951820797051, -10.242648346558212 ], [ -54.994035785169835, -10.242581246487985 ], [ -54.994053476347418, -10.242600958480207 ], [ -54.994124699696769, -10.242538247217672 ], [ -54.994124110867894, -10.242537591128746 ], [ -54.994192316490135, -10.242477536894564 ], [ -54.994195619328728, -10.242474628783656 ], [ -54.99419886510843, -10.242478245317228 ], [ -54.994269136902552, -10.242422547373611 ], [ -54.994273169998131, -10.242419350711064 ], [ -54.994346064085761, -10.242365776979854 ], [ -54.994421589524627, -10.242304074213951 ], [ -54.9944431432518, -10.242286459931631 ], [ -54.994498179662202, -10.24224148268792 ], [ -54.994513227839988, -10.242229512392521 ], [ -54.9945688832954, -10.24218524042265 ], [ -54.994580544229123, -10.242176915765615 ], [ -54.994654423205844, -10.242124174071519 ], [ -54.99466215361619, -10.242118852548822 ], [ -54.994737261722868, -10.242067148999221 ], [ -54.994810965701049, -10.242013447007965 ], [ -54.994887275614232, -10.241961635977583 ], [ -54.994890489113878, -10.241959454153685 ], [ -54.994889759646234, -10.241958625940834 ], [ -54.994931395108857, -10.241922648847316 ], [ -54.994957502399068, -10.241900089598964 ], [ -54.994978473515282, -10.24188196850224 ], [ -54.99502394550781, -10.241842017988214 ], [ -54.995046745512667, -10.241821986487984 ], [ -54.995062537650618, -10.241809919973299 ], [ -54.995100044860756, -10.241781261319106 ], [ -54.995117127220531, -10.241768208960064 ], [ -54.995200422799364, -10.24170803250006 ], [ -54.995275872510113, -10.241648407042547 ], [ -54.995284733727175, -10.241640572232168 ], [ -54.995352165756479, -10.241580950922462 ], [ -54.995378500759607, -10.241559899029081 ], [ -54.995418914217495, -10.241527592973055 ], [ -54.995461442008988, -10.241493596728944 ], [ -54.995484196235068, -10.241475407247496 ], [ -54.995535835987987, -10.24143412697414 ], [ -54.995583694870497, -10.241492862913594 ], [ -54.995663317286315, -10.241422703254958 ], [ -54.995715889240671, -10.241316838323154 ], [ -54.996058449258584, -10.241097762220296 ], [ -54.996139146477304, -10.241045991903297 ], [ -54.996155328941306, -10.241068492282965 ], [ -54.996394270789203, -10.240906985290554 ], [ -54.996499585591721, -10.240845630134556 ], [ -54.996395286897659, -10.240704741677101 ], [ -54.996576335317442, -10.240566423005092 ], [ -54.996577019322899, -10.240410955579129 ], [ -54.996748695938109, -10.240261921001686 ], [ -54.996808418483432, -10.240330607292659 ], [ -54.996875736750873, -10.240274785405534 ], [ -54.99701216897936, -10.240435672658448 ], [ -54.997219642720253, -10.240258449502706 ], [ -54.997197186519301, -10.240230274376151 ], [ -54.997389404617081, -10.240049900207081 ], [ -54.997518369437387, -10.239919671854953 ], [ -54.997643240521455, -10.239798282483724 ], [ -54.99767015775231, -10.23976534676215 ], [ -54.997634879457216, -10.239722611188602 ], [ -54.99768025777405, -10.239688833963845 ], [ -54.997767340774296, -10.239623885744336 ], [ -54.997828594827418, -10.239580393182148 ], [ -54.997842094523563, -10.239567882751022 ], [ -54.997909863091017, -10.239515967776507 ], [ -54.997979815039798, -10.239457333908764 ], [ -54.997927442685565, -10.239399835059222 ], [ -54.998046009160738, -10.239301562996397 ], [ -54.998104853438086, -10.239251983051757 ], [ -54.998300637894154, -10.239103907181732 ], [ -54.998362615162129, -10.239064214852919 ], [ -54.998564499108795, -10.238931546328972 ], [ -54.998380100718258, -10.238685499805628 ], [ -54.998445915767931, -10.23863603590269 ], [ -54.998344319695725, -10.238532005748997 ], [ -54.997891392890139, -10.23891302308936 ], [ -54.997673797573761, -10.238641224244557 ], [ -54.997621583660049, -10.238579450042961 ], [ -54.997541297204044, -10.238648186977365 ], [ -54.996977206560139, -10.239107239737729 ], [ -54.996871439390453, -10.239193311985659 ], [ -54.996307346890973, -10.239652363203142 ], [ -54.996088760627337, -10.239830245200634 ], [ -54.995637485018214, -10.240197484836228 ], [ -54.995531717152652, -10.240283556505512 ], [ -54.994967620941779, -10.240742604636713 ], [ -54.994861852728263, -10.240828676016621 ], [ -54.994297754661574, -10.241287722604406 ], [ -54.994191986100077, -10.241373793694903 ], [ -54.993627886177485, -10.24183283873905 ], [ -54.993451604631161, -10.241976290048745 ], [ -54.992887502657219, -10.242435333386563 ], [ -54.99278173336311, -10.242521403867654 ], [ -54.992217629533094, -10.242980445661455 ], [ -54.992111859890954, -10.243066515853029 ], [ -54.991547174892069, -10.243524857680182 ], [ -54.991458743013922, -10.243603207233178 ], [ -54.988880225013375, -10.240527489975868 ], [ -54.988160875074087, -10.239664254326607 ], [ -54.987110163996071, -10.238393261946529 ], [ -54.98531132324581, -10.236184489697559 ] ] ] ] } },
{ "type": "Feature", "properties": { "fid": 4.0, "Layer": "ZONA 14", "PaperSpace": null, "SubClasses": "AcDbEntity:AcDbPolyline", "Linetype": null, "EntityHand": "2D8", "Text": null, "ogr_style": "PEN(c:#000000)", "font": null, "angle": null, "size": null, "size_u": null, "anchor": null, "color": "#000000", "underline": null, "plaintext": null, "fcolor": null, "flnum": null, "bold": null, "italic": null, "dx": null, "dx_u": null, "dy": null, "dy_u": null, "path": "//192.168.1.253/pgv/344 - PEIXOTO DE AZEVEDO MT/05 - PGV/shapes setores/ZONA 14.shp" }, "geometry": { "type": "MultiPolygon", "coordinates": [ [ [ [ -54.427784096725482, -10.441213554881841 ], [ -54.434917900119615, -10.445799828214549 ], [ -54.45368928926726, -10.436493305173805 ], [ -54.455734654551634, -10.434719407448469 ], [ -54.456953564666854, -10.43364816224271 ], [ -54.457114085001791, -10.433416208971535 ], [ -54.45544541994019, -10.42624108118579 ], [ -54.452954652647954, -10.427549446065566 ], [ -54.452974670619177, -10.427638061831454 ], [ -54.453082156523777, -10.427837324361812 ], [ -54.45240579847237, -10.428194827005585 ], [ -54.4521239820725, -10.42834378599294 ], [ -54.451157752703558, -10.428854500140231 ], [ -54.451036973846016, -10.42891833914948 ], [ -54.450070741494457, -10.429429049149419 ], [ -54.449949962264114, -10.429492887640214 ], [ -54.448983726930003, -10.430003593492239 ], [ -54.448862947326809, -10.430067431464456 ], [ -54.447896709010202, -10.430578133168016 ], [ -54.447775929034222, -10.430641970621661 ], [ -54.446809687735183, -10.43115266817621 ], [ -54.446688907224662, -10.431216505196593 ], [ -54.445722662943247, -10.431727198601578 ], [ -54.445601882383414, -10.431791034932449 ], [ -54.444635635119688, -10.432301724187322 ], [ -54.444514854025321, -10.432365560084779 ], [ -54.443427822312188, -10.432940080567629 ], [ -54.443307040803653, -10.433003915888511 ], [ -54.442461569084017, -10.43345076152062 ], [ -54.44234078724412, -10.433514596380286 ], [ -54.441374531033823, -10.434025273181533 ], [ -54.44109270580649, -10.43417421988666 ], [ -54.440126446172336, -10.43468489192043 ], [ -54.440005663369995, -10.43474872575055 ], [ -54.439039400753835, -10.435259393631359 ], [ -54.438918617578743, -10.435323226942327 ], [ -54.437952351980641, -10.435833890669651 ], [ -54.437831568432806, -10.435897723461377 ], [ -54.436865299852826, -10.43640838303468 ], [ -54.436744515932254, -10.436472215307136 ], [ -54.435778244370447, -10.436982870725817 ], [ -54.435711698011453, -10.437021065391324 ], [ -54.435572450790346, -10.436757656620443 ], [ -54.433298691592299, -10.43797060698366 ], [ -54.433415551064172, -10.438208577686542 ], [ -54.433290079948918, -10.438297792994746 ], [ -54.432323798911931, -10.438808435207438 ], [ -54.432203013434254, -10.438872265309657 ], [ -54.431236729415694, -10.43938290336547 ], [ -54.431115943565324, -10.439446732948042 ], [ -54.430149656565249, -10.439957366846425 ], [ -54.430028870342191, -10.440021195909317 ], [ -54.429062580360672, -10.440531825649719 ], [ -54.428941793764885, -10.440595654192729 ], [ -54.427943642943319, -10.441123114579748 ], [ -54.427784096725482, -10.441213554881841 ] ] ] ] } },
{ "type": "Feature", "properties": { "fid": 5.0, "Layer": "ZONA 14", "PaperSpace": null, "SubClasses": "AcDbEntity:AcDbPolyline", "Linetype": null, "EntityHand": "2D9", "Text": null, "ogr_style": "PEN(c:#000000)", "font": null, "angle": null, "size": null, "size_u": null, "anchor": null, "color": "#000000", "underline": null, "plaintext": null, "fcolor": null, "flnum": null, "bold": null, "italic": null, "dx": null, "dx_u": null, "dy": null, "dy_u": null, "path": "//192.168.1.253/pgv/344 - PEIXOTO DE AZEVEDO MT/05 - PGV/shapes setores/ZONA 14.shp" }, "geometry": { "type": "MultiPolygon", "coordinates": [ [ [ [ -54.426478482271811, -10.440371199221202 ], [ -54.426635315361871, -10.440278124366435 ], [ -54.427169627397873, -10.439995776090823 ], [ -54.42828891434872, -10.439404302535516 ], [ -54.429287410644051, -10.43887665355965 ], [ -54.429408197744493, -10.438812824020674 ], [ -54.430406690868324, -10.438285170621048 ], [ -54.430527477585102, -10.438221340546971 ], [ -54.431525967537368, -10.437693682724182 ], [ -54.431646752576917, -10.437629852798676 ], [ -54.432645239357562, -10.437102190553336 ], [ -54.432761334976988, -10.437013752858972 ], [ -54.431295681695602, -10.434270172656319 ], [ -54.423453991349511, -10.438401331420065 ], [ -54.426478482271811, -10.440371199221202 ] ] ] ] } },
{ "type": "Feature", "properties": { "fid": 1.0, "Layer": "ZONA 13", "PaperSpace": null, "SubClasses": "AcDbEntity:AcDbPolyline", "Linetype": null, "EntityHand": "2D5", "Text": null, "ogr_style": "PEN(c:#000000)", "font": null, "angle": null, "size": null, "size_u": null, "anchor": null, "color": "#000000", "underline": null, "plaintext": null, "fcolor": null, "flnum": null, "bold": null, "italic": null, "dx": null, "dx_u": null, "dy": null, "dy_u": null, "path": "//192.168.1.253/pgv/344 - PEIXOTO DE AZEVEDO MT/05 - PGV/shapes setores/ZONA 13.shp" }, "geometry": { "type": "MultiPolygon", "coordinates": [ [ [ [ -54.423453991349511, -10.438401331420065 ], [ -54.431295681695275, -10.434270172656502 ], [ -54.439097467418378, -10.430151091795961 ], [ -54.443578196481013, -10.427764936192125 ], [ -54.44522577900667, -10.430679413162448 ], [ -54.445373733718839, -10.430617175858334 ], [ -54.44717247887791, -10.421336653430235 ], [ -54.44135590713509, -10.423637920180859 ], [ -54.437714097345697, -10.425069899530383 ], [ -54.436682340752846, -10.425657539386536 ], [ -54.429103263030548, -10.430150464706399 ], [ -54.41940935464978, -10.435823399435494 ], [ -54.423453991349511, -10.438401331420065 ] ] ] ] } },
{ "type": "Feature", "properties": { "fid": 2.0, "Layer": "ZONA 12", "PaperSpace": null, "SubClasses": "AcDbEntity:AcDbPolyline", "Linetype": null, "EntityHand": "2D6", "Text": null, "ogr_style": "PEN(c:#000000)", "font": null, "angle": null, "size": null, "size_u": null, "anchor": null, "color": "#000000", "underline": null, "plaintext": null, "fcolor": null, "flnum": null, "bold": null, "italic": null, "dx": null, "dx_u": null, "dy": null, "dy_u": null, "path": "//192.168.1.253/pgv/344 - PEIXOTO DE AZEVEDO MT/05 - PGV/shapes setores/ZONA 12.shp" }, "geometry": { "type": "MultiPolygon", "coordinates": [ [ [ [ -54.44717247887791, -10.421336653430235 ], [ -54.445490861032859, -10.430012892268099 ], [ -54.44598157829035, -10.429760606674309 ], [ -54.446124765199961, -10.43003310859987 ], [ -54.446186292890602, -10.429996936019823 ], [ -54.447152530723656, -10.429486239715018 ], [ -54.447273310266446, -10.429422402417643 ], [ -54.448239545117623, -10.428911701963989 ], [ -54.448360324287655, -10.42884786414799 ], [ -54.449326556156912, -10.428337159546022 ], [ -54.449447334954208, -10.428273321211584 ], [ -54.450413563841458, -10.427762612461866 ], [ -54.450534342266003, -10.427698773608945 ], [ -54.450480600083758, -10.427599141845567 ], [ -54.450673845417128, -10.427496999582619 ], [ -54.450727587659102, -10.427596631324457 ], [ -54.451500568171213, -10.427188060712057 ], [ -54.451782383560918, -10.42703910208947 ], [ -54.452748606042221, -10.426528384431647 ], [ -54.452803096307811, -10.426491533712094 ], [ -54.452674002111927, -10.426244067166675 ], [ -54.453755824655488, -10.425668665900034 ], [ -54.453891408941885, -10.425924290346513 ], [ -54.453955940396774, -10.425889185290634 ], [ -54.45492215691128, -10.425378459342195 ], [ -54.454990953713846, -10.4253537607235 ], [ -54.455238192479314, -10.425824629247114 ], [ -54.456716504003495, -10.425177158017668 ], [ -54.460457950619471, -10.424577723199146 ], [ -54.457346764555425, -10.420326534212601 ], [ -54.455552704563679, -10.418057872943065 ], [ -54.44717247887791, -10.421336653430235 ] ] ] ] } },
{ "type": "Feature", "properties": { "fid": 6.0, "Layer": "ZONA 12", "PaperSpace": null, "SubClasses": "AcDbEntity:AcDbPolyline", "Linetype": null, "EntityHand": "2E1", "Text": null, "ogr_style": "PEN(c:#000000)", "font": null, "angle": null, "size": null, "size_u": null, "anchor": null, "color": "#000000", "underline": null, "plaintext": null, "fcolor": null, "flnum": null, "bold": null, "italic": null, "dx": null, "dx_u": null, "dy": null, "dy_u": null, "path": "//192.168.1.253/pgv/344 - PEIXOTO DE AZEVEDO MT/05 - PGV/shapes setores/ZONA 12.shp" }, "geometry": { "type": "MultiPolygon", "coordinates": [ [ [ [ -54.431295681695602, -10.434270172656319 ], [ -54.432761334976988, -10.437013752858972 ], [ -54.432927072366688, -10.43695325155463 ], [ -54.433925555519281, -10.436425584251145 ], [ -54.434046339736199, -10.436361753178765 ], [ -54.435012610687821, -10.435851103206174 ], [ -54.435133394532151, -10.435787271614473 ], [ -54.436099662502578, -10.435276617486895 ], [ -54.437186710963488, -10.434702127093898 ], [ -54.437307494062502, -10.434638294463559 ], [ -54.438273756070402, -10.434127632027716 ], [ -54.438394538796736, -10.434063798878192 ], [ -54.439360797823255, -10.433553132289013 ], [ -54.439481580176938, -10.433489298620346 ], [ -54.440447836222042, -10.432978627878413 ], [ -54.440729660057357, -10.432829680909899 ], [ -54.441695912679236, -10.432319005400567 ], [ -54.441816694070631, -10.432255170702446 ], [ -54.442662162650883, -10.431808326200962 ], [ -54.442782943710988, -10.431744491041593 ], [ -54.44386997138843, -10.431169972012663 ], [ -54.443990752034424, -10.431106136276764 ], [ -54.443926263939318, -10.430986577447273 ], [ -54.444167825017395, -10.430858905834858 ], [ -54.444232313202171, -10.430978464632028 ], [ -54.4449569957115, -10.430595448314381 ], [ -54.44522577900667, -10.430679413162448 ], [ -54.443578196481013, -10.427764936192125 ], [ -54.439093343647208, -10.430153322109534 ], [ -54.431295681695602, -10.434270172656319 ] ] ] ] } },
{ "type": "Feature", "properties": { "fid": 3.0, "Layer": "ZONA 11", "PaperSpace": null, "SubClasses": "AcDbEntity:AcDbPolyline", "Linetype": null, "EntityHand": "2D7", "Text": null, "ogr_style": "PEN(c:#000000)", "font": null, "angle": null, "size": null, "size_u": null, "anchor": null, "color": "#000000", "underline": null, "plaintext": null, "fcolor": null, "flnum": null, "bold": null, "italic": null, "dx": null, "dx_u": null, "dy": null, "dy_u": null, "path": "//192.168.1.253/pgv/344 - PEIXOTO DE AZEVEDO MT/05 - PGV/shapes setores/ZONA 11.shp" }, "geometry": { "type": "MultiPolygon", "coordinates": [ [ [ [ -54.427943642943319, -10.441123114579748 ], [ -54.428941793764885, -10.440595654192729 ], [ -54.429062580360672, -10.440531825649719 ], [ -54.430028870342191, -10.440021195909317 ], [ -54.430149656565249, -10.439957366846425 ], [ -54.431115943565324, -10.439446732948042 ], [ -54.431236729415694, -10.43938290336547 ], [ -54.432323798911931, -10.438808435207438 ], [ -54.433290079948918, -10.438297792994746 ], [ -54.433415551064172, -10.438208577686542 ], [ -54.433298691592299, -10.43797060698366 ], [ -54.435572450790346, -10.436757656620443 ], [ -54.435711698011453, -10.437021065391324 ], [ -54.435778244370447, -10.436982870725817 ], [ -54.436744515932254, -10.436472215307136 ], [ -54.436865299852826, -10.43640838303468 ], [ -54.437831568432806, -10.435897723461377 ], [ -54.437952351980641, -10.435833890669651 ], [ -54.438918617578743, -10.435323226942327 ], [ -54.439039400753835, -10.435259393631359 ], [ -54.440005663369995, -10.43474872575055 ], [ -54.440126446172336, -10.43468489192043 ], [ -54.44109270580649, -10.43417421988666 ], [ -54.441374531033823, -10.434025273181533 ], [ -54.44234078724412, -10.433514596380286 ], [ -54.442461569084017, -10.43345076152062 ], [ -54.443307040803653, -10.433003915888511 ], [ -54.443427822312188, -10.432940080567629 ], [ -54.444514854025321, -10.432365560084779 ], [ -54.444635635119688, -10.432301724187322 ], [ -54.445601882383414, -10.431791034932449 ], [ -54.445722662943247, -10.431727198601578 ], [ -54.446688907224662, -10.431216505196593 ], [ -54.446809687735183, -10.43115266817621 ], [ -54.447775929034222, -10.430641970621661 ], [ -54.447896709010202, -10.430578133168016 ], [ -54.448862947326809, -10.430067431464456 ], [ -54.448983726930003, -10.430003593492239 ], [ -54.449949962264114, -10.429492887640214 ], [ -54.450070741494457, -10.429429049149419 ], [ -54.451036973846016, -10.42891833914948 ], [ -54.451157752703558, -10.428854500140231 ], [ -54.4521239820725, -10.42834378599294 ], [ -54.45240579847237, -10.428194827005585 ], [ -54.453082156523777, -10.427837324361812 ], [ -54.452974670619177, -10.427638061831454 ], [ -54.452954652647954, -10.427549446065566 ], [ -54.45544541994019, -10.42624108118579 ], [ -54.455238192479314, -10.425824629247114 ], [ -54.454990953713846, -10.4253537607235 ], [ -54.454921961705672, -10.425378529422561 ], [ -54.453955940397165, -10.425889185290638 ], [ -54.453891408941885, -10.425924290346513 ], [ -54.453755824655488, -10.425668665900034 ], [ -54.452674002111927, -10.426244067166675 ], [ -54.452803096307811, -10.426491533712094 ], [ -54.452748606042221, -10.426528384431647 ], [ -54.451782383560918, -10.42703910208947 ], [ -54.451500568171213, -10.427188060712057 ], [ -54.450727587659102, -10.427596631324457 ], [ -54.450673845417128, -10.427496999582619 ], [ -54.450480600083758, -10.427599141845567 ], [ -54.450534342266003, -10.427698773608945 ], [ -54.450413563841465, -10.427762612461866 ], [ -54.449447334954208, -10.428273321211584 ], [ -54.449326556156912, -10.428337159546022 ], [ -54.448360324287655, -10.42884786414799 ], [ -54.448239545117623, -10.428911701963989 ], [ -54.447273310266446, -10.429422402417643 ], [ -54.447152530723656, -10.429486239715018 ], [ -54.446186292890602, -10.429996936019823 ], [ -54.446124765199961, -10.43003310859987 ], [ -54.44598157829035, -10.429760606674309 ], [ -54.445490861032859, -10.430012892268099 ], [ -54.445373733718839, -10.430617175858334 ], [ -54.44522577900667, -10.430679413162448 ], [ -54.4449569957115, -10.430595448314381 ], [ -54.444232313202171, -10.430978464632028 ], [ -54.444167825017395, -10.430858905834858 ], [ -54.443926263939318, -10.430986577447273 ], [ -54.443990752034424, -10.431106136276764 ], [ -54.44386997138843, -10.431169972012663 ], [ -54.442782943710988, -10.431744491041593 ], [ -54.442662162650883, -10.431808326200962 ], [ -54.441816694070631, -10.432255170702446 ], [ -54.441695912679236, -10.432319005400567 ], [ -54.44072966005735, -10.432829680909899 ], [ -54.440447836222042, -10.432978627878413 ], [ -54.439481580176938, -10.433489298620346 ], [ -54.439360797823269, -10.433553132289033 ], [ -54.438394538796736, -10.434063798878192 ], [ -54.438273756070402, -10.434127632027716 ], [ -54.437307494062502, -10.434638294463559 ], [ -54.437186710963474, -10.43470212709388 ], [ -54.436220445974264, -10.435212785375841 ], [ -54.436099662502585, -10.435276617486895 ], [ -54.435133394532151, -10.435787271614473 ], [ -54.435012610687828, -10.435851103206174 ], [ -54.434046339736199, -10.436361753178765 ], [ -54.433925555519274, -10.436425584251145 ], [ -54.432927072366688, -10.43695325155463 ], [ -54.432761334976988, -10.437013752858972 ], [ -54.432645239357562, -10.437102190553336 ], [ -54.431646752576917, -10.437629852798676 ], [ -54.431525967537368, -10.437693682724182 ], [ -54.430527477585102, -10.438221340546971 ], [ -54.430406690868324, -10.438285170621048 ], [ -54.429408197744493, -10.438812824020674 ], [ -54.429287410644051, -10.43887665355965 ], [ -54.42828891434872, -10.439404302535516 ], [ -54.428168126864634, -10.43946813153932 ], [ -54.427169627397873, -10.439995776090823 ], [ -54.427048844704551, -10.440059601825112 ], [ -54.426635315361871, -10.440278124366435 ], [ -54.426478482271811, -10.440371199221202 ], [ -54.427784096725482, -10.441213554881841 ], [ -54.427943642943319, -10.441123114579748 ] ] ] ] } }
]
}
