{
  "type": "FeatureCollection",
  "name": "peixoto_setores_ok",
  "crs": {
    "type": "name",
    "properties": {
      "name": "urn:ogc:def:crs:OGC:1.3:CRS84"
    }
  },
  "features": [
    {
      "type": "Feature",
      "properties": {
        "id": 1,
        "zona": "6",
        "valor_m2": 331.25
      },
      "geometry": {
        "type": "MultiPolygon",
        "coordinates": [
          [
            [
              [ -54.98491089692382, -10.247484571091505, 0.0 ],
              [ -54.98310257803979, -10.24538576143736, 0.0 ],
              [ -54.98170923394879, -10.246522318331309, 0.0 ],
              [ -54.980958126316644, -10.245653081998565, 0.0 ],
              [ -54.97825779451207, -10.247889527285663, 0.0 ],
              [ -54.9785015627677, -10.248190206153303, 0.0 ],
              [ -54.9800697489499, -10.250021087298396, 0.0 ],
              [ -54.9835656682581, -10.249587472301902, 0.0 ],
              [ -54.9839856355414, -10.248710207310202, 0.0 ],
              [ -54.9842749463365, -10.247963598806697, 0.0 ],
              [ -54.98491089692382, -10.247484571091505, 0.0 ]
            ]
          ]
        ]
      }
    },
    {
      "type": "Feature",
      "properties": {
        "id": 2,
        "zona": "4",
        "valor_m2": 884.73
      },
      "geometry": {
        "type": "MultiPolygon",
        "coordinates": [
          [
            [
              [ -54.990467998993594, -10.245647334842218, 0.0 ],
              [ -54.99228931319336, -10.247923328341859, 0.0 ],
              [ -54.994901536431605, -10.250395039823225, 0.0 ],
              [ -54.996216373299404, -10.248808646168198, 0.0 ],
              [ -54.9991408917585, -10.244267524694607, 0.0 ],
              [ -54.999617455473505, -10.243641253249745, 0.0 ],
              [ -54.99964733370282, -10.24356784363628, 0.0 ],
              [ -54.999673876278074, -10.243567108169971, 0.0 ],
              [ -54.9997085975922, -10.243521479326704, 0.0 ],
              [ -54.99945617612553, -10.239731092090292, 0.0 ],
              [ -54.99875499354011, -10.238786285320995, 0.0 ],
              [ -54.990467998993594, -10.245647334842218, 0.0 ]
            ]
          ]
        ]
      }
    },
    {
      "type": "Feature",
      "properties": {
        "id": 3,
        "zona": "4",
        "valor_m2": 884.73
      },
      "geometry": {
        "type": "MultiPolygon",
        "coordinates": [
          [
            [
              [ -54.99936636234707, -10.238382438966617, 0.0 ],
              [ -55.007588092921125, -10.238268590684418, 0.0 ],
              [ -55.00776701270924, -10.238586504802846, 0.0 ],
              [ -55.008488466507735, -10.23851996576507, 0.0 ],
              [ -55.0084755827814, -10.237922663098603, 0.0 ],
              [ -55.00728525818451, -10.237853612293291, 0.0 ],
              [ -55.00726477444436, -10.237620767219283, 0.0 ],
              [ -55.001112538539786, -10.237729191096753, 0.0 ],
              [ -54.999567026102206, -10.237734225380889, 0.0 ],
              [ -54.99933962425638, -10.237744662980184, 0.0 ],
              [ -54.9993375937335, -10.23795044644591, 0.0 ],
              [ -54.99936636234707, -10.238382438966617, 0.0 ]
            ]
          ]
        ]
      }
    },
    {
      "type": "Feature",
      "properties": {
        "id": 4,
        "zona": "7",
        "valor_m2": 416.67
      },
      "geometry": {
        "type": "MultiPolygon",
        "coordinates": [
          [
            [
              [ -55.008488466507735, -10.23851996576507, 0.0 ],
              [ -55.00776701270924, -10.238586504802846, 0.0 ],
              [ -55.007588092921125, -10.238268590684418, 0.0 ],
              [ -54.99936636234707, -10.238382438966617, 0.0 ],
              [ -54.9997085975922, -10.243521479326704, 0.0 ],
              [ -55.00791115681274, -10.243299880476272, 0.0 ],
              [ -55.00790156002499, -10.24282560005733, 0.0 ],
              [ -55.0078511020865, -10.241408776555303, 0.0 ],
              [ -55.0085488467365, -10.241319254628799, 0.0 ],
              [ -55.008488466507735, -10.23851996576507, 0.0 ]
            ]
          ]
        ]
      }
    },
    {
      "type": "Feature",
      "properties": {
        "id": 6,
        "zona": "3",
        "valor_m2": 750.0
      },
      "geometry": {
        "type": "MultiPolygon",
        "coordinates": [
          [
            [
              [ -54.9852128576799, -10.23605759934662, 0.0 ],
              [ -54.991456957099416, -10.243546144512438, 0.0 ],
              [ -54.991621120821776, -10.243494869988456, 0.0 ],
              [ -54.997595192873106, -10.238650933597809, 0.0 ],
              [ -54.99766910404469, -10.238586819800915, 0.0 ],
              [ -54.99149213136079, -10.231377629695656, 0.0 ],
              [ -54.98641309899993, -10.235539222669537, 0.0 ],
              [ -54.9862199567537, -10.235280903387132, 0.0 ],
              [ -54.9852128576799, -10.23605759934662, 0.0 ]
            ]
          ]
        ]
      }
    },
    {
      "type": "Feature",
      "properties": {
        "id": 7,
        "zona": "8",
        "valor_m2": 326.79
      },
      "geometry": {
        "type": "MultiPolygon",
        "coordinates": [
          [
            [
              [ -54.99499730443548, -10.235468542888958, 0.0 ],
              [ -54.999406419342264, -10.231820373407459, 0.0 ],
              [ -54.9994122287392, -10.231302949323904, 0.0 ],
              [ -54.9969523537281, -10.228622897326801, 0.0 ],
              [ -54.9974435107238, -10.228200325772992, 0.0 ],
              [ -54.996610149581144, -10.227183880466436, 0.0 ],
              [ -54.99149213136079, -10.231377629695656, 0.0 ],
              [ -54.99499730443548, -10.235468542888958, 0.0 ]
            ]
          ]
        ]
      }
    },
    {
      "type": "Feature",
      "properties": {
        "id": 8,
        "zona": "6",
        "valor_m2": 331.25
      },
      "geometry": {
        "type": "MultiPolygon",
        "coordinates": [
          [
            [
              [ -54.978038281063306, -10.233250014537598, 0.0 ],
              [ -54.97281896716624, -10.226456158397209, 0.0 ],
              [ -54.96985115758324, -10.228657736178699, 0.0 ],
              [ -54.97454423771147, -10.235965082418605, 0.0 ],
              [ -54.97291727360506, -10.237240252387569, 0.0 ],
              [ -54.97731397503787, -10.242615290681906, 0.0 ],
              [ -54.97725670172298, -10.242663286531455, 0.0 ],
              [ -54.9773046560103, -10.242722757084607, 0.0 ],
              [ -54.9813407165886, -10.239387516910208, 0.0 ],
              [ -54.9823037402762, -10.238466294800215, 0.0 ],
              [ -54.978038281063306, -10.233250014537598, 0.0 ]
            ]
          ]
        ]
      }
    },
    {
      "type": "Feature",
      "properties": {
        "id": 9,
        "zona": "5",
        "valor_m2": 333.33
      },
      "geometry": {
        "type": "MultiPolygon",
        "coordinates": [
          [
            [
              [ -54.97825779451207, -10.247889527285663, 0.0 ],
              [ -54.980958126316644, -10.245653081998565, 0.0 ],
              [ -54.98170923394879, -10.246522318331309, 0.0 ],
              [ -54.98310257803979, -10.24538576143736, 0.0 ],
              [ -54.98491089692382, -10.247484571091505, 0.0 ],
              [ -54.9849935570211, -10.247422307641598, 0.0 ],
              [ -54.9857716630709, -10.246766692049405, 0.0 ],
              [ -54.98733211629931, -10.24625914147169, 0.0 ],
              [ -54.9813407165886, -10.239387516910208, 0.0 ],
              [ -54.9773046560103, -10.242722757084607, 0.0 ],
              [ -54.97542612022277, -10.244197325275925, 0.0 ],
              [ -54.97532984054033, -10.244278007473682, 0.0 ],
              [ -54.97825779451207, -10.247889527285663, 0.0 ]
            ]
          ]
        ]
      }
    },
    {
      "type": "Feature",
      "properties": {
        "id": 10,
        "zona": "7",
        "valor_m2": 416.67
      },
      "geometry": {
        "type": "MultiPolygon",
        "coordinates": [
          [
            [
              [ -54.99356850874658, -10.25122747703103, 0.0 ],
              [ -54.99252378860737, -10.249855070853384, 0.0 ],
              [ -54.991160281015205, -10.248320751883947, 0.0 ],
              [ -54.990299821136354, -10.247418315441944, 0.0 ],
              [ -54.98969925823424, -10.24678676382623, 0.0 ],
              [ -54.98913659735044, -10.246045681506248, 0.0 ],
              [ -54.9885691549392, -10.24633298503421, 0.0 ],
              [ -54.98733211629931, -10.24625914147169, 0.0 ],
              [ -54.9857716630709, -10.246766692049405, 0.0 ],
              [ -54.9849935570211, -10.247422307641598, 0.0 ],
              [ -54.9842749463365, -10.247963598806697, 0.0 ],
              [ -54.9839856355414, -10.248710207310202, 0.0 ],
              [ -54.9835656682581, -10.249587472301902, 0.0 ],
              [ -54.983117703156, -10.249811454853003, 0.0 ],
              [ -54.98184846870001, -10.251080689308994, 0.0 ],
              [ -54.981556824753305, -10.251724639143307, 0.0 ],
              [ -54.9822427713159, -10.252121274910794, 0.0 ],
              [ -54.9824620875638, -10.252788556260796, 0.0 ],
              [ -54.983166699339, -10.252900547536408, 0.0 ],
              [ -54.9836473285632, -10.252569240012896, 0.0 ],
              [ -54.9846645826493, -10.252485246556201, 0.0 ],
              [ -54.98561901005573, -10.2526972497867, 0.0 ],
              [ -54.98641261174768, -10.252226752148403, 0.0 ],
              [ -54.98971826580122, -10.25360396891001, 0.0 ],
              [ -54.99356850874658, -10.25122747703103, 0.0 ]
            ]
          ]
        ]
      }
    },
    {
      "type": "Feature",
      "properties": {
        "id": 11,
        "zona": "6",
        "valor_m2": 331.25
      },
      "geometry": {
        "type": "MultiPolygon",
        "coordinates": [
          [
            [
              [ -54.994901536431605, -10.250395039823225, 0.0 ],
              [ -55.00132163841012, -10.258283417386155, 0.0 ],
              [ -55.00651920546617, -10.253899237168822, 0.0 ],
              [ -55.00422732452962, -10.251782715392366, 0.0 ],
              [ -55.00356314254747, -10.251229571266721, 0.0 ],
              [ -55.00271616231999, -10.25047389983805, 0.0 ],
              [ -55.00211207472186, -10.250944081945859, 0.0 ],
              [ -54.999763997676006, -10.248188968130501, 0.0 ],
              [ -54.99964881718097, -10.248280307897156, 0.0 ],
              [ -54.9983561032892, -10.24934409470671, 0.0 ],
              [ -54.99833632452643, -10.249321125850276, 0.0 ],
              [ -54.998237345044, -10.2493996168829, 0.0 ],
              [ -54.99774327900005, -10.248810803518046, 0.0 ],
              [ -54.99720033105039, -10.249251986977088, 0.0 ],
              [ -54.99719378207385, -10.249243940527606, 0.0 ],
              [ -54.9969328035043, -10.249473021083503, 0.0 ],
              [ -54.996246730571904, -10.248770489860489, 0.0 ],
              [ -54.994901536431605, -10.250395039823225, 0.0 ]
            ]
          ]
        ]
      }
    },
    {
      "type": "Feature",
      "properties": {
        "id": 12,
        "zona": "6",
        "valor_m2": 331.25
      },
      "geometry": {
        "type": "MultiPolygon",
        "coordinates": [
          [
            [
              [ -54.99136102783658, -10.255880161602466, 0.0 ],
              [ -54.9928180799221, -10.261961384098862, 0.0 ],
              [ -54.99739652708395, -10.258255925989129, 0.0 ],
              [ -54.99820048922425, -10.259184005548654, 0.0 ],
              [ -54.99966952642547, -10.25804013230444, 0.0 ],
              [ -54.9996576494353, -10.258026126380102, 0.0 ],
              [ -54.99356850874658, -10.25122747703103, 0.0 ],
              [ -54.98971826580122, -10.25360396891001, 0.0 ],
              [ -54.989733736331345, -10.253610414213382, 0.0 ],
              [ -54.99060260869132, -10.254457121722496, 0.0 ],
              [ -54.99136102783658, -10.255880161602466, 0.0 ]
            ]
          ]
        ]
      }
    },
    {
      "type": "Feature",
      "properties": {
        "id": 13,
        "zona": "2",
        "valor_m2": 115.02
      },
      "geometry": {
        "type": "MultiPolygon",
        "coordinates": [
          [
            [
              [ -54.99490954993221, -10.250404886009251, 0.0 ],
              [ -54.9943251017696, -10.250957309615, 0.0 ],
              [ -55.00009330434629, -10.257622741542296, 0.0 ],
              [ -55.00094617834691, -10.258600120290376, 0.0 ],
              [ -55.00132163841012, -10.258283417386155, 0.0 ],
              [ -54.99490954993221, -10.250404886009251, 0.0 ]
            ]
          ]
        ]
      }
    },
    {
      "type": "Feature",
      "properties": {
        "id": 13,
        "zona": "1",
        "valor_m2": 544.22
      },
      "geometry": {
        "type": "MultiPolygon",
        "coordinates": [
          [
            [
              [ -55.00009330434629, -10.257622741542296, 0.0 ],
              [ -54.9943251017696, -10.250957309615, 0.0 ],
              [ -54.99490954993221, -10.250404886009251, 0.0 ],
              [ -54.994901536431605, -10.250395039823225, 0.0 ],
              [ -54.99228931319336, -10.247923328341859, 0.0 ],
              [ -54.990467998993594, -10.245647334842218, 0.0 ],
              [ -54.99875499354011, -10.238786285320995, 0.0 ],
              [ -54.99945617612553, -10.239731092090292, 0.0 ],
              [ -54.9993375937335, -10.23795044644591, 0.0 ],
              [ -54.9988170426283, -10.238105741764503, 0.0 ],
              [ -54.99790011405991, -10.238856433283303, 0.0 ],
              [ -54.99766910404469, -10.238586819800915, 0.0 ],
              [ -54.997595192873106, -10.238650933597809, 0.0 ],
              [ -54.991621120821776, -10.243494869988456, 0.0 ],
              [ -54.991456957099416, -10.243546144512438, 0.0 ],
              [ -54.9852128576799, -10.23605759934662, 0.0 ],
              [ -54.98397058214953, -10.237015668329214, 0.0 ],
              [ -54.9834738004149, -10.237398796837692, 0.0 ],
              [ -54.9829330925375, -10.237864260576604, 0.0 ],
              [ -54.9813407165886, -10.239387516910208, 0.0 ],
              [ -54.98733211629931, -10.24625914147169, 0.0 ],
              [ -54.9885691549392, -10.24633298503421, 0.0 ],
              [ -54.98913659735044, -10.246045681506248, 0.0 ],
              [ -54.98969925823424, -10.24678676382623, 0.0 ],
              [ -54.990299821136354, -10.247418315441944, 0.0 ],
              [ -54.991160281015205, -10.248320751883947, 0.0 ],
              [ -54.99252378860737, -10.249855070853384, 0.0 ],
              [ -54.99356850874658, -10.25122747703103, 0.0 ],
              [ -54.99968082207654, -10.258031108674976, 0.0 ],
              [ -54.99996955356434, -10.25774525787681, 0.0 ],
              [ -54.99996955357927, -10.257745257894577, 0.0 ],
              [ -54.999985451449376, -10.257729518605833, 0.0 ],
              [ -54.99999107981847, -10.257723946391279, 0.0 ],
              [ -54.99999107981323, -10.257723946384948, 0.0 ],
              [ -55.00009330434629, -10.257622741542296, 0.0 ]
            ]
          ]
        ]
      }
    },
    {
      "type": "Feature",
      "properties": {
        "id": 14,
        "zona": "11",
        "valor_m2": 88.89
      },
      "geometry": {
        "type": "MultiPolygon",
        "coordinates": [
          [
            [
              [ -54.974311917879206, -10.245215668052404, 0.0 ],
              [ -54.976084104401934, -10.247304315240921, 0.0 ],
              [ -54.97611393275168, -10.247280474002409, 0.0 ],
              [ -54.97753249860477, -10.24900512119093, 0.0 ],
              [ -54.9785015627677, -10.248190206153303, 0.0 ],
              [ -54.97532984054033, -10.244278007473682, 0.0 ],
              [ -54.97526809871846, -10.24432974696653, 0.0 ],
              [ -54.974311917879206, -10.245215668052404, 0.0 ]
            ]
          ]
        ]
      }
    },
    {
      "type": "Feature",
      "properties": {
        "id": 15,
        "zona": "11",
        "valor_m2": 88.89
      },
      "geometry": {
        "type": "MultiPolygon",
        "coordinates": [
          [
            [
              [ -54.42741194, -10.441337499663259, 0.0 ],
              [ -54.43249083000001, -10.444845829663135, 0.0 ],
              [ -54.433495, -10.445480559663123, 0.0 ],
              [ -54.43438888999999, -10.446052219663112, 0.0 ],
              [ -54.43460194, -10.445883059663098, 0.0 ],
              [ -54.44432611000001, -10.440975559663267, 0.0 ],
              [ -54.44894083000002, -10.438646669663312, 0.0 ],
              [ -54.453545, -10.436320829663394, 0.0 ],
              [ -54.45365083000001, -10.436350279663403, 0.0 ],
              [ -54.45694778, -10.433641669663489, 0.0 ],
              [ -54.45687916999999, -10.433583059663489, 0.0 ],
              [ -54.45520806000001, -10.42637916966371, 0.0 ],
              [ -54.42741194, -10.441337499663259, 0.0 ]
            ]
          ],
          [
            [
              [ -54.42665282807702, -10.44067976292477, 0.0 ],
              [ -54.44453496864813, -10.43100116406786, 0.0 ],
              [ -54.45717651719842, -10.424322080164918, 0.0 ],
              [ -54.45768456107108, -10.424156606224306, 0.0 ],
              [ -54.45961748963708, -10.424138900591014, 0.0 ],
              [ -54.45961149246547, -10.423797835144724, 0.0 ],
              [ -54.45641555343418, -10.418097932024333, 0.0 ],
              [ -54.45616871416048, -10.417751789392643, 0.0 ],
              [ -54.44458694421554, -10.422259639819544, 0.0 ],
              [ -54.44203925563792, -10.423253091553155, 0.0 ],
              [ -54.43746935303341, -10.425026462501673, 0.0 ],
              [ -54.43206541637682, -10.42823200573117, 0.0 ],
              [ -54.41919653378594, -10.435864885804431, 0.0 ],
              [ -54.42665282807702, -10.44067976292477, 0.0 ]
            ]
          ]
        ]
      }
    },
    {
      "type": "Feature",
      "properties": {
        "id": 16,
        "zona": "7",
        "valor_m2": 416.67
      },
      "geometry": {
        "type": "MultiPolygon",
        "coordinates": [
          [
            [
              [ -54.999567026102206, -10.237734225380889, 0.0 ],
              [ -55.001112538539786, -10.237729191096753, 0.0 ],
              [ -55.00726477444436, -10.237620767219283, 0.0 ],
              [ -55.0072391890607, -10.237329930169599, 0.0 ],
              [ -55.0059566614372, -10.2373255240544, 0.0 ],
              [ -55.0054776097049, -10.236965458385999, 0.0 ],
              [ -55.005456484141, -10.236159810011705, 0.0 ],
              [ -55.0051127608002, -10.2361585561222, 0.0 ],
              [ -55.00501668244971, -10.23396086548049, 0.0 ],
              [ -55.0046593999905, -10.233246370324593, 0.0 ],
              [ -55.0035464439165, -10.232878740112296, 0.0 ],
              [ -55.0023741275418, -10.232306818216406, 0.0 ],
              [ -55.0019405492974, -10.2314912570534, 0.0 ],
              [ -55.0017970604757, -10.231326769867502, 0.0 ],
              [ -55.001625573835, -10.231165782408894, 0.0 ],
              [ -55.0012785873808, -10.23098055825689, 0.0 ],
              [ -55.0011763829795, -10.230337427543496, 0.0 ],
              [ -55.00117409497171, -10.230239168517896, 0.0 ],
              [ -54.9994124782997, -10.230361265497708, 0.0 ],
              [ -54.99939801223633, -10.231827329576202, 0.0 ],
              [ -54.99499730443548, -10.235468542888958, 0.0 ],
              [ -54.99790011405991, -10.238856433283303, 0.0 ],
              [ -54.9988170426283, -10.238105741764503, 0.0 ],
              [ -54.9993375937335, -10.23795044644591, 0.0 ],
              [ -54.999339904318866, -10.237744650125494, 0.0 ],
              [ -54.999567026102206, -10.237734225380889, 0.0 ]
            ]
          ]
        ]
      }
    },
    {
      "type": "Feature",
      "properties": {
        "id": 17,
        "zona": "2",
        "valor_m2": 115.02
      },
      "geometry": {
        "type": "MultiPolygon",
        "coordinates": [
          [
            [
              [ -54.9823037402762, -10.238466294800215, 0.0 ],
              [ -54.9829330925375, -10.237864260576604, 0.0 ],
              [ -54.978848910708, -10.232657541196206, 0.0 ],
              [ -54.978847845862155, -10.232656052097752, 0.0 ],
              [ -54.97867593986698, -10.232415655845488, 0.0 ],
              [ -54.97849303857767, -10.232560486949282, 0.0 ],
              [ -54.97355933616264, -10.225900712521895, 0.0 ],
              [ -54.97281896716624, -10.226456158397209, 0.0 ],
              [ -54.978038281063306, -10.233250014537598, 0.0 ],
              [ -54.9823037402762, -10.238466294800215, 0.0 ]
            ]
          ]
        ]
      }
    },
    {
      "type": "Feature",
      "properties": {
        "id": 5,
        "zona": "10",
        "valor_m2": 493.67
      },
      "geometry": {
        "type": "MultiPolygon",
        "coordinates": [
          [
            [
              [ -55.005203723330546, -10.229444158107128, 0.0 ],
              [ -55.00631753249166, -10.230680675057172, 0.0 ],
              [ -55.006717072088854, -10.231592124763282, 0.0 ],
              [ -55.00770343546944, -10.233577337136863, 0.0 ],
              [ -55.00899569635414, -10.236414692557592, 0.0 ],
              [ -55.008947829944645, -10.237952400962646, 0.0 ],
              [ -55.0096136233095, -10.237994326619601, 0.0 ],
              [ -55.00956419853, -10.236298920900294, 0.0 ],
              [ -55.00692806420632, -10.23032170991583, 0.0 ],
              [ -55.0065083469724, -10.229379130413378, 0.0 ],
              [ -55.00555503201234, -10.229422090680218, 0.0 ],
              [ -55.005203723330546, -10.229444158107128, 0.0 ]
            ]
          ]
        ]
      }
    }
  ]
}