{
"type": "FeatureCollection",
"name": "setores_novos",
"crs": { "type": "name", "properties": { "name": "urn:ogc:def:crs:EPSG::31981" } },
"features": [
{ "type": "Feature", "properties": { "id": 4.0, "zona": "ZONA 01", "nome": "ZONA 01", "fill_r": 0.0, "fill_g": 0.0, "fill_b": 255.0, "fill_a": 153.0, "stroke_r": 35.0, "stroke_g": 35.0, "stroke_b": 35.0, "stroke_a": 153.0, "fill_hex": "#0000ff", "stroke_hex": "#232323" }, "geometry": { "type": "MultiPolygon", "coordinates": [ [ [ [ 721093.541522855870426, 8868452.512734035030007 ], [ 721247.036779486224987, 8868329.867972254753113 ], [ 721395.840982134686783, 8868209.049493126571178 ], [ 720911.248498135013506, 8867597.556497346609831 ], [ 720740.865868942230009, 8867737.540801711380482 ], [ 720825.075300570577383, 8867836.75399161875248 ], [ 720649.621910570887849, 8867978.444311589002609 ], [ 720880.506279510795139, 8868294.263082481920719 ], [ 720946.313010601559654, 8868246.029865419492126 ], [ 721093.541522855870426, 8868452.512734035030007 ] ] ] ] } },
{ "type": "Feature", "properties": { "id": 7.0, "zona": "ZONA 01", "nome": "ZONA IMOBILIARIA 7 - NOVA", "fill_r": 255.0, "fill_g": 255.0, "fill_b": 255.0, "fill_a": 189.0, "stroke_r": 35.0, "stroke_g": 35.0, "stroke_b": 35.0, "stroke_a": 153.0, "fill_hex": "#ffffff", "stroke_hex": "#232323" }, "geometry": { "type": "MultiPolygon", "coordinates": [ [ [ [ 718131.739360044128262, 8867232.943650800734758 ], [ 718209.222999295918271, 8867225.149902598932385 ], [ 718199.673312743660063, 8867014.180332379415631 ], [ 718124.581071738153696, 8867014.979099120944738 ], [ 718131.739360044128262, 8867232.943650800734758 ] ] ] ] } },
{ "type": "Feature", "properties": { "id": 8.0, "zona": "ZONA 02", "nome": "ZONA 02", "fill_r": 0.0, "fill_g": 255.0, "fill_b": 7.0, "fill_a": 153.0, "stroke_r": 35.0, "stroke_g": 35.0, "stroke_b": 35.0, "stroke_a": 153.0, "fill_hex": "#00ff07", "stroke_hex": "#232323" }, "geometry": { "type": "MultiPolygon", "coordinates": [ [ [ [ 722444.860421012272127, 8869560.783512093126774 ], [ 722296.032249972573482, 8869383.486785737797618 ], [ 722250.741118755890056, 8869362.279736081138253 ], [ 722189.820629048277624, 8869317.725486915558577 ], [ 722273.173562781652436, 8869441.592976219952106 ], [ 722387.067437939113006, 8869600.436698662117124 ], [ 722444.860421012272127, 8869560.783512093126774 ] ] ] ] } },
{ "type": "Feature", "properties": { "id": 9.0, "zona": "ZONA 02", "nome": "ZONA 02", "fill_r": 85.0, "fill_g": 255.0, "fill_b": 0.0, "fill_a": 153.0, "stroke_r": 35.0, "stroke_g": 35.0, "stroke_b": 35.0, "stroke_a": 153.0, "fill_hex": "#55ff00", "stroke_hex": "#232323" }, "geometry": { "type": "MultiPolygon", "coordinates": [ [ [ [ 722152.42065755079966, 8869344.129746485501528 ], [ 722324.695017218589783, 8869653.864270502701402 ], [ 722372.279519325937144, 8869608.344947108998895 ], [ 722179.527908333577216, 8869322.348993914201856 ], [ 722152.42065755079966, 8869344.129746485501528 ] ] ] ] } },
{ "type": "Feature", "properties": { "id": 10.0, "zona": "ZONA 03", "nome": "ZONA 03", "fill_r": 255.0, "fill_g": 0.0, "fill_b": 218.0, "fill_a": 153.0, "stroke_r": 35.0, "stroke_g": 35.0, "stroke_b": 35.0, "stroke_a": 153.0, "fill_hex": "#ff00da", "stroke_hex": "#232323" }, "geometry": { "type": "MultiPolygon", "coordinates": [ [ [ [ 720012.837724493816495, 8868341.874450473114848 ], [ 720311.961100218002684, 8868092.985035121440887 ], [ 720683.033965020556934, 8867785.055093988776207 ], [ 720483.770462765591219, 8867541.11135627143085 ], [ 720367.75722593604587, 8867401.221293814480305 ], [ 720288.336183796054684, 8867306.214152881875634 ], [ 720003.666762440116145, 8866967.712671069428325 ], [ 719994.030758964363486, 8866976.440794501453638 ], [ 719932.470741699566133, 8867027.532635614275932 ], [ 719920.940191778820008, 8867037.126744428649545 ], [ 719859.444226473802701, 8867088.295458737760782 ], [ 719847.913638907135464, 8867097.889646386727691 ], [ 719786.417579422472045, 8867149.058301094919443 ], [ 719767.200121449772269, 8867165.048482730984688 ], [ 719705.704056539805606, 8867216.217169964686036 ], [ 719694.173497851588763, 8867225.811290012672544 ], [ 719632.677449045120738, 8867276.980027636513114 ], [ 719621.146961606107652, 8867286.574115224182606 ], [ 719559.650928225368261, 8867337.742792628705502 ], [ 719548.120403146487661, 8867347.336959067732096 ], [ 719486.624385887640528, 8867398.505686905235052 ], [ 719475.093822483555414, 8867408.099821573123336 ], [ 719413.597820667200722, 8867459.268489236012101 ], [ 719402.067218938842416, 8867468.86259213462472 ], [ 719340.57123326358851, 8867520.031310269609094 ], [ 719331.820825433591381, 8867527.69027890637517 ], [ 719422.733635684475303, 8867641.591999549418688 ], [ 719613.602838909602724, 8867870.960029663518071 ], [ 719777.098125641583465, 8868065.46394407749176 ], [ 720012.837724493816495, 8868341.874450473114848 ] ] ] ] } },
{ "type": "Feature", "properties": { "id": 11.0, "zona": "ZONA 03", "nome": "ZONA 3", "fill_r": 170.0, "fill_g": 0.0, "fill_b": 127.0, "fill_a": 153.0, "stroke_r": 35.0, "stroke_g": 35.0, "stroke_b": 35.0, "stroke_a": 153.0, "fill_hex": "#aa007f", "stroke_hex": "#232323" }, "geometry": { "type": "MultiPolygon", "coordinates": [ [ [ [ 720825.075300570577383, 8867836.75399161875248 ], [ 720740.865868942230009, 8867737.540801711380482 ], [ 720683.033965020556934, 8867785.055093988776207 ], [ 720570.524310195818543, 8867878.553972199559212 ], [ 720649.621910570887849, 8867978.444311589002609 ], [ 720825.075300570577383, 8867836.75399161875248 ] ] ] ] } },
{ "type": "Feature", "properties": { "id": 12.0, "zona": "ZONA 04", "nome": "ZONA 04", "fill_r": 0.0, "fill_g": 255.0, "fill_b": 249.0, "fill_a": 153.0, "stroke_r": 35.0, "stroke_g": 35.0, "stroke_b": 35.0, "stroke_a": 153.0, "fill_hex": "#00fff9", "stroke_hex": "#232323" }, "geometry": { "type": "MultiPolygon", "coordinates": [ [ [ [ 719325.715977363754064, 8867520.489714547991753 ], [ 719302.026466268347576, 8867490.971213169395924 ], [ 719252.657682674005628, 8867533.431024990975857 ], [ 719241.453536024084315, 8867521.991470083594322 ], [ 719248.631395240779966, 8867516.474527278915048 ], [ 719228.256417292635888, 8867489.380277974531054 ], [ 719250.287190821138211, 8867474.565843533724546 ], [ 719257.051195782842115, 8867470.132574040442705 ], [ 719278.403043669997714, 8867453.617811385542154 ], [ 719284.816938396426849, 8867448.092770529910922 ], [ 719297.741541426046751, 8867437.140324663370848 ], [ 719291.963225828716531, 8867430.814939193427563 ], [ 719299.588075325009413, 8867424.280697505921125 ], [ 719306.978224382386543, 8867418.491255886852741 ], [ 719308.448918259004131, 8867417.098096309229732 ], [ 719315.131067944108509, 8867412.244804210960865 ], [ 719329.5780234670965, 8867401.232764154672623 ], [ 719325.682861146517098, 8867396.528956467285752 ], [ 719328.609708342235535, 8867392.867064286023378 ], [ 719342.209374978207052, 8867379.352782977744937 ], [ 719356.251343502197415, 8867364.857969280332327 ], [ 719377.190008097444661, 8867344.772463347762823 ], [ 719374.709964783280157, 8867341.670681828632951 ], [ 719397.322480544564314, 8867321.923357808962464 ], [ 719412.382978612789884, 8867339.62926453910768 ], [ 719419.721205529640429, 8867333.407870953902602 ], [ 719426.3126238824334, 8867340.96583454683423 ], [ 719445.021976506803185, 8867324.361273495480418 ], [ 719444.989967430476099, 8867307.161662768572569 ], [ 719464.733512090169825, 8867291.736199360340834 ], [ 719453.207797646406107, 8867276.220993231981993 ], [ 719464.705684149404988, 8867269.361581731587648 ], [ 719490.777089342940599, 8867251.331375787034631 ], [ 719492.565857309149578, 8867253.809496078640223 ], [ 719538.758649492869154, 8867223.557545559480786 ], [ 719544.446452843607403, 8867211.80996553786099 ], [ 719553.122884540818632, 8867203.993947437033057 ], [ 719558.407557704020292, 8867210.459218129515648 ], [ 719564.037689061136916, 8867205.857241701334715 ], [ 719566.518478250596672, 8867203.829384747892618 ], [ 719571.155158087611198, 8867200.039441749453545 ], [ 719575.561245475546457, 8867196.437903214246035 ], [ 719578.432457590824924, 8867194.090982994064689 ], [ 719585.780393131775782, 8867187.449186369776726 ], [ 719586.745958797167987, 8867186.576365273445845 ], [ 719594.972474597627297, 8867179.928544908761978 ], [ 719604.058348152786493, 8867173.214524868875742 ], [ 719605.921151385176927, 8867171.758944556117058 ], [ 719610.011313189053908, 8867168.562846321612597 ], [ 719611.733440884505399, 8867167.217225657775998 ], [ 719614.217996933264658, 8867164.985554238781333 ], [ 719621.458724920754321, 8867158.515785869210958 ], [ 719628.841361365863122, 8867151.993798224255443 ], [ 719628.760909709730186, 8867151.902694655582309 ], [ 719629.111477074911818, 8867151.659110475331545 ], [ 719637.437595541821793, 8867145.87525625154376 ], [ 719645.476852195104584, 8867139.883977768942714 ], [ 719653.671328090480529, 8867134.112775921821594 ], [ 719654.514800602686591, 8867133.518844645470381 ], [ 719662.573889044113457, 8867127.633645633235574 ], [ 719663.845929158502258, 8867126.704813849180937 ], [ 719669.913923887652345, 8867121.769073793664575 ], [ 719671.554587636026554, 8867120.434466665610671 ], [ 719677.554376290179789, 8867115.421153027564287 ], [ 719679.903948355233297, 8867113.457827307283878 ], [ 719688.150198191753589, 8867106.570444675162435 ], [ 719696.087899237405509, 8867100.603569628670812 ], [ 719696.527619950706139, 8867100.247247176244855 ], [ 719704.189415261615068, 8867094.037477498874068 ], [ 719704.547592113027349, 8867094.435297194868326 ], [ 719704.907520172768272, 8867094.111333921551704 ], [ 719712.339816863182932, 8867087.421072158962488 ], [ 719712.274824291700497, 8867087.348901426419616 ], [ 719720.036099188728258, 8867080.362635778263211 ], [ 719721.988199865445495, 8867082.531283097341657 ], [ 719731.142452454427257, 8867075.050658229738474 ], [ 719740.118553549051285, 8867068.102733260020614 ], [ 719747.293900075135753, 8867061.663319133222103 ], [ 719748.369337658165023, 8867060.697650086134672 ], [ 719750.518797806464136, 8867058.767869543284178 ], [ 719755.855419284431264, 8867055.06215170584619 ], [ 719756.904718599049374, 8867054.333511237055063 ], [ 719763.440116788493469, 8867049.795331226661801 ], [ 719771.824749729130417, 8867042.593304248526692 ], [ 719780.029494186630473, 8867035.609789930284023 ], [ 719780.848104420234449, 8867034.913009902462363 ], [ 719789.4660008715, 8867026.950357504189014 ], [ 719791.713677998515777, 8867029.740136574953794 ], [ 719800.413232067716308, 8867022.730964032933116 ], [ 719814.101003672578372, 8867011.641634063795209 ], [ 719817.891004494042136, 8867008.571173215284944 ], [ 719824.896849693963304, 8867002.895169163122773 ], [ 719825.539255742914975, 8867002.374729137867689 ], [ 719833.049255119403824, 8866996.290441647171974 ], [ 719847.098223638953641, 8866984.908430945128202 ], [ 719842.80015305581037, 8866979.916219523176551 ], [ 719850.811919065890834, 8866973.006350427865982 ], [ 719852.531390144256875, 8866974.999980535358191 ], [ 719860.050626036711037, 8866968.377395745366812 ], [ 719867.3739084135741, 8866961.927290737628937 ], [ 719850.224392358213663, 8866943.474971055984497 ], [ 719859.676728622522205, 8866935.322666924446821 ], [ 719876.939193852012977, 8866954.93028749525547 ], [ 719886.31011797953397, 8866946.954943550750613 ], [ 719886.68188989860937, 8866947.388853952288628 ], [ 719899.652170306770131, 8866936.350085876882076 ], [ 719915.861934103886597, 8866926.500781917944551 ], [ 719928.394120257813483, 8866941.3021923545748 ], [ 719931.324117742246017, 8866941.290009431540966 ], [ 719939.511487066629343, 8866934.691559737548232 ], [ 719943.643495257827453, 8866931.361394185572863 ], [ 719930.56108713184949, 8866917.190489845350385 ], [ 719939.726901666959748, 8866909.240081593394279 ], [ 719943.500821461202577, 8866905.966469230130315 ], [ 719950.300982900545932, 8866900.068013457581401 ], [ 719953.384335013339296, 8866897.393471568822861 ], [ 719958.75649062008597, 8866892.732945980504155 ], [ 719957.137969761271961, 8866890.867247208952904 ], [ 719964.026869186433032, 8866884.49162507802248 ], [ 719964.351871998980641, 8866884.190887797623873 ], [ 719965.565212083281949, 8866885.501851860433817 ], [ 719975.564239738625474, 8866876.247950296849012 ], [ 719972.508845829870552, 8866873.371835611760616 ], [ 719981.627827602322213, 8866865.084161262959242 ], [ 719988.221268948633224, 8866859.091839615255594 ], [ 719998.420326283434406, 8866848.793296094983816 ], [ 720006.303899386897683, 8866841.438546843826771 ], [ 720012.608954032300971, 8866835.733231011778116 ], [ 720023.773352445452474, 8866825.479879077523947 ], [ 720000.120453963289037, 8866801.058580787852407 ], [ 720007.806493768584915, 8866793.308218315243721 ], [ 720011.812165172770619, 8866789.33339175209403 ], [ 720006.679916245280765, 8866783.824434146285057 ], [ 720071.497911028563976, 8866723.035009823739529 ], [ 720066.30163383600302, 8866716.256828926503658 ], [ 720047.920448058983311, 8866694.263054514303803 ], [ 720035.633524348726496, 8866678.656187176704407 ], [ 720029.199182601529174, 8866670.483225829899311 ], [ 720017.805008656694554, 8866663.252607079222798 ], [ 720059.834534022957087, 8866625.603177225217223 ], [ 720040.581120694288984, 8866602.641164602711797 ], [ 720024.559432163368911, 8866616.979565590620041 ], [ 720010.85820660716854, 8866600.179818574339151 ], [ 720026.658552701119334, 8866585.983972780406475 ], [ 720021.586722018430009, 8866579.91616672091186 ], [ 720014.945205954369158, 8866573.292484352365136 ], [ 720011.824168307357468, 8866569.639917626976967 ], [ 720008.588661171728745, 8866565.853313220664859 ], [ 719984.811718567740172, 8866585.44406327791512 ], [ 719976.784410738036968, 8866576.369414485991001 ], [ 719974.134171774261631, 8866573.373394932597876 ], [ 719972.178426168859005, 8866571.357681721448898 ], [ 719971.413134890026413, 8866570.568991700187325 ], [ 719967.592733234167099, 8866565.417827716097236 ], [ 719968.545924338512123, 8866564.6033717058599 ], [ 719974.748259582673199, 8866559.303723350167274 ], [ 719971.408240137505345, 8866555.485352825373411 ], [ 719987.777934332727455, 8866541.497945461422205 ], [ 719984.984304834972136, 8866538.22856092825532 ], [ 719968.838057619985193, 8866552.024947313591838 ], [ 719960.463290979969315, 8866543.179705757647753 ], [ 719974.194440914434381, 8866530.178909 ], [ 719978.243631244404241, 8866530.33973434753716 ], [ 719969.947986400336958, 8866520.38855129852891 ], [ 719948.669778194860555, 8866498.622146088629961 ], [ 719944.458076271344908, 8866494.313794888556004 ], [ 719937.107824641279876, 8866500.759350644424558 ], [ 719935.386100679636002, 8866498.806676190346479 ], [ 719928.58473942859564, 8866504.05927419103682 ], [ 719922.606335135409608, 8866498.31662342697382 ], [ 719928.803557788254693, 8866492.971654124557972 ], [ 719933.861558607313782, 8866488.58722903765738 ], [ 719927.499690880067647, 8866481.255839629098773 ], [ 719931.54831828433089, 8866477.040894752368331 ], [ 719924.171385124325752, 8866469.475208643823862 ], [ 719916.560573447262868, 8866459.917806517332792 ], [ 719909.030822820146568, 8866465.711185513064265 ], [ 719906.401578362565488, 8866462.090948790311813 ], [ 719899.967190947034396, 8866452.793497750535607 ], [ 719901.375961048761383, 8866451.883491024374962 ], [ 719898.736859798664227, 8866447.578604646027088 ], [ 719894.88472902495414, 8866439.971902722492814 ], [ 719901.066189931472763, 8866436.1597521007061 ], [ 719895.645216612378135, 8866427.639155583456159 ], [ 719883.418351668864489, 8866419.354943888261914 ], [ 719878.120509385480545, 8866412.514433057978749 ], [ 719870.451776794274338, 8866418.388770127668977 ], [ 719866.784423468518071, 8866414.756419057026505 ], [ 719858.954872410977259, 8866407.001487120985985 ], [ 719854.157611913629808, 8866411.498671343550086 ], [ 719849.797756025567651, 8866406.940209405496716 ], [ 719847.182151492219418, 8866404.205395679920912 ], [ 719839.724892865400761, 8866400.218750024214387 ], [ 719814.435053077060729, 8866371.615486167371273 ], [ 719790.407559659564868, 8866344.886770624667406 ], [ 719772.746600440470502, 8866325.24027656763792 ], [ 719737.9106437319424, 8866289.222644601017237 ], [ 719732.714797453256324, 8866291.952715359628201 ], [ 719608.000960696022958, 8866429.629400253295898 ], [ 719603.2415542579256, 8866436.320719992741942 ], [ 719514.218931635143235, 8866364.107681764289737 ], [ 719344.529522640048526, 8866582.601914322003722 ], [ 719164.362140228273347, 8866859.281954007223248 ], [ 719126.932209491264075, 8866981.736440993845463 ], [ 719136.473632223438472, 8867552.550640262663364 ], [ 719122.79030963475816, 8867552.895693313330412 ], [ 719082.138420208822936, 8867554.171963144093752 ], [ 719082.789288533269428, 8867577.961640287190676 ], [ 719073.180889439070597, 8867578.150278048589826 ], [ 719065.998632905888371, 8867578.214992107823491 ], [ 719065.572680314769968, 8867554.908825041726232 ], [ 719058.133826357778162, 8867554.909083228558302 ], [ 719006.468958576326258, 8867554.946931425482035 ], [ 718992.95548033574596, 8867556.419777927920222 ], [ 718942.402650093892589, 8867556.419765576720238 ], [ 718926.358670730609447, 8867556.649502824991941 ], [ 718876.849039245396852, 8867557.526771461591125 ], [ 718863.030820657848381, 8867557.851428810507059 ], [ 718812.144677493954077, 8867558.558248825371265 ], [ 718798.235944954794832, 8867558.793939899653196 ], [ 718746.740252837189473, 8867560.037251280620694 ], [ 718727.689372078632005, 8867560.479915466159582 ], [ 718676.668772473, 8867563.462976448237896 ], [ 718662.280868739355356, 8867562.941535757854581 ], [ 718612.600838018464856, 8867564.746810032054782 ], [ 718598.055470699211583, 8867565.074539126828313 ], [ 718547.837749327067286, 8867565.625601056963205 ], [ 718533.213517593685538, 8867566.223624557256699 ], [ 718508.116107825073414, 8867566.621960094198585 ], [ 718482.584033030550927, 8867567.027061801403761 ], [ 718467.93924593157135, 8867567.065384430810809 ], [ 718455.468562309863046, 8867567.228424550965428 ], [ 718443.124984337482601, 8867567.389899151399732 ], [ 718430.090112595935352, 8867567.56029424443841 ], [ 718430.61515439581126, 8867590.071431213989854 ], [ 718419.410293108318001, 8867590.31358040496707 ], [ 718391.173023841227405, 8867589.805929278954864 ], [ 718390.761580825783312, 8867568.170192684978247 ], [ 718378.261157252592966, 8867568.484845360741019 ], [ 718352.404286126838997, 8867569.135806784033775 ], [ 718338.44128221005667, 8867569.875803593546152 ], [ 718286.495347384130582, 8867570.87639406695962 ], [ 718273.995419524144381, 8867571.412050079554319 ], [ 718240.756516637280583, 8867571.303840834647417 ], [ 718234.110548744443804, 8867534.978950764983892 ], [ 718220.777318057254888, 8867536.124791637063026 ], [ 718140.400977344834246, 8867547.715881427749991 ], [ 718141.687306779203936, 8867594.462496282532811 ], [ 718142.054886253201403, 8867607.412729732692242 ], [ 718247.268426091992296, 8867604.750240920111537 ], [ 718248.073936419794336, 8867617.66580019518733 ], [ 718251.125589098897763, 8867643.207447117194533 ], [ 718252.75694848340936, 8867644.52174075320363 ], [ 718274.469551559421234, 8867642.428620288148522 ], [ 718288.309087587753311, 8867637.791283817961812 ], [ 718341.329483565641567, 8867635.643000192940235 ], [ 718353.513592283707112, 8867638.73359883390367 ], [ 718378.59487455803901, 8867635.316211486235261 ], [ 718404.015585695626214, 8867636.61861184053123 ], [ 718417.745957769569941, 8867637.61076895147562 ], [ 718469.80197217722889, 8867634.13723836094141 ], [ 718481.994208651827648, 8867632.571662155911326 ], [ 718534.070951457135379, 8867632.533712083473802 ], [ 718548.120567450881936, 8867633.051219921559095 ], [ 718733.005037614144385, 8867630.108529880642891 ], [ 718747.6060546701774, 8867629.736594885587692 ], [ 718928.80891676992178, 8867626.768118731677532 ], [ 718942.171017512795515, 8867604.084825251251459 ], [ 718943.638805034570396, 8867602.537813091650605 ], [ 718953.720679368590936, 8867602.326914075762033 ], [ 718954.151344704325311, 8867625.575398417189717 ], [ 719124.298371595330536, 8867623.65746783465147 ], [ 719150.519979070406407, 8867622.232460025697947 ], [ 719164.928234009305015, 8867622.013779062777758 ], [ 719175.533032626844943, 8867621.852785153314471 ], [ 719175.219343593344092, 8867597.453960767015815 ], [ 719187.617231290903874, 8867595.952571582049131 ], [ 719187.843143887468614, 8867612.638388015329838 ], [ 719189.8206343119964, 8867616.674722829833627 ], [ 719210.12625818781089, 8867604.490836665034294 ], [ 719236.542888005264103, 8867617.086734920740128 ], [ 719266.585743743693456, 8867570.52218503691256 ], [ 719276.165898636798374, 8867559.38342990167439 ], [ 719315.554501043632627, 8867527.570096230134368 ], [ 719325.715977363754064, 8867520.489714547991753 ] ] ] ] } },
{ "type": "Feature", "properties": { "id": 13.0, "zona": "ZONA 05", "nome": "ZONA 05", "fill_r": 255.0, "fill_g": 247.0, "fill_b": 0.0, "fill_a": 153.0, "stroke_r": 35.0, "stroke_g": 35.0, "stroke_b": 35.0, "stroke_a": 153.0, "fill_hex": "#fff700", "stroke_hex": "#232323" }, "geometry": { "type": "MultiPolygon", "coordinates": [ [ [ [ 721322.031926604686305, 8867247.582926424220204 ], [ 721790.796046133502387, 8866854.941735118627548 ], [ 721880.613960337592289, 8866778.489496733993292 ], [ 721653.752860067994334, 8866511.967431046068668 ], [ 721563.934931723866612, 8866588.419584829360247 ], [ 721466.708734849002212, 8866474.195809857919812 ], [ 721380.554372203187086, 8866548.073308754712343 ], [ 721167.391638395842165, 8866729.533072520047426 ], [ 721085.275654864613898, 8866631.979181842878461 ], [ 720931.289557482581586, 8866761.353516541421413 ], [ 720738.798557050526142, 8866535.713755721226335 ], [ 720646.014695422491059, 8866611.937453469261527 ], [ 720598.763090455555357, 8866629.109393484890461 ], [ 720452.596683547482826, 8866652.644510021433234 ], [ 720794.562904767110012, 8867046.966067718341947 ], [ 720788.232855698210187, 8867052.626336401328444 ], [ 721110.698159489780664, 8867428.038728935644031 ], [ 721322.031926604686305, 8867247.582926424220204 ] ] ] ] } },
{ "type": "Feature", "properties": { "id": 19.0, "zona": "ZONA 06", "nome": "ZONA 06", "fill_r": 255.0, "fill_g": 127.0, "fill_b": 0.0, "fill_a": 153.0, "stroke_r": 35.0, "stroke_g": 35.0, "stroke_b": 35.0, "stroke_a": 153.0, "fill_hex": "#ff7f00", "stroke_hex": "#232323" }, "geometry": { "type": "MultiPolygon", "coordinates": [ [ [ [ 720862.86066704406403, 8866158.429269740357995 ], [ 720823.578029349446297, 8866205.938935916870832 ], [ 720798.366084243752994, 8866241.585181303322315 ], [ 720811.425880085444078, 8866266.316620329394937 ], [ 720739.853955118451267, 8866284.466731902211905 ], [ 720749.931560713797808, 8866348.68611541762948 ], [ 720748.376058729016222, 8866377.524325091391802 ], [ 720766.380864281672984, 8866393.685198420658708 ], [ 720771.246653994894587, 8866408.127326956018806 ], [ 720746.199375101365149, 8866424.342465437948704 ], [ 720764.298004815820605, 8866476.067625243216753 ], [ 720738.798557050526142, 8866535.713755721226335 ], [ 720931.289557482581586, 8866761.353516541421413 ], [ 721085.275654864613898, 8866631.979181842878461 ], [ 721167.391638395842165, 8866729.533072520047426 ], [ 721466.708734849002212, 8866474.195809857919812 ], [ 721563.934931723866612, 8866588.419584829360247 ], [ 721653.752860067994334, 8866511.967431046068668 ], [ 721525.414369660429657, 8866361.19200006313622 ], [ 721435.596352974651381, 8866437.644187964498997 ], [ 721202.70119009737391, 8866196.739060584455729 ], [ 721040.687340812059119, 8866004.851991821080446 ], [ 720862.86066704406403, 8866158.429269740357995 ] ] ] ] } },
{ "type": "Feature", "properties": { "id": 20.0, "zona": "ZONA 06", "nome": "ZONA 06", "fill_r": 255.0, "fill_g": 127.0, "fill_b": 0.0, "fill_a": 153.0, "stroke_r": 35.0, "stroke_g": 35.0, "stroke_b": 35.0, "stroke_a": 153.0, "fill_hex": "#ff7f00", "stroke_hex": "#232323" }, "geometry": { "type": "MultiPolygon", "coordinates": [ [ [ [ 720201.377216835040599, 8865875.932874571532011 ], [ 720208.43639745330438, 8865860.972347676753998 ], [ 719999.39773310534656, 8865315.722189361229539 ], [ 719832.11946475005243, 8864967.932192679494619 ], [ 719345.949064346961677, 8865362.858030013740063 ], [ 719310.510435144416988, 8865421.127613848075271 ], [ 719373.864331490942277, 8865498.816211052238941 ], [ 719404.745283155702055, 8865471.228775585070252 ], [ 719411.229310915805399, 8865478.336408440023661 ], [ 719426.461729494621977, 8865465.279626209288836 ], [ 719482.242082199314609, 8865534.98062795586884 ], [ 719462.822921579703689, 8865552.269238086417317 ], [ 719478.443704022560269, 8865571.788322569802403 ], [ 719402.995438452810049, 8865638.959167627617717 ], [ 719415.652687288238667, 8865653.176268801093102 ], [ 719364.538592925295234, 8865696.493034966289997 ], [ 719383.768898147391155, 8865719.458927523344755 ], [ 719482.598034699913114, 8865671.044674396514893 ], [ 719586.33898595685605, 8865799.352122537791729 ], [ 719509.47455080319196, 8865863.335758002474904 ], [ 719572.444443572312593, 8865940.329623816534877 ], [ 719598.29063225153368, 8865934.279572220519185 ], [ 719621.52364389935974, 8865961.045485902577639 ], [ 719646.662318420014344, 8865991.199832208454609 ], [ 719671.66012018895708, 8865978.351396024227142 ], [ 719716.063873189501464, 8866031.828740932047367 ], [ 719757.561809571809135, 8865996.052480360493064 ], [ 719788.942660795524716, 8866032.45203542150557 ], [ 719705.007866906817071, 8866095.437536904588342 ], [ 719742.674375571194105, 8866150.775799740105867 ], [ 719847.618162229424343, 8866079.370971826836467 ], [ 719890.858206434175372, 8866052.055548427626491 ], [ 719932.187611171626486, 8866025.831653792411089 ], [ 719976.915349245653488, 8865997.914039952680469 ], [ 719978.375142090488225, 8865995.701881838962436 ], [ 720014.526344600599259, 8865976.289259366691113 ], [ 720068.039155102684163, 8865947.586477920413017 ], [ 720201.377216835040599, 8865875.932874571532011 ] ] ] ] } },
{ "type": "Feature", "properties": { "id": 21.0, "zona": "ZONA 07", "nome": "ZONA 07", "fill_r": 190.0, "fill_g": 178.0, "fill_b": 151.0, "fill_a": 153.0, "stroke_r": 35.0, "stroke_g": 35.0, "stroke_b": 35.0, "stroke_a": 153.0, "fill_hex": "#beb297", "stroke_hex": "#232323" }, "geometry": { "type": "MultiPolygon", "coordinates": [ [ [ [ 718142.054886253201403, 8867607.412729732692242 ], [ 718474.654529168503359, 8868042.124928098171949 ], [ 718889.536181967472658, 8868458.434522464871407 ], [ 718951.405157791916281, 8868456.83279106579721 ], [ 719148.461223483551294, 8868442.712529737502337 ], [ 719222.290518503868952, 8868413.508634567260742 ], [ 719190.103086640592664, 8868379.388717956840992 ], [ 719162.946385778253898, 8868343.057987919077277 ], [ 719146.291886071208864, 8868309.540642203763127 ], [ 719146.089085383457132, 8868267.108526103198528 ], [ 719613.602838909602724, 8867870.960029663518071 ], [ 719331.820825433591381, 8867527.69027890637517 ], [ 719325.715977363754064, 8867520.489714547991753 ], [ 719315.554501043632627, 8867527.570096230134368 ], [ 719276.165898636798374, 8867559.38342990167439 ], [ 719266.585743743693456, 8867570.52218503691256 ], [ 719236.542888005264103, 8867617.086734920740128 ], [ 719210.12625818781089, 8867604.490836665034294 ], [ 719189.8206343119964, 8867616.674722829833627 ], [ 719187.843143887468614, 8867612.638388015329838 ], [ 719187.617231290903874, 8867595.952571582049131 ], [ 719175.219343593344092, 8867597.453960767015815 ], [ 719175.533032626844943, 8867621.852785153314471 ], [ 719164.928234009305015, 8867622.013779062777758 ], [ 719150.519979070406407, 8867622.232460025697947 ], [ 719124.298371595330536, 8867623.65746783465147 ], [ 719103.85857356665656, 8867623.887906650081277 ], [ 718954.151344704325311, 8867625.575398417189717 ], [ 718953.720679368590936, 8867602.326914075762033 ], [ 718943.638805034570396, 8867602.537813091650605 ], [ 718942.171017512795515, 8867604.084825251251459 ], [ 718928.80891676992178, 8867626.768118731677532 ], [ 718747.6060546701774, 8867629.736594885587692 ], [ 718733.005037614144385, 8867630.108529880642891 ], [ 718548.120567450881936, 8867633.051219921559095 ], [ 718534.070951457135379, 8867632.533712083473802 ], [ 718481.994208651827648, 8867632.571662155911326 ], [ 718469.80197217722889, 8867634.13723836094141 ], [ 718417.745957769569941, 8867637.61076895147562 ], [ 718404.015585695626214, 8867636.61861184053123 ], [ 718378.59487455803901, 8867635.316211486235261 ], [ 718353.513592283707112, 8867638.73359883390367 ], [ 718341.329483565641567, 8867635.643000192940235 ], [ 718302.127924499218352, 8867637.231428544968367 ], [ 718288.309087587753311, 8867637.791283817961812 ], [ 718274.572126553743146, 8867642.394243076443672 ], [ 718252.75694848340936, 8867644.52174075320363 ], [ 718251.135940680513158, 8867643.215680541470647 ], [ 718248.057064927183092, 8867617.666457679122686 ], [ 718247.268426091992296, 8867604.750240920111537 ], [ 718142.054886253201403, 8867607.412729732692242 ] ] ] ] } },
{ "type": "Feature", "properties": { "id": 22.0, "zona": "ZONA 07", "nome": "ZONA 07", "fill_r": 190.0, "fill_g": 178.0, "fill_b": 151.0, "fill_a": 153.0, "stroke_r": 35.0, "stroke_g": 35.0, "stroke_b": 35.0, "stroke_a": 153.0, "fill_hex": "#beb297", "stroke_hex": "#232323" }, "geometry": { "type": "MultiPolygon", "coordinates": [ [ [ [ 718140.400977344834246, 8867547.715881427749991 ], [ 718220.777318057254888, 8867536.124791637063026 ], [ 718234.110548744443804, 8867534.978950764983892 ], [ 718240.756516637280583, 8867571.303840834647417 ], [ 718273.995419524144381, 8867571.412050079554319 ], [ 718286.495347384130582, 8867570.87639406695962 ], [ 718338.44128221005667, 8867569.875803593546152 ], [ 718352.404286126838997, 8867569.135806784033775 ], [ 718378.261157252592966, 8867568.484845360741019 ], [ 718390.761580825783312, 8867568.170192684978247 ], [ 718391.173023841227405, 8867589.805929278954864 ], [ 718402.545800014748238, 8867589.959478242322803 ], [ 718419.410293108318001, 8867590.31358040496707 ], [ 718430.61515439581126, 8867590.071431213989854 ], [ 718430.090112595935352, 8867567.56029424443841 ], [ 718467.93924593157135, 8867567.065384430810809 ], [ 718482.584033030550927, 8867567.027061801403761 ], [ 718532.142024897388183, 8867566.240658352151513 ], [ 718547.837749327067286, 8867565.625601056963205 ], [ 718598.055470699211583, 8867565.074539126828313 ], [ 718612.600838018464856, 8867564.746810032054782 ], [ 718662.280868739355356, 8867562.941535757854581 ], [ 718676.668772473, 8867563.462976448237896 ], [ 718727.689372078632005, 8867560.479915466159582 ], [ 718746.740252837189473, 8867560.037251280620694 ], [ 718798.235944954794832, 8867558.793939899653196 ], [ 718812.144677493954077, 8867558.558248825371265 ], [ 718863.030820657848381, 8867557.851428810507059 ], [ 718876.849039245396852, 8867557.526771461591125 ], [ 718926.358670730609447, 8867556.649502824991941 ], [ 718942.402650093892589, 8867556.419765576720238 ], [ 718992.95548033574596, 8867556.419777927920222 ], [ 719006.468958576326258, 8867554.946931425482035 ], [ 719032.433052942040376, 8867554.927974125370383 ], [ 719065.572680314769968, 8867554.908825041726232 ], [ 719065.998632905888371, 8867578.214992107823491 ], [ 719082.789288533269428, 8867577.961640287190676 ], [ 719082.138420208822936, 8867554.171963144093752 ], [ 719136.473632223438472, 8867552.550640262663364 ], [ 719126.932209491264075, 8866981.736440993845463 ], [ 718199.461451910668984, 8867013.425242472440004 ], [ 718209.222999295918271, 8867225.149902598932385 ], [ 718131.739360044128262, 8867232.943650800734758 ], [ 718140.400977344834246, 8867547.715881427749991 ] ] ] ] } },
{ "type": "Feature", "properties": { "id": 23.0, "zona": "ZONA 08", "nome": "ZONA 08", "fill_r": 227.0, "fill_g": 26.0, "fill_b": 28.0, "fill_a": 153.0, "stroke_r": 35.0, "stroke_g": 35.0, "stroke_b": 35.0, "stroke_a": 153.0, "fill_hex": "#e31a1c", "stroke_hex": "#232323" }, "geometry": { "type": "MultiPolygon", "coordinates": [ [ [ [ 720012.837724493816495, 8868341.874450473114848 ], [ 719777.098125641583465, 8868065.46394407749176 ], [ 719613.602838909602724, 8867870.960029663518071 ], [ 719145.891012501786463, 8868267.276368375867605 ], [ 719146.291886071208864, 8868309.540642203763127 ], [ 719162.946385778253898, 8868343.057987919077277 ], [ 719190.103086640592664, 8868379.388717956840992 ], [ 719222.290518503868952, 8868413.508634567260742 ], [ 719401.31768146250397, 8868626.026109855622053 ], [ 719354.205803453107364, 8868669.334777541458607 ], [ 719463.403268986847252, 8868796.884714750573039 ], [ 719709.29260396049358, 8868593.533882642164826 ], [ 720012.837724493816495, 8868341.874450473114848 ] ] ] ] } },
{ "type": "Feature", "properties": { "id": 24.0, "zona": "ZONA 09", "nome": "ZONA 09", "fill_r": 114.0, "fill_g": 155.0, "fill_b": 111.0, "fill_a": 153.0, "stroke_r": 35.0, "stroke_g": 35.0, "stroke_b": 35.0, "stroke_a": 153.0, "fill_hex": "#729b6f", "stroke_hex": "#232323" }, "geometry": { "type": "MultiPolygon", "coordinates": [ [ [ [ 720452.596683547482826, 8866652.644510021433234 ], [ 720598.763090455555357, 8866629.109393484890461 ], [ 720646.014695422491059, 8866611.937453469261527 ], [ 720738.798557050526142, 8866535.713755721226335 ], [ 720764.298004815820605, 8866476.067625243216753 ], [ 720754.785930217942223, 8866448.971053887158632 ], [ 720746.199375101365149, 8866424.342465437948704 ], [ 720771.246653994894587, 8866408.127326956018806 ], [ 720766.380864281672984, 8866393.685198420658708 ], [ 720748.396369294961914, 8866377.47795288823545 ], [ 720749.931560713797808, 8866348.68611541762948 ], [ 720739.853955118451267, 8866284.466731902211905 ], [ 720811.425880085444078, 8866266.316620329394937 ], [ 720798.366084243752994, 8866241.585181303322315 ], [ 720823.578029349446297, 8866205.938935916870832 ], [ 720862.86066704406403, 8866158.429269740357995 ], [ 720799.156636779429391, 8866089.989047659561038 ], [ 720736.389646674273536, 8866022.653212200850248 ], [ 720690.856467933044769, 8866006.299428256228566 ], [ 720571.953333525103517, 8865963.738180121406913 ], [ 720566.557941009989008, 8865961.795249231159687 ], [ 720485.066555539728142, 8866032.56477172113955 ], [ 720471.942372721619904, 8866036.362951094284654 ], [ 720416.81389033421874, 8865987.215461259707808 ], [ 720347.180795926135033, 8866035.066983222961426 ], [ 720292.442335659870878, 8865927.004395810887218 ], [ 720278.336807040497661, 8865925.822929227724671 ], [ 720248.699274020735174, 8865884.798405982553959 ], [ 720201.406144119566306, 8865875.967764720320702 ], [ 720068.039155102684163, 8865947.586477920413017 ], [ 720014.526344600599259, 8865976.289259366691113 ], [ 719978.375142090488225, 8865995.701881838962436 ], [ 719976.915349245653488, 8865997.914039952680469 ], [ 719932.187611171626486, 8866025.831653792411089 ], [ 719890.858206434175372, 8866052.055548427626491 ], [ 719847.618162229424343, 8866079.370971826836467 ], [ 719742.674375571194105, 8866150.775799740105867 ], [ 719745.272409310447983, 8866153.930247865617275 ], [ 719756.790306931594387, 8866167.735862445086241 ], [ 719777.685878679854795, 8866192.768286755308509 ], [ 719809.660657348344103, 8866162.225917046889663 ], [ 719808.295896212104708, 8866160.298230594024062 ], [ 719812.471063301432878, 8866157.244709853082895 ], [ 719853.270054985885508, 8866213.488926382735372 ], [ 719844.455703869578429, 8866219.745790511369705 ], [ 719856.535453749471344, 8866236.851839335635304 ], [ 719877.086902775103226, 8866236.15555863827467 ], [ 719894.295157136511989, 8866263.836601421236992 ], [ 719896.784421730553731, 8866263.006479723379016 ], [ 719901.272368731093593, 8866260.046364665031433 ], [ 719909.19749745959416, 8866254.703224271535873 ], [ 719913.587298796395771, 8866251.766841866075993 ], [ 719928.33905518532265, 8866275.424631230533123 ], [ 719902.811575429630466, 8866300.988874323666096 ], [ 719905.469381164875813, 8866305.236776385456324 ], [ 719913.492009103763849, 8866315.469457466155291 ], [ 719916.680242017609999, 8866312.999700555577874 ], [ 719924.928333071409725, 8866323.574933290481567 ], [ 719947.957715446129441, 8866315.936727929860353 ], [ 719956.124243216705509, 8866326.697443533688784 ], [ 719949.044892825535499, 8866332.279152257367969 ], [ 719957.472518524620682, 8866342.99973887950182 ], [ 719982.332090265932493, 8866336.432090314105153 ], [ 719995.775862309266813, 8866355.819605350494385 ], [ 719991.409463828778826, 8866358.855420781299472 ], [ 719994.636519956984557, 8866363.239607851952314 ], [ 720012.292814637068659, 8866387.135041953995824 ], [ 720016.149691054713912, 8866398.588878450915217 ], [ 720033.88617728871759, 8866417.12084293179214 ], [ 720026.944100539432839, 8866423.648069014772773 ], [ 720041.044119710568339, 8866442.5497833378613 ], [ 720034.323794306954369, 8866448.422224067151546 ], [ 720043.189723712275736, 8866460.309130355715752 ], [ 720055.089872277807444, 8866470.259376125410199 ], [ 720084.791325048543513, 8866466.014961183071136 ], [ 720088.750398460659198, 8866477.405096534639597 ], [ 720099.127366578904912, 8866508.343190567567945 ], [ 720120.626640937756747, 8866503.328824859112501 ], [ 720122.763259290717542, 8866510.795649830251932 ], [ 720134.202727817115374, 8866550.033594451844692 ], [ 720152.765537746599875, 8866546.619495822116733 ], [ 720154.84476614673622, 8866550.439086459577084 ], [ 720171.046894263592549, 8866573.717149332165718 ], [ 720187.281745264772326, 8866562.360461862757802 ], [ 720197.291985383955762, 8866585.127662070095539 ], [ 720210.416589582338929, 8866577.746203823015094 ], [ 720235.87594445166178, 8866564.107815731316805 ], [ 720242.863184608868323, 8866573.022189298644662 ], [ 720211.817267498467118, 8866591.140067286789417 ], [ 720221.037704749032855, 8866608.559516686946154 ], [ 720209.569921143120155, 8866613.604999767616391 ], [ 720225.71807338821236, 8866637.810718482360244 ], [ 720233.183934616507031, 8866633.261744754388928 ], [ 720239.237625600188039, 8866642.185934085398912 ], [ 720281.595563046983443, 8866618.622128590941429 ], [ 720285.10652602952905, 8866623.064822295680642 ], [ 720295.90594584622886, 8866636.642929138615727 ], [ 720317.584245794336312, 8866664.674749974161386 ], [ 720329.128972837817855, 8866677.100037893280387 ], [ 720452.596683547482826, 8866652.644510021433234 ] ] ] ] } },
{ "type": "Feature", "properties": { "id": 25.0, "zona": "ZONA 10", "nome": "ZONA 10", "fill_r": 232.0, "fill_g": 113.0, "fill_b": 141.0, "fill_a": 153.0, "stroke_r": 35.0, "stroke_g": 35.0, "stroke_b": 35.0, "stroke_a": 153.0, "fill_hex": "#e8718d", "stroke_hex": "#232323" }, "geometry": { "type": "MultiPolygon", "coordinates": [ [ [ [ 718474.654529168503359, 8868042.124928098171949 ], [ 718142.054886253201403, 8867607.412729732692242 ], [ 718023.361226915498264, 8867608.086250256747007 ], [ 718026.933737766230479, 8867783.431624297052622 ], [ 718033.061057168291882, 8867799.123368108645082 ], [ 718167.544061717577279, 8868110.802922470495105 ], [ 718370.811527111800388, 8868550.220349609851837 ], [ 718512.870202029589564, 8868540.696645613759756 ], [ 718551.211389165138826, 8868536.543951468542218 ], [ 718751.938038464519195, 8868452.454909598454833 ], [ 718889.536181967472658, 8868458.434522464871407 ], [ 718474.654529168503359, 8868042.124928098171949 ] ] ] ] } },
{ "type": "Feature", "properties": { "id": 26.0, "zona": "ZONA 10", "nome": "ZONA 10", "fill_r": 232.0, "fill_g": 113.0, "fill_b": 141.0, "fill_a": 153.0, "stroke_r": 35.0, "stroke_g": 35.0, "stroke_b": 35.0, "stroke_a": 153.0, "fill_hex": "#e8718d", "stroke_hex": "#232323" }, "geometry": { "type": "MultiPolygon", "coordinates": [ [ [ [ 722296.032249972573482, 8869383.486785737797618 ], [ 722444.860421012272127, 8869560.783512093126774 ], [ 722498.192718612845056, 8869524.190889494493604 ], [ 722538.394796874723397, 8869454.252450974658132 ], [ 722620.193905917694792, 8869433.548251181840897 ], [ 722674.915750156738795, 8869415.619411036372185 ], [ 722678.663147129467689, 8869396.057875942438841 ], [ 722561.742431586608291, 8869371.394761729985476 ], [ 722407.640459508635104, 8869384.087333787232637 ], [ 722296.032249972573482, 8869383.486785737797618 ] ] ] ] } },
{ "type": "Feature", "properties": { "id": 27.0, "zona": "ZONA 10", "nome": "ZONA 10", "fill_r": 232.0, "fill_g": 113.0, "fill_b": 141.0, "fill_a": 153.0, "stroke_r": 35.0, "stroke_g": 35.0, "stroke_b": 35.0, "stroke_a": 153.0, "fill_hex": "#e8718d", "stroke_hex": "#232323" }, "geometry": { "type": "MultiPolygon", "coordinates": [ [ [ [ 722324.695017218589783, 8869653.864270502701402 ], [ 722152.42065755079966, 8869344.129746485501528 ], [ 722143.583277615951374, 8869351.230500116944313 ], [ 722188.144872000208125, 8869461.665430087596178 ], [ 722224.320521287154406, 8869572.153057597577572 ], [ 722282.503029825165868, 8869694.225004713982344 ], [ 722324.695017218589783, 8869653.864270502701402 ] ] ] ] } },
{ "type": "Feature", "properties": { "id": 28.0, "zona": "ZONA 11", "nome": "ZONA 11", "fill_r": 255.0, "fill_g": 243.0, "fill_b": 0.0, "fill_a": 153.0, "stroke_r": 35.0, "stroke_g": 35.0, "stroke_b": 35.0, "stroke_a": 153.0, "fill_hex": "#fff300", "stroke_hex": "#232323" }, "geometry": { "type": "MultiPolygon", "coordinates": [ [ [ [ 781586.303754164371639, 8844668.755075583234429 ], [ 781477.433106853393838, 8844728.019868392497301 ], [ 781464.258676182595082, 8844735.191465152427554 ], [ 781358.862851944868453, 8844792.564676271751523 ], [ 781345.688271332066506, 8844799.736327402293682 ], [ 781240.292448983760551, 8844857.109521022066474 ], [ 781227.118047073250636, 8844864.281223855912685 ], [ 781108.547673852881417, 8844928.826046582311392 ], [ 781003.151855266070925, 8844986.199205383658409 ], [ 780989.486840830184519, 8844996.184344111010432 ], [ 781002.502505389624275, 8845022.416844652965665 ], [ 780754.503999808104709, 8845158.676985841244459 ], [ 780739.013096855720505, 8845129.649194085970521 ], [ 780731.757336594047956, 8845133.935295902192593 ], [ 780626.361466664588079, 8845191.308542996644974 ], [ 780613.186962274136022, 8845198.480170311406255 ], [ 780507.791203745873645, 8845255.853399394080043 ], [ 780494.61665805708617, 8845263.024969568476081 ], [ 780389.22079182555899, 8845320.398182475939393 ], [ 780376.04631528549362, 8845327.569805301725864 ], [ 780270.650560445035808, 8845384.943000318482518 ], [ 780257.47604350023903, 8845392.11467669159174 ], [ 780152.080180944176391, 8845449.487855654209852 ], [ 780121.339757897192612, 8845466.221732944250107 ], [ 780015.943958666175604, 8845523.594937125220895 ], [ 780002.769462550058961, 8845530.766489924862981 ], [ 779910.548087522853166, 8845580.968065466731787 ], [ 779897.373665141640231, 8845588.139677295461297 ], [ 779778.803333921823651, 8845652.684564955532551 ], [ 779765.628866544226184, 8845659.856224017217755 ], [ 779660.23307275865227, 8845717.229377947747707 ], [ 779647.058564079226926, 8845724.400979924947023 ], [ 779541.662772990530357, 8845781.77422789670527 ], [ 779528.488223901484162, 8845788.945883464068174 ], [ 779423.092433717567474, 8845846.319004200398922 ], [ 779409.91795376688242, 8845853.490712482482195 ], [ 779304.522166267968714, 8845910.863927381113172 ], [ 779291.347645015688613, 8845918.035578601062298 ], [ 779185.951858407817781, 8845975.408666383475065 ], [ 779172.777406291803345, 8845982.580370333045721 ], [ 779067.381512806750834, 8846039.953553283587098 ], [ 779054.20701938518323, 8846047.125200185924768 ], [ 778948.811237221816555, 8846104.498365929350257 ], [ 778918.070832825615071, 8846121.232211837545037 ], [ 778844.293695839238353, 8846161.393456716090441 ], [ 778856.246436143061146, 8846183.350831549614668 ], [ 778858.518387784715742, 8846193.140243176370859 ], [ 778586.817130552604795, 8846340.131620427593589 ], [ 778609.889910326339304, 8846386.0373923368752 ], [ 778637.39433692523744, 8846437.930077351629734 ], [ 778644.930476100300439, 8846435.128232531249523 ], [ 778750.30505143397022, 8846377.762962685897946 ], [ 778757.343258130829781, 8846373.821033243089914 ], [ 778772.424351274734363, 8846401.991205889731646 ], [ 778890.427184268133715, 8846337.358054565265775 ], [ 778876.064253760734573, 8846310.084921166300774 ], [ 778882.000876328093, 8846305.958697790279984 ], [ 778987.396645744913258, 8846248.585477974265814 ], [ 779018.137160481652245, 8846231.851590810343623 ], [ 779102.453762883553281, 8846185.95311313867569 ], [ 779108.430226430529729, 8846196.931776573881507 ], [ 779129.509354633046314, 8846185.457169491797686 ], [ 779123.532993221655488, 8846174.478396942839026 ], [ 779136.707425280241296, 8846167.306843914091587 ], [ 779242.103259855415672, 8846109.933633740991354 ], [ 779255.277759275166318, 8846102.761912113055587 ], [ 779360.673596584354527, 8846045.388796241953969 ], [ 779373.84805559925735, 8846038.217128232121468 ], [ 779479.24389475514181, 8845980.843995932489634 ], [ 779492.418312473571859, 8845973.672270860522985 ], [ 779597.814153482671827, 8845916.29912207275629 ], [ 779604.522264209575951, 8845912.241435190662742 ], [ 779620.452029913663864, 8845942.272523235529661 ], [ 779673.984979626256973, 8845913.918026655912399 ], [ 779686.276147490600124, 8845846.938338471576571 ], [ 779702.429060852853581, 8845839.919644571840763 ], [ 779731.949461455922574, 8845848.974169472232461 ], [ 779810.996381435776129, 8845805.944206742569804 ], [ 779818.168009169399738, 8845819.118707153946161 ], [ 779844.516956775565632, 8845804.775479407981038 ], [ 779837.345319248735905, 8845791.600982651114464 ], [ 779850.519835598068312, 8845784.429305313155055 ], [ 779969.090061666211113, 8845719.884478947147727 ], [ 779982.264533031731844, 8845712.712848844006658 ], [ 780074.485923208878376, 8845662.511258721351624 ], [ 780087.660358764464036, 8845655.339688535779715 ], [ 780193.056222192477435, 8845597.966451516374946 ], [ 780223.796650019939989, 8845581.232532484456897 ], [ 780329.192467296728864, 8845523.859321592375636 ], [ 780342.366924592992291, 8845516.687738509848714 ], [ 780447.762743767350912, 8845459.314510695636272 ], [ 780460.937269323738292, 8845452.142869602888823 ], [ 780566.333091298351064, 8845394.769735474139452 ], [ 780579.507575562689453, 8845387.59803725220263 ], [ 780684.903399448376149, 8845330.224886078387499 ], [ 780698.077843319857493, 8845323.053241390734911 ], [ 780803.473668222781271, 8845265.679962441325188 ], [ 780816.648181252297945, 8845258.508370392024517 ], [ 780922.044008976081386, 8845201.13518494553864 ], [ 780935.218480715411715, 8845193.963535744696856 ], [ 781044.127594155957922, 8845134.677833562716842 ], [ 781062.229587484849617, 8845127.83466038480401 ], [ 781074.868323562201113, 8845117.943834960460663 ], [ 781183.777259495691396, 8845058.658238461241126 ], [ 781196.951750541571528, 8845051.486572857946157 ], [ 781305.860776842571795, 8844992.200928857550025 ], [ 781319.035444476874545, 8844985.029202602803707 ], [ 781427.944452503230423, 8844925.743622595444322 ], [ 781441.119077625218779, 8844918.571837462484837 ], [ 781550.028176031191833, 8844859.286209816113114 ], [ 781563.202759543200955, 8844852.114476468414068 ], [ 781672.111839688499458, 8844792.828912682831287 ], [ 781685.285835649701767, 8844785.65745691396296 ], [ 781730.390559473074973, 8844761.104385701939464 ], [ 781747.487508423742838, 8844750.663704356178641 ], [ 781603.700254660798237, 8844658.603663729503751 ], [ 781586.303754164371639, 8844668.755075583234429 ] ] ] ] } },
{ "type": "Feature", "properties": { "id": 29.0, "zona": "ZONA 12", "nome": "ZONA 12", "fill_r": 255.0, "fill_g": 0.0, "fill_b": 214.0, "fill_a": 153.0, "stroke_r": 35.0, "stroke_g": 35.0, "stroke_b": 35.0, "stroke_a": 153.0, "fill_hex": "#ff00d6", "stroke_hex": "#232323" }, "geometry": { "type": "MultiPolygon", "coordinates": [ [ [ [ 779497.50957945571281, 8846875.602474557235837 ], [ 779673.984979626256973, 8845913.918026655912399 ], [ 779620.452029913663864, 8845942.272523235529661 ], [ 779604.522264209575951, 8845912.241435190662742 ], [ 779597.814153482671827, 8845916.29912207275629 ], [ 779492.418312473571859, 8845973.672270860522985 ], [ 779479.24389475514181, 8845980.843995932489634 ], [ 779373.84805559925735, 8846038.217128232121468 ], [ 779360.673596584354527, 8846045.388796241953969 ], [ 779255.277759275166318, 8846102.761912113055587 ], [ 779242.103259855415672, 8846109.933633740991354 ], [ 779136.707425280241296, 8846167.306843914091587 ], [ 779123.532993221655488, 8846174.478396942839026 ], [ 779129.509354633046314, 8846185.457169491797686 ], [ 779108.430226430529729, 8846196.931776573881507 ], [ 779102.453762883553281, 8846185.95311313867569 ], [ 779018.137160481652245, 8846231.851590810343623 ], [ 778987.396645744913258, 8846248.585477974265814 ], [ 778882.000876328093, 8846305.958697790279984 ], [ 778876.064253760734573, 8846310.084921166300774 ], [ 778890.427184268133715, 8846337.358054565265775 ], [ 778772.424351274734363, 8846401.991205889731646 ], [ 778757.343258130829781, 8846373.821033243089914 ], [ 778750.30505143397022, 8846377.762962685897946 ], [ 778644.909175843466073, 8846435.136151196435094 ], [ 778637.39433692523744, 8846437.930077351629734 ], [ 778609.889910326339304, 8846386.0373923368752 ], [ 778448.514724970329553, 8846458.994483822956681 ], [ 778039.166336113237776, 8846528.625164894387126 ], [ 778383.781276108464226, 8846996.36254819855094 ], [ 778582.344210261944681, 8847245.853840954601765 ], [ 779497.50957945571281, 8846875.602474557235837 ] ] ] ] } },
{ "type": "Feature", "properties": { "id": 30.0, "zona": "ZONA 12", "nome": "ZONA 12", "fill_r": 255.0, "fill_g": 0.0, "fill_b": 214.0, "fill_a": 153.0, "stroke_r": 35.0, "stroke_g": 35.0, "stroke_b": 35.0, "stroke_a": 153.0, "fill_hex": "#ff00d6", "stroke_hex": "#232323" }, "geometry": { "type": "MultiPolygon", "coordinates": [ [ [ [ 781225.25833163689822, 8845430.165073025971651 ], [ 781062.229587484849617, 8845127.83466038480401 ], [ 781044.127594155957922, 8845134.677833562716842 ], [ 780935.218480715411715, 8845193.963535744696856 ], [ 780922.044008976081386, 8845201.13518494553864 ], [ 780816.648181252297945, 8845258.508370392024517 ], [ 780803.473668222781271, 8845265.679962441325188 ], [ 780698.077843319857493, 8845323.053241390734911 ], [ 780579.507575562689453, 8845387.59803725220263 ], [ 780566.333091298351064, 8845394.769735474139452 ], [ 780460.937269323738292, 8845452.142869602888823 ], [ 780447.762743767350912, 8845459.314510695636272 ], [ 780342.366924592992291, 8845516.687738509848714 ], [ 780329.192467296728864, 8845523.859321592375636 ], [ 780223.796650019939989, 8845581.232532484456897 ], [ 780193.056222192477435, 8845597.966451516374946 ], [ 780087.660358764464036, 8845655.339688535779715 ], [ 780074.485923208878376, 8845662.511258721351624 ], [ 779982.264533031731844, 8845712.712848844006658 ], [ 779969.090061666211113, 8845719.884478947147727 ], [ 779850.519835598068312, 8845784.429305313155055 ], [ 779837.345319248735905, 8845791.600982651114464 ], [ 779844.516956775565632, 8845804.775479407981038 ], [ 779818.168009169399738, 8845819.118707153946161 ], [ 779810.996381435776129, 8845805.944206742569804 ], [ 779731.949461455922574, 8845848.974169472232461 ], [ 779702.429060852853581, 8845839.919644571840763 ], [ 779885.529679396888241, 8846161.00640257447958 ], [ 780374.713630963000469, 8845892.70882405154407 ], [ 781225.25833163689822, 8845430.165073025971651 ] ] ] ] } },
{ "type": "Feature", "properties": { "id": 31.0, "zona": "ZONA 13", "nome": "ZONA 13", "fill_r": 255.0, "fill_g": 4.0, "fill_b": 21.0, "fill_a": 153.0, "stroke_r": 35.0, "stroke_g": 35.0, "stroke_b": 35.0, "stroke_a": 153.0, "fill_hex": "#ff0415", "stroke_hex": "#232323" }, "geometry": { "type": "MultiPolygon", "coordinates": [ [ [ [ 782080.594394059153274, 8844965.972152274101973 ], [ 781225.25833163689822, 8845430.165073025971651 ], [ 780374.263949598185718, 8845892.959276381880045 ], [ 779885.529679396888241, 8846161.00640257447958 ], [ 779702.429060852853581, 8845839.919644571840763 ], [ 779686.276147490600124, 8845846.938338471576571 ], [ 779497.50957945571281, 8846875.602474557235837 ], [ 780132.678867419948801, 8846615.775835068896413 ], [ 780530.368603269336745, 8846454.069914629682899 ], [ 780642.873884084634483, 8846388.120090894401073 ], [ 781469.145827446365729, 8845884.145931931212544 ], [ 782526.012747776461765, 8845247.661813838407397 ], [ 782080.594394059153274, 8844965.972152274101973 ] ] ] ] } },
{ "type": "Feature", "properties": { "id": 32.0, "zona": "ZONA 14", "nome": "ZONA 14", "fill_r": 0.0, "fill_g": 115.0, "fill_b": 255.0, "fill_a": 153.0, "stroke_r": 35.0, "stroke_g": 35.0, "stroke_b": 35.0, "stroke_a": 153.0, "fill_hex": "#0073ff", "stroke_hex": "#232323" }, "geometry": { "type": "MultiPolygon", "coordinates": [ [ [ [ 781603.700254660798237, 8844658.603663729503751 ], [ 780818.084894562605768, 8844157.390753431245685 ], [ 778770.067961354972795, 8845203.978075271472335 ], [ 778547.582799150375649, 8845402.098049812018871 ], [ 778415.00696371961385, 8845521.726027155295014 ], [ 778397.628684546099976, 8845547.537460682913661 ], [ 778586.817130552604795, 8846340.131620427593589 ], [ 778858.518387784715742, 8846193.140243176370859 ], [ 778856.246436143061146, 8846183.350831549614668 ], [ 778844.293695839238353, 8846161.393456716090441 ], [ 778918.070832825615071, 8846121.232211837545037 ], [ 778948.811237221816555, 8846104.498365929350257 ], [ 779054.20701938518323, 8846047.125200185924768 ], [ 779067.381512806750834, 8846039.953553283587098 ], [ 779172.777406291803345, 8845982.580370333045721 ], [ 779185.951858407817781, 8845975.408666383475065 ], [ 779291.347645015688613, 8845918.035578601062298 ], [ 779304.522166267968714, 8845910.863927381113172 ], [ 779409.91795376688242, 8845853.490712482482195 ], [ 779423.092433717567474, 8845846.319004200398922 ], [ 779528.488223901484162, 8845788.945883464068174 ], [ 779541.662772990530357, 8845781.77422789670527 ], [ 779647.058564079226926, 8845724.400979924947023 ], [ 779660.23307275865227, 8845717.229377947747707 ], [ 779765.628866544226184, 8845659.856224017217755 ], [ 779778.803333921823651, 8845652.684564955532551 ], [ 779897.373665141640231, 8845588.139677295461297 ], [ 779910.548087522853166, 8845580.968065466731787 ], [ 780002.769462550058961, 8845530.766489924862981 ], [ 780015.943958666175604, 8845523.594937125220895 ], [ 780121.339757897192612, 8845466.221732944250107 ], [ 780152.080180944176391, 8845449.487855654209852 ], [ 780257.47604350023903, 8845392.11467669159174 ], [ 780270.650560445035808, 8845384.943000318482518 ], [ 780376.04631528549362, 8845327.569805301725864 ], [ 780389.22079182555899, 8845320.398182475939393 ], [ 780494.61665805708617, 8845263.024969568476081 ], [ 780507.791203745873645, 8845255.853399394080043 ], [ 780613.186962274136022, 8845198.480170311406255 ], [ 780626.361466664588079, 8845191.308542996644974 ], [ 780731.757336594047956, 8845133.935295902192593 ], [ 780739.013096855720505, 8845129.649194085970521 ], [ 780754.503999808104709, 8845158.676985841244459 ], [ 781002.502505389624275, 8845022.416844652965665 ], [ 780989.486840830184519, 8844996.184344111010432 ], [ 781003.151855266070925, 8844986.199205383658409 ], [ 781108.547673852881417, 8844928.826046582311392 ], [ 781121.722226607962511, 8844921.654400035738945 ], [ 781227.118047073250636, 8844864.281223855912685 ], [ 781240.292448983760551, 8844857.109521022066474 ], [ 781345.688271332066506, 8844799.736327402293682 ], [ 781358.862851944868453, 8844792.564676271751523 ], [ 781464.258676182595082, 8844735.191465152427554 ], [ 781477.433106853393838, 8844728.019868392497301 ], [ 781586.303754164371639, 8844668.755075583234429 ], [ 781603.700254660798237, 8844658.603663729503751 ] ] ] ] } },
{ "type": "Feature", "properties": { "id": 33.0, "zona": "ZONA 14", "nome": "ZONA 14", "fill_r": 0.0, "fill_g": 115.0, "fill_b": 255.0, "fill_a": 153.0, "stroke_r": 35.0, "stroke_g": 35.0, "stroke_b": 35.0, "stroke_a": 153.0, "fill_hex": "#0073ff", "stroke_hex": "#232323" }, "geometry": { "type": "MultiPolygon", "coordinates": [ [ [ [ 781747.487508423742838, 8844750.663704356178641 ], [ 781730.390559473074973, 8844761.104385701939464 ], [ 781672.111839688499458, 8844792.828912682831287 ], [ 781550.028176031191833, 8844859.286209816113114 ], [ 781441.119077625218779, 8844918.571837462484837 ], [ 781427.944452503230423, 8844925.743622595444322 ], [ 781319.035444476874545, 8844985.029202602803707 ], [ 781305.860776842571795, 8844992.200928857550025 ], [ 781196.951750541571528, 8845051.486572857946157 ], [ 781183.777259495691396, 8845058.658238461241126 ], [ 781074.868323562201113, 8845117.943834960460663 ], [ 781062.229587484849617, 8845127.83466038480401 ], [ 781225.25833163689822, 8845430.165073025971651 ], [ 782080.594394059153274, 8844965.972152274101973 ], [ 781747.487508423742838, 8844750.663704356178641 ] ] ] ] } },
{ "type": "Feature", "properties": { "id": 34.0, "zona": "ZONA 06", "nome": "ZONA IMOBILIARIA 6 - NOVA", "fill_r": 170.0, "fill_g": 85.0, "fill_b": 0.0, "fill_a": 189.0, "stroke_r": 170.0, "stroke_g": 85.0, "stroke_b": 0.0, "stroke_a": 255.0, "fill_hex": "#aa5500", "stroke_hex": "#aa5500" }, "geometry": { "type": "MultiPolygon", "coordinates": [ [ [ [ 719074.173637718544342, 8866476.363693872466683 ], [ 719119.277900891611353, 8866433.843172146007419 ], [ 719245.975706726545468, 8866330.529414851218462 ], [ 719248.579673887230456, 8866332.019270036369562 ], [ 719305.746035458985716, 8866399.940528646111488 ], [ 719398.963403292815201, 8866323.017134610563517 ], [ 719367.375614136690274, 8866349.206505715847015 ], [ 719445.004894144600257, 8866453.229048093780875 ], [ 719475.845098308986053, 8866413.518203506246209 ], [ 719514.218931635143235, 8866364.107681764289737 ], [ 719600.097313089179806, 8866174.135281581431627 ], [ 719445.803466674173251, 8865986.413653269410133 ], [ 719270.5133251613006, 8865777.430499348789454 ], [ 719053.409994569374248, 8865521.023570315912366 ], [ 719053.337726446450688, 8865510.105864003300667 ], [ 719020.913022195920348, 8865470.591749360784888 ], [ 719016.43259535334073, 8865465.322052266448736 ], [ 718939.654590104008093, 8865531.529465913772583 ], [ 718934.261453463463113, 8865525.456040624529123 ], [ 718841.913592784432694, 8865412.009406812489033 ], [ 718331.813447201624513, 8865840.819055512547493 ], [ 718655.905331901973113, 8866124.636612122878432 ], [ 718763.072715298272669, 8866216.874266900122166 ], [ 718822.91075413429644, 8866170.102233070880175 ], [ 719074.173637718544342, 8866476.363693872466683 ] ] ] ] } },
{ "type": "Feature", "properties": { "id": 35.0, "zona": "ZONA 01", "nome": "ZONA 01", "fill_r": 10.0, "fill_g": 0.0, "fill_b": 255.0, "fill_a": 153.0, "stroke_r": 35.0, "stroke_g": 35.0, "stroke_b": 35.0, "stroke_a": 153.0, "fill_hex": "#0a00ff", "stroke_hex": "#232323" }, "geometry": { "type": "MultiPolygon", "coordinates": [ [ [ [ 722189.820629048277624, 8869317.725486915558577 ], [ 722250.741118755890056, 8869362.279736081138253 ], [ 722296.032249972573482, 8869383.486785737797618 ], [ 721785.786695749382488, 8868571.452414404600859 ], [ 721749.998479759553447, 8868596.123136579990387 ], [ 721600.859349734848365, 8868381.870959864929318 ], [ 721640.052404917427339, 8868342.287514118477702 ], [ 721562.713582253083587, 8868231.994923997670412 ], [ 721466.954137098393403, 8868112.507901445031166 ], [ 721486.179090328048915, 8868096.678012592718005 ], [ 721399.714063309133053, 8867994.243107851594687 ], [ 721230.933439265005291, 8867787.136359538882971 ], [ 721146.164323778008111, 8867683.858848992735147 ], [ 721059.252170690335333, 8867580.396061692386866 ], [ 721005.818895949283615, 8867517.594097884371877 ], [ 721110.698159489780664, 8867428.038728935644031 ], [ 720788.232855698210187, 8867052.626336401328444 ], [ 720794.562904767110012, 8867046.966067718341947 ], [ 720452.596683547482826, 8866652.644510021433234 ], [ 720329.128972837817855, 8866677.100037893280387 ], [ 720317.584245794336312, 8866664.674749974161386 ], [ 720295.90594584622886, 8866636.642929138615727 ], [ 720281.595563046983443, 8866618.622128590941429 ], [ 720239.237625600188039, 8866642.185934085398912 ], [ 720233.183934616507031, 8866633.261744754388928 ], [ 720225.71807338821236, 8866637.810718482360244 ], [ 720209.569921143120155, 8866613.604999767616391 ], [ 720221.037704749032855, 8866608.559516686946154 ], [ 720211.817267498467118, 8866591.140067286789417 ], [ 720242.863184608868323, 8866573.022189298644662 ], [ 720235.87594445166178, 8866564.107815731316805 ], [ 720210.416589582338929, 8866577.746203823015094 ], [ 720197.291985383955762, 8866585.127662070095539 ], [ 720187.268652882776223, 8866562.369615577161312 ], [ 720171.046894263592549, 8866573.717149332165718 ], [ 720154.84476614673622, 8866550.439086459577084 ], [ 720152.765537746599875, 8866546.619495822116733 ], [ 720134.202727817115374, 8866550.033594451844692 ], [ 720122.763259290717542, 8866510.795649830251932 ], [ 720120.626640937756747, 8866503.328824859112501 ], [ 720099.127366578904912, 8866508.343190567567945 ], [ 720088.750398460659198, 8866477.405096534639597 ], [ 720084.791325048543513, 8866466.014961183071136 ], [ 720055.089872277807444, 8866470.259376125410199 ], [ 720043.189723712275736, 8866460.309130355715752 ], [ 720034.323794306954369, 8866448.422224067151546 ], [ 720041.044119710568339, 8866442.5497833378613 ], [ 720026.944100539432839, 8866423.648069014772773 ], [ 720033.88617728871759, 8866417.12084293179214 ], [ 720016.149691054713912, 8866398.588878450915217 ], [ 720012.292814637068659, 8866387.135041953995824 ], [ 719991.409463828778826, 8866358.855420781299472 ], [ 719995.775862309266813, 8866355.819605350494385 ], [ 719982.332090265932493, 8866336.432090314105153 ], [ 719957.472518524620682, 8866342.99973887950182 ], [ 719949.044892825535499, 8866332.279152257367969 ], [ 719956.124243216705509, 8866326.697443533688784 ], [ 719947.957715446129441, 8866315.936727929860353 ], [ 719924.928333071409725, 8866323.574933290481567 ], [ 719916.680242017609999, 8866312.999700555577874 ], [ 719913.492009103763849, 8866315.469457466155291 ], [ 719905.469381164875813, 8866305.236776385456324 ], [ 719902.811575429630466, 8866300.988874323666096 ], [ 719928.33905518532265, 8866275.424631230533123 ], [ 719913.587298796395771, 8866251.766841866075993 ], [ 719901.272368731093593, 8866260.046364665031433 ], [ 719896.784421730553731, 8866263.006479723379016 ], [ 719894.295157136511989, 8866263.836601421236992 ], [ 719877.086902775103226, 8866236.15555863827467 ], [ 719856.535453749471344, 8866236.851839335635304 ], [ 719844.455703869578429, 8866219.745790511369705 ], [ 719853.270054985885508, 8866213.488926382735372 ], [ 719812.442136292345822, 8866157.209819419309497 ], [ 719808.295896212104708, 8866160.298230594024062 ], [ 719809.660657348344103, 8866162.225917046889663 ], [ 719777.685878679854795, 8866192.768286755308509 ], [ 719742.674375571194105, 8866150.775799740105867 ], [ 719705.007866906817071, 8866095.437536904588342 ], [ 719788.942660795524716, 8866032.45203542150557 ], [ 719774.581097723101266, 8866015.793672140687704 ], [ 719757.561809571809135, 8865996.052480360493064 ], [ 719716.063873189501464, 8866031.828740932047367 ], [ 719671.66012018895708, 8865978.351396024227142 ], [ 719646.662318420014344, 8865991.199832208454609 ], [ 719621.52364389935974, 8865961.045485902577639 ], [ 719598.29063225153368, 8865934.279572220519185 ], [ 719572.444443572312593, 8865940.329623816534877 ], [ 719509.47455080319196, 8865863.335758002474904 ], [ 719586.33898595685605, 8865799.352122537791729 ], [ 719561.187081233016215, 8865768.244079355150461 ], [ 719545.467162784771062, 8865748.801630273461342 ], [ 719514.032565347268246, 8865709.92310481518507 ], [ 719482.598034699913114, 8865671.044674396514893 ], [ 719383.768898147391155, 8865719.458927523344755 ], [ 719364.538592925295234, 8865696.493034966289997 ], [ 719415.652687288238667, 8865653.176268801093102 ], [ 719402.995438452810049, 8865638.959167627617717 ], [ 719440.834517035051249, 8865605.271440077573061 ], [ 719478.443704022560269, 8865571.788322569802403 ], [ 719462.822921579703689, 8865552.269238086417317 ], [ 719482.242082199314609, 8865534.98062795586884 ], [ 719426.461729494621977, 8865465.279626209288836 ], [ 719411.229310915805399, 8865478.336408440023661 ], [ 719404.745283155702055, 8865471.228775585070252 ], [ 719373.864331490942277, 8865498.816211052238941 ], [ 719310.510435144416988, 8865421.127613848075271 ], [ 719345.949064346961677, 8865362.858030013740063 ], [ 719287.019193168729544, 8865288.620645042508841 ], [ 719256.397502019652165, 8865249.353279829025269 ], [ 718975.363883415935561, 8864935.093354031443596 ], [ 718805.243559307884425, 8865078.225829007104039 ], [ 719088.561650418676436, 8865420.846884096041322 ], [ 719054.14458235935308, 8865425.036188868805766 ], [ 718958.790833596722223, 8865313.758012466132641 ], [ 718841.913592784432694, 8865412.009406812489033 ], [ 718934.261453463463113, 8865525.456040624529123 ], [ 718939.654590104008093, 8865531.529465913772583 ], [ 719016.43259535334073, 8865465.322052266448736 ], [ 719053.337726446450688, 8865510.105864003300667 ], [ 719053.409994569374248, 8865521.023570315912366 ], [ 719270.5133251613006, 8865777.430499348789454 ], [ 719445.803466674173251, 8865986.413653269410133 ], [ 719600.097313089179806, 8866174.135281581431627 ], [ 719514.218931635143235, 8866364.107681764289737 ], [ 719603.2415542579256, 8866436.320719992741942 ], [ 719608.000960696022958, 8866429.629400253295898 ], [ 719732.714797453256324, 8866291.952715359628201 ], [ 719737.9106437319424, 8866289.222644601017237 ], [ 719772.746600440470502, 8866325.24027656763792 ], [ 719817.059805566910654, 8866374.535334166139364 ], [ 719839.724892865400761, 8866400.218750024214387 ], [ 719847.182151492219418, 8866404.205395679920912 ], [ 719854.258424619678408, 8866411.604140246286988 ], [ 719858.954872410977259, 8866407.001487120985985 ], [ 719870.451776794274338, 8866418.388770127668977 ], [ 719878.120509385480545, 8866412.514433057978749 ], [ 719883.418351668864489, 8866419.354943888261914 ], [ 719895.645216612378135, 8866427.639155583456159 ], [ 719901.066189931472763, 8866436.1597521007061 ], [ 719894.88472902495414, 8866439.971902722492814 ], [ 719898.736859798664227, 8866447.578604646027088 ], [ 719901.375961048761383, 8866451.883491024374962 ], [ 719899.967190947034396, 8866452.793497750535607 ], [ 719909.030822820146568, 8866465.711185513064265 ], [ 719916.560573447262868, 8866459.917806517332792 ], [ 719924.171385124325752, 8866469.475208643823862 ], [ 719931.54831828433089, 8866477.040894752368331 ], [ 719927.499690880067647, 8866481.255839629098773 ], [ 719933.861558607313782, 8866488.58722903765738 ], [ 719922.606335135409608, 8866498.31662342697382 ], [ 719928.58473942859564, 8866504.05927419103682 ], [ 719935.386100679636002, 8866498.806676190346479 ], [ 719937.107824641279876, 8866500.759350644424558 ], [ 719944.458076271344908, 8866494.313794888556004 ], [ 719969.947986400336958, 8866520.38855129852891 ], [ 719978.243631244404241, 8866530.33973434753716 ], [ 719974.194440914434381, 8866530.178909 ], [ 719960.463290979969315, 8866543.179705757647753 ], [ 719968.838057619985193, 8866552.024947313591838 ], [ 719984.984304834972136, 8866538.22856092825532 ], [ 719987.777934332727455, 8866541.497945461422205 ], [ 719971.408240137505345, 8866555.485352825373411 ], [ 719974.748259582673199, 8866559.303723350167274 ], [ 719968.545924338512123, 8866564.6033717058599 ], [ 719967.592733234167099, 8866565.417827716097236 ], [ 719971.413134890026413, 8866570.568991700187325 ], [ 719972.178426168859005, 8866571.357681721448898 ], [ 719974.134171774261631, 8866573.373394932597876 ], [ 719984.811718567740172, 8866585.44406327791512 ], [ 720008.588661171728745, 8866565.853313220664859 ], [ 720014.945205954369158, 8866573.292484352365136 ], [ 720021.586722018430009, 8866579.91616672091186 ], [ 720026.658552701119334, 8866585.983972780406475 ], [ 720010.85820660716854, 8866600.179818574339151 ], [ 720024.559432163368911, 8866616.979565590620041 ], [ 720040.581120694288984, 8866602.641164602711797 ], [ 720059.834534022957087, 8866625.603177225217223 ], [ 720017.805008656694554, 8866663.252607079222798 ], [ 720029.199182601529174, 8866670.483225829899311 ], [ 720047.920448058983311, 8866694.263054514303803 ], [ 720066.30163383600302, 8866716.256828926503658 ], [ 720071.497911028563976, 8866723.035009823739529 ], [ 720006.679916245280765, 8866783.824434146285057 ], [ 720011.812165172770619, 8866789.33339175209403 ], [ 720007.806493768584915, 8866793.308218315243721 ], [ 720000.120453963289037, 8866801.058580787852407 ], [ 720023.773352445452474, 8866825.479879077523947 ], [ 719972.508845829870552, 8866873.371835611760616 ], [ 719975.564239738625474, 8866876.247950296849012 ], [ 719965.565212083281949, 8866885.501851860433817 ], [ 719964.351871998980641, 8866884.190887797623873 ], [ 719957.137969761271961, 8866890.867247208952904 ], [ 719958.75649062008597, 8866892.732945980504155 ], [ 719930.56108713184949, 8866917.190489845350385 ], [ 719943.643495257827453, 8866931.361394185572863 ], [ 719931.324117742246017, 8866941.290009431540966 ], [ 719928.394120257813483, 8866941.3021923545748 ], [ 719915.861934103886597, 8866926.500781917944551 ], [ 719899.652170306770131, 8866936.350085876882076 ], [ 719886.680363416089676, 8866947.390080437064171 ], [ 719886.31011797953397, 8866946.954943550750613 ], [ 719876.939193852012977, 8866954.93028749525547 ], [ 719859.676728622522205, 8866935.322666924446821 ], [ 719850.224392358213663, 8866943.474971055984497 ], [ 719867.3739084135741, 8866961.927290737628937 ], [ 719860.050626036711037, 8866968.377395745366812 ], [ 719852.531390144256875, 8866974.999980535358191 ], [ 719850.811919065890834, 8866973.006350427865982 ], [ 719842.80015305581037, 8866979.916219523176551 ], [ 719847.098223638953641, 8866984.908430945128202 ], [ 719839.478326798649505, 8866991.081803420558572 ], [ 719834.99784193909727, 8866994.711728949099779 ], [ 719833.049255119403824, 8866996.290441647171974 ], [ 719825.539255742914975, 8867002.374729137867689 ], [ 719824.896849693963304, 8867002.895169163122773 ], [ 719817.891004494042136, 8867008.571173215284944 ], [ 719814.101003672578372, 8867011.641634063795209 ], [ 719809.470270239282399, 8867015.393303193151951 ], [ 719800.413232067716308, 8867022.730964032933116 ], [ 719791.713677998515777, 8867029.740136574953794 ], [ 719789.4660008715, 8867026.950357504189014 ], [ 719780.848104420234449, 8867034.913009902462363 ], [ 719780.029494186630473, 8867035.609789930284023 ], [ 719771.824749729130417, 8867042.593304248526692 ], [ 719763.440116788493469, 8867049.795331226661801 ], [ 719756.904718599049374, 8867054.333511237055063 ], [ 719755.855419284431264, 8867055.06215170584619 ], [ 719750.518797806464136, 8867058.767869543284178 ], [ 719748.369337658165023, 8867060.697650086134672 ], [ 719747.293900075135753, 8867061.663319133222103 ], [ 719740.118553549051285, 8867068.102733260020614 ], [ 719731.142452454427257, 8867075.050658229738474 ], [ 719721.988199865445495, 8867082.531283097341657 ], [ 719720.036099188728258, 8867080.362635778263211 ], [ 719712.274824291700497, 8867087.348901426419616 ], [ 719712.339816863182932, 8867087.421072158962488 ], [ 719704.907520172768272, 8867094.111333921551704 ], [ 719704.547592113027349, 8867094.435297194868326 ], [ 719704.189415261615068, 8867094.037477498874068 ], [ 719696.527619950706139, 8867100.247247176244855 ], [ 719696.087899237405509, 8867100.603569628670812 ], [ 719688.137328083510511, 8867106.580149918794632 ], [ 719679.903948355233297, 8867113.457827307283878 ], [ 719677.554376290179789, 8867115.421153027564287 ], [ 719671.554587636026554, 8867120.434466665610671 ], [ 719669.913923887652345, 8867121.769073793664575 ], [ 719663.845929158502258, 8867126.704813849180937 ], [ 719662.573889044113457, 8867127.633645633235574 ], [ 719654.514800602686591, 8867133.518844645470381 ], [ 719653.671328090480529, 8867134.112775921821594 ], [ 719645.476852195104584, 8867139.883977768942714 ], [ 719637.437595541821793, 8867145.87525625154376 ], [ 719629.111477074911818, 8867151.659110475331545 ], [ 719628.760909709730186, 8867151.902694655582309 ], [ 719628.841361365863122, 8867151.993798224255443 ], [ 719624.303909833310172, 8867156.002298273146152 ], [ 719621.458724920754321, 8867158.515785869210958 ], [ 719619.173160097328946, 8867160.534799076616764 ], [ 719614.217996933264658, 8867164.985554238781333 ], [ 719611.733440884505399, 8867167.217225657775998 ], [ 719610.011313189053908, 8867168.562846321612597 ], [ 719605.921151385176927, 8867171.758944556117058 ], [ 719604.058348152786493, 8867173.214524868875742 ], [ 719594.972474597627297, 8867179.928544908761978 ], [ 719586.745958797167987, 8867186.576365273445845 ], [ 719585.780393131775782, 8867187.449186369776726 ], [ 719578.432457590824924, 8867194.090982994064689 ], [ 719575.561245475546457, 8867196.437903214246035 ], [ 719571.155158087611198, 8867200.039441749453545 ], [ 719566.518478250596672, 8867203.829384747892618 ], [ 719564.037689061136916, 8867205.857241701334715 ], [ 719558.407557704020292, 8867210.459218129515648 ], [ 719553.122884540818632, 8867203.993947437033057 ], [ 719544.446452843607403, 8867211.80996553786099 ], [ 719538.758649492869154, 8867223.557545559480786 ], [ 719501.372761586215347, 8867248.027228608727455 ], [ 719492.565857309149578, 8867253.809496078640223 ], [ 719490.777089342940599, 8867251.331375787034631 ], [ 719464.705684149404988, 8867269.361581731587648 ], [ 719453.207797646406107, 8867276.220993231981993 ], [ 719464.733512090169825, 8867291.736199360340834 ], [ 719444.989967430476099, 8867307.161662768572569 ], [ 719445.021976506803185, 8867324.361273495480418 ], [ 719426.3126238824334, 8867340.96583454683423 ], [ 719419.721205529640429, 8867333.407870953902602 ], [ 719412.382978612789884, 8867339.62926453910768 ], [ 719397.322480544564314, 8867321.923357808962464 ], [ 719374.709964783280157, 8867341.670681828632951 ], [ 719377.190008097444661, 8867344.772463347762823 ], [ 719356.251343502197415, 8867364.857969280332327 ], [ 719342.209374978207052, 8867379.352782977744937 ], [ 719328.609708342235535, 8867392.867064286023378 ], [ 719325.682861146517098, 8867396.528956467285752 ], [ 719329.5780234670965, 8867401.232764154672623 ], [ 719324.628737594815902, 8867405.000378862023354 ], [ 719315.131067944108509, 8867412.244804210960865 ], [ 719308.448918259004131, 8867417.098096309229732 ], [ 719306.978224382386543, 8867418.491255886852741 ], [ 719299.588075325009413, 8867424.280697505921125 ], [ 719291.963225828716531, 8867430.814939193427563 ], [ 719297.741541426046751, 8867437.140324663370848 ], [ 719284.816938396426849, 8867448.092770529910922 ], [ 719278.403043669997714, 8867453.617811385542154 ], [ 719257.051195782842115, 8867470.132574040442705 ], [ 719250.287190821138211, 8867474.565843533724546 ], [ 719228.256417292635888, 8867489.380277974531054 ], [ 719248.631395240779966, 8867516.474527278915048 ], [ 719241.453536024084315, 8867521.991470083594322 ], [ 719252.657682674005628, 8867533.431024990975857 ], [ 719302.026466268347576, 8867490.971213169395924 ], [ 719326.056865383521654, 8867520.891849489882588 ], [ 719331.820825433591381, 8867527.69027890637517 ], [ 719340.57123326358851, 8867520.031310269609094 ], [ 719402.067218938842416, 8867468.86259213462472 ], [ 719413.597820667200722, 8867459.268489236012101 ], [ 719475.093822483555414, 8867408.099821573123336 ], [ 719498.923515447648242, 8867388.271953299641609 ], [ 719548.120403146487661, 8867347.336959067732096 ], [ 719559.650928225368261, 8867337.742792628705502 ], [ 719621.146961606107652, 8867286.574115224182606 ], [ 719632.677449045120738, 8867276.980027636513114 ], [ 719694.173497851588763, 8867225.811290012672544 ], [ 719705.704056539805606, 8867216.217169964686036 ], [ 719767.200121449772269, 8867165.048482730984688 ], [ 719786.417579422472045, 8867149.058301094919443 ], [ 719847.913638907135464, 8867097.889646386727691 ], [ 719859.444226473802701, 8867088.295458737760782 ], [ 719920.940191778820008, 8867037.126744428649545 ], [ 719932.470741699566133, 8867027.532635614275932 ], [ 719994.030758964363486, 8866976.440794501453638 ], [ 720003.666762440116145, 8866967.712671069428325 ], [ 720288.336183796054684, 8867306.214152881875634 ], [ 720367.75722593604587, 8867401.221293814480305 ], [ 720483.770462765591219, 8867541.11135627143085 ], [ 720683.033965020556934, 8867785.055093988776207 ], [ 720930.502461112104356, 8867581.849411081522703 ], [ 721192.338016958208755, 8867911.081118702888489 ], [ 721576.465480265789665, 8868392.716373121365905 ], [ 722189.820629048277624, 8869317.725486915558577 ] ] ] ] } },
{ "type": "Feature", "properties": { "id": 36.0, "zona": "ZONA 06", "nome": "ZONA IMOBILIARIA 6 - NOVA", "fill_r": 170.0, "fill_g": 85.0, "fill_b": 0.0, "fill_a": 189.0, "stroke_r": 170.0, "stroke_g": 85.0, "stroke_b": 0.0, "stroke_a": 255.0, "fill_hex": "#aa5500", "stroke_hex": "#aa5500" }, "geometry": { "type": "MultiPolygon", "coordinates": [ [ [ [ 722296.032249972573482, 8869383.486785737797618 ], [ 722704.126990782795474, 8869039.821062872186303 ], [ 722175.400607496732846, 8868315.09093589708209 ], [ 722027.546088533941656, 8868087.976734608411789 ], [ 722195.617312532966025, 8867976.210782473906875 ], [ 722051.071838631527498, 8867787.533616442233324 ], [ 722093.293569881934673, 8867750.615149032324553 ], [ 721556.230765814660117, 8867051.359037844464183 ], [ 721322.031926604686305, 8867247.582926424220204 ], [ 721005.818895949283615, 8867517.594097884371877 ], [ 721059.252170690335333, 8867580.396061692386866 ], [ 721146.164323778008111, 8867683.858848992735147 ], [ 721230.933439265005291, 8867787.136359538882971 ], [ 721399.714063309133053, 8867994.243107851594687 ], [ 721486.179090328048915, 8868096.678012592718005 ], [ 721466.954137098393403, 8868112.507901445031166 ], [ 721640.052404917427339, 8868342.287514118477702 ], [ 721600.859349734848365, 8868381.870959864929318 ], [ 721749.998479759553447, 8868596.123136579990387 ], [ 721785.786695749382488, 8868571.452414404600859 ], [ 722296.032249972573482, 8869383.486785737797618 ] ] ] ] } }
]
}
