{"type": "FeatureCollection", "name": "setores_detalhe_noroeste", "crs": {"type": "name", "properties": {"name": "urn:ogc:def:crs:OGC:1.3:CRS84"}}, "properties": {"n_setores": 20, "nota": "Subdivisao PDF no noroeste (20 poligonos). Macro-setores em setores.geojson"}, "features": [{"type": "Feature", "properties": {"setor_id": 1, "layer": "PDF_REGIAO_POLILINHAS", "nivel": "detalhe_noroeste"}, "geometry": {"type": "Polygon", "coordinates": [[[-55.0058399383988, -10.23112851161679], [-55.00579569771255, -10.231007470380614], [-55.00576445725327, -10.230896572215038], [-55.00522575705427, -10.231082574959862], [-55.004454482835214, -10.231709016962682], [-55.00412925949599, -10.231722838127139], [-55.00390817676921, -10.231718128006854], [-55.00387089873801, -10.231257342229908], [-55.00368523653258, -10.231081757527335], [-55.00347774157881, -10.230993262377131], [-55.00313706738782, -10.230847398743705], [-55.002945387167536, -10.230551005889787], [-55.002741581917704, -10.230414128638893], [-55.00125431824558, -10.230331197103705], [-55.00117638297947, -10.230337427543478], [-55.00118687363177, -10.23082584506577], [-55.00148732724531, -10.230981527967543], [-55.00195908306586, -10.231519743338104], [-55.00211163852698, -10.231728193125004], [-55.002210070421654, -10.23200340642383], [-55.00237412754185, -10.23230681821639], [-55.00244378955886, -10.232385842134114], [-55.00252528164053, -10.23242995398142], [-55.002805674713564, -10.232544297504], [-55.00288982394759, -10.232627723786202], [-55.00324883650042, -10.232626571057216], [-55.003278791731894, -10.232633464671448], [-55.003607207190974, -10.232805611819867], [-55.00372704272822, -10.232907947322692], [-55.00388002506412, -10.233203143666637], [-55.00431834343894, -10.233209187012559], [-55.00440242294385, -10.233226475833694], [-55.004440518296676, -10.233246838067565], [-55.00463674214326, -10.233435906179603], [-55.00465543122501, -10.23346477559511], [-55.00476247925714, -10.233755376549508], [-55.00476754375982, -10.233951419743809], [-55.005015776567454, -10.233947669816406], [-55.00511276080018, -10.236158556122234], [-55.00544185001148, -10.236146196642549], [-55.00545919914354, -10.236854151574164], [-55.00601739263501, -10.237189692417607], [-55.0060774575879, -10.23725619642917], [-55.00656095312721, -10.237311876358312], [-55.00664152168626, -10.237349272881415], [-55.0072391890607, -10.237329930169581], [-55.00723887568965, -10.237612684329434], [-55.00748093208702, -10.237591163736761], [-55.007508922508734, -10.237835272067391], [-55.007514969563466, -10.237874128319822], [-55.00888727139293, -10.237855213514004], [-55.00890642958918, -10.236955779995252], [-55.00885073006376, -10.236965024386857], [-55.008758733168975, -10.236665409883393], [-55.00867867887799, -10.236623225288582], [-55.00842927655715, -10.236581442281837], [-55.00829803220337, -10.236523608202235], [-55.008212676006345, -10.236478035669819], [-55.00810788723884, -10.236367646336788], [-55.00804840504826, -10.23620769261291], [-55.00799920891812, -10.236027673168909], [-55.00794952618084, -10.235848129829137], [-55.0079353377981, -10.235718166449226], [-55.007925214848854, -10.235557077661834], [-55.007912682238405, -10.234851546722323], [-55.00787250512885, -10.23477701678757], [-55.00782217962044, -10.234700508394564], [-55.0077202853417, -10.234591574023677], [-55.00760537876951, -10.234474413759576], [-55.00748956986293, -10.234346703615081], [-55.00738858121824, -10.234247839067287], [-55.007395701105985, -10.234192290137859], [-55.00740588707023, -10.23403324205532], [-55.00741556452216, -10.233878024417884], [-55.00741614253189, -10.233707894995353], [-55.00741315978469, -10.233643178028265], [-55.00740812787624, -10.23359665996909], [-55.007396507520575, -10.233520388528113], [-55.00738473764079, -10.23346807842085], [-55.00736949755654, -10.233429165890493], [-55.0073306379871, -10.233376210842488], [-55.00729986176857, -10.233345829381145], [-55.007166435171214, -10.23332775913632], [-55.006926049322225, -10.233237147128982], [-55.00680020731658, -10.233089247645493], [-55.00671830342948, -10.232878355788753], [-55.00678444049691, -10.232592170276966], [-55.00676001833435, -10.232396487417136], [-55.00647272579591, -10.232146956671613], [-55.006466978001, -10.232060176883587], [-55.006500508228115, -10.232036899081876], [-55.00652381430906, -10.23179118774347], [-55.006380450531395, -10.231659954213562], [-55.00619838533933, -10.231450366112389], [-55.00609809295118, -10.231395117479394], [-55.00599599973636, -10.231318291871633], [-55.005911867766606, -10.231231991012995], [-55.0058399383988, -10.23112851161679]]]}}, {"type": "Feature", "properties": {"setor_id": 2, "layer": "PDF_REGIAO_POLILINHAS", "nivel": "detalhe_noroeste"}, "geometry": {"type": "Polygon", "coordinates": [[[-55.009502719166534, -10.2373126355591], [-55.009493210711156, -10.236975185614895], [-55.00899433376944, -10.236980760194012], [-55.009002289063446, -10.237101579278306], [-55.00924424657412, -10.237095870921163], [-55.00924016962862, -10.23720655294392], [-55.009231797707926, -10.237307623415134], [-55.009502719166534, -10.2373126355591]]]}}, {"type": "Feature", "properties": {"setor_id": 3, "layer": "PDF_REGIAO_POLILINHAS", "nivel": "detalhe_noroeste"}, "geometry": {"type": "Polygon", "coordinates": [[[-55.00924016962862, -10.23720655294392], [-55.00924424657412, -10.237095870921163], [-55.009002289063446, -10.237101579278306], [-55.009009330843966, -10.237213766573385], [-55.00924016962862, -10.23720655294392]]]}}, {"type": "Feature", "properties": {"setor_id": 4, "layer": "PDF_REGIAO_POLILINHAS", "nivel": "detalhe_noroeste"}, "geometry": {"type": "Polygon", "coordinates": [[[-55.009219958560834, -10.237421611516147], [-55.009231797707926, -10.237307623415134], [-55.00924016962862, -10.23720655294392], [-55.009009330843966, -10.237213766573385], [-55.00900218294234, -10.237428905950772], [-55.009219958560834, -10.237421611516147]]]}}, {"type": "Feature", "properties": {"setor_id": 5, "layer": "PDF_REGIAO_POLILINHAS", "nivel": "detalhe_noroeste"}, "geometry": {"type": "Polygon", "coordinates": [[[-55.008553934105606, -10.23536826802522], [-55.0090133730434, -10.235169315154057], [-55.00891201314317, -10.23497459960775], [-55.00868399757724, -10.235072408821031], [-55.008452580455966, -10.235172593346554], [-55.008553934105606, -10.23536826802522]]]}}, {"type": "Feature", "properties": {"setor_id": 6, "layer": "PDF_REGIAO_POLILINHAS", "nivel": "detalhe_noroeste"}, "geometry": {"type": "Polygon", "coordinates": [[[-55.00868399757724, -10.235072408821031], [-55.00863998804965, -10.234991625610714], [-55.008412462973126, -10.23508847854845], [-55.008452580455966, -10.235172593346554], [-55.00868399757724, -10.235072408821031]]]}}, {"type": "Feature", "properties": {"setor_id": 7, "layer": "PDF_REGIAO_POLILINHAS", "nivel": "detalhe_noroeste"}, "geometry": {"type": "Polygon", "coordinates": [[[-55.00863998804965, -10.234991625610714], [-55.00859549488759, -10.234910839438506], [-55.00837234849099, -10.235003885588663], [-55.008412462973126, -10.23508847854845], [-55.00863998804965, -10.234991625610714]]]}}, {"type": "Feature", "properties": {"setor_id": 8, "layer": "PDF_REGIAO_POLILINHAS", "nivel": "detalhe_noroeste"}, "geometry": {"type": "Polygon", "coordinates": [[[-55.00859549488759, -10.234910839438506], [-55.00863998804965, -10.234991625610714], [-55.00868399757724, -10.235072408821031], [-55.00891201314317, -10.23497459960775], [-55.00869096189121, -10.234498789804237], [-55.00844581991722, -10.234627645315074], [-55.008205073911796, -10.23412919161362], [-55.00800172831687, -10.234228109577478], [-55.00837234849099, -10.235003885588663], [-55.00859549488759, -10.234910839438506]]]}}, {"type": "Feature", "properties": {"setor_id": 9, "layer": "PDF_REGIAO_POLILINHAS", "nivel": "detalhe_noroeste"}, "geometry": {"type": "Polygon", "coordinates": [[[-55.008205073911796, -10.23412919161362], [-55.00844581991722, -10.234627645315074], [-55.00869096189121, -10.234498789804237], [-55.00819453842438, -10.233413608402158], [-55.00773452352102, -10.233627892131768], [-55.00800172831687, -10.234228109577478], [-55.008205073911796, -10.23412919161362]]]}}, {"type": "Feature", "properties": {"setor_id": 10, "layer": "PDF_REGIAO_POLILINHAS", "nivel": "detalhe_noroeste"}, "geometry": {"type": "Polygon", "coordinates": [[[-55.00819453842438, -10.233413608402158], [-55.007350033882275, -10.231663494722234], [-55.00670639019522, -10.231686391610232], [-55.00773452352102, -10.233627892131768], [-55.00819453842438, -10.233413608402158]]]}}, {"type": "Feature", "properties": {"setor_id": 11, "layer": "PDF_REGIAO_POLILINHAS", "nivel": "detalhe_noroeste"}, "geometry": {"type": "Polygon", "coordinates": [[[-55.007350033882275, -10.231663494722234], [-55.006752576482, -10.230332798189687], [-55.006205141292845, -10.230600700408582], [-55.00670639019522, -10.231686391610232], [-55.007350033882275, -10.231663494722234]]]}}, {"type": "Feature", "properties": {"setor_id": 12, "layer": "PDF_REGIAO_POLILINHAS", "nivel": "detalhe_noroeste"}, "geometry": {"type": "Polygon", "coordinates": [[[-55.006205141292845, -10.230600700408582], [-55.006752576482, -10.230332798189687], [-55.00644242557757, -10.229637425945748], [-55.00634823021112, -10.229458090068706], [-55.00535114795963, -10.229520515216345], [-55.00531434226751, -10.229526040513877], [-55.0052740714286, -10.229544005223213], [-55.005269636913205, -10.22955691778204], [-55.00527674677671, -10.229580444485604], [-55.00528045616306, -10.229606346668186], [-55.005408643606195, -10.22976576324073], [-55.005537500340736, -10.229895469962793], [-55.006072434950624, -10.230389976494562], [-55.006205141292845, -10.230600700408582]]]}}, {"type": "Feature", "properties": {"setor_id": 13, "layer": "PDF_REGIAO_POLILINHAS", "nivel": "detalhe_noroeste"}, "geometry": {"type": "Polygon", "coordinates": [[[-55.00799920891812, -10.236027673168909], [-55.00804840504826, -10.23620769261291], [-55.00810788723884, -10.236367646336788], [-55.008212676006345, -10.236478035669819], [-55.00829803220337, -10.236523608202235], [-55.00842927655715, -10.236581442281837], [-55.00867867887799, -10.236623225288582], [-55.008758733168975, -10.236665409883393], [-55.00885073006376, -10.236965024386857], [-55.00890642958918, -10.236955779995252], [-55.008862301188884, -10.236273538572949], [-55.00860739225513, -10.235718446574113], [-55.00815613531393, -10.234761020599661], [-55.007912682238405, -10.234851546722323], [-55.007925214848854, -10.235557077661834], [-55.0079353377981, -10.235718166449226], [-55.00794952618084, -10.235848129829137], [-55.00799920891812, -10.236027673168909]]]}}, {"type": "Feature", "properties": {"setor_id": 14, "layer": "PDF_REGIAO_POLILINHAS", "nivel": "detalhe_noroeste"}, "geometry": {"type": "Polygon", "coordinates": [[[-55.00740588707023, -10.23403324205532], [-55.007395701105985, -10.234192290137859], [-55.00738858121824, -10.234247839067287], [-55.00784979495478, -10.234074298940522], [-55.007448484306046, -10.233254723879952], [-55.00729986176857, -10.233345829381145], [-55.0073306379871, -10.233376210842488], [-55.007352725775554, -10.233403183722872], [-55.00736949755654, -10.233429165890493], [-55.00738473764079, -10.23346807842085], [-55.007396507520575, -10.233520388528113], [-55.00740812787624, -10.23359665996909], [-55.00741315978469, -10.233643178028265], [-55.00741614253189, -10.233707894995353], [-55.00741556452216, -10.233878024417884], [-55.00740588707023, -10.23403324205532]]]}}, {"type": "Feature", "properties": {"setor_id": 15, "layer": "PDF_REGIAO_POLILINHAS", "nivel": "detalhe_noroeste"}, "geometry": {"type": "Polygon", "coordinates": [[[-55.0077202853417, -10.234591574023677], [-55.00782217962044, -10.234700508394564], [-55.00787250512885, -10.23477701678757], [-55.007912682238405, -10.234851546722323], [-55.00815613531393, -10.234761020599661], [-55.00784979495478, -10.234074298940522], [-55.00738858121824, -10.234247839067287], [-55.00748956986293, -10.234346703615081], [-55.00760537876951, -10.234474413759576], [-55.0077202853417, -10.234591574023677]]]}}, {"type": "Feature", "properties": {"setor_id": 16, "layer": "PDF_REGIAO_POLILINHAS", "nivel": "detalhe_noroeste"}, "geometry": {"type": "Polygon", "coordinates": [[[-55.005911867766606, -10.231231991012995], [-55.00599599973636, -10.231318291871633], [-55.00609809295118, -10.231395117479394], [-55.00619838533933, -10.231450366112389], [-55.00646377783309, -10.231332658515734], [-55.00621054505101, -10.230742590593945], [-55.00576445725327, -10.230896572215038], [-55.00579569771255, -10.231007470380614], [-55.0058399383988, -10.23112851161679], [-55.005911867766606, -10.231231991012995]]]}}, {"type": "Feature", "properties": {"setor_id": 17, "layer": "PDF_REGIAO_POLILINHAS", "nivel": "detalhe_noroeste"}, "geometry": {"type": "Polygon", "coordinates": [[[-55.00347774157881, -10.230993262377131], [-55.00368523653258, -10.231081757527335], [-55.00387089873801, -10.231257342229908], [-55.00390817676921, -10.231718128006854], [-55.00412925949599, -10.231722838127139], [-55.004454482835214, -10.231709016962682], [-55.00374761412971, -10.230003832795918], [-55.002741581917704, -10.230414128638893], [-55.002945387167536, -10.230551005889787], [-55.00313706738782, -10.230847398743705], [-55.00347774157881, -10.230993262377131]]]}}, {"type": "Feature", "properties": {"setor_id": 18, "layer": "PDF_REGIAO_POLILINHAS", "nivel": "detalhe_noroeste"}, "geometry": {"type": "Polygon", "coordinates": [[[-55.00479196075293, -10.229578432121425], [-55.00374761412971, -10.230003832795918], [-55.004454482835214, -10.231709016962682], [-55.00522575705427, -10.231082574959862], [-55.00479196075293, -10.229578432121425]]]}}, {"type": "Feature", "properties": {"setor_id": 19, "layer": "PDF_REGIAO_POLILINHAS", "nivel": "detalhe_noroeste"}, "geometry": {"type": "Polygon", "coordinates": [[[-55.00647272579591, -10.232146956671613], [-55.00676001833435, -10.232396487417136], [-55.00678444049691, -10.232592170276966], [-55.00671830342948, -10.232878355788753], [-55.00680020731658, -10.233089247645493], [-55.006926049322225, -10.233237147128982], [-55.007166435171214, -10.23332775913632], [-55.00729986176857, -10.233345829381145], [-55.007448484306046, -10.233254723879952], [-55.00646377783309, -10.231332658515734], [-55.00619838533933, -10.231450366112389], [-55.006380450531395, -10.231659954213562], [-55.00652381430906, -10.23179118774347], [-55.006500508228115, -10.232036899081876], [-55.006466978001, -10.232060176883587], [-55.00647272579591, -10.232146956671613]]]}}, {"type": "Feature", "properties": {"setor_id": 20, "layer": "PDF_REGIAO_POLILINHAS", "nivel": "detalhe_noroeste"}, "geometry": {"type": "Polygon", "coordinates": [[[-55.00676001833435, -10.232396487417136], [-55.00678444049691, -10.232592170276966], [-55.00671830342948, -10.232878355788753], [-55.00680020731658, -10.233089247645493], [-55.006926049322225, -10.233237147128982], [-55.007166435171214, -10.23332775913632], [-55.00729986176857, -10.233345829381145], [-55.007448484306046, -10.233254723879952], [-55.00646377783309, -10.231332658515734], [-55.00619838533933, -10.231450366112389], [-55.006380450531395, -10.231659954213562], [-55.00652381430906, -10.23179118774347], [-55.006500508228115, -10.232036899081876], [-55.006466978001, -10.232060176883587], [-55.00647272579591, -10.232146956671613], [-55.00676001833435, -10.232396487417136]]]}}]}