{"type": "FeatureCollection", "name": "setores_pgv_peixoto", "crs": {"type": "name", "properties": {"name": "urn:ogc:def:crs:OGC:1.3:CRS84"}}, "properties": {"municipio": "Peixoto de Azevedo - MT", "n_setores": 14}, "features": [{"type": "Feature", "properties": {"id": 1, "bairro": "Liberdade e Mãe de Deus", "setores": ["15", "16", "17", "18", "23", "24"], "setores_txt": "15, 16, 17, 18, 23, 24", "zona_fundo": "07", "zona_via": "04", "upfm_fundo": 0.74, "upfm_via": 1.27, "rs_m2_fundo": 22.87, "rs_m2_via": 39.24, "upfm_2026": 30.9, "via_excecao": "Av. Brasil entre Rua Getúlio Vargas e Rua Goiás (Z04); Av. Brasil além da Rua Goiás até Presílio/Orquídea permanece Z07", "confianca": "alta", "evidencia": "Rua Presílio de Souza (setor 18), Rua Orquídea (setor 24), Rua Goiás, Av. Brasil, ruas de estados.", "fonte": "Tabela I — LC 77/2019 e Decreto 001/2026; rótulos do MAPA TRIBUTAÇÃO", "poligono_id": 1, "setor": "P01", "localidade": "sede", "setor_codigo": "sede:P01", "feature_id": 1, "nome_mapa": "Liberdade / Mãe de Deus", "recorte": "perimetro_sede", "geometria_compartilhada": false, "metodo": "poligono_cad_recorte_sede"}, "geometry": {"type": "Polygon", "coordinates": [[[-54.98971826580122, -10.25360396891001, 0.0], [-54.989733736331345, -10.253610414213382, 0.0], [-54.99060260869132, -10.254457121722496, 0.0], [-54.99136102783658, -10.255880161602466, 0.0], [-54.99124752290029, -10.25592931586131, 0.0], [-54.98752380598526, -10.258961706313634, 0.0], [-54.98655080758544, -10.259759698783409, 0.0], [-54.98576580537492, -10.260376705741772, 0.0], [-54.9849428030393, -10.261070704900634, 0.0], [-54.98423084007644, -10.261629143698705, 0.0], [-54.98342388563535, -10.262314388074698, 0.0], [-54.98270627581735, -10.262945064400878, 0.0], [-54.9819161747921, -10.26364565754023, 0.0], [-54.98121462819017, -10.264278219052029, 0.0], [-54.98047331758071, -10.264943334051305, 0.0], [-54.98149871264961, -10.266136775201632, 0.0], [-54.982958465561, -10.266335417584799, 0.0], [-54.9847083292411, -10.268379258363197, 0.0], [-54.990132906649706, -10.264025597526903, 0.0], [-54.990179758174214, -10.26409664751268, 0.0], [-54.99739652708395, -10.258255925989129, 0.0], [-54.99820048922425, -10.259184005548654, 0.0], [-54.99966952642547, -10.25804013230444, 0.0], [-54.9996576494353, -10.258026126380102, 0.0], [-54.9938076902354, -10.251079846641503, 0.0], [-54.98971826580122, -10.25360396891001, 0.0]]]}}, {"type": "Feature", "properties": {"id": 2, "bairro": "Aeroporto A", "setores": ["25"], "setores_txt": "25", "zona_fundo": "09", "zona_via": null, "upfm_fundo": 0.66, "upfm_via": null, "rs_m2_fundo": 20.39, "rs_m2_via": null, "upfm_2026": 30.9, "via_excecao": null, "confianca": "media", "evidencia": "Polígono isolado a noroeste, sem malha viária. Rótulos CAD 'Alameda São Judas Tadeu' são MTEXT (\\pxqc;) — possível cartela, não o bairro 35.", "fonte": "Tabela I — LC 77/2019 e Decreto 001/2026; rótulos do MAPA TRIBUTAÇÃO", "poligono_id": 2, "setor": "P02", "localidade": "sede", "setor_codigo": "sede:P02", "feature_id": 2, "nome_mapa": "Aeroporto A", "recorte": "perimetro_sede", "geometria_compartilhada": false, "metodo": "poligono_cad_recorte_sede"}, "geometry": {"type": "Polygon", "coordinates": [[[-54.99968082207654, -10.258031108674976, 0.0], [-54.99999107981847, -10.257723946391279, 0.0], [-54.9944106213012, -10.250987903063498, 0.0], [-54.9901145330811, -10.245554911450895, 0.0], [-54.9899552954862, -10.245290682035193, 0.0], [-54.9834738004149, -10.237398796837692, 0.0], [-54.9829330925375, -10.237864260576604, 0.0], [-54.9813407165886, -10.239387516910208, 0.0], [-54.98733211629931, -10.24625914147169, 0.0], [-54.9885691549392, -10.24633298503421, 0.0], [-54.9894390801445, -10.245892530504205, 0.0], [-54.9938076902354, -10.251079846641503, 0.0], [-54.99968082207654, -10.258031108674976, 0.0]]]}}, {"type": "Feature", "properties": {"id": 3, "bairro": "Centro Novo / Alvorada / Bela Vista", "setores": ["03", "04", "05", "10", "11", "12", "26"], "setores_txt": "03, 04, 05, 10, 11, 12, 26", "zona_fundo": "03", "zona_via": "01", "upfm_fundo": 2.1, "upfm_via": 3.19, "rs_m2_fundo": 64.89, "rs_m2_via": 98.57, "upfm_2026": 30.9, "via_excecao": "Av. Brasil entre BR-163 e Rua Getúlio Vargas → Z01; Bela Vista 03-05 fundo Z05; Padre Cícero (26) fundo Z06", "confianca": "alta", "evidencia": "Rua Getúlio Vargas, SETOR INDUSTRIAL 1, Quarteirão A/B/Central Oeste, Vila Olímpica, ruas de presidentes.", "fonte": "Tabela I — LC 77/2019 e Decreto 001/2026; rótulos do MAPA TRIBUTAÇÃO", "poligono_id": 3, "setor": "P03", "localidade": "sede", "setor_codigo": "sede:P03", "feature_id": 3, "nome_mapa": "Bela Vista / Alvorada", "recorte": "perimetro_sede", "geometria_compartilhada": false, "metodo": "poligono_cad_recorte_sede"}, "geometry": {"type": "Polygon", "coordinates": [[[-55.00728525818451, -10.237853612293291, 0.0], [-55.0072391890607, -10.237329930169599, 0.0], [-55.0059566614372, -10.2373255240544, 0.0], [-55.0054776097049, -10.236965458385999, 0.0], [-55.005456484141, -10.236159810011705, 0.0], [-55.0051127608002, -10.2361585561222, 0.0], [-55.00501668244971, -10.23396086548049, 0.0], [-55.0046593999905, -10.233246370324593, 0.0], [-55.0035464439165, -10.232878740112296, 0.0], [-55.0023741275418, -10.232306818216406, 0.0], [-55.0019405492974, -10.2314912570534, 0.0], [-55.0017970604757, -10.231326769867502, 0.0], [-55.001625573835, -10.231165782408894, 0.0], [-55.0012785873808, -10.23098055825689, 0.0], [-55.0011763829795, -10.230337427543496, 0.0], [-55.00117409497171, -10.230239168517896, 0.0], [-54.9994124782997, -10.230361265497708, 0.0], [-54.9993375937335, -10.23795044644591, 0.0], [-54.9997085975922, -10.243521479326704, 0.0], [-55.00791115681274, -10.243299880476272, 0.0], [-55.00790156002499, -10.24282560005733, 0.0], [-55.0078511020865, -10.241408776555303, 0.0], [-55.0085488467365, -10.241319254628799, 0.0], [-55.0084755827814, -10.237922663098603, 0.0], [-55.00728525818451, -10.237853612293291, 0.0]]]}}, {"type": "Feature", "properties": {"id": 4, "bairro": "Setor Industrial (Centro Novo e Bela Vista Setor II)", "setores": ["02", "13", "14"], "setores_txt": "02, 13, 14", "zona_fundo": "01", "zona_via": null, "upfm_fundo": 3.19, "upfm_via": null, "rs_m2_fundo": 98.57, "rs_m2_via": null, "upfm_2026": 30.9, "via_excecao": "BR-163 / Av. Industrial, quadras 01–08 (setores 13 e 14) e quadras 01–02 do Setor II Bela Vista (setor 02)", "confianca": "alta", "evidencia": "AV: INDUSTRIAL (10 rótulos), ruas B1–B7 (Palmas, Goiânia, Anápolis…), Getúlio Vargas.", "fonte": "Tabela I — LC 77/2019 e Decreto 001/2026; rótulos do MAPA TRIBUTAÇÃO", "poligono_id": 4, "setor": "P04", "localidade": "sede", "setor_codigo": "sede:P04", "feature_id": 4, "nome_mapa": "Setor Industrial", "recorte": "perimetro_sede", "geometria_compartilhada": false, "metodo": "poligono_cad_recorte_sede"}, "geometry": {"type": "Polygon", "coordinates": [[[-55.0096136233095, -10.237994326619601, 0.0], [-55.00956419853, -10.236298920900294, 0.0], [-55.00692806420632, -10.23032170991583, 0.0], [-55.006508346972396, -10.229379130413378, 0.0], [-55.00555503201234, -10.229422090680218, 0.0], [-55.00489053379586, -10.229463831082844, 0.0], [-55.00479663637343, -10.22948310167118, 0.0], [-55.002741581917704, -10.230414128638893, 0.0], [-55.00120677952806, -10.230180493820626, 0.0], [-55.00117430207437, -10.230182888318117, 0.0], [-55.0012785873808, -10.23098055825689, 0.0], [-55.001625573835, -10.231165782408894, 0.0], [-55.0017970604757, -10.231326769867502, 0.0], [-55.0019405492974, -10.2314912570534, 0.0], [-55.0023741275418, -10.232306818216406, 0.0], [-55.0035464439165, -10.232878740112296, 0.0], [-55.0046593999905, -10.233246370324593, 0.0], [-55.00501668244971, -10.23396086548049, 0.0], [-55.0051127608002, -10.2361585561222, 0.0], [-55.005456484141, -10.236159810011705, 0.0], [-55.0054776097049, -10.236965458385999, 0.0], [-55.0059566614372, -10.2373255240544, 0.0], [-55.0072391890607, -10.237329930169599, 0.0], [-55.00728525818451, -10.237853612293291, 0.0], [-55.0084755827814, -10.237922663098603, 0.0], [-55.0096136233095, -10.237994326619601, 0.0]]]}}, {"type": "Feature", "properties": {"id": 5, "bairro": "Nova Esperança", "setores": ["08"], "setores_txt": "08", "zona_fundo": "06", "zona_via": "02", "upfm_fundo": 0.94, "upfm_via": 2.28, "rs_m2_fundo": 29.05, "rs_m2_via": 70.45, "upfm_2026": 30.9, "via_excecao": "BR-163 no bairro Nova Esperança → Z02", "confianca": "media", "evidencia": "BR-163, Av. Rotary Internacional, ruas com nomes de cidades de MT (Dourados, Rondonópolis, Cáceres, Tangará).", "fonte": "Tabela I — LC 77/2019 e Decreto 001/2026; rótulos do MAPA TRIBUTAÇÃO", "poligono_id": 5, "setor": "P05", "localidade": "sede", "setor_codigo": "sede:P05", "feature_id": 5, "nome_mapa": "Nova Esperança", "recorte": "perimetro_sede", "geometria_compartilhada": false, "metodo": "poligono_cad_recorte_sede"}, "geometry": {"type": "Polygon", "coordinates": [[[-54.99149213136079, -10.231377629695656, 0.0], [-54.98641309899993, -10.235539222669537, 0.0], [-54.9862199567537, -10.235280903387132, 0.0], [-54.9834738004149, -10.237398796837692, 0.0], [-54.9899552954862, -10.245290682035193, 0.0], [-54.9963989497553, -10.240206234379603, 0.0], [-54.99790011405991, -10.238856433283303, 0.0], [-54.99149213136079, -10.231377629695656, 0.0]]]}}, {"type": "Feature", "properties": {"id": 6, "bairro": "Periferia sul (Beira Rio, Acrivale, Distrito Industrial, São Judas, chácaras)", "setores": ["29", "30", "31", "32", "35"], "setores_txt": "29, 30, 31, 32, 35", "zona_fundo": "10", "zona_via": "02", "upfm_fundo": 0.52, "upfm_via": 2.28, "rs_m2_fundo": 16.07, "rs_m2_via": 70.45, "upfm_2026": 30.9, "via_excecao": "BR-163 entre Santa Izabel/Acrivale e Beira Rio → Z02; Distrito Industrial posto/armazéns Z06, quadras 07–08 Z10", "confianca": "media", "evidencia": "Estrada das Chácaras, Reserva Técnica — Expansão Urbana. Maior polígono (297 ha); agrupa setores 29–32 e 35 até subdivisão.", "fonte": "Tabela I — LC 77/2019 e Decreto 001/2026; rótulos do MAPA TRIBUTAÇÃO", "poligono_id": 6, "setor": "P06", "localidade": "sede", "setor_codigo": "sede:P06", "feature_id": 6, "nome_mapa": "Beira Rio / Acrivale / São Judas", "recorte": "perimetro_sede", "geometria_compartilhada": false, "metodo": "poligono_cad_recorte_sede"}, "geometry": {"type": "Polygon", "coordinates": [[[-54.99790011405991, -10.238856433283303, 0.0], [-54.9988170426283, -10.238105741764503, 0.0], [-54.9993375937335, -10.23795044644591, 0.0], [-54.9994122287392, -10.231302949323904, 0.0], [-54.9969523537281, -10.228622897326801, 0.0], [-54.9974435107238, -10.228200325772992, 0.0], [-54.996610149581144, -10.227183880466436, 0.0], [-54.99149213136079, -10.231377629695656, 0.0], [-54.99790011405991, -10.238856433283303, 0.0]]]}}, {"type": "Feature", "properties": {"id": 7, "bairro": "Jerusalém (loteamento Felicidade I no CAD)", "setores": ["19", "20"], "setores_txt": "19, 20", "zona_fundo": "08", "zona_via": null, "upfm_fundo": 0.66, "upfm_via": null, "rs_m2_fundo": 20.39, "rs_m2_via": null, "upfm_2026": 30.9, "via_excecao": null, "confianca": "media", "evidencia": "Rótulo CAD FELICIDADE I; sem faixa de BR; leste da sede. LC 77: Jerusalém em toda a extensão = setores 19 e 20.", "fonte": "Tabela I — LC 77/2019 e Decreto 001/2026; rótulos do MAPA TRIBUTAÇÃO", "poligono_id": 7, "setor": "P07", "localidade": "sede", "setor_codigo": "sede:P07", "feature_id": 7, "nome_mapa": "Jerusalém — Felicidade I", "recorte": "perimetro_sede", "geometria_compartilhada": false, "metodo": "poligono_cad_recorte_sede"}, "geometry": {"type": "Polygon", "coordinates": [[[-54.978848910708, -10.232657541196206, 0.0], [-54.97867593986698, -10.232415655845488, 0.0], [-54.97849303857767, -10.232560486949282, 0.0], [-54.97355933616264, -10.225900712521895, 0.0], [-54.97216013156865, -10.22695043559814, 0.0], [-54.9770366454209, -10.234042796619804, 0.0], [-54.97291727360506, -10.237240252387569, 0.0], [-54.97731397503787, -10.242615290681906, 0.0], [-54.97725670172298, -10.242663286531455, 0.0], [-54.9773046560103, -10.242722757084607, 0.0], [-54.9813407165886, -10.239387516910208, 0.0], [-54.9829330925375, -10.237864260576604, 0.0], [-54.978848910708, -10.232657541196206, 0.0]]]}}, {"type": "Feature", "properties": {"id": 8, "bairro": "Santa Izabel", "setores": ["06", "07"], "setores_txt": "06, 07", "zona_fundo": "06", "zona_via": "02", "upfm_fundo": 0.94, "upfm_via": 2.28, "rs_m2_fundo": 29.05, "rs_m2_via": 70.45, "upfm_2026": 30.9, "via_excecao": "BR-163 em Santa Izabel → Z02", "confianca": "alta", "evidencia": "Rua Santa Izabel / Rua Nobres (8+ rótulos), malha densa de lotes.", "fonte": "Tabela I — LC 77/2019 e Decreto 001/2026; rótulos do MAPA TRIBUTAÇÃO", "poligono_id": 8, "setor": "P08", "localidade": "sede", "setor_codigo": "sede:P08", "feature_id": 8, "nome_mapa": "Santa Izabel", "recorte": "perimetro_sede", "geometria_compartilhada": false, "metodo": "poligono_cad_recorte_sede"}, "geometry": {"type": "Polygon", "coordinates": [[[-54.9773046560103, -10.242722757084607, 0.0], [-54.97542612022277, -10.244197325275925, 0.0], [-54.97532984054033, -10.244278007473682, 0.0], [-54.9785015627677, -10.248190206153303, 0.0], [-54.9800697489499, -10.250021087298396, 0.0], [-54.9835656682581, -10.249587472301902, 0.0], [-54.9839856355414, -10.248710207310202, 0.0], [-54.9842749463365, -10.247963598806697, 0.0], [-54.9849935570211, -10.247422307641598, 0.0], [-54.9857716630709, -10.246766692049405, 0.0], [-54.98733211629931, -10.24625914147169, 0.0], [-54.9813407165886, -10.239387516910208, 0.0], [-54.9773046560103, -10.242722757084607, 0.0]]]}}, {"type": "Feature", "properties": {"id": 9, "bairro": "Aeroporto", "setores": ["01"], "setores_txt": "01", "zona_fundo": "07", "zona_via": "01", "upfm_fundo": 0.74, "upfm_via": 3.19, "rs_m2_fundo": 22.87, "rs_m2_via": 98.57, "upfm_2026": 30.9, "via_excecao": "BR-163 / Av. Brasil entre Av. Brasil e Córrego das Lavadeiras → Z01", "confianca": "alta", "evidencia": "Avenida Marginal (BR-163), ruas com nomes de capitais (Natal, Salvador, Belém, Brasília…).", "fonte": "Tabela I — LC 77/2019 e Decreto 001/2026; rótulos do MAPA TRIBUTAÇÃO", "poligono_id": 9, "setor": "P09", "localidade": "sede", "setor_codigo": "sede:P09", "feature_id": 9, "nome_mapa": "Marginal BR-163 (norte)", "recorte": "perimetro_sede", "geometria_compartilhada": false, "metodo": "poligono_cad_recorte_sede"}, "geometry": {"type": "Polygon", "coordinates": [[[-54.9938076902354, -10.251079846641503, 0.0], [-54.9894390801445, -10.245892530504205, 0.0], [-54.9885691549392, -10.24633298503421, 0.0], [-54.98733211629931, -10.24625914147169, 0.0], [-54.9857716630709, -10.246766692049405, 0.0], [-54.9849935570211, -10.247422307641598, 0.0], [-54.9842749463365, -10.247963598806697, 0.0], [-54.9839856355414, -10.248710207310202, 0.0], [-54.9835656682581, -10.249587472301902, 0.0], [-54.983117703156, -10.249811454853003, 0.0], [-54.98184846870001, -10.251080689308994, 0.0], [-54.981556824753305, -10.251724639143307, 0.0], [-54.9822427713159, -10.252121274910794, 0.0], [-54.9824620875638, -10.252788556260796, 0.0], [-54.983166699339, -10.252900547536408, 0.0], [-54.9836473285632, -10.252569240012896, 0.0], [-54.9846645826493, -10.252485246556201, 0.0], [-54.98561901005573, -10.2526972497867, 0.0], [-54.98641261174768, -10.252226752148403, 0.0], [-54.98971826580122, -10.25360396891001, 0.0], [-54.9938076902354, -10.251079846641503, 0.0]]]}}, {"type": "Feature", "properties": {"id": 10, "bairro": "Centro Antigo e Feirinha", "setores": ["09", "34"], "setores_txt": "09, 34", "zona_fundo": "04", "zona_via": "01", "upfm_fundo": 1.27, "upfm_via": 3.19, "rs_m2_fundo": 39.24, "rs_m2_via": 98.57, "upfm_2026": 30.9, "via_excecao": "BR-163 e Av. Brasil (Centro Antigo e Feirinha, Travessa dos Garimpeiros–Lavadeiras) → Z01", "confianca": "alta", "evidencia": "Travessa dos Garimpeiros, Rua Ministro César Cals (sede da prefeitura), Rua do Comércio, Av. Brasil.", "fonte": "Tabela I — LC 77/2019 e Decreto 001/2026; rótulos do MAPA TRIBUTAÇÃO", "poligono_id": 10, "setor": "P10", "localidade": "sede", "setor_codigo": "sede:P10", "feature_id": 10, "nome_mapa": "Centro Antigo / Feirinha", "recorte": "perimetro_sede", "geometria_compartilhada": false, "metodo": "poligono_cad_recorte_sede"}, "geometry": {"type": "Polygon", "coordinates": [[[-55.00422732452962, -10.251782715392366, 0.0], [-55.00356314254747, -10.251229571266721, 0.0], [-55.00271616231999, -10.25047389983805, 0.0], [-55.00211207472186, -10.250944081945859, 0.0], [-54.999763997676006, -10.248188968130501, 0.0], [-54.99964881718097, -10.248280307897156, 0.0], [-54.9983561032892, -10.24934409470671, 0.0], [-54.99833632452643, -10.249321125850276, 0.0], [-54.998237345044, -10.2493996168829, 0.0], [-54.99774327900005, -10.248810803518046, 0.0], [-54.99720033105039, -10.249251986977088, 0.0], [-54.99719378207385, -10.249243940527606, 0.0], [-54.9969328035043, -10.249473021083503, 0.0], [-54.996246730571904, -10.248770489860489, 0.0], [-54.9944106213012, -10.250987903063498, 0.0], [-54.9999626128788, -10.257736996609694, 0.0], [-54.99996955357927, -10.257745257894577, 0.0], [-55.00009330434629, -10.257622741542296, 0.0], [-55.00094617834691, -10.258600120290376, 0.0], [-55.00651920546617, -10.253899237168822, 0.0], [-55.00422732452962, -10.251782715392366, 0.0]]]}}, {"type": "Feature", "properties": {"id": 11, "bairro": "Centro Novo — faixa da Av. Brasil (setor 10)", "setores": ["10"], "setores_txt": "10", "zona_fundo": "01", "zona_via": null, "upfm_fundo": 3.19, "upfm_via": null, "rs_m2_fundo": 98.57, "rs_m2_via": null, "upfm_2026": 30.9, "via_excecao": "Av. Brasil entre BR-163 e Rua Getúlio Vargas", "confianca": "media", "evidencia": "Av. Brasil / Maranhão, Ministro Cezar Cals, Rua do Comércio; bolsão entre Liberdade, Centro Novo e Feirinha.", "fonte": "Tabela I — LC 77/2019 e Decreto 001/2026; rótulos do MAPA TRIBUTAÇÃO", "poligono_id": 11, "setor": "P11", "localidade": "sede", "setor_codigo": "sede:P11", "feature_id": 11, "nome_mapa": "Av. Brasil — Centro Novo", "recorte": "perimetro_sede", "geometria_compartilhada": false, "metodo": "poligono_cad_recorte_sede"}, "geometry": {"type": "Polygon", "coordinates": [[[-54.996216373299404, -10.248808646168198, 0.0], [-54.9991408917585, -10.244267524694607, 0.0], [-54.9980956613262, -10.242528522216094, 0.0], [-54.9963989497553, -10.240206234379603, 0.0], [-54.9899552954862, -10.245290682035193, 0.0], [-54.9901145330811, -10.245554911450895, 0.0], [-54.9944106213012, -10.250987903063498, 0.0], [-54.996216373299404, -10.248808646168198, 0.0]]]}}, {"type": "Feature", "properties": {"id": 12, "bairro": "Jerusalém — fragmento leste", "setores": ["19"], "setores_txt": "19", "zona_fundo": "08", "zona_via": null, "upfm_fundo": 0.66, "upfm_via": null, "rs_m2_fundo": 20.39, "rs_m2_via": null, "upfm_2026": 30.9, "via_excecao": null, "confianca": "baixa", "evidencia": "Apenas Rua L3 no CAD; 8 ha vizinho do polígono 7 (Felicidade I / Jerusalém).", "fonte": "Tabela I — LC 77/2019 e Decreto 001/2026; rótulos do MAPA TRIBUTAÇÃO", "poligono_id": 12, "setor": "P12", "localidade": "sede", "setor_codigo": "sede:P12", "feature_id": 12, "nome_mapa": "Jerusalém — fragmento leste", "recorte": "perimetro_sede", "geometria_compartilhada": false, "metodo": "poligono_cad_recorte_sede"}, "geometry": {"type": "Polygon", "coordinates": [[[-54.999617455473505, -10.243641253249745, 0.0], [-54.99964733370282, -10.24356784363628, 0.0], [-54.999673876278074, -10.243567108169971, 0.0], [-54.9997085975922, -10.243521479326704, 0.0], [-54.9993375937335, -10.23795044644591, 0.0], [-54.9988170426283, -10.238105741764503, 0.0], [-54.99790011405991, -10.238856433283303, 0.0], [-54.9963989497553, -10.240206234379603, 0.0], [-54.9980956613262, -10.242528522216094, 0.0], [-54.9991408917585, -10.244267524694607, 0.0], [-54.999617455473505, -10.243641253249745, 0.0]]]}}, {"type": "Feature", "properties": {"id": 13, "bairro": "Faixa da BR-163", "setores": ["01", "06", "07", "08", "29", "31"], "setores_txt": "01, 06, 07, 08, 29, 31", "zona_fundo": "02", "zona_via": "01", "upfm_fundo": 2.28, "upfm_via": 3.19, "rs_m2_fundo": 70.45, "rs_m2_via": 98.57, "upfm_2026": 30.9, "via_excecao": "Trechos de BR-163 da sede: Z01 (Aeroporto/Centro) e Z02 (Santa Izabel, Nova Esperança, Acrivale, Beira Rio)", "confianca": "alta", "evidencia": "18 rótulos BR 163 / BR-163; Lions e Rotary. Corredor que a Tabela I trata como exceção de via.", "fonte": "Tabela I — LC 77/2019 e Decreto 001/2026; rótulos do MAPA TRIBUTAÇÃO", "poligono_id": 13, "setor": "P13", "localidade": "sede", "setor_codigo": "sede:P13", "feature_id": 13, "nome_mapa": "Corredor BR-163", "recorte": "perimetro_sede", "geometria_compartilhada": false, "metodo": "poligono_cad_recorte_sede"}, "geometry": {"type": "Polygon", "coordinates": [[[-54.974311917879206, -10.245215668052404, 0.0], [-54.976084104401934, -10.247304315240921, 0.0], [-54.97611393275168, -10.247280474002409, 0.0], [-54.97753249860477, -10.24900512119093, 0.0], [-54.9785015627677, -10.248190206153303, 0.0], [-54.97532984054033, -10.244278007473682, 0.0], [-54.97526809871846, -10.24432974696653, 0.0], [-54.974311917879206, -10.245215668052404, 0.0]]]}}, {"type": "Feature", "properties": {"setor": "UN", "localidade": "distrito", "setor_codigo": "distrito:UN", "feature_id": 100, "bairro": "Distrito União do Norte", "nome_mapa": "Distrito", "zona_fundo": "11-14", "zona_via": null, "upfm_fundo": null, "upfm_via": null, "rs_m2_fundo": null, "rs_m2_via": null, "upfm_2026": 30.9, "descricao": "Tabela I — Distrito União do Norte (zonas 11 a 14 no decreto)", "geometria_compartilhada": false, "fonte": "Decreto 001/2026 · perímetro_distrito", "metodo": "perimetro_distrito", "nota": "Um setor PGV para o distrito; subzonas internas na tabela do decreto."}, "geometry": {"type": "MultiPolygon", "coordinates": [[[[-54.42741193999999, -10.441337499663259, 0.0], [-54.43249083000001, -10.444845829663135, 0.0], [-54.43349499999999, -10.445480559663123, 0.0], [-54.43438888999999, -10.446052219663112, 0.0], [-54.43460194, -10.445883059663098, 0.0], [-54.44432611000001, -10.440975559663267, 0.0], [-54.44894083000002, -10.438646669663312, 0.0], [-54.453545, -10.436320829663394, 0.0], [-54.45365082999999, -10.436350279663403, 0.0], [-54.45694778, -10.433641669663489, 0.0], [-54.45687916999997, -10.433583059663489, 0.0], [-54.45520805999998, -10.42637916966371, 0.0], [-54.42741193999999, -10.441337499663259, 0.0]]], [[[-54.42665282807702, -10.44067976292477, 0.0], [-54.44453496864813, -10.43100116406786, 0.0], [-54.45717651719842, -10.424322080164918, 0.0], [-54.45768456107108, -10.424156606224306, 0.0], [-54.45961748963708, -10.424138900591014, 0.0], [-54.45961149246547, -10.423797835144724, 0.0], [-54.45641555343418, -10.418097932024333, 0.0], [-54.45616871416048, -10.417751789392643, 0.0], [-54.44458694421554, -10.422259639819544, 0.0], [-54.44203925563792, -10.423253091553155, 0.0], [-54.437469353033414, -10.425026462501673, 0.0], [-54.43206541637682, -10.42823200573117, 0.0], [-54.41919653378594, -10.435864885804431, 0.0], [-54.42665282807702, -10.44067976292477, 0.0]]]]}}]}