{
"type": "FeatureCollection",
"name": "SETORES1009",
"crs": { "type": "name", "properties": { "name": "urn:ogc:def:crs:EPSG::31981" } },
"features": [
{ "type": "Feature", "properties": { "fid": 11.0, "Layer": "ZONA 10", "PaperSpace": null, "SubClasses": "AcDbEntity:AcDbPolyline", "Linetype": null, "EntityHand": "2E0", "Text": null, "ogr_style": "PEN(c:#000000)", "font": null, "angle": null, "size": null, "size_u": null, "anchor": null, "color": "#000000", "underline": null, "plaintext": null, "fcolor": null, "flnum": null, "bold": null, "italic": null, "dx": null, "dx_u": null, "dy": null, "dy_u": null, "path": "//192.168.1.253/pgv/344 - PEIXOTO DE AZEVEDO MT/05 - PGV/shapes setores/ZONA 10.shp" }, "geometry": { "type": "MultiPolygon", "coordinates": [ [ [ [ 718474.654474858311005, 8868042.124911673367023 ], [ 718142.054933672072366, 8867607.412734417244792 ], [ 718023.361196133308113, 8867608.08622126840055 ], [ 718026.933697332278825, 8867783.431572265923023 ], [ 718033.061049909912981, 8867799.1234145835042 ], [ 718167.544041288318112, 8868110.802948974072933 ], [ 718370.811485979356803, 8868550.22036543674767 ], [ 718512.870168066234328, 8868540.696617655456066 ], [ 718551.211378995329142, 8868536.543928764760494 ], [ 718751.938012323342264, 8868452.454953702166677 ], [ 718889.536171507672407, 8868458.4344811309129 ], [ 718474.654474858311005, 8868042.124911673367023 ] ] ] ] } },
{ "type": "Feature", "properties": { "fid": 8.0, "Layer": "ZONA 09", "PaperSpace": null, "SubClasses": "AcDbEntity:AcDbPolyline", "Linetype": null, "EntityHand": "2DD", "Text": null, "ogr_style": "PEN(c:#000000)", "font": null, "angle": null, "size": null, "size_u": null, "anchor": null, "color": "#000000", "underline": null, "plaintext": null, "fcolor": null, "flnum": null, "bold": null, "italic": null, "dx": null, "dx_u": null, "dy": null, "dy_u": null, "path": "//192.168.1.253/pgv/344 - PEIXOTO DE AZEVEDO MT/05 - PGV/shapes setores/ZONA 09.shp" }, "geometry": { "type": "MultiPolygon", "coordinates": [ [ [ [ 720452.596681465744041, 8866652.644454855471849 ], [ 720598.763086183345877, 8866629.109384430572391 ], [ 720646.014678640174679, 8866611.937400072813034 ], [ 720738.798605030751787, 8866535.713802019134164 ], [ 720764.298046407406218, 8866476.067645024508238 ], [ 720754.785962564521469, 8866448.971060242503881 ], [ 720746.199378771008924, 8866424.342475587502122 ], [ 720771.2466931194067, 8866408.127272194251418 ], [ 720766.380886544939131, 8866393.685203550383449 ], [ 720748.396414556074888, 8866377.477986682206392 ], [ 720749.931582365534268, 8866348.686098957434297 ], [ 720739.853915159008466, 8866284.466678850352764 ], [ 720811.425918993540108, 8866266.316594544798136 ], [ 720798.36608496052213, 8866241.585176553577185 ], [ 720823.57803186995443, 8866205.938973093405366 ], [ 720862.860703986953013, 8866158.429231949150562 ], [ 720799.156617225147784, 8866089.989011997357011 ], [ 720736.389596767257899, 8866022.653183920308948 ], [ 720690.856522034155205, 8866006.299463726580143 ], [ 720571.953378619044088, 8865963.738192839547992 ], [ 720566.557961849612184, 8865961.795244926586747 ], [ 720485.066558029153384, 8866032.564740639179945 ], [ 720471.942394471494481, 8866036.362907471135259 ], [ 720416.813902431749739, 8865987.215466463938355 ], [ 720347.180791597347707, 8866035.066931430250406 ], [ 720292.442361139575951, 8865927.004356207326055 ], [ 720278.336804618244059, 8865925.822936372831464 ], [ 720248.699268220341764, 8865884.79841366969049 ], [ 720201.406159499427304, 8865875.967772701755166 ], [ 720068.039109783596359, 8865947.586440768092871 ], [ 720014.526343571953475, 8865976.289250394329429 ], [ 719978.375144385034218, 8865995.701858619228005 ], [ 719976.915395195246674, 8865997.914056034758687 ], [ 719932.187601673067547, 8866025.831610042601824 ], [ 719890.858222992741503, 8866052.055548034608364 ], [ 719847.618185260449536, 8866079.370989285409451 ], [ 719742.674329087720253, 8866150.775789421051741 ], [ 719745.27236385224387, 8866153.93023962341249 ], [ 719756.790343085303903, 8866167.73584458604455 ], [ 719777.685868970118463, 8866192.768326049670577 ], [ 719809.660627179429866, 8866162.225962944328785 ], [ 719808.295930147171021, 8866160.298184426501393 ], [ 719812.471039239899255, 8866157.244695035740733 ], [ 719853.270085668424144, 8866213.488972535356879 ], [ 719844.455691605107859, 8866219.745808236300945 ], [ 719856.535491541959345, 8866236.851881135255098 ], [ 719877.086893918109126, 8866236.155546216294169 ], [ 719894.295178257394582, 8866263.836570365354419 ], [ 719896.784373138681985, 8866263.006434397771955 ], [ 719901.272421546746045, 8866260.046332038938999 ], [ 719909.197460214723833, 8866254.703220242634416 ], [ 719913.587283089174889, 8866251.766832279041409 ], [ 719928.339031902258284, 8866275.424673721194267 ], [ 719902.811559088644572, 8866300.9888696372509 ], [ 719905.469413907034323, 8866305.236781768500805 ], [ 719913.492039895383641, 8866315.469464600086212 ], [ 719916.680257881293073, 8866312.999703595414758 ], [ 719924.92835906916298, 8866323.574940329417586 ], [ 719947.957681453204714, 8866315.936780765652657 ], [ 719956.124241442652419, 8866326.697411920875311 ], [ 719949.044928914867342, 8866332.279201669618487 ], [ 719957.472501607728191, 8866342.99975204654038 ], [ 719982.332076545804739, 8866336.432094253599644 ], [ 719995.775883692665957, 8866355.81965558603406 ], [ 719991.409457260160707, 8866358.855376226827502 ], [ 719994.636495240265504, 8866363.23957140929997 ], [ 720012.292851829901338, 8866387.135019367560744 ], [ 720016.149740752764046, 8866398.588869571685791 ], [ 720033.886140036163852, 8866417.12081927806139 ], [ 720026.944148770184256, 8866423.648039711639285 ], [ 720041.044138956349343, 8866442.549802962690592 ], [ 720034.323769438546151, 8866448.422220000997186 ], [ 720043.189756874111481, 8866460.309132991358638 ], [ 720055.089832249330357, 8866470.25940565392375 ], [ 720084.791353417909704, 8866466.014927385374904 ], [ 720088.750376728014089, 8866477.405120696872473 ], [ 720099.127421244746074, 8866508.343201754614711 ], [ 720120.626609253231436, 8866503.328799046576023 ], [ 720122.763307243934833, 8866510.795693868771195 ], [ 720134.202694528969005, 8866550.033565003424883 ], [ 720152.765518858213909, 8866546.619460785761476 ], [ 720154.844724650494754, 8866550.439130427315831 ], [ 720171.0468506263569, 8866573.717096477746964 ], [ 720187.281731475144625, 8866562.36041565798223 ], [ 720197.292007218580693, 8866585.127631174400449 ], [ 720210.41655718779657, 8866577.746187219396234 ], [ 720235.875931401504204, 8866564.107771784067154 ], [ 720242.863188781077042, 8866573.022165620699525 ], [ 720211.817234427668154, 8866591.140057660639286 ], [ 720221.037740460829809, 8866608.559474214911461 ], [ 720209.569974955869839, 8866613.605037774890661 ], [ 720225.718104853644036, 8866637.81066575832665 ], [ 720233.183905512094498, 8866633.261770812794566 ], [ 720239.237578040920198, 8866642.185941016301513 ], [ 720281.595518063171767, 8866618.62208198569715 ], [ 720285.106570594012737, 8866623.064816519618034 ], [ 720295.905973984976299, 8866636.642876818776131 ], [ 720317.584252499742433, 8866664.674732733517885 ], [ 720329.128937045927159, 8866677.100017370656133 ], [ 720452.596681465744041, 8866652.644454855471849 ] ] ] ] } },
{ "type": "Feature", "properties": { "fid": 1.0, "Layer": "ZONA 08", "PaperSpace": null, "SubClasses": "AcDbEntity:AcDbPolyline", "Linetype": null, "EntityHand": "2D6", "Text": null, "ogr_style": "PEN(c:#000000)", "font": null, "angle": null, "size": null, "size_u": null, "anchor": null, "color": "#000000", "underline": null, "plaintext": null, "fcolor": null, "flnum": null, "bold": null, "italic": null, "dx": null, "dx_u": null, "dy": null, "dy_u": null, "path": "//192.168.1.253/pgv/344 - PEIXOTO DE AZEVEDO MT/05 - PGV/shapes setores/ZONA 08.shp" }, "geometry": { "type": "MultiPolygon", "coordinates": [ [ [ [ 720012.837765429634601, 8868341.874404333531857 ], [ 719777.098074790788814, 8868065.463968036696315 ], [ 719613.602845242829062, 8867870.960023559629917 ], [ 719145.891055240412243, 8868267.276319090276957 ], [ 719146.291896873502992, 8868309.540590481832623 ], [ 719162.946403237758204, 8868343.057967627421021 ], [ 719190.103080933215097, 8868379.38867923989892 ], [ 719222.290564295952208, 8868413.508659867569804 ], [ 719401.31766928662546, 8868626.026066506281495 ], [ 719354.20578736870084, 8868669.334755571559072 ], [ 719463.403270364855416, 8868796.884755415841937 ], [ 719709.292572103324346, 8868593.533926356583834 ], [ 720012.837765429634601, 8868341.874404333531857 ] ] ] ] } },
{ "type": "Feature", "properties": { "fid": 10.0, "Layer": "ZONA 07", "PaperSpace": null, "SubClasses": "AcDbEntity:AcDbPolyline", "Linetype": null, "EntityHand": "2DF", "Text": null, "ogr_style": "PEN(c:#000000)", "font": null, "angle": null, "size": null, "size_u": null, "anchor": null, "color": "#000000", "underline": null, "plaintext": null, "fcolor": null, "flnum": null, "bold": null, "italic": null, "dx": null, "dx_u": null, "dy": null, "dy_u": null, "path": "//192.168.1.253/pgv/344 - PEIXOTO DE AZEVEDO MT/05 - PGV/shapes setores/ZONA 07.shp" }, "geometry": { "type": "MultiPolygon", "coordinates": [ [ [ [ 718142.054933672072366, 8867607.412734417244792 ], [ 718474.654474858311005, 8868042.124911673367023 ], [ 718889.536171507672407, 8868458.4344811309129 ], [ 718951.405110040213913, 8868456.832830606028438 ], [ 719148.46119293035008, 8868442.712522737681866 ], [ 719222.290564295952208, 8868413.508659867569804 ], [ 719190.103080933215097, 8868379.38867923989892 ], [ 719162.946403237758204, 8868343.057967627421021 ], [ 719146.291896873502992, 8868309.540590481832623 ], [ 719146.08903259341605, 8868267.108562679961324 ], [ 719613.602845242829062, 8867870.960023559629917 ], [ 719331.820862653898075, 8867527.69027392193675 ], [ 719325.715977659216151, 8867520.489697759971023 ], [ 719315.554491619579494, 8867527.570101914927363 ], [ 719276.165847528143786, 8867559.383411914110184 ], [ 719266.58573058154434, 8867570.522231891751289 ], [ 719236.542865999857895, 8867617.086735742166638 ], [ 719210.126234019058757, 8867604.490885818377137 ], [ 719189.820654482697137, 8867616.674765415489674 ], [ 719187.84318640222773, 8867612.63838043436408 ], [ 719187.61719942453783, 8867595.952542379498482 ], [ 719175.219376992201433, 8867597.453925697132945 ], [ 719175.53305780980736, 8867621.852736858651042 ], [ 719164.92821161088068, 8867622.013733733445406 ], [ 719150.519940384896472, 8867622.232472095638514 ], [ 719124.298423549975269, 8867623.657497787848115 ], [ 719103.858589002047665, 8867623.887892952188849 ], [ 718954.151356327580288, 8867625.575373493134975 ], [ 718953.720692963222973, 8867602.326878499239683 ], [ 718943.638858592952602, 8867602.537862248718739 ], [ 718942.170989562291652, 8867604.084872357547283 ], [ 718928.808908742968924, 8867626.768083184957504 ], [ 718747.606083962251432, 8867629.736570991575718 ], [ 718733.005082888994366, 8867630.108551541343331 ], [ 718548.12054296687711, 8867633.05126247741282 ], [ 718534.070930871996097, 8867632.5337482560426 ], [ 718481.994214387610555, 8867632.571620602160692 ], [ 718469.801951692556031, 8867634.13728759996593 ], [ 718417.745924009592272, 8867637.610809318721294 ], [ 718404.015592817449942, 8867636.618571495637298 ], [ 718378.594827362685464, 8867635.316201677545905 ], [ 718353.513627967913635, 8867638.733565071597695 ], [ 718341.329516361700371, 8867635.643041435629129 ], [ 718302.127947451546788, 8867637.231382930651307 ], [ 718288.309134325594641, 8867637.79128384962678 ], [ 718274.572098769131117, 8867642.394248522818089 ], [ 718252.75695734936744, 8867644.521768346428871 ], [ 718251.135894374805503, 8867643.215710883960128 ], [ 718248.05704078823328, 8867617.666463375091553 ], [ 718247.268378510605544, 8867604.750216284766793 ], [ 718142.054933672072366, 8867607.412734417244792 ] ] ] ] } },
{ "type": "Feature", "properties": { "fid": 12.0, "Layer": "ZONA 07", "PaperSpace": null, "SubClasses": "AcDbEntity:AcDbPolyline", "Linetype": null, "EntityHand": "2E1", "Text": null, "ogr_style": "PEN(c:#000000)", "font": null, "angle": null, "size": null, "size_u": null, "anchor": null, "color": "#000000", "underline": null, "plaintext": null, "fcolor": null, "flnum": null, "bold": null, "italic": null, "dx": null, "dx_u": null, "dy": null, "dy_u": null, "path": "//192.168.1.253/pgv/344 - PEIXOTO DE AZEVEDO MT/05 - PGV/shapes setores/ZONA 07.shp" }, "geometry": { "type": "MultiPolygon", "coordinates": [ [ [ [ 718140.40095603314694, 8867547.715871149674058 ], [ 718220.777323080343194, 8867536.124740215018392 ], [ 718234.110521724331193, 8867534.97892277315259 ], [ 718240.756464194622822, 8867571.303841549903154 ], [ 718273.995453930459917, 8867571.412083758041263 ], [ 718286.495351555058733, 8867570.876356635242701 ], [ 718338.441263279295526, 8867569.875815663486719 ], [ 718352.40424151183106, 8867569.135802062228322 ], [ 718378.261135741253383, 8867568.484851406887174 ], [ 718390.761592701543123, 8867568.170150784775615 ], [ 718391.173049681819975, 8867589.80588966794312 ], [ 718402.545837812242098, 8867589.959437340497971 ], [ 718419.410340446513146, 8867590.313612125813961 ], [ 718430.615154834347777, 8867590.071452183648944 ], [ 718430.090098026674241, 8867567.560281451791525 ], [ 718467.939237987739034, 8867567.065435150638223 ], [ 718482.584027356351726, 8867567.027091717347503 ], [ 718532.141976973856799, 8867566.240639524534345 ], [ 718547.837797715095803, 8867565.62559119053185 ], [ 718598.055421959725209, 8867565.074498916044831 ], [ 718612.600829466828145, 8867564.74676962941885 ], [ 718662.280904031125829, 8867562.94157974049449 ], [ 718676.668775442522019, 8867563.462928131222725 ], [ 718727.689412721199915, 8867560.479894505813718 ], [ 718746.740232981042936, 8867560.037220990285277 ], [ 718798.235954738105647, 8867558.793902527540922 ], [ 718812.14468778972514, 8867558.558219416067004 ], [ 718863.030802802299149, 8867557.851382583379745 ], [ 718876.849001671886072, 8867557.526760337874293 ], [ 718926.358645666157827, 8867556.649515483528376 ], [ 718942.402700597303919, 8867556.419730572029948 ], [ 718992.955521566444077, 8867556.419730568304658 ], [ 719006.468984550330788, 8867554.946963043883443 ], [ 719032.433022214332595, 8867554.927928816527128 ], [ 719065.572646858054213, 8867554.908855458721519 ], [ 719065.998595651355572, 8867578.214957669377327 ], [ 719082.789295049151406, 8867577.961694886907935 ], [ 719082.138446373050101, 8867554.172014106065035 ], [ 719136.473604682134464, 8867552.5505974534899 ], [ 719126.93219791224692, 8866981.736399702727795 ], [ 718199.461484405444935, 8867013.425272675231099 ], [ 718208.134321668068878, 8867222.567307138815522 ], [ 718139.445955454488285, 8867224.337892532348633 ], [ 718131.739373629563488, 8867232.943689540028572 ], [ 718140.40095603314694, 8867547.715871149674058 ] ] ] ] } },
{ "type": "Feature", "properties": { "fid": 4.0, "Layer": "ZONA 06", "PaperSpace": null, "SubClasses": "AcDbEntity:AcDbPolyline", "Linetype": null, "EntityHand": "2D9", "Text": null, "ogr_style": "PEN(c:#000000)", "font": null, "angle": null, "size": null, "size_u": null, "anchor": null, "color": "#000000", "underline": null, "plaintext": null, "fcolor": null, "flnum": null, "bold": null, "italic": null, "dx": null, "dx_u": null, "dy": null, "dy_u": null, "path": "//192.168.1.253/pgv/344 - PEIXOTO DE AZEVEDO MT/05 - PGV/shapes setores/ZONA 06.shp" }, "geometry": { "type": "MultiPolygon", "coordinates": [ [ [ [ 718841.913637012126856, 8865412.00943804346025 ], [ 718331.813427016255446, 8865840.819010760635138 ], [ 718536.894520155037753, 8866014.256666051223874 ], [ 718533.255333275999874, 8866019.073353784158826 ], [ 718655.905324563849717, 8866124.636629579588771 ], [ 718763.072700327844359, 8866216.874216597527266 ], [ 718864.498130628606305, 8866137.008471144363284 ], [ 719119.27794994355645, 8866433.843203816562891 ], [ 719245.975716776680201, 8866330.529458278790116 ], [ 719248.579649951774627, 8866332.019267855212092 ], [ 719305.746002492727712, 8866399.940499501302838 ], [ 719398.963425625232048, 8866323.017149122431874 ], [ 719409.640672125737183, 8866323.318525591865182 ], [ 719475.845122926635668, 8866413.518249563872814 ], [ 719514.218894885154441, 8866364.107680171728134 ], [ 719600.097283199662343, 8866174.135336315259337 ], [ 719445.80344200565014, 8865986.413684455677867 ], [ 719270.513292566407472, 8865777.430511649698019 ], [ 719053.410035930690356, 8865521.023618528619409 ], [ 719053.337747146026231, 8865510.105843072757125 ], [ 719020.913012906792574, 8865470.591802071779966 ], [ 719016.432613523327745, 8865465.322001311928034 ], [ 718939.654605713440105, 8865531.529424224048853 ], [ 718934.261420362861827, 8865525.455995004624128 ], [ 718841.913637012126856, 8865412.00943804346025 ] ] ] ] } },
{ "type": "Feature", "properties": { "fid": 6.0, "Layer": "ZONA 06", "PaperSpace": null, "SubClasses": "AcDbEntity:AcDbPolyline", "Linetype": null, "EntityHand": "2DB", "Text": null, "ogr_style": "PEN(c:#000000)", "font": null, "angle": null, "size": null, "size_u": null, "anchor": null, "color": "#000000", "underline": null, "plaintext": null, "fcolor": null, "flnum": null, "bold": null, "italic": null, "dx": null, "dx_u": null, "dy": null, "dy_u": null, "path": "//192.168.1.253/pgv/344 - PEIXOTO DE AZEVEDO MT/05 - PGV/shapes setores/ZONA 06.shp" }, "geometry": { "type": "MultiPolygon", "coordinates": [ [ [ [ 721005.818907572538592, 8867517.594092078506947 ], [ 721059.252140605938621, 8867580.39607859775424 ], [ 721146.164358517387882, 8867683.858837267383933 ], [ 721230.933385167852975, 8867787.136384211480618 ], [ 721399.714087630272843, 8867994.243098510429263 ], [ 721486.179136210121214, 8868096.678003821521997 ], [ 721466.954138826346025, 8868112.507854994386435 ], [ 721562.713533899746835, 8868231.994915049523115 ], [ 721640.052358352928422, 8868342.287546748295426 ], [ 721600.859333747415803, 8868381.870998322963715 ], [ 721749.998453211039305, 8868596.123136840760708 ], [ 721922.006100521539338, 8868477.419354513287544 ], [ 721762.43436358042527, 8868259.354681169614196 ], [ 721679.236612853128463, 8868145.555287493392825 ], [ 721626.756267217220739, 8868075.668079536408186 ], [ 721581.452599655254744, 8868017.59243393689394 ], [ 721694.4832892450504, 8867924.362900612875819 ], [ 721814.014509444241412, 8867826.106117088347673 ], [ 721787.139333747443743, 8867786.330998321995139 ], [ 721832.777392019284889, 8867743.829102635383606 ], [ 721836.645143470610492, 8867740.295482233166695 ], [ 721784.996680358774029, 8867677.615183852612972 ], [ 721782.650906737544574, 8867668.656490173190832 ], [ 721701.946330277598463, 8867569.709175184369087 ], [ 721614.638799296459183, 8867466.810270698741078 ], [ 721557.796791225322522, 8867512.090744253247976 ], [ 721475.547500887769274, 8867413.071569388732314 ], [ 721389.79155523434747, 8867297.151305135339499 ], [ 721331.046333747450262, 8867253.388998322188854 ], [ 721322.031889506150037, 8867247.582901844754815 ], [ 721005.818907572538592, 8867517.594092078506947 ] ] ] ] } },
{ "type": "Feature", "properties": { "fid": 9.0, "Layer": "ZONA 06", "PaperSpace": null, "SubClasses": "AcDbEntity:AcDbPolyline", "Linetype": null, "EntityHand": "2DE", "Text": null, "ogr_style": "PEN(c:#000000)", "font": null, "angle": null, "size": null, "size_u": null, "anchor": null, "color": "#000000", "underline": null, "plaintext": null, "fcolor": null, "flnum": null, "bold": null, "italic": null, "dx": null, "dx_u": null, "dy": null, "dy_u": null, "path": "//192.168.1.253/pgv/344 - PEIXOTO DE AZEVEDO MT/05 - PGV/shapes setores/ZONA 06.shp" }, "geometry": { "type": "MultiPolygon", "coordinates": [ [ [ [ 720862.860703986953013, 8866158.429231949150562 ], [ 720823.57803186995443, 8866205.938973093405366 ], [ 720798.36608496052213, 8866241.585176553577185 ], [ 720811.425918993540108, 8866266.316594544798136 ], [ 720739.853915159008466, 8866284.466678850352764 ], [ 720749.931582365534268, 8866348.686098957434297 ], [ 720748.376029256498441, 8866377.524335287511349 ], [ 720766.380886544939131, 8866393.685203550383449 ], [ 720771.2466931194067, 8866408.127272194251418 ], [ 720746.199378771008924, 8866424.342475587502122 ], [ 720764.298046407406218, 8866476.067645024508238 ], [ 720738.798605030751787, 8866535.713802019134164 ], [ 720931.289507842506282, 8866761.353552902117372 ], [ 721085.27562907023821, 8866631.979214387014508 ], [ 721167.391589579056017, 8866729.533088326454163 ], [ 721466.708738740067929, 8866474.19581581838429 ], [ 721563.934922367567196, 8866588.419583996757865 ], [ 721653.752878747065552, 8866511.967394940555096 ], [ 721525.414316356764175, 8866361.192020939663053 ], [ 721435.59635997901205, 8866437.644210001453757 ], [ 721202.70121159858536, 8866196.73901280388236 ], [ 721040.687286251806654, 8866004.852002521976829 ], [ 720862.860703986953013, 8866158.429231949150562 ] ] ] ] } },
{ "type": "Feature", "properties": { "fid": 15.0, "Layer": "ZONA 06", "PaperSpace": null, "SubClasses": "AcDbEntity:AcDbPolyline", "Linetype": null, "EntityHand": "2E4", "Text": null, "ogr_style": "PEN(c:#000000)", "font": null, "angle": null, "size": null, "size_u": null, "anchor": null, "color": "#000000", "underline": null, "plaintext": null, "fcolor": null, "flnum": null, "bold": null, "italic": null, "dx": null, "dx_u": null, "dy": null, "dy_u": null, "path": "//192.168.1.253/pgv/344 - PEIXOTO DE AZEVEDO MT/05 - PGV/shapes setores/ZONA 06.shp" }, "geometry": { "type": "MultiPolygon", "coordinates": [ [ [ [ 720201.377234734594822, 8865875.932925019413233 ], [ 720208.436406087363139, 8865860.9723628051579 ], [ 719999.397777735954151, 8865315.722212560474873 ], [ 719832.11942591285333, 8864967.93215861544013 ], [ 719345.949018625542521, 8865362.858029438182712 ], [ 719310.510432303533889, 8865421.127656748518348 ], [ 719373.864324052934535, 8865498.816181832924485 ], [ 719404.745269406354055, 8865471.228798191994429 ], [ 719411.229284104192629, 8865478.336453350260854 ], [ 719426.461750613874756, 8865465.27967320010066 ], [ 719482.242092431406491, 8865534.980588730424643 ], [ 719462.822973038768396, 8865552.269249813631177 ], [ 719478.443697420181707, 8865571.788291024044156 ], [ 719402.995413584052585, 8865638.959195235744119 ], [ 719415.652714357944205, 8865653.176238054409623 ], [ 719364.538579015643336, 8865696.493038123473525 ], [ 719383.768934904248454, 8865719.458942096680403 ], [ 719482.598022885504179, 8865671.044655723497272 ], [ 719586.338996383594349, 8865799.352139597758651 ], [ 719509.474585403455421, 8865863.335738405585289 ], [ 719572.444441613857634, 8865940.329627299681306 ], [ 719598.290656357072294, 8865934.279535379260778 ], [ 719621.523601242224686, 8865961.045439409092069 ], [ 719646.662363648647442, 8865991.199817953631282 ], [ 719671.660092678735964, 8865978.35134906321764 ], [ 719716.063868976896629, 8866031.828700954094529 ], [ 719757.561830102349631, 8865996.052457680925727 ], [ 719788.942677420447581, 8866032.452064318582416 ], [ 719705.007908052299172, 8866095.437535269185901 ], [ 719742.674329087720253, 8866150.775789421051741 ], [ 719847.618185260449536, 8866079.370989285409451 ], [ 719890.858222992741503, 8866052.055548034608364 ], [ 719932.187601673067547, 8866025.831610042601824 ], [ 719976.915395195246674, 8865997.914056034758687 ], [ 719978.375144385034218, 8865995.701858619228005 ], [ 720014.526343571953475, 8865976.289250394329429 ], [ 720068.039109783596359, 8865947.586440768092871 ], [ 720201.377234734594822, 8865875.932925019413233 ] ] ] ] } },
{ "type": "Feature", "properties": { "fid": 7.0, "Layer": "ZONA 05", "PaperSpace": null, "SubClasses": "AcDbEntity:AcDbPolyline", "Linetype": null, "EntityHand": "2DC", "Text": null, "ogr_style": "PEN(c:#000000)", "font": null, "angle": null, "size": null, "size_u": null, "anchor": null, "color": "#000000", "underline": null, "plaintext": null, "fcolor": null, "flnum": null, "bold": null, "italic": null, "dx": null, "dx_u": null, "dy": null, "dy_u": null, "path": "//192.168.1.253/pgv/344 - PEIXOTO DE AZEVEDO MT/05 - PGV/shapes setores/ZONA 05.shp" }, "geometry": { "type": "MultiPolygon", "coordinates": [ [ [ [ 721322.031889506150037, 8867247.582901844754815 ], [ 721790.796017501153983, 8866854.941709747537971 ], [ 721880.613973879953846, 8866778.489520689472556 ], [ 721653.752878745668568, 8866511.967394940555096 ], [ 721563.934922367567196, 8866588.419583996757865 ], [ 721466.708738740067929, 8866474.19581581838429 ], [ 721380.554393804050051, 8866548.073348935693502 ], [ 721167.391589579056017, 8866729.533088326454163 ], [ 721085.27562907023821, 8866631.979214387014508 ], [ 720931.289507842506282, 8866761.353552902117372 ], [ 720738.798605030751787, 8866535.713802019134164 ], [ 720646.014678640174679, 8866611.937400072813034 ], [ 720598.763086183345877, 8866629.109384430572391 ], [ 720452.596681465744041, 8866652.644454855471849 ], [ 720794.562938129878603, 8867046.966059152036905 ], [ 720788.232899271766655, 8867052.626352917402983 ], [ 721110.698157357051969, 8867428.038720592856407 ], [ 721322.031889506150037, 8867247.582901844754815 ] ] ] ] } },
{ "type": "Feature", "properties": { "fid": 3.0, "Layer": "ZONA 04", "PaperSpace": null, "SubClasses": "AcDbEntity:AcDbPolyline", "Linetype": null, "EntityHand": "2D8", "Text": null, "ogr_style": "PEN(c:#000000)", "font": null, "angle": null, "size": null, "size_u": null, "anchor": null, "color": "#000000", "underline": null, "plaintext": null, "fcolor": null, "flnum": null, "bold": null, "italic": null, "dx": null, "dx_u": null, "dy": null, "dy_u": null, "path": "//192.168.1.253/pgv/344 - PEIXOTO DE AZEVEDO MT/05 - PGV/shapes setores/ZONA 04.shp" }, "geometry": { "type": "MultiPolygon", "coordinates": [ [ [ [ 719325.715977659216151, 8867520.489697759971023 ], [ 719302.026478247018531, 8867490.971203207969666 ], [ 719252.657716188230552, 8867533.43105255253613 ], [ 719241.453561521251686, 8867521.991480691358447 ], [ 719248.631426248466596, 8867516.4745485894382 ], [ 719228.256405144464225, 8867489.38024165481329 ], [ 719250.287173156044446, 8867474.565859915688634 ], [ 719257.051207256154157, 8867470.132553864270449 ], [ 719278.402995630749501, 8867453.617805957794189 ], [ 719284.816920785233378, 8867448.092771038413048 ], [ 719297.741575840511359, 8867437.140317898243666 ], [ 719291.963221530197188, 8867430.814949315041304 ], [ 719299.588065505377017, 8867424.280722292140126 ], [ 719306.978276784182526, 8867418.491283087059855 ], [ 719308.448937045177445, 8867417.098076041787863 ], [ 719315.131092933937907, 8867412.244832277297974 ], [ 719329.577973238425329, 8867401.232743600383401 ], [ 719325.682888450915925, 8867396.528982611373067 ], [ 719328.60976044787094, 8867392.86701044626534 ], [ 719342.209327150019817, 8867379.352799322456121 ], [ 719356.251385319163091, 8867364.857946110889316 ], [ 719377.190060511347838, 8867344.772421406581998 ], [ 719374.70999577944167, 8867341.670736653730273 ], [ 719397.322483041090891, 8867321.9233955796808 ], [ 719412.383005633368157, 8867339.629219505935907 ], [ 719419.721152355778031, 8867333.40783890709281 ], [ 719426.312630662461743, 8867340.965834317728877 ], [ 719445.021941414684989, 8867324.361320275813341 ], [ 719444.989932642551139, 8867307.161662422120571 ], [ 719464.733523527043872, 8867291.736235013231635 ], [ 719453.207842292147689, 8867276.220978068187833 ], [ 719464.705707047949545, 8867269.361549444496632 ], [ 719490.777095579658635, 8867251.33134444244206 ], [ 719492.565805073827505, 8867253.809507101774216 ], [ 719538.758622898953035, 8867223.55750997364521 ], [ 719544.446421295055188, 8867211.809937527403235 ], [ 719553.122898791683838, 8867203.993956908583641 ], [ 719558.407559038256295, 8867210.459220981225371 ], [ 719564.037663132650778, 8867205.857214482501149 ], [ 719566.518477452453226, 8867203.829414740204811 ], [ 719571.155134273809381, 8867200.039444878697395 ], [ 719575.561271795653738, 8867196.437899833545089 ], [ 719578.432484329445288, 8867194.090991405770183 ], [ 719585.780422867857851, 8867187.449160499498248 ], [ 719586.746012448100373, 8867186.576360231265426 ], [ 719594.972496927017346, 8867179.928600080311298 ], [ 719604.058324014651589, 8867173.214529437944293 ], [ 719605.921166422194801, 8867171.758909158408642 ], [ 719610.01135149190668, 8867168.562849037349224 ], [ 719611.73349394951947, 8867167.217171339318156 ], [ 719614.21805087395478, 8867164.985555207356811 ], [ 719621.458681470365264, 8867158.51583050750196 ], [ 719628.84140017197933, 8867151.993804529309273 ], [ 719628.760897126398049, 8867151.902677731588483 ], [ 719629.111519361147657, 8867151.659112691879272 ], [ 719637.437628294574097, 8867145.875255165621638 ], [ 719645.476882563787512, 8867139.883977666497231 ], [ 719653.671370457392186, 8867134.112825572490692 ], [ 719654.51477799762506, 8867133.518836874514818 ], [ 719662.573864098871127, 8867127.633671719580889 ], [ 719663.845896498649381, 8867126.704767292365432 ], [ 719669.913941151811741, 8867121.769030259922147 ], [ 719671.554624866461381, 8867120.434500960633159 ], [ 719677.554348745266907, 8867115.421160763129592 ], [ 719679.904000298585743, 8867113.457803312689066 ], [ 719688.150173907051794, 8867106.570488788187504 ], [ 719696.087899640435353, 8867100.603601591661572 ], [ 719696.527630371856503, 8867100.247205777093768 ], [ 719704.189403162454255, 8867094.037442477419972 ], [ 719704.547556241857819, 8867094.435321353375912 ], [ 719704.907466538832523, 8867094.111345920711756 ], [ 719712.339831250486895, 8867087.421057825908065 ], [ 719712.274857369251549, 8867087.348877139389515 ], [ 719720.036060788435861, 8867080.362582890316844 ], [ 719721.988180919433944, 8867082.531229227781296 ], [ 719731.142474997555837, 8867075.050706965848804 ], [ 719740.118551596417092, 8867068.102692566812038 ], [ 719747.293940545176156, 8867061.663265017792583 ], [ 719748.36938956566155, 8867060.697674939408898 ], [ 719750.518794587347656, 8867058.767835287377238 ], [ 719755.855401436681859, 8867055.062106877565384 ], [ 719756.904698846163228, 8867054.33347699418664 ], [ 719763.440098888939247, 8867049.795309148728848 ], [ 719771.824730306048878, 8867042.593344682827592 ], [ 719780.029503977508284, 8867035.609775872901082 ], [ 719780.848133277031593, 8867034.912991991266608 ], [ 719789.46601880621165, 8867026.950334642082453 ], [ 719791.713699526153505, 8867029.740095071494579 ], [ 719800.413269218173809, 8867022.730943005532026 ], [ 719814.100993448751979, 8867011.641639150679111 ], [ 719817.890982469543815, 8867008.571125809103251 ], [ 719824.896854766993783, 8867002.895219035446644 ], [ 719825.539310389547609, 8867002.374724505469203 ], [ 719833.049302031635307, 8866996.290398297831416 ], [ 719847.098225077381358, 8866984.908464100211859 ], [ 719842.800134237157181, 8866979.916236279532313 ], [ 719850.811915889149532, 8866973.006305802613497 ], [ 719852.531444326974452, 8866975.000028667971492 ], [ 719860.050646301009692, 8866968.377355810254812 ], [ 719867.373873514705338, 8866961.927291259169579 ], [ 719850.224444840685464, 8866943.474945604801178 ], [ 719859.676730056060478, 8866935.322622373700142 ], [ 719876.939197036670521, 8866954.930300299078226 ], [ 719886.310067396843806, 8866946.954988272860646 ], [ 719886.681923117022961, 8866947.388806661590934 ], [ 719899.652202134253457, 8866936.350128477439284 ], [ 719915.861976231797598, 8866926.5008081253618 ], [ 719928.394168454105966, 8866941.302173044532537 ], [ 719931.324115420575254, 8866941.28998533077538 ], [ 719939.51149955810979, 8866934.69151726923883 ], [ 719943.643525656894781, 8866931.361388649791479 ], [ 719930.561106697423384, 8866917.190483631566167 ], [ 719939.726852604537271, 8866909.240051729604602 ], [ 719943.500792089733295, 8866905.966510308906436 ], [ 719950.30096804711502, 8866900.067990275099874 ], [ 719953.384379960480146, 8866897.393417283892632 ], [ 719958.756471320753917, 8866892.732949327677488 ], [ 719957.137917046435177, 8866890.867252252995968 ], [ 719964.026828370057046, 8866884.491673981770873 ], [ 719964.351874116342515, 8866884.190849294885993 ], [ 719965.565212434972636, 8866885.501880189403892 ], [ 719975.564185598283075, 8866876.247988967224956 ], [ 719972.508836734457873, 8866873.371849745512009 ], [ 719981.627839769236743, 8866865.084202144294977 ], [ 719988.22126245580148, 8866859.091884395107627 ], [ 719998.420350221102126, 8866848.793308975175023 ], [ 720006.303846735158004, 8866841.438537906855345 ], [ 720012.609001844655722, 8866835.733234610408545 ], [ 720023.773333454271778, 8866825.479839881882071 ], [ 720000.120418939157389, 8866801.058596959337592 ], [ 720007.806538114091381, 8866793.308266708627343 ], [ 720011.812133776489645, 8866789.333434119820595 ], [ 720006.679922616807744, 8866783.824393440037966 ], [ 720071.497860291274264, 8866723.035060871392488 ], [ 720066.301630836445838, 8866716.256797252222896 ], [ 720047.920426703756675, 8866694.263061929494143 ], [ 720035.633495918125845, 8866678.656144989654422 ], [ 720029.199164060759358, 8866670.483226576820016 ], [ 720017.80497022124473, 8866663.252621689811349 ], [ 720059.834581149858423, 8866625.603165924549103 ], [ 720040.581161692272872, 8866602.641170285642147 ], [ 720024.559457629919052, 8866616.979514893144369 ], [ 720010.858182157506235, 8866600.179835112765431 ], [ 720026.658523083431646, 8866585.98395111784339 ], [ 720021.586750871618278, 8866579.916137022897601 ], [ 720014.945175583474338, 8866573.2924619987607 ], [ 720011.824169861152768, 8866569.639871269464493 ], [ 720008.588646885938942, 8866565.853258144110441 ], [ 719984.81168035545852, 8866585.444091871380806 ], [ 719976.784368141554296, 8866576.369407597929239 ], [ 719974.134126900462434, 8866573.373373325914145 ], [ 719972.178413047338836, 8866571.35769728012383 ], [ 719971.413130719447508, 8866570.568951394408941 ], [ 719967.592764588305727, 8866565.417806021869183 ], [ 719968.545910744462162, 8866564.603377351537347 ], [ 719974.748210048768669, 8866559.303738534450531 ], [ 719971.408215025556274, 8866555.485298467800021 ], [ 719987.777937649167143, 8866541.497966803610325 ], [ 719984.98434628569521, 8866538.228557251393795 ], [ 719968.838048504665494, 8866552.024980526417494 ], [ 719960.46326837525703, 8866543.179668322205544 ], [ 719974.194418828585185, 8866530.178955255076289 ], [ 719978.243590372847393, 8866530.339682718738914 ], [ 719969.947961626457982, 8866520.388596557080746 ], [ 719948.66976266389247, 8866498.622136779129505 ], [ 719944.458050469285809, 8866494.313780406489968 ], [ 719937.1078481861623, 8866500.759401692077518 ], [ 719935.386144601507112, 8866498.806719588115811 ], [ 719928.584764933446422, 8866504.05930264480412 ], [ 719922.60633140290156, 8866498.316671105101705 ], [ 719928.803593438584358, 8866492.971618277952075 ], [ 719933.861564429476857, 8866488.587213691323996 ], [ 719927.499728157999925, 8866481.255793867632747 ], [ 719931.548361276742071, 8866477.040917148813605 ], [ 719924.171426065731794, 8866469.47521692328155 ], [ 719916.560530735412613, 8866459.917767262086272 ], [ 719909.030873718671501, 8866465.711193419992924 ], [ 719906.401622025412507, 8866462.090941959992051 ], [ 719899.967142035951838, 8866452.79352137260139 ], [ 719901.375990376458503, 8866451.883499918505549 ], [ 719898.73680641525425, 8866447.578591074794531 ], [ 719894.884695684886537, 8866439.971899066120386 ], [ 719901.066240768646821, 8866436.159790312871337 ], [ 719895.645213256939314, 8866427.639177322387695 ], [ 719883.418362815398723, 8866419.354939909651875 ], [ 719878.120530240936205, 8866412.514442456886172 ], [ 719870.451800704118796, 8866418.388783069327474 ], [ 719866.784409090643749, 8866414.756385661661625 ], [ 719858.954821265419014, 8866407.001507662236691 ], [ 719854.157604786218144, 8866411.498725028708577 ], [ 719849.797735651023686, 8866406.940186478197575 ], [ 719847.182133530033752, 8866404.205397259443998 ], [ 719839.724872347549535, 8866400.218752274289727 ], [ 719814.435059486888349, 8866371.615537315607071 ], [ 719790.407534760306589, 8866344.886740876361728 ], [ 719772.746575767407194, 8866325.240265294909477 ], [ 719737.910640327492729, 8866289.222606519237161 ], [ 719732.714750570943579, 8866291.952702326700091 ], [ 719608.000979482079856, 8866429.629420021548867 ], [ 719603.241506790742278, 8866436.320667091757059 ], [ 719514.218894885154441, 8866364.107680171728134 ], [ 719344.529554316774011, 8866582.601888824254274 ], [ 719164.362131158122793, 8866859.281973330304027 ], [ 719126.93219791224692, 8866981.736399702727795 ], [ 719136.473604682134464, 8867552.5505974534899 ], [ 719122.790296301827766, 8867552.89565771073103 ], [ 719082.138446373050101, 8867554.172014106065035 ], [ 719082.789295049151406, 8867577.961694886907935 ], [ 719073.180933288414963, 8867578.15031892247498 ], [ 719065.998595651355572, 8867578.214957669377327 ], [ 719065.572646858054213, 8867554.908855458721519 ], [ 719058.133806931320578, 8867554.909087583422661 ], [ 719006.46898456744384, 8867554.946963038295507 ], [ 718992.95552154944744, 8867556.419730570167303 ], [ 718942.402700727339834, 8867556.419730570167303 ], [ 718926.358645666157827, 8867556.649515487253666 ], [ 718876.849001672002487, 8867557.526760337874293 ], [ 718863.030802802299149, 8867557.851382583379745 ], [ 718812.144687789492309, 8867558.558219416067004 ], [ 718798.235954737989232, 8867558.793902527540922 ], [ 718746.740232981042936, 8867560.037220990285277 ], [ 718727.689412720734254, 8867560.479894505813718 ], [ 718676.668775481986813, 8867563.46292813308537 ], [ 718662.28090405697003, 8867562.941579742357135 ], [ 718612.600829467060976, 8867564.74676962941885 ], [ 718598.055421959841624, 8867565.074498916044831 ], [ 718547.837797715095803, 8867565.62559119053185 ], [ 718533.213552855071612, 8867566.223634317517281 ], [ 718508.116118684993125, 8867566.621914157643914 ], [ 718482.584027356351726, 8867567.027091717347503 ], [ 718467.939237987739034, 8867567.065435150638223 ], [ 718455.468522464274429, 8867567.228479476645589 ], [ 718443.125002803979442, 8867567.389860820025206 ], [ 718430.090098027023487, 8867567.56028145365417 ], [ 718430.615154834464192, 8867590.071452189236879 ], [ 718419.410340446745977, 8867590.313612125813961 ], [ 718391.173049681587145, 8867589.80588966794312 ], [ 718390.761592701543123, 8867568.170150788500905 ], [ 718378.261135741253383, 8867568.484851406887174 ], [ 718352.404241511598229, 8867569.135802062228322 ], [ 718338.441263334359974, 8867569.875815663486719 ], [ 718286.495351555058733, 8867570.876356635242701 ], [ 718273.995453970856033, 8867571.412083756178617 ], [ 718240.756464194622822, 8867571.303841549903154 ], [ 718234.110521724331193, 8867534.97892277315259 ], [ 718220.777323080226779, 8867536.124740215018392 ], [ 718140.400956033263355, 8867547.715871149674058 ], [ 718141.687282317550853, 8867594.462494561448693 ], [ 718142.054933672072366, 8867607.412734417244792 ], [ 718247.268378510605544, 8867604.750216284766793 ], [ 718248.073915213230066, 8867617.665753617882729 ], [ 718251.125625492539257, 8867643.207437455654144 ], [ 718252.756957348436117, 8867644.521768346428871 ], [ 718274.469534219708294, 8867642.428615543991327 ], [ 718288.309134325594641, 8867637.79128384962678 ], [ 718341.32951636146754, 8867635.643041435629129 ], [ 718353.513627967913635, 8867638.733565071597695 ], [ 718378.594827362685464, 8867635.316201677545905 ], [ 718404.015592817682773, 8867636.618571495637298 ], [ 718417.745924009592272, 8867637.610809318721294 ], [ 718469.801951692556031, 8867634.13728759996593 ], [ 718481.99421415431425, 8867632.571620602160692 ], [ 718534.070930921472609, 8867632.533748257905245 ], [ 718548.120542971068062, 8867633.05126247741282 ], [ 718733.005082889227197, 8867630.108551546931267 ], [ 718747.606083962135017, 8867629.736570989713073 ], [ 718928.808908696169965, 8867626.768083186820149 ], [ 718942.170989562291652, 8867604.084872355684638 ], [ 718943.638858592370525, 8867602.537862248718739 ], [ 718953.720692963222973, 8867602.326878499239683 ], [ 718954.151356327580288, 8867625.575373493134975 ], [ 719124.298423549975269, 8867623.657497787848115 ], [ 719150.519940384896472, 8867622.232472095638514 ], [ 719164.92821161088068, 8867622.013733733445406 ], [ 719175.53305780980736, 8867621.852736858651042 ], [ 719175.219376992201433, 8867597.453925697132945 ], [ 719187.61719942453783, 8867595.952542379498482 ], [ 719187.84318640222773, 8867612.63838043436408 ], [ 719189.820654482697137, 8867616.674765415489674 ], [ 719210.126234019058757, 8867604.490885818377137 ], [ 719236.542865999857895, 8867617.086735742166638 ], [ 719266.58573058154434, 8867570.522231891751289 ], [ 719276.165847528143786, 8867559.383411914110184 ], [ 719315.554491619579494, 8867527.570101914927363 ], [ 719325.715977659216151, 8867520.489697759971023 ] ] ] ] } },
{ "type": "Feature", "properties": { "fid": 2.0, "Layer": "ZONA 03", "PaperSpace": null, "SubClasses": "AcDbEntity:AcDbPolyline", "Linetype": null, "EntityHand": "2D7", "Text": null, "ogr_style": "PEN(c:#000000)", "font": null, "angle": null, "size": null, "size_u": null, "anchor": null, "color": "#000000", "underline": null, "plaintext": null, "fcolor": null, "flnum": null, "bold": null, "italic": null, "dx": null, "dx_u": null, "dy": null, "dy_u": null, "path": "//192.168.1.253/pgv/344 - PEIXOTO DE AZEVEDO MT/05 - PGV/shapes setores/ZONA 03.shp" }, "geometry": { "type": "MultiPolygon", "coordinates": [ [ [ [ 720012.837765429634601, 8868341.874404333531857 ], [ 720311.961105645168573, 8868092.985010635107756 ], [ 720682.412454034085386, 8867784.235040565952659 ], [ 720483.770463233347982, 8867541.111362183466554 ], [ 720367.757217591861263, 8867401.221257733181119 ], [ 720288.33618234784808, 8867306.214155560359359 ], [ 720003.666760754305869, 8866967.712645282968879 ], [ 719994.030771012883633, 8866976.440829807892442 ], [ 719932.470753749948926, 8867027.532651800662279 ], [ 719920.940243175369687, 8867037.12678156234324 ], [ 719859.444186777458526, 8867088.29547362588346 ], [ 719847.913676202879287, 8867097.889603387564421 ], [ 719786.417619804851711, 8867149.058295451104641 ], [ 719767.2001021807082, 8867165.04851172119379 ], [ 719705.704045782797039, 8867216.217203784734011 ], [ 719694.173535208334215, 8867225.811333546414971 ], [ 719632.677478810423054, 8867276.980025611817837 ], [ 719621.146968235843815, 8867286.574155373498797 ], [ 719559.650911838049069, 8867337.742847437039018 ], [ 719548.120401263353415, 8867347.336977198719978 ], [ 719486.624344865442254, 8867398.505669262260199 ], [ 719475.09383429097943, 8867408.099799025803804 ], [ 719413.597777893068269, 8867459.26849108748138 ], [ 719402.067267318605445, 8867468.86262084916234 ], [ 719340.571210920694284, 8867520.03131291270256 ], [ 719331.820862653898075, 8867527.69027392193675 ], [ 719422.733619731385261, 8867641.592003643512726 ], [ 719613.602845242829062, 8867870.960023559629917 ], [ 719777.098074790788814, 8868065.463968036696315 ], [ 720012.837765429634601, 8868341.874404333531857 ] ] ] ] } },
{ "type": "Feature", "properties": { "fid": 5.0, "Layer": "ZONA 02", "PaperSpace": null, "SubClasses": "AcDbEntity:AcDbPolyline", "Linetype": null, "EntityHand": "2DA", "Text": null, "ogr_style": "PEN(c:#000000)", "font": null, "angle": null, "size": null, "size_u": null, "anchor": null, "color": "#000000", "underline": null, "plaintext": null, "fcolor": null, "flnum": null, "bold": null, "italic": null, "dx": null, "dx_u": null, "dy": null, "dy_u": null, "path": "//192.168.1.253/pgv/344 - PEIXOTO DE AZEVEDO MT/05 - PGV/shapes setores/ZONA 02.shp" }, "geometry": { "type": "MultiPolygon", "coordinates": [ [ [ [ 718841.913637011544779, 8865412.00943804346025 ], [ 718934.261420362861827, 8865525.455995004624128 ], [ 718939.654605713440105, 8865531.529424224048853 ], [ 719016.432613523327745, 8865465.322001311928034 ], [ 719053.337748194113374, 8865510.10584432631731 ], [ 719053.410035930690356, 8865521.023618528619409 ], [ 719270.513292566407472, 8865777.430511649698019 ], [ 719445.80344200565014, 8865986.413684455677867 ], [ 719600.097283199662343, 8866174.135336315259337 ], [ 719642.839634537813254, 8866079.584602130576968 ], [ 719088.561619088170119, 8865420.846854582428932 ], [ 719054.144548923359253, 8865425.036188714206219 ], [ 718958.790860722772777, 8865313.758013363927603 ], [ 718841.913637011544779, 8865412.00943804346025 ] ] ] ] } },
{ "type": "Feature", "properties": { "fid": 13.0, "Layer": "ZONA 02", "PaperSpace": null, "SubClasses": "AcDbEntity:AcDbPolyline", "Linetype": null, "EntityHand": "2E2", "Text": null, "ogr_style": "PEN(c:#000000)", "font": null, "angle": null, "size": null, "size_u": null, "anchor": null, "color": "#000000", "underline": null, "plaintext": null, "fcolor": null, "flnum": null, "bold": null, "italic": null, "dx": null, "dx_u": null, "dy": null, "dy_u": null, "path": "//192.168.1.253/pgv/344 - PEIXOTO DE AZEVEDO MT/05 - PGV/shapes setores/ZONA 02.shp" }, "geometry": { "type": "MultiPolygon", "coordinates": [ [ [ [ 721005.818907572538592, 8867517.594092078506947 ], [ 720930.502414995804429, 8867581.849443472921848 ], [ 721192.338026593555696, 8867911.081129390746355 ], [ 721576.465502893668599, 8868392.716417329385877 ], [ 721600.859333747415803, 8868381.870998322963715 ], [ 721640.052358352928422, 8868342.287546748295426 ], [ 721562.713533899746835, 8868231.994915049523115 ], [ 721466.954138826346025, 8868112.507854994386435 ], [ 721486.179136210121214, 8868096.678003821521997 ], [ 721399.714087630272843, 8867994.243098510429263 ], [ 721230.933385167852975, 8867787.136384211480618 ], [ 721146.164358517387882, 8867683.858837267383933 ], [ 721059.252140605938621, 8867580.39607859775424 ], [ 721005.818907572538592, 8867517.594092078506947 ] ] ] ] } },
{ "type": "Feature", "properties": { "fid": 14.0, "Layer": "ZONA 01", "PaperSpace": null, "SubClasses": "AcDbEntity:AcDbPolyline", "Linetype": null, "EntityHand": "2E3", "Text": null, "ogr_style": "PEN(c:#000000)", "font": null, "angle": null, "size": null, "size_u": null, "anchor": null, "color": "#000000", "underline": null, "plaintext": null, "fcolor": null, "flnum": null, "bold": null, "italic": null, "dx": null, "dx_u": null, "dy": null, "dy_u": null, "path": "//192.168.1.253/pgv/344 - PEIXOTO DE AZEVEDO MT/05 - PGV/shapes setores/ZONA 01.shp" }, "geometry": { "type": "MultiPolygon", "coordinates": [ [ [ [ 720682.412454034085386, 8867784.235040565952659 ], [ 720930.502414995804429, 8867581.849443472921848 ], [ 721005.818907572538592, 8867517.594092078506947 ], [ 721110.698157357051969, 8867428.038720592856407 ], [ 720788.232899271766655, 8867052.626352917402983 ], [ 720794.562938129878603, 8867046.966059152036905 ], [ 720452.596681465744041, 8866652.644454855471849 ], [ 720329.128937045927159, 8866677.100017370656133 ], [ 720317.584252499742433, 8866664.674732733517885 ], [ 720295.905973984976299, 8866636.642876818776131 ], [ 720281.595518063171767, 8866618.62208198569715 ], [ 720239.237578040920198, 8866642.185941016301513 ], [ 720233.183905512094498, 8866633.261770812794566 ], [ 720225.718104853644036, 8866637.81066575832665 ], [ 720209.569974955869839, 8866613.605037774890661 ], [ 720221.037740460829809, 8866608.559474214911461 ], [ 720211.817234427668154, 8866591.140057660639286 ], [ 720242.863188781077042, 8866573.022165620699525 ], [ 720235.875931401504204, 8866564.107771784067154 ], [ 720210.41655718779657, 8866577.746187219396234 ], [ 720197.292007218580693, 8866585.127631174400449 ], [ 720187.268626654637046, 8866562.369582787156105 ], [ 720171.0468506263569, 8866573.717096477746964 ], [ 720154.844724650494754, 8866550.439130427315831 ], [ 720152.765518858213909, 8866546.619460785761476 ], [ 720134.202694528969005, 8866550.033565003424883 ], [ 720122.763307243934833, 8866510.795693868771195 ], [ 720120.626609253231436, 8866503.328799046576023 ], [ 720099.127421244746074, 8866508.343201754614711 ], [ 720088.750376728014089, 8866477.405120696872473 ], [ 720084.791353417909704, 8866466.014927385374904 ], [ 720055.089832249330357, 8866470.25940565392375 ], [ 720043.189756874111481, 8866460.309132991358638 ], [ 720034.323769438546151, 8866448.422220000997186 ], [ 720041.044138956349343, 8866442.549802962690592 ], [ 720026.944148770184256, 8866423.648039711639285 ], [ 720033.886140036163852, 8866417.12081927806139 ], [ 720016.149740752764046, 8866398.588869571685791 ], [ 720012.292851829901338, 8866387.135019367560744 ], [ 719991.409457260160707, 8866358.855376226827502 ], [ 719995.775883692665957, 8866355.81965558603406 ], [ 719982.332076545804739, 8866336.432094253599644 ], [ 719957.472501607728191, 8866342.99975204654038 ], [ 719949.044928914867342, 8866332.279201669618487 ], [ 719956.124241442652419, 8866326.697411920875311 ], [ 719947.957681453204714, 8866315.936780765652657 ], [ 719924.92835906916298, 8866323.574940329417586 ], [ 719916.680257881293073, 8866312.999703595414758 ], [ 719913.492039895383641, 8866315.469464600086212 ], [ 719905.469413907034323, 8866305.236781768500805 ], [ 719902.811559088644572, 8866300.9888696372509 ], [ 719928.339031902258284, 8866275.424673721194267 ], [ 719913.587283090688288, 8866251.766832279041409 ], [ 719901.272421546746045, 8866260.046332038938999 ], [ 719896.784373138681985, 8866263.006434397771955 ], [ 719894.295178257394582, 8866263.836570365354419 ], [ 719877.086893918109126, 8866236.155546216294169 ], [ 719856.535491541959345, 8866236.851881135255098 ], [ 719844.455691605107859, 8866219.745808236300945 ], [ 719853.270085668424144, 8866213.488972535356879 ], [ 719812.442114475299604, 8866157.209847351536155 ], [ 719808.295930147171021, 8866160.298184426501393 ], [ 719809.660627179429866, 8866162.225962944328785 ], [ 719777.685868970118463, 8866192.768326049670577 ], [ 719742.674329087720253, 8866150.775789421051741 ], [ 719705.007908052648418, 8866095.437535271048546 ], [ 719788.94267741846852, 8866032.452064318582416 ], [ 719774.58112368453294, 8866015.793657954782248 ], [ 719757.561830102349631, 8865996.052457680925727 ], [ 719716.063868977245875, 8866031.828700954094529 ], [ 719671.660092678619549, 8865978.351349065080285 ], [ 719646.662363648763858, 8865991.199817953631282 ], [ 719621.523601242224686, 8865961.045439409092069 ], [ 719598.290656356839463, 8865934.279535379260778 ], [ 719572.444441613857634, 8865940.329627299681306 ], [ 719509.474585403455421, 8865863.335738405585289 ], [ 719586.338996383245103, 8865799.352139595896006 ], [ 719561.187106144847348, 8865768.244124680757523 ], [ 719545.467174747609533, 8865748.801615357398987 ], [ 719514.032598815043457, 8865709.923135541379452 ], [ 719482.598022885154933, 8865671.044655723497272 ], [ 719383.768934904248454, 8865719.458942096680403 ], [ 719364.538579015643336, 8865696.493038123473525 ], [ 719415.652714358293451, 8865653.176238054409623 ], [ 719402.995413582772017, 8865638.959195235744119 ], [ 719440.834500676835887, 8865605.271408509463072 ], [ 719478.443697420181707, 8865571.788291024044156 ], [ 719462.822973038768396, 8865552.269249813631177 ], [ 719482.242092431406491, 8865534.980588730424643 ], [ 719426.461750613874756, 8865465.27967320010066 ], [ 719411.229284104192629, 8865478.336453350260854 ], [ 719404.745269406354055, 8865471.228798191994429 ], [ 719373.864324052934535, 8865498.816181832924485 ], [ 719310.510432302951813, 8865421.127656746655703 ], [ 719345.949018625542521, 8865362.858029438182712 ], [ 719287.019168413593434, 8865288.620667265728116 ], [ 719256.3974673562916, 8865249.353312836959958 ], [ 719164.872343452880159, 8865322.454447252675891 ], [ 719094.517950922250748, 8865378.646514367312193 ], [ 719088.561619088170119, 8865420.846854582428932 ], [ 719642.839634537813254, 8866079.584602130576968 ], [ 719514.218894885154441, 8866364.107680171728134 ], [ 719603.241506790742278, 8866436.320667091757059 ], [ 719608.000979482079856, 8866429.629420021548867 ], [ 719732.714750570943579, 8866291.952702326700091 ], [ 719737.910640327492729, 8866289.222606519237161 ], [ 719772.746575767407194, 8866325.240265294909477 ], [ 719817.059778328053653, 8866374.535337686538696 ], [ 719839.724872347549535, 8866400.218752274289727 ], [ 719847.182133530033752, 8866404.205397259443998 ], [ 719854.258427868946455, 8866411.6041423920542 ], [ 719858.954821265419014, 8866407.001507662236691 ], [ 719870.451800704118796, 8866418.388783069327474 ], [ 719878.120530240936205, 8866412.514442456886172 ], [ 719883.418362815398723, 8866419.354939909651875 ], [ 719895.645213256939314, 8866427.639177322387695 ], [ 719901.066240768646821, 8866436.159790312871337 ], [ 719894.884695684886537, 8866439.971899066120386 ], [ 719898.73680641525425, 8866447.578591074794531 ], [ 719901.375990376458503, 8866451.883499918505549 ], [ 719899.967142035951838, 8866452.79352137260139 ], [ 719909.030873718671501, 8866465.711193419992924 ], [ 719916.560530735412613, 8866459.917767262086272 ], [ 719924.171426065731794, 8866469.47521692328155 ], [ 719931.548361276742071, 8866477.040917148813605 ], [ 719927.499728157999925, 8866481.255793867632747 ], [ 719933.861564429476857, 8866488.587213691323996 ], [ 719922.60633140290156, 8866498.316671105101705 ], [ 719928.584764933446422, 8866504.05930264480412 ], [ 719935.386144601507112, 8866498.806719588115811 ], [ 719937.1078481861623, 8866500.759401692077518 ], [ 719944.458050469285809, 8866494.313780406489968 ], [ 719969.947961626457982, 8866520.388596557080746 ], [ 719978.243590372847393, 8866530.339682718738914 ], [ 719974.194418828585185, 8866530.178955255076289 ], [ 719960.46326837525703, 8866543.179668322205544 ], [ 719968.838048504665494, 8866552.024980526417494 ], [ 719984.98434628569521, 8866538.228557251393795 ], [ 719987.777937649167143, 8866541.497966803610325 ], [ 719971.408215025556274, 8866555.485298467800021 ], [ 719974.748210048768669, 8866559.303738534450531 ], [ 719968.545910744462162, 8866564.603377351537347 ], [ 719967.592764588305727, 8866565.417806021869183 ], [ 719971.413130719447508, 8866570.568951394408941 ], [ 719972.178413047338836, 8866571.35769728012383 ], [ 719974.134126900462434, 8866573.373373325914145 ], [ 719984.81168035545852, 8866585.444091871380806 ], [ 720008.588646885938942, 8866565.853258144110441 ], [ 720014.945175583474338, 8866573.2924619987607 ], [ 720021.586750871618278, 8866579.916137022897601 ], [ 720026.658523083431646, 8866585.98395111784339 ], [ 720010.858182157506235, 8866600.179835112765431 ], [ 720024.559457629919052, 8866616.979514893144369 ], [ 720040.581161692272872, 8866602.641170285642147 ], [ 720059.834581149858423, 8866625.603165924549103 ], [ 720017.80497022124473, 8866663.252621689811349 ], [ 720029.199164060759358, 8866670.483226576820016 ], [ 720047.920426703756675, 8866694.263061929494143 ], [ 720066.301630836445838, 8866716.256797252222896 ], [ 720071.497860291274264, 8866723.035060871392488 ], [ 720006.679922616807744, 8866783.824393440037966 ], [ 720011.812133776489645, 8866789.333434119820595 ], [ 720007.806538114091381, 8866793.308266708627343 ], [ 720000.120418939157389, 8866801.058596959337592 ], [ 720023.773333454271778, 8866825.479839881882071 ], [ 719972.508836734457873, 8866873.371849745512009 ], [ 719975.564185598283075, 8866876.247988967224956 ], [ 719965.565212434972636, 8866885.501880189403892 ], [ 719964.351874116342515, 8866884.190849294885993 ], [ 719957.137917046435177, 8866890.867252252995968 ], [ 719958.756471320753917, 8866892.732949327677488 ], [ 719930.561106697423384, 8866917.190483631566167 ], [ 719943.643525656894781, 8866931.361388649791479 ], [ 719931.324115420575254, 8866941.28998533077538 ], [ 719928.394168454105966, 8866941.302173044532537 ], [ 719915.861976231797598, 8866926.5008081253618 ], [ 719899.652202134253457, 8866936.350128477439284 ], [ 719886.680389882647432, 8866947.390111561864614 ], [ 719886.310067396843806, 8866946.954988272860646 ], [ 719876.939197036670521, 8866954.930300299078226 ], [ 719859.676730056060478, 8866935.322622373700142 ], [ 719850.224444840685464, 8866943.474945604801178 ], [ 719867.373873514705338, 8866961.927291259169579 ], [ 719860.050646301009692, 8866968.377355810254812 ], [ 719852.531444326974452, 8866975.000028667971492 ], [ 719850.811915889149532, 8866973.006305802613497 ], [ 719842.800134237157181, 8866979.916236279532313 ], [ 719847.098225077381358, 8866984.908464100211859 ], [ 719839.478313131607138, 8866991.081843800842762 ], [ 719834.997868235455826, 8866994.71173975802958 ], [ 719833.049302031635307, 8866996.290398297831416 ], [ 719825.539310389547609, 8867002.374724505469203 ], [ 719824.896854766993783, 8867002.895219035446644 ], [ 719817.890982469543815, 8867008.571125809103251 ], [ 719814.100993448751979, 8867011.641639150679111 ], [ 719809.470237448927946, 8867015.393311781808734 ], [ 719800.413269218173809, 8867022.730943005532026 ], [ 719791.713699526153505, 8867029.740095071494579 ], [ 719789.46601880621165, 8867026.950334642082453 ], [ 719780.848133277031593, 8867034.912991991266608 ], [ 719780.029503977508284, 8867035.609775872901082 ], [ 719771.824730306048878, 8867042.593344682827592 ], [ 719763.440098888939247, 8867049.795309148728848 ], [ 719756.904698846163228, 8867054.33347699418664 ], [ 719755.855401436681859, 8867055.062106877565384 ], [ 719750.518794587347656, 8867058.767835287377238 ], [ 719748.36938956566155, 8867060.697674939408898 ], [ 719747.293940545176156, 8867061.663265017792583 ], [ 719740.118551596417092, 8867068.102692566812038 ], [ 719731.142474997555837, 8867075.050706965848804 ], [ 719721.988180919433944, 8867082.531229227781296 ], [ 719720.036060788435861, 8867080.362582890316844 ], [ 719712.274857369251549, 8867087.348877139389515 ], [ 719712.339831250486895, 8867087.421057825908065 ], [ 719704.907466538832523, 8867094.111345920711756 ], [ 719704.547556241857819, 8867094.435321353375912 ], [ 719704.189403162454255, 8867094.037442477419972 ], [ 719696.527630371856503, 8867100.247205777093768 ], [ 719696.087899640435353, 8867100.603601591661572 ], [ 719688.13731869996991, 8867106.580152206122875 ], [ 719679.904000298585743, 8867113.457803312689066 ], [ 719677.554348745266907, 8867115.421160763129592 ], [ 719671.554624866461381, 8867120.434500960633159 ], [ 719669.913941151811741, 8867121.769030259922147 ], [ 719663.845896498649381, 8867126.704767292365432 ], [ 719662.573864098871127, 8867127.633671719580889 ], [ 719654.51477799762506, 8867133.518836874514818 ], [ 719653.671370457392186, 8867134.112825572490692 ], [ 719645.476882563787512, 8867139.883977666497231 ], [ 719637.437628294574097, 8867145.875255165621638 ], [ 719629.111519361147657, 8867151.659112691879272 ], [ 719628.760897126398049, 8867151.902677731588483 ], [ 719628.84140017197933, 8867151.993804529309273 ], [ 719624.303898010053672, 8867156.002315238118172 ], [ 719621.458681470365264, 8867158.51583050750196 ], [ 719619.173213554662652, 8867160.534853812307119 ], [ 719614.21805087395478, 8867164.985555207356811 ], [ 719611.73349394951947, 8867167.217171339318156 ], [ 719610.01135149190668, 8867168.562849037349224 ], [ 719605.921166422194801, 8867171.758909158408642 ], [ 719604.058324014651589, 8867173.214529437944293 ], [ 719594.972496927017346, 8867179.928600080311298 ], [ 719586.746012448100373, 8867186.576360231265426 ], [ 719585.780422867857851, 8867187.449160499498248 ], [ 719578.432484329445288, 8867194.090991405770183 ], [ 719575.561271795653738, 8867196.437899833545089 ], [ 719571.155134273809381, 8867200.039444878697395 ], [ 719566.518477452453226, 8867203.829414740204811 ], [ 719564.037663132650778, 8867205.857214482501149 ], [ 719558.407559038256295, 8867210.459220981225371 ], [ 719553.122898791683838, 8867203.993956908583641 ], [ 719544.446421295055188, 8867211.809937527403235 ], [ 719538.758622898953035, 8867223.55750997364521 ], [ 719501.372733100084588, 8867248.027204414829612 ], [ 719492.565805073827505, 8867253.809507101774216 ], [ 719490.777095579658635, 8867251.33134444244206 ], [ 719464.705707047949545, 8867269.361549444496632 ], [ 719453.207842292147689, 8867276.220978068187833 ], [ 719464.733523527043872, 8867291.736235013231635 ], [ 719444.989932642551139, 8867307.161662422120571 ], [ 719445.021941414684989, 8867324.361320275813341 ], [ 719426.312630662461743, 8867340.965834317728877 ], [ 719419.721152355778031, 8867333.40783890709281 ], [ 719412.383005633368157, 8867339.629219505935907 ], [ 719397.322483041090891, 8867321.9233955796808 ], [ 719374.70999577944167, 8867341.670736653730273 ], [ 719377.190060511347838, 8867344.772421406581998 ], [ 719356.251385319163091, 8867364.857946110889316 ], [ 719342.209327150019817, 8867379.352799322456121 ], [ 719328.60976044787094, 8867392.86701044626534 ], [ 719325.682888450915925, 8867396.528982611373067 ], [ 719329.577973238425329, 8867401.232743600383401 ], [ 719324.628762379521504, 8867405.000382708385587 ], [ 719315.131092850817367, 8867412.244832340627909 ], [ 719308.448937045177445, 8867417.098076041787863 ], [ 719306.978276761015877, 8867418.491283105686307 ], [ 719299.588065505377017, 8867424.280722292140126 ], [ 719291.963221530197188, 8867430.814949315041304 ], [ 719297.741575840511359, 8867437.140317898243666 ], [ 719284.816920785233378, 8867448.092771038413048 ], [ 719278.402995630749501, 8867453.617805957794189 ], [ 719257.051207256154157, 8867470.132553864270449 ], [ 719250.287173156044446, 8867474.565859915688634 ], [ 719228.256405144464225, 8867489.38024165481329 ], [ 719248.631426248466596, 8867516.4745485894382 ], [ 719241.453561521251686, 8867521.991480691358447 ], [ 719252.657716188230552, 8867533.43105255253613 ], [ 719302.026478247018531, 8867490.971203207969666 ], [ 719326.056911922409199, 8867520.891822144389153 ], [ 719331.820862653898075, 8867527.69027392193675 ], [ 719340.571210920694284, 8867520.03131291270256 ], [ 719402.067267318605445, 8867468.86262084916234 ], [ 719413.597777893068269, 8867459.26849108748138 ], [ 719475.09383429097943, 8867408.099799025803804 ], [ 719498.923556145047769, 8867388.271930849179626 ], [ 719548.120401263353415, 8867347.336977198719978 ], [ 719559.650911838049069, 8867337.742847437039018 ], [ 719621.146968235843815, 8867286.574155373498797 ], [ 719632.677478810423054, 8867276.980025611817837 ], [ 719694.173535208334215, 8867225.811333546414971 ], [ 719705.704045782797039, 8867216.217203784734011 ], [ 719767.2001021807082, 8867165.04851172119379 ], [ 719786.417619804851711, 8867149.058295451104641 ], [ 719847.913676202879287, 8867097.889603387564421 ], [ 719859.444186777458526, 8867088.29547362588346 ], [ 719920.940243175369687, 8867037.12678156234324 ], [ 719932.470753749948926, 8867027.532651800662279 ], [ 719994.030771012883633, 8866976.440829807892442 ], [ 720003.666760754305869, 8866967.712645282968879 ], [ 720288.33618234784808, 8867306.214155560359359 ], [ 720367.757217591861263, 8867401.221257733181119 ], [ 720483.770463233347982, 8867541.111362183466554 ], [ 720682.412454034085386, 8867784.235040565952659 ] ] ] ] } },
{ "type": "Feature", "properties": { "fid": 4.0, "Layer": "ZONA 14", "PaperSpace": null, "SubClasses": "AcDbEntity:AcDbPolyline", "Linetype": null, "EntityHand": "2D8", "Text": null, "ogr_style": "PEN(c:#000000)", "font": null, "angle": null, "size": null, "size_u": null, "anchor": null, "color": "#000000", "underline": null, "plaintext": null, "fcolor": null, "flnum": null, "bold": null, "italic": null, "dx": null, "dx_u": null, "dy": null, "dy_u": null, "path": "//192.168.1.253/pgv/344 - PEIXOTO DE AZEVEDO MT/05 - PGV/shapes setores/ZONA 14.shp" }, "geometry": { "type": "MultiPolygon", "coordinates": [ [ [ [ 781603.70028483949136, 8844658.603676561266184 ], [ 780818.084881266695447, 8844157.390729794278741 ], [ 778770.067931922385469, 8845203.978056272491813 ], [ 778547.582847869838588, 8845402.097999785095453 ], [ 778415.006999999866821, 8845521.726000001654029 ], [ 778397.628684375667945, 8845547.537463834509254 ], [ 778586.817136939032935, 8846340.131599813699722 ], [ 778858.518426294904202, 8846193.140235608443618 ], [ 778856.246478012646548, 8846183.350849866867065 ], [ 778844.293747687945142, 8846161.393416253849864 ], [ 778918.07078107225243, 8846121.232211636379361 ], [ 778948.811229287064634, 8846104.498366774991155 ], [ 779054.207051735254936, 8846047.125184405595064 ], [ 779067.381529542384669, 8846039.953536605462432 ], [ 779172.777351990574971, 8845982.580354234203696 ], [ 779185.951829795143567, 8845975.408706434071064 ], [ 779291.347652243450284, 8845918.035524062812328 ], [ 779304.522130052093416, 8845910.863876268267632 ], [ 779409.917952500400133, 8845853.490693897008896 ], [ 779423.092430306598544, 8845846.319046100601554 ], [ 779528.488252755021676, 8845788.945863729342818 ], [ 779541.662748203496449, 8845781.774206338450313 ], [ 779647.058570651919581, 8845724.401023967191577 ], [ 779660.233030816423707, 8845717.229385763406754 ], [ 779765.628853264614008, 8845659.856203392148018 ], [ 779778.803331071627326, 8845652.684555595740676 ], [ 779897.37363132822793, 8845588.139725422486663 ], [ 779910.548109132330865, 8845580.968077631667256 ], [ 780002.769453776651062, 8845530.766543053090572 ], [ 780015.943931581452489, 8845523.594895254820585 ], [ 780121.339754029759206, 8845466.22171288356185 ], [ 780152.080202244804241, 8845449.487868025898933 ], [ 780257.47602469206322, 8845392.114685650914907 ], [ 780270.65052013611421, 8845384.943028254434466 ], [ 780376.046342583489604, 8845327.569845881313086 ], [ 780389.220838027540594, 8845320.398188484832644 ], [ 780494.616660474683158, 8845263.025006111711264 ], [ 780507.791155918850563, 8845255.853348717093468 ], [ 780613.186978366109543, 8845198.480166342109442 ], [ 780626.361473810044117, 8845191.308508945629001 ], [ 780731.757296257303096, 8845133.935326574370265 ], [ 780739.013095250935294, 8845129.649150788784027 ], [ 780754.504023118293844, 8845158.67702766135335 ], [ 781002.502550068194978, 8845022.416846098378301 ], [ 780989.486834082752466, 8844996.184378858655691 ], [ 781003.151860867044888, 8844986.199205920100212 ], [ 781108.547683314187452, 8844928.826023546978831 ], [ 781121.722178757772781, 8844921.654366152361035 ], [ 781227.118001205148175, 8844864.281183779239655 ], [ 781240.292496648849919, 8844857.109526384621859 ], [ 781345.688319096225314, 8844799.736344011500478 ], [ 781358.862814540509135, 8844792.564686613157392 ], [ 781464.258636987651698, 8844735.191504240036011 ], [ 781477.433132436941378, 8844728.019846852868795 ], [ 781586.30376075184904, 8844668.755122043192387 ], [ 781603.70028483949136, 8844658.603676561266184 ] ] ] ] } },
{ "type": "Feature", "properties": { "fid": 5.0, "Layer": "ZONA 14", "PaperSpace": null, "SubClasses": "AcDbEntity:AcDbPolyline", "Linetype": null, "EntityHand": "2D9", "Text": null, "ogr_style": "PEN(c:#000000)", "font": null, "angle": null, "size": null, "size_u": null, "anchor": null, "color": "#000000", "underline": null, "plaintext": null, "fcolor": null, "flnum": null, "bold": null, "italic": null, "dx": null, "dx_u": null, "dy": null, "dy_u": null, "path": "//192.168.1.253/pgv/344 - PEIXOTO DE AZEVEDO MT/05 - PGV/shapes setores/ZONA 14.shp" }, "geometry": { "type": "MultiPolygon", "coordinates": [ [ [ [ 781747.487478447612375, 8844750.663680117577314 ], [ 781730.390519500477239, 8844761.104345470666885 ], [ 781672.111796019482426, 8844792.82890298590064 ], [ 781550.028138247551396, 8844859.286261532455683 ], [ 781441.119117015274242, 8844918.571885878220201 ], [ 781427.944480475271121, 8844925.743620079010725 ], [ 781319.035459243343212, 8844985.029244424775243 ], [ 781305.860822703456506, 8844992.200978625565767 ], [ 781196.951801471179351, 8845051.486602971330285 ], [ 781183.777306025382131, 8845058.658260365948081 ], [ 781074.868284793337807, 8845117.943884711712599 ], [ 781062.229590132832527, 8845127.834675971418619 ], [ 781225.258365292684175, 8845430.165110789239407 ], [ 782080.594355391338468, 8844965.972106097266078 ], [ 781747.487478447612375, 8844750.663680117577314 ] ] ] ] } },
{ "type": "Feature", "properties": { "fid": 1.0, "Layer": "ZONA 13", "PaperSpace": null, "SubClasses": "AcDbEntity:AcDbPolyline", "Linetype": null, "EntityHand": "2D5", "Text": null, "ogr_style": "PEN(c:#000000)", "font": null, "angle": null, "size": null, "size_u": null, "anchor": null, "color": "#000000", "underline": null, "plaintext": null, "fcolor": null, "flnum": null, "bold": null, "italic": null, "dx": null, "dx_u": null, "dy": null, "dy_u": null, "path": "//192.168.1.253/pgv/344 - PEIXOTO DE AZEVEDO MT/05 - PGV/shapes setores/ZONA 13.shp" }, "geometry": { "type": "MultiPolygon", "coordinates": [ [ [ [ 782080.594355391338468, 8844965.972106097266078 ], [ 781225.258365328190848, 8845430.16511076875031 ], [ 780374.263903948711231, 8845892.959299333393574 ], [ 779885.529626528848894, 8846161.006381738930941 ], [ 779702.429059976362623, 8845839.919626599177718 ], [ 779686.276178418658674, 8845846.938353901728988 ], [ 779497.509592447895557, 8846875.602426834404469 ], [ 780132.678852458950132, 8846615.775815172120929 ], [ 780530.368565817829221, 8846454.069966908544302 ], [ 780642.873910815338604, 8846388.120047897100449 ], [ 781469.145824364270084, 8845884.145964451134205 ], [ 782526.012785749742761, 8845247.661765327677131 ], [ 782080.594355391338468, 8844965.972106097266078 ] ] ] ] } },
{ "type": "Feature", "properties": { "fid": 2.0, "Layer": "ZONA 12", "PaperSpace": null, "SubClasses": "AcDbEntity:AcDbPolyline", "Linetype": null, "EntityHand": "2D6", "Text": null, "ogr_style": "PEN(c:#000000)", "font": null, "angle": null, "size": null, "size_u": null, "anchor": null, "color": "#000000", "underline": null, "plaintext": null, "fcolor": null, "flnum": null, "bold": null, "italic": null, "dx": null, "dx_u": null, "dy": null, "dy_u": null, "path": "//192.168.1.253/pgv/344 - PEIXOTO DE AZEVEDO MT/05 - PGV/shapes setores/ZONA 12.shp" }, "geometry": { "type": "MultiPolygon", "coordinates": [ [ [ [ 779497.509592447895557, 8846875.602426834404469 ], [ 779673.98497578734532, 8845913.91799701564014 ], [ 779620.451998395845294, 8845942.272559536620975 ], [ 779604.522242661449127, 8845912.241479650139809 ], [ 779597.814165449352004, 8845916.299119781702757 ], [ 779492.418343001627363, 8845973.672302154824138 ], [ 779479.243865193333477, 8845980.843949947506189 ], [ 779373.848042745725252, 8846038.21713232062757 ], [ 779360.673564939526841, 8846045.388780118897557 ], [ 779255.277742491685785, 8846102.761962493881583 ], [ 779242.10326468385756, 8846109.93361028470099 ], [ 779136.707442237064242, 8846167.306792659685016 ], [ 779123.532964429818094, 8846174.478440456092358 ], [ 779129.509345594677143, 8846185.457186656072736 ], [ 779108.43018110585399, 8846196.931823132559657 ], [ 779102.453799940412864, 8846185.953076930716634 ], [ 779018.137141981627792, 8846231.851622827351093 ], [ 778987.39669376751408, 8846248.585467685014009 ], [ 778882.000871318159625, 8846305.95865005813539 ], [ 778876.064220295986161, 8846310.084953300654888 ], [ 778890.427171858027577, 8846337.358036218211055 ], [ 778772.424389106454328, 8846401.991216648370028 ], [ 778757.343264189199544, 8846373.820994842797518 ], [ 778750.30500770744402, 8846377.762930871918797 ], [ 778644.909185258322395, 8846435.136113246902823 ], [ 778637.394368521054275, 8846437.93010769970715 ], [ 778609.889857596950606, 8846386.037365412339568 ], [ 778448.514724571956322, 8846458.994481870904565 ], [ 778039.16637762344908, 8846528.625142520293593 ], [ 778383.781324624666013, 8846996.362524278461933 ], [ 778582.344258114346303, 8847245.853846870362759 ], [ 779497.509592447895557, 8846875.602426834404469 ] ] ] ] } },
{ "type": "Feature", "properties": { "fid": 6.0, "Layer": "ZONA 12", "PaperSpace": null, "SubClasses": "AcDbEntity:AcDbPolyline", "Linetype": null, "EntityHand": "2E1", "Text": null, "ogr_style": "PEN(c:#000000)", "font": null, "angle": null, "size": null, "size_u": null, "anchor": null, "color": "#000000", "underline": null, "plaintext": null, "fcolor": null, "flnum": null, "bold": null, "italic": null, "dx": null, "dx_u": null, "dy": null, "dy_u": null, "path": "//192.168.1.253/pgv/344 - PEIXOTO DE AZEVEDO MT/05 - PGV/shapes setores/ZONA 12.shp" }, "geometry": { "type": "MultiPolygon", "coordinates": [ [ [ [ 781225.258365292684175, 8845430.165110789239407 ], [ 781062.229590132832527, 8845127.834675971418619 ], [ 781044.127554385340773, 8845134.677883177995682 ], [ 780935.218533152830787, 8845193.963507521897554 ], [ 780922.044037714949809, 8845201.135164925828576 ], [ 780816.6482152659446, 8845258.508347297087312 ], [ 780803.473719822592102, 8845265.680004691705108 ], [ 780698.077897374867462, 8845323.053187064826488 ], [ 780579.507579479017295, 8845387.598026828840375 ], [ 780566.333084036014043, 8845394.769684227183461 ], [ 780460.937261586776003, 8845452.142866598442197 ], [ 780447.762766144704074, 8845459.314523994922638 ], [ 780342.366943697095849, 8845516.687706368044019 ], [ 780329.192448252462782, 8845523.859363766387105 ], [ 780223.796625804156065, 8845581.232546137645841 ], [ 780193.056215989985503, 8845597.966461539268494 ], [ 780087.660393545054831, 8845655.339643919840455 ], [ 780074.485915738972835, 8845662.511291714385152 ], [ 779982.264571096049622, 8845712.712826294824481 ], [ 779969.090093290666118, 8845719.884474087506533 ], [ 779850.519793035346083, 8845784.42930425517261 ], [ 779837.345315229147673, 8845791.600952051579952 ], [ 779844.516963022877462, 8845804.775429854169488 ], [ 779818.168007410480641, 8845819.118725445121527 ], [ 779810.996359616401605, 8845805.944247644394636 ], [ 779731.94949278049171, 8845848.974134424701333 ], [ 779702.429059976362623, 8845839.919626599177718 ], [ 779885.529626528848894, 8846161.006381738930941 ], [ 780374.713669513119385, 8845892.708811616525054 ], [ 781225.258365292684175, 8845430.165110789239407 ] ] ] ] } },
{ "type": "Feature", "properties": { "fid": 3.0, "Layer": "ZONA 11", "PaperSpace": null, "SubClasses": "AcDbEntity:AcDbPolyline", "Linetype": null, "EntityHand": "2D7", "Text": null, "ogr_style": "PEN(c:#000000)", "font": null, "angle": null, "size": null, "size_u": null, "anchor": null, "color": "#000000", "underline": null, "plaintext": null, "fcolor": null, "flnum": null, "bold": null, "italic": null, "dx": null, "dx_u": null, "dy": null, "dy_u": null, "path": "//192.168.1.253/pgv/344 - PEIXOTO DE AZEVEDO MT/05 - PGV/shapes setores/ZONA 11.shp" }, "geometry": { "type": "MultiPolygon", "coordinates": [ [ [ [ 781586.30376075184904, 8844668.755122043192387 ], [ 781477.433132436941378, 8844728.019846852868795 ], [ 781464.258636987651698, 8844735.191504240036011 ], [ 781358.862814540509135, 8844792.564686613157392 ], [ 781345.688319096225314, 8844799.736344011500478 ], [ 781240.292496648849919, 8844857.109526384621859 ], [ 781227.118001205148175, 8844864.281183779239655 ], [ 781108.547683314187452, 8844928.826023546978831 ], [ 781003.151860867044888, 8844986.199205920100212 ], [ 780989.486834082752466, 8844996.184378858655691 ], [ 781002.502550068194978, 8845022.416846098378301 ], [ 780754.504023118293844, 8845158.67702766135335 ], [ 780739.013095250935294, 8845129.649150788784027 ], [ 780731.757296257303096, 8845133.935326574370265 ], [ 780626.361473810044117, 8845191.308508945629001 ], [ 780613.186978366109543, 8845198.480166342109442 ], [ 780507.791155918850563, 8845255.853348717093468 ], [ 780494.616660474683158, 8845263.025006111711264 ], [ 780389.220838027540594, 8845320.398188484832644 ], [ 780376.046342583489604, 8845327.569845881313086 ], [ 780270.65052013611421, 8845384.943028254434466 ], [ 780257.47602469206322, 8845392.114685650914907 ], [ 780152.080202244804241, 8845449.487868025898933 ], [ 780121.339754029759206, 8845466.22171288356185 ], [ 780015.943931581452489, 8845523.594895254820585 ], [ 780002.769453776651062, 8845530.766543053090572 ], [ 779910.548109132330865, 8845580.968077631667256 ], [ 779897.37363132822793, 8845588.139725422486663 ], [ 779778.803331071627326, 8845652.684555595740676 ], [ 779765.628853264614008, 8845659.856203392148018 ], [ 779660.233030816423707, 8845717.229385763406754 ], [ 779647.058570651919581, 8845724.401023967191577 ], [ 779541.662748203496449, 8845781.774206338450313 ], [ 779528.488252755021676, 8845788.945863729342818 ], [ 779423.092430306598544, 8845846.319046100601554 ], [ 779409.917952500400133, 8845853.490693897008896 ], [ 779304.522130052093416, 8845910.863876268267632 ], [ 779291.347652243450284, 8845918.035524062812328 ], [ 779185.951829795143567, 8845975.408706434071064 ], [ 779172.777351990574971, 8845982.580354234203696 ], [ 779067.381529542384669, 8846039.953536605462432 ], [ 779054.207051735254936, 8846047.125184405595064 ], [ 778948.811229287064634, 8846104.498366774991155 ], [ 778918.07078107225243, 8846121.232211636379361 ], [ 778844.293747687945142, 8846161.393416253849864 ], [ 778856.246478012646548, 8846183.350849866867065 ], [ 778858.518426294904202, 8846193.140235608443618 ], [ 778586.817136939032935, 8846340.131599813699722 ], [ 778609.889857596950606, 8846386.037365412339568 ], [ 778637.394368521054275, 8846437.93010769970715 ], [ 778644.930507968412712, 8846435.128185506910086 ], [ 778750.305007664370351, 8846377.762930871918797 ], [ 778757.343264189199544, 8846373.820994842797518 ], [ 778772.424389106454328, 8846401.991216648370028 ], [ 778890.427171858027577, 8846337.358036218211055 ], [ 778876.064220295986161, 8846310.084953300654888 ], [ 778882.000871318159625, 8846305.95865005813539 ], [ 778987.39669376751408, 8846248.585467685014009 ], [ 779018.137141981627792, 8846231.851622827351093 ], [ 779102.453799940412864, 8846185.953076930716634 ], [ 779108.43018110585399, 8846196.931823132559657 ], [ 779129.509345594677143, 8846185.457186656072736 ], [ 779123.532964429818094, 8846174.478440456092358 ], [ 779136.707442235900089, 8846167.306792659685016 ], [ 779242.10326468385756, 8846109.93361028470099 ], [ 779255.277742491685785, 8846102.761962493881583 ], [ 779360.673564939526841, 8846045.388780118897557 ], [ 779373.848042745725252, 8846038.21713232062757 ], [ 779479.243865193333477, 8845980.843949947506189 ], [ 779492.418343001627363, 8845973.672302154824138 ], [ 779597.814165449352004, 8845916.299119781702757 ], [ 779604.522242661449127, 8845912.241479650139809 ], [ 779620.451998395845294, 8845942.272559536620975 ], [ 779673.98497578734532, 8845913.91799701564014 ], [ 779686.276178418658674, 8845846.938353901728988 ], [ 779702.429059976362623, 8845839.919626599177718 ], [ 779731.94949278049171, 8845848.974134424701333 ], [ 779810.996359616401605, 8845805.944247644394636 ], [ 779818.168007410480641, 8845819.118725445121527 ], [ 779844.516963022877462, 8845804.775429854169488 ], [ 779837.345315229147673, 8845791.600952051579952 ], [ 779850.519793035346083, 8845784.42930425517261 ], [ 779969.090093290666118, 8845719.884474087506533 ], [ 779982.264571096049622, 8845712.712826294824481 ], [ 780074.485915738972835, 8845662.511291714385152 ], [ 780087.660393545054831, 8845655.339643919840455 ], [ 780193.056215991149656, 8845597.966461539268494 ], [ 780223.796625804156065, 8845581.232546137645841 ], [ 780329.192448252462782, 8845523.859363766387105 ], [ 780342.366943695582449, 8845516.687706366181374 ], [ 780447.762766144704074, 8845459.314523994922638 ], [ 780460.937261586776003, 8845452.142866598442197 ], [ 780566.333084036014043, 8845394.769684227183461 ], [ 780579.507579480647109, 8845387.59802683070302 ], [ 780684.903401930700056, 8845330.22484446130693 ], [ 780698.0778973744018, 8845323.053187064826488 ], [ 780803.473719822592102, 8845265.680004691705108 ], [ 780816.648215265595354, 8845258.508347297087312 ], [ 780922.044037714949809, 8845201.135164925828576 ], [ 780935.218533152947202, 8845193.963507521897554 ], [ 781044.127554385340773, 8845134.677883177995682 ], [ 781062.229590132832527, 8845127.834675971418619 ], [ 781074.868284793337807, 8845117.943884711712599 ], [ 781183.777306025382131, 8845058.658260365948081 ], [ 781196.951801471179351, 8845051.486602971330285 ], [ 781305.860822703456506, 8844992.200978625565767 ], [ 781319.035459243343212, 8844985.029244424775243 ], [ 781427.944480475271121, 8844925.743620079010725 ], [ 781441.119117015274242, 8844918.571885878220201 ], [ 781550.028138247551396, 8844859.286261532455683 ], [ 781563.202774787438102, 8844852.114527331665158 ], [ 781672.111796019482426, 8844792.82890298590064 ], [ 781685.285868174047209, 8844785.65747600607574 ], [ 781730.390519500477239, 8844761.104345470666885 ], [ 781747.487478447612375, 8844750.663680117577314 ], [ 781603.70028483949136, 8844658.603676561266184 ], [ 781586.30376075184904, 8844668.755122043192387 ] ] ] ] } }
]
}
