{"type": "FeatureCollection", "name": "0", "crs": {"type": "name", "properties": {"name": "urn:ogc:def:crs:OGC:1.3:CRS84"}}, "properties": {"source": "8be78050_MAPA TRIBUTAÇÃO 2021 (1).dxf", "assumed_crs": "EPSG:4326", "local_crs": false, "note": "Coordenadas locais do desenho (sem CRS). Use base 'Só CAD' no mapa.", "extent": [4300.4554, 2373.7696, 8215.3349, 6186.7838], "georef": true, "transform": {"scale": 1, "rotation_deg": 0, "tx": 713717.6034368816, "ty": 8862616.121289995, "rmse_m": 0, "epsg": 31981}, "layer": "0", "source_file": "8be78050_MAPA TRIBUTAÇÃO 2021 (1)_georef.geojson", "n_features": 285}, "features": [{"type": "Feature", "properties": {"layer": "0", "dxf_type": "LINE"}, "geometry": {"type": "LineString", "coordinates": [[-54.99186413912958, -10.243697418069111], [-54.99186542329467, -10.243697542606]]}}, {"type": "Feature", "properties": {"layer": "0", "dxf_type": "LINE"}, "geometry": {"type": "LineString", "coordinates": [[-54.991752602068935, -10.243789351172396], [-54.99175131790362, -10.243789226635018]]}}, {"type": "Feature", "properties": {"layer": "0", "dxf_type": "LINE"}, "geometry": {"type": "LineString", "coordinates": [[-54.99178102347962, -10.243805277526295], [-54.991780896833056, -10.243806549463718]]}}, {"type": "Feature", "properties": {"layer": "0", "dxf_type": "LINE"}, "geometry": {"type": "LineString", "coordinates": [[-54.9915491719585, -10.243527180795716], [-54.99154929769308, -10.243525908852877]]}}, {"type": "Feature", "properties": {"layer": "0", "dxf_type": "LINE"}, "geometry": {"type": "LineString", "coordinates": [[-54.992310382993864, -10.243324108550663], [-54.992311667158, -10.243324233085518]]}}, {"type": "Feature", "properties": {"layer": "0", "dxf_type": "LINE"}, "geometry": {"type": "LineString", "coordinates": [[-54.99219884618943, -10.243416040954536], [-54.992197562025076, -10.243415916419158]]}}, {"type": "Feature", "properties": {"layer": "0", "dxf_type": "LINE"}, "geometry": {"type": "LineString", "coordinates": [[-54.992197562025076, -10.243415916419158], [-54.99219884618943, -10.243416040954536]]}}, {"type": "Feature", "properties": {"layer": "0", "dxf_type": "LINE"}, "geometry": {"type": "LineString", "coordinates": [[-54.99208602515266, -10.243507849675407], [-54.99208474008119, -10.243507724229998]]}}, {"type": "Feature", "properties": {"layer": "0", "dxf_type": "LINE"}, "geometry": {"type": "LineString", "coordinates": [[-54.99208474008119, -10.243507724229998], [-54.99208602515266, -10.243507849675407]]}}, {"type": "Feature", "properties": {"layer": "0", "dxf_type": "LINE"}, "geometry": {"type": "LineString", "coordinates": [[-54.99197320405905, -10.243599657440374], [-54.991971918981655, -10.243599532898342]]}}, {"type": "Feature", "properties": {"layer": "0", "dxf_type": "LINE"}, "geometry": {"type": "LineString", "coordinates": [[-54.991971918981655, -10.243599532898342], [-54.99197320405905, -10.243599657440374]]}}, {"type": "Feature", "properties": {"layer": "0", "dxf_type": "LINE"}, "geometry": {"type": "LineString", "coordinates": [[-54.99186038290291, -10.243691465153322], [-54.991859097825284, -10.243691340610784]]}}, {"type": "Feature", "properties": {"layer": "0", "dxf_type": "LINE"}, "geometry": {"type": "LineString", "coordinates": [[-54.99181722425067, -10.243297695904797], [-54.99181594009291, -10.243297570464145]]}}, {"type": "Feature", "properties": {"layer": "0", "dxf_type": "LINE"}, "geometry": {"type": "LineString", "coordinates": [[-54.99181594009291, -10.243297570464145], [-54.99181722425067, -10.243297695904797]]}}, {"type": "Feature", "properties": {"layer": "0", "dxf_type": "LINE"}, "geometry": {"type": "LineString", "coordinates": [[-54.99153517146352, -10.243527215439602], [-54.99153388729949, -10.243527090901566]]}}, {"type": "Feature", "properties": {"layer": "0", "dxf_type": "LINE"}, "geometry": {"type": "LineString", "coordinates": [[-54.99154870194319, -10.243994327406236], [-54.991548576202376, -10.243995600252887]]}}, {"type": "Feature", "properties": {"layer": "0", "dxf_type": "LINE"}, "geometry": {"type": "LineString", "coordinates": [[-54.991258920110816, -10.243646388310525], [-54.99125904584666, -10.243645116368054]]}}, {"type": "Feature", "properties": {"layer": "0", "dxf_type": "LINE"}, "geometry": {"type": "LineString", "coordinates": [[-54.991258693598375, -10.243645403446255], [-54.99125856786252, -10.243646675388725]]}}, {"type": "Feature", "properties": {"layer": "0", "dxf_type": "LINE"}, "geometry": {"type": "LineString", "coordinates": [[-54.990244901162846, -10.242423162763812], [-54.99024477451188, -10.242424434699682]]}}, {"type": "Feature", "properties": {"layer": "0", "dxf_type": "LINE"}, "geometry": {"type": "LineString", "coordinates": [[-54.990128913646366, -10.242284750044753], [-54.99012903939074, -10.242283477199495]]}}, {"type": "Feature", "properties": {"layer": "0", "dxf_type": "LINE"}, "geometry": {"type": "LineString", "coordinates": [[-54.988826156541776, -10.240711571940786], [-54.98882603079983, -10.240712843880901]]}}, {"type": "Feature", "properties": {"layer": "0", "dxf_type": "LINE"}, "geometry": {"type": "LineString", "coordinates": [[-54.98868120554415, -10.240538237700893], [-54.98868133128646, -10.240536965760898]]}}, {"type": "Feature", "properties": {"layer": "0", "dxf_type": "LINE"}, "geometry": {"type": "LineString", "coordinates": [[-54.98868133128646, -10.240536965760898], [-54.98868120554415, -10.240538237700893]]}}, {"type": "Feature", "properties": {"layer": "0", "dxf_type": "LINE"}, "geometry": {"type": "LineString", "coordinates": [[-54.98810190605298, -10.23983981171617], [-54.98810203179674, -10.239838539776754]]}}, {"type": "Feature", "properties": {"layer": "0", "dxf_type": "LINE"}, "geometry": {"type": "LineString", "coordinates": [[-54.98810203179674, -10.239838539776754], [-54.98810190605298, -10.23983981171617]]}}, {"type": "Feature", "properties": {"layer": "0", "dxf_type": "LINE"}, "geometry": {"type": "LineString", "coordinates": [[-54.98795708064766, -10.239665205350152], [-54.98795720730435, -10.239663933416516]]}}, {"type": "Feature", "properties": {"layer": "0", "dxf_type": "LINE"}, "geometry": {"type": "LineString", "coordinates": [[-54.98672944863213, -10.238030907788357], [-54.98672932287941, -10.238032180630364]]}}, {"type": "Feature", "properties": {"layer": "0", "dxf_type": "LINE"}, "geometry": {"type": "LineString", "coordinates": [[-54.9866134641129, -10.23789249437484], [-54.986613589860205, -10.237891222436824]]}}, {"type": "Feature", "properties": {"layer": "0", "dxf_type": "LINE"}, "geometry": {"type": "LineString", "coordinates": [[-54.98523453215521, -10.236381324404904], [-54.985234406404274, -10.23638259634154]]}}, {"type": "Feature", "properties": {"layer": "0", "dxf_type": "LINE"}, "geometry": {"type": "LineString", "coordinates": [[-54.98511854884913, -10.23624291068313], [-54.98511867460606, -10.236241637842724]]}}, {"type": "Feature", "properties": {"layer": "0", "dxf_type": "LINE"}, "geometry": {"type": "LineString", "coordinates": [[-54.9916934650104, -10.244168853827272], [-54.99169333836306, -10.244170125764528]]}}, {"type": "Feature", "properties": {"layer": "0", "dxf_type": "LINE"}, "geometry": {"type": "LineString", "coordinates": [[-54.991548576202376, -10.243995600252887], [-54.99154870194319, -10.243994327406236]]}}, {"type": "Feature", "properties": {"layer": "0", "dxf_type": "LINE"}, "geometry": {"type": "LineString", "coordinates": [[-54.99724281452764, -10.239445701671228], [-54.99724409868214, -10.239445826184019]]}}, {"type": "Feature", "properties": {"layer": "0", "dxf_type": "LINE"}, "geometry": {"type": "LineString", "coordinates": [[-54.99713833153022, -10.239531899144954], [-54.99713704737552, -10.23953177463167]]}}, {"type": "Feature", "properties": {"layer": "0", "dxf_type": "LINE"}, "geometry": {"type": "LineString", "coordinates": [[-54.99713704737552, -10.23953177463167], [-54.99713833153022, -10.239531899144954]]}}, {"type": "Feature", "properties": {"layer": "0", "dxf_type": "LINE"}, "geometry": {"type": "LineString", "coordinates": [[-54.9965742382338, -10.239990950845272], [-54.99657295407792, -10.239990826329453]]}}, {"type": "Feature", "properties": {"layer": "0", "dxf_type": "LINE"}, "geometry": {"type": "LineString", "coordinates": [[-54.99657295407792, -10.239990826329453], [-54.9965742382338, -10.239990950845272]]}}, {"type": "Feature", "properties": {"layer": "0", "dxf_type": "LINE"}, "geometry": {"type": "LineString", "coordinates": [[-54.99646847073962, -10.240077022613017], [-54.99646718658352, -10.240076898096724]]}}, {"type": "Feature", "properties": {"layer": "0", "dxf_type": "LINE"}, "geometry": {"type": "LineString", "coordinates": [[-54.99646718658352, -10.240076898096724], [-54.99646847073962, -10.240077022613017]]}}, {"type": "Feature", "properties": {"layer": "0", "dxf_type": "LINE"}, "geometry": {"type": "LineString", "coordinates": [[-54.99590437650002, -10.240536072775912], [-54.99590309143019, -10.240535948251463]]}}, {"type": "Feature", "properties": {"layer": "0", "dxf_type": "LINE"}, "geometry": {"type": "LineString", "coordinates": [[-54.99590309143019, -10.240535948251463], [-54.99590437650002, -10.240536072775912]]}}, {"type": "Feature", "properties": {"layer": "0", "dxf_type": "LINE"}, "geometry": {"type": "LineString", "coordinates": [[-54.995798608657886, -10.24062214425432], [-54.99579732358785, -10.240622019729393]]}}, {"type": "Feature", "properties": {"layer": "0", "dxf_type": "LINE"}, "geometry": {"type": "LineString", "coordinates": [[-54.99579732358785, -10.240622019729393], [-54.995798608657886, -10.24062214425432]]}}, {"type": "Feature", "properties": {"layer": "0", "dxf_type": "LINE"}, "geometry": {"type": "LineString", "coordinates": [[-54.9952345116499, -10.241081192868341], [-54.99523322749127, -10.241081068346523]]}}, {"type": "Feature", "properties": {"layer": "0", "dxf_type": "LINE"}, "geometry": {"type": "LineString", "coordinates": [[-54.99523322749127, -10.241081068346523], [-54.9952345116499, -10.241081192868341]]}}, {"type": "Feature", "properties": {"layer": "0", "dxf_type": "LINE"}, "geometry": {"type": "LineString", "coordinates": [[-54.995128743459794, -10.241167264057374], [-54.995127459300946, -10.24116713953506]]}}, {"type": "Feature", "properties": {"layer": "0", "dxf_type": "LINE"}, "geometry": {"type": "LineString", "coordinates": [[-54.995127459300946, -10.24116713953506], [-54.995128743459794, -10.241167264057374]]}}, {"type": "Feature", "properties": {"layer": "0", "dxf_type": "LINE"}, "geometry": {"type": "LineString", "coordinates": [[-54.99456464459592, -10.241626311127987], [-54.9945633604359, -10.241626186603142]]}}, {"type": "Feature", "properties": {"layer": "0", "dxf_type": "LINE"}, "geometry": {"type": "LineString", "coordinates": [[-54.9945633604359, -10.241626186603142], [-54.99456464459592, -10.241626311127987]]}}, {"type": "Feature", "properties": {"layer": "0", "dxf_type": "LINE"}, "geometry": {"type": "LineString", "coordinates": [[-54.99445887605214, -10.241712382931498], [-54.99445759189759, -10.24171225750229]]}}, {"type": "Feature", "properties": {"layer": "0", "dxf_type": "LINE"}, "geometry": {"type": "LineString", "coordinates": [[-54.99445759189759, -10.24171225750229], [-54.99445887605214, -10.241712382931498]]}}, {"type": "Feature", "properties": {"layer": "0", "dxf_type": "LINE"}, "geometry": {"type": "LineString", "coordinates": [[-54.993894776250535, -10.242171427560242], [-54.99389349117657, -10.242171303026755]]}}, {"type": "Feature", "properties": {"layer": "0", "dxf_type": "LINE"}, "geometry": {"type": "LineString", "coordinates": [[-54.99389349117657, -10.242171303026755], [-54.993894776250535, -10.242171427560242]]}}, {"type": "Feature", "properties": {"layer": "0", "dxf_type": "LINE"}, "geometry": {"type": "LineString", "coordinates": [[-54.993718493823046, -10.242314879751362], [-54.99371720966128, -10.242314755222711]]}}, {"type": "Feature", "properties": {"layer": "0", "dxf_type": "LINE"}, "geometry": {"type": "LineString", "coordinates": [[-54.99371720966128, -10.242314755222711], [-54.993718493823046, -10.242314879751362]]}}, {"type": "Feature", "properties": {"layer": "0", "dxf_type": "LINE"}, "geometry": {"type": "LineString", "coordinates": [[-54.99315439196431, -10.242773923577678], [-54.993153107807075, -10.242773798142608]]}}, {"type": "Feature", "properties": {"layer": "0", "dxf_type": "LINE"}, "geometry": {"type": "LineString", "coordinates": [[-54.993153107807075, -10.242773798142608], [-54.99315439196431, -10.242773923577678]]}}, {"type": "Feature", "properties": {"layer": "0", "dxf_type": "LINE"}, "geometry": {"type": "LineString", "coordinates": [[-54.99304862269357, -10.242859993867905], [-54.99304733761786, -10.242859869330607]]}}, {"type": "Feature", "properties": {"layer": "0", "dxf_type": "LINE"}, "geometry": {"type": "LineString", "coordinates": [[-54.99304733761786, -10.242859869330607], [-54.99304862269357, -10.242859993867905]]}}, {"type": "Feature", "properties": {"layer": "0", "dxf_type": "LINE"}, "geometry": {"type": "LineString", "coordinates": [[-54.992484518066135, -10.243319036144559], [-54.99248323390182, -10.243318911610379]]}}, {"type": "Feature", "properties": {"layer": "0", "dxf_type": "LINE"}, "geometry": {"type": "LineString", "coordinates": [[-54.99248323390182, -10.243318911610379], [-54.992484518066135, -10.243319036144559]]}}, {"type": "Feature", "properties": {"layer": "0", "dxf_type": "LINE"}, "geometry": {"type": "LineString", "coordinates": [[-54.99237874844735, -10.243405106145268], [-54.99237746428283, -10.243404981610594]]}}, {"type": "Feature", "properties": {"layer": "0", "dxf_type": "LINE"}, "geometry": {"type": "LineString", "coordinates": [[-54.99237746428283, -10.243404981610594], [-54.99237874844735, -10.243405106145268]]}}, {"type": "Feature", "properties": {"layer": "0", "dxf_type": "LINE"}, "geometry": {"type": "LineString", "coordinates": [[-54.991814642876264, -10.243864146883375], [-54.991813357798, -10.24386402234053]]}}, {"type": "Feature", "properties": {"layer": "0", "dxf_type": "LINE"}, "geometry": {"type": "LineString", "coordinates": [[-54.991813357798, -10.24386402234053], [-54.991814642876264, -10.243864146883375]]}}, {"type": "Feature", "properties": {"layer": "0", "dxf_type": "LINE"}, "geometry": {"type": "LineString", "coordinates": [[-54.99163835865321, -10.244007596672214], [-54.991637074487166, -10.244007472134214]]}}, {"type": "Feature", "properties": {"layer": "0", "dxf_type": "LINE"}, "geometry": {"type": "LineString", "coordinates": [[-54.991637074487166, -10.244007472134214], [-54.99163835865321, -10.244007596672214]]}}, {"type": "Feature", "properties": {"layer": "0", "dxf_type": "LINE"}, "geometry": {"type": "LineString", "coordinates": [[-54.990933223879026, -10.244581395483879], [-54.99093193879895, -10.244581270937081]]}}, {"type": "Feature", "properties": {"layer": "0", "dxf_type": "LINE"}, "geometry": {"type": "LineString", "coordinates": [[-54.99093193879895, -10.244581270937081], [-54.990933223879026, -10.244581395483879]]}}, {"type": "Feature", "properties": {"layer": "0", "dxf_type": "LINE"}, "geometry": {"type": "LineString", "coordinates": [[-54.99075693889267, -10.24472484463765], [-54.99075565472481, -10.244724720095686]]}}, {"type": "Feature", "properties": {"layer": "0", "dxf_type": "LINE"}, "geometry": {"type": "LineString", "coordinates": [[-54.99075565472481, -10.244724720095686], [-54.99075693889267, -10.24472484463765]]}}, {"type": "Feature", "properties": {"layer": "0", "dxf_type": "LINE"}, "geometry": {"type": "LineString", "coordinates": [[-54.990051801065164, -10.24529864090878], [-54.99005051598328, -10.245298516358]]}}, {"type": "Feature", "properties": {"layer": "0", "dxf_type": "LINE"}, "geometry": {"type": "LineString", "coordinates": [[-54.994191694803924, -10.238471284250396], [-54.99419040974425, -10.238471159720865]]}}, {"type": "Feature", "properties": {"layer": "0", "dxf_type": "LINE"}, "geometry": {"type": "LineString", "coordinates": [[-54.99642296351213, -10.237980577739254], [-54.9964228378031, -10.237981849688493]]}}, {"type": "Feature", "properties": {"layer": "0", "dxf_type": "LINE"}, "geometry": {"type": "LineString", "coordinates": [[-54.99616214513026, -10.237667563580791], [-54.99616227083994, -10.237666291631822]]}}, {"type": "Feature", "properties": {"layer": "0", "dxf_type": "LINE"}, "geometry": {"type": "LineString", "coordinates": [[-54.99616227083994, -10.237666291631822], [-54.99616214513026, -10.237667563580791]]}}, {"type": "Feature", "properties": {"layer": "0", "dxf_type": "LINE"}, "geometry": {"type": "LineString", "coordinates": [[-54.994882523387794, -10.239234165146739], [-54.994882397671276, -10.239235437094012]]}}, {"type": "Feature", "properties": {"layer": "0", "dxf_type": "LINE"}, "geometry": {"type": "LineString", "coordinates": [[-54.99418722151391, -10.238397336662068], [-54.99418734723216, -10.238396064715449]]}}, {"type": "Feature", "properties": {"layer": "0", "dxf_type": "LINE"}, "geometry": {"type": "LineString", "coordinates": [[-54.99222734130394, -10.240162593824754], [-54.992228625455475, -10.240162718357555]]}}, {"type": "Feature", "properties": {"layer": "0", "dxf_type": "LINE"}, "geometry": {"type": "LineString", "coordinates": [[-54.9920523446574, -10.240306168831772], [-54.99205106050551, -10.240306044298181]]}}, {"type": "Feature", "properties": {"layer": "0", "dxf_type": "LINE"}, "geometry": {"type": "LineString", "coordinates": [[-54.99423881284101, -10.238529514350432], [-54.99424009790097, -10.238529638879802]]}}, {"type": "Feature", "properties": {"layer": "0", "dxf_type": "LINE"}, "geometry": {"type": "LineString", "coordinates": [[-54.994063817929046, -10.238673090796444], [-54.99406253378128, -10.238672966271912]]}}, {"type": "Feature", "properties": {"layer": "0", "dxf_type": "LINE"}, "geometry": {"type": "LineString", "coordinates": [[-54.9920103210003, -10.240256928652277], [-54.992011605146274, -10.240257054089868]]}}, {"type": "Feature", "properties": {"layer": "0", "dxf_type": "LINE"}, "geometry": {"type": "LineString", "coordinates": [[-54.99038981388792, -10.241576792847466], [-54.99038852882037, -10.24157666830083]]}}, {"type": "Feature", "properties": {"layer": "0", "dxf_type": "LINE"}, "geometry": {"type": "LineString", "coordinates": [[-54.99063520672791, -10.241874067154146], [-54.990636491791236, -10.241874192603934]]}}, {"type": "Feature", "properties": {"layer": "0", "dxf_type": "LINE"}, "geometry": {"type": "LineString", "coordinates": [[-54.99035443889835, -10.242103711204804], [-54.990353154741314, -10.242103586663267]]}}, {"type": "Feature", "properties": {"layer": "0", "dxf_type": "LINE"}, "geometry": {"type": "LineString", "coordinates": [[-54.99051080745062, -10.242265273285387], [-54.990510681707754, -10.242266546131106]]}}, {"type": "Feature", "properties": {"layer": "0", "dxf_type": "LINE"}, "geometry": {"type": "LineString", "coordinates": [[-54.9903368898591, -10.242057018356805], [-54.99033701559671, -10.242055746415156]]}}, {"type": "Feature", "properties": {"layer": "0", "dxf_type": "LINE"}, "geometry": {"type": "LineString", "coordinates": [[-54.99106177882634, -10.242343347641368], [-54.991061653085545, -10.24234462048769]]}}, {"type": "Feature", "properties": {"layer": "0", "dxf_type": "LINE"}, "geometry": {"type": "LineString", "coordinates": [[-54.99080096380171, -10.24203032958101], [-54.99080108953747, -10.242029057638822]]}}, {"type": "Feature", "properties": {"layer": "0", "dxf_type": "LINE"}, "geometry": {"type": "LineString", "coordinates": [[-54.99062041322029, -10.24182513244631], [-54.99062028747837, -10.24182640529222]]}}, {"type": "Feature", "properties": {"layer": "0", "dxf_type": "LINE"}, "geometry": {"type": "LineString", "coordinates": [[-54.990359599023044, -10.24151211418547], [-54.99035972475992, -10.241510842243711]]}}, {"type": "Feature", "properties": {"layer": "0", "dxf_type": "LINE"}, "geometry": {"type": "LineString", "coordinates": [[-54.992617150225676, -10.241077657961936], [-54.99261702449814, -10.241078929906342]]}}, {"type": "Feature", "properties": {"layer": "0", "dxf_type": "LINE"}, "geometry": {"type": "LineString", "coordinates": [[-54.9919218512407, -10.240240825079896], [-54.991921977882534, -10.240239553141794]]}}, {"type": "Feature", "properties": {"layer": "0", "dxf_type": "LINE"}, "geometry": {"type": "LineString", "coordinates": [[-54.9951016470246, -10.235369265900255], [-54.99510293116052, -10.235369390418276]]}}, {"type": "Feature", "properties": {"layer": "0", "dxf_type": "LINE"}, "geometry": {"type": "LineString", "coordinates": [[-54.99482088830443, -10.23559891469146], [-54.99481960416794, -10.23559879017217]]}}, {"type": "Feature", "properties": {"layer": "0", "dxf_type": "LINE"}, "geometry": {"type": "LineString", "coordinates": [[-54.99481960416794, -10.23559879017217], [-54.99482088830443, -10.23559891469146]]}}, {"type": "Feature", "properties": {"layer": "0", "dxf_type": "LINE"}, "geometry": {"type": "LineString", "coordinates": [[-54.994256801415155, -10.236057963167246], [-54.994255516364944, -10.236057838639816]]}}, {"type": "Feature", "properties": {"layer": "0", "dxf_type": "LINE"}, "geometry": {"type": "LineString", "coordinates": [[-54.994255516364944, -10.236057838639816], [-54.994256801415155, -10.236057963167246]]}}, {"type": "Feature", "properties": {"layer": "0", "dxf_type": "LINE"}, "geometry": {"type": "LineString", "coordinates": [[-54.99397475647506, -10.236287486460327], [-54.99397347233682, -10.236287361937256]]}}, {"type": "Feature", "properties": {"layer": "0", "dxf_type": "LINE"}, "geometry": {"type": "LineString", "coordinates": [[-54.99397347233682, -10.236287361937256], [-54.99397475647506, -10.236287486460327]]}}, {"type": "Feature", "properties": {"layer": "0", "dxf_type": "LINE"}, "geometry": {"type": "LineString", "coordinates": [[-54.99341066724278, -10.236746532987027], [-54.993409382190826, -10.23674640845578]]}}, {"type": "Feature", "properties": {"layer": "0", "dxf_type": "LINE"}, "geometry": {"type": "LineString", "coordinates": [[-54.993409382190826, -10.23674640845578], [-54.99341066724278, -10.236746532987027]]}}, {"type": "Feature", "properties": {"layer": "0", "dxf_type": "LINE"}, "geometry": {"type": "LineString", "coordinates": [[-54.99312862203802, -10.236976056214989], [-54.993127336985495, -10.23697593168247]]}}, {"type": "Feature", "properties": {"layer": "0", "dxf_type": "LINE"}, "geometry": {"type": "LineString", "coordinates": [[-54.993127336985495, -10.23697593168247], [-54.99312862203802, -10.236976056214989]]}}, {"type": "Feature", "properties": {"layer": "0", "dxf_type": "LINE"}, "geometry": {"type": "LineString", "coordinates": [[-54.992564529550066, -10.237435100786657], [-54.99256324540892, -10.237434976257234]]}}, {"type": "Feature", "properties": {"layer": "0", "dxf_type": "LINE"}, "geometry": {"type": "LineString", "coordinates": [[-54.99256324540892, -10.237434976257234], [-54.992564529550066, -10.237435100786657]]}}, {"type": "Feature", "properties": {"layer": "0", "dxf_type": "LINE"}, "geometry": {"type": "LineString", "coordinates": [[-54.992282483179395, -10.237664622135958], [-54.99228119812512, -10.237664497599633]]}}, {"type": "Feature", "properties": {"layer": "0", "dxf_type": "LINE"}, "geometry": {"type": "LineString", "coordinates": [[-54.99228119812512, -10.237664497599633], [-54.992282483179395, -10.237664622135958]]}}, {"type": "Feature", "properties": {"layer": "0", "dxf_type": "LINE"}, "geometry": {"type": "LineString", "coordinates": [[-54.991577364623, -10.238238425437657], [-54.99157608047982, -10.238238300903797]]}}, {"type": "Feature", "properties": {"layer": "0", "dxf_type": "LINE"}, "geometry": {"type": "LineString", "coordinates": [[-54.99157608047982, -10.238238300903797], [-54.991577364623, -10.238238425437657]]}}, {"type": "Feature", "properties": {"layer": "0", "dxf_type": "LINE"}, "geometry": {"type": "LineString", "coordinates": [[-54.991295316885385, -10.238467945649527], [-54.99129403182907, -10.238467821108765]]}}, {"type": "Feature", "properties": {"layer": "0", "dxf_type": "LINE"}, "geometry": {"type": "LineString", "coordinates": [[-54.99129403182907, -10.238467821108765], [-54.991295316885385, -10.238467945649527]]}}, {"type": "Feature", "properties": {"layer": "0", "dxf_type": "LINE"}, "geometry": {"type": "LineString", "coordinates": [[-54.99073121932022, -10.23892698599644], [-54.990729935175295, -10.23892686145878]]}}, {"type": "Feature", "properties": {"layer": "0", "dxf_type": "LINE"}, "geometry": {"type": "LineString", "coordinates": [[-54.990729935175295, -10.23892686145878], [-54.99073121932022, -10.23892698599644]]}}, {"type": "Feature", "properties": {"layer": "0", "dxf_type": "LINE"}, "geometry": {"type": "LineString", "coordinates": [[-54.990449170405185, -10.239156506137089], [-54.99044788625969, -10.239156381598155]]}}, {"type": "Feature", "properties": {"layer": "0", "dxf_type": "LINE"}, "geometry": {"type": "LineString", "coordinates": [[-54.99044788625969, -10.239156381598155], [-54.990449170405185, -10.239156506137089]]}}, {"type": "Feature", "properties": {"layer": "0", "dxf_type": "LINE"}, "geometry": {"type": "LineString", "coordinates": [[-54.98988507049647, -10.239615544533637], [-54.989883786349814, -10.239615419992175]]}}, {"type": "Feature", "properties": {"layer": "0", "dxf_type": "LINE"}, "geometry": {"type": "LineString", "coordinates": [[-54.989883786349814, -10.239615419992175], [-54.98988507049647, -10.239615544533637]]}}, {"type": "Feature", "properties": {"layer": "0", "dxf_type": "LINE"}, "geometry": {"type": "LineString", "coordinates": [[-54.98960302041534, -10.239845062795146], [-54.9896017362681, -10.239844938252412]]}}, {"type": "Feature", "properties": {"layer": "0", "dxf_type": "LINE"}, "geometry": {"type": "LineString", "coordinates": [[-54.9896017362681, -10.239844938252412], [-54.98960302041534, -10.239845062795146]]}}, {"type": "Feature", "properties": {"layer": "0", "dxf_type": "LINE"}, "geometry": {"type": "LineString", "coordinates": [[-54.98903891816297, -10.240304099241033], [-54.989037634014565, -10.24030397469576]]}}, {"type": "Feature", "properties": {"layer": "0", "dxf_type": "LINE"}, "geometry": {"type": "LineString", "coordinates": [[-54.989037634014565, -10.24030397469576], [-54.98903891816297, -10.240304099241033]]}}, {"type": "Feature", "properties": {"layer": "0", "dxf_type": "LINE"}, "geometry": {"type": "LineString", "coordinates": [[-54.988756866909974, -10.240533616527117], [-54.98875558276099, -10.240533491980594]]}}, {"type": "Feature", "properties": {"layer": "0", "dxf_type": "LINE"}, "geometry": {"type": "LineString", "coordinates": [[-54.98875558276099, -10.240533491980594], [-54.988756866909974, -10.240533616527117]]}}, {"type": "Feature", "properties": {"layer": "0", "dxf_type": "LINE"}, "geometry": {"type": "LineString", "coordinates": [[-54.98805173614734, -10.241107409669912], [-54.988050451996905, -10.241107285120203]]}}, {"type": "Feature", "properties": {"layer": "0", "dxf_type": "LINE"}, "geometry": {"type": "LineString", "coordinates": [[-54.995196265572154, -10.235483337226173], [-54.99519755062118, -10.235483461749537]]}}, {"type": "Feature", "properties": {"layer": "0", "dxf_type": "LINE"}, "geometry": {"type": "LineString", "coordinates": [[-54.995021272928284, -10.235626914612165], [-54.99501998879144, -10.23562679009363]]}}, {"type": "Feature", "properties": {"layer": "0", "dxf_type": "LINE"}, "geometry": {"type": "LineString", "coordinates": [[-54.99501998879144, -10.23562679009363], [-54.995021272928284, -10.235626914612165]]}}, {"type": "Feature", "properties": {"layer": "0", "dxf_type": "LINE"}, "geometry": {"type": "LineString", "coordinates": [[-54.99445718620272, -10.236085963480276], [-54.99445590206472, -10.236085838959212]]}}, {"type": "Feature", "properties": {"layer": "0", "dxf_type": "LINE"}, "geometry": {"type": "LineString", "coordinates": [[-54.99445590206472, -10.236085838959212], [-54.99445718620272, -10.236085963480276]]}}, {"type": "Feature", "properties": {"layer": "0", "dxf_type": "LINE"}, "geometry": {"type": "LineString", "coordinates": [[-54.99435141976389, -10.236172035619825], [-54.994350134713116, -10.236171911092656]]}}, {"type": "Feature", "properties": {"layer": "0", "dxf_type": "LINE"}, "geometry": {"type": "LineString", "coordinates": [[-54.994350134713116, -10.236171911092656], [-54.99435141976389, -10.236172035619825]]}}, {"type": "Feature", "properties": {"layer": "0", "dxf_type": "LINE"}, "geometry": {"type": "LineString", "coordinates": [[-54.9937873302709, -10.236631082939333], [-54.9937860461372, -10.236630957511371]]}}, {"type": "Feature", "properties": {"layer": "0", "dxf_type": "LINE"}, "geometry": {"type": "LineString", "coordinates": [[-54.9937860461372, -10.236630957511371], [-54.9937873302709, -10.236631082939333]]}}, {"type": "Feature", "properties": {"layer": "0", "dxf_type": "LINE"}, "geometry": {"type": "LineString", "coordinates": [[-54.993681563489936, -10.23671715388565], [-54.99368027935034, -10.236717029361113]]}}, {"type": "Feature", "properties": {"layer": "0", "dxf_type": "LINE"}, "geometry": {"type": "LineString", "coordinates": [[-54.99368027935034, -10.236717029361113], [-54.993681563489936, -10.23671715388565]]}}, {"type": "Feature", "properties": {"layer": "0", "dxf_type": "LINE"}, "geometry": {"type": "LineString", "coordinates": [[-54.99311747214199, -10.23717619966198], [-54.99311618800123, -10.237176075134913]]}}, {"type": "Feature", "properties": {"layer": "0", "dxf_type": "LINE"}, "geometry": {"type": "LineString", "coordinates": [[-54.99311618800123, -10.237176075134913], [-54.99311747214199, -10.23717619966198]]}}, {"type": "Feature", "properties": {"layer": "0", "dxf_type": "LINE"}, "geometry": {"type": "LineString", "coordinates": [[-54.99294119356164, -10.23731965103284], [-54.992939909420514, -10.237319526504981]]}}, {"type": "Feature", "properties": {"layer": "0", "dxf_type": "LINE"}, "geometry": {"type": "LineString", "coordinates": [[-54.992939909420514, -10.237319526504981], [-54.99294119356164, -10.23731965103284]]}}, {"type": "Feature", "properties": {"layer": "0", "dxf_type": "LINE"}, "geometry": {"type": "LineString", "coordinates": [[-54.99237710107594, -10.237778695108974], [-54.9923758160211, -10.237778570572932]]}}, {"type": "Feature", "properties": {"layer": "0", "dxf_type": "LINE"}, "geometry": {"type": "LineString", "coordinates": [[-54.9923758160211, -10.237778570572932], [-54.99237710107594, -10.237778695108974]]}}, {"type": "Feature", "properties": {"layer": "0", "dxf_type": "LINE"}, "geometry": {"type": "LineString", "coordinates": [[-54.992271333562734, -10.237864765446083], [-54.99227004850768, -10.237864640909562]]}}, {"type": "Feature", "properties": {"layer": "0", "dxf_type": "LINE"}, "geometry": {"type": "LineString", "coordinates": [[-54.99227004850768, -10.237864640909562], [-54.992271333562734, -10.237864765446083]]}}, {"type": "Feature", "properties": {"layer": "0", "dxf_type": "LINE"}, "geometry": {"type": "LineString", "coordinates": [[-54.99170723830935, -10.238323807973012], [-54.99170595416569, -10.238323683439592]]}}, {"type": "Feature", "properties": {"layer": "0", "dxf_type": "LINE"}, "geometry": {"type": "LineString", "coordinates": [[-54.99170595416569, -10.238323683439592], [-54.99170723830935, -10.238323807973012]]}}, {"type": "Feature", "properties": {"layer": "0", "dxf_type": "LINE"}, "geometry": {"type": "LineString", "coordinates": [[-54.9916014704483, -10.238409878020686], [-54.99160018630442, -10.23840975348679]]}}, {"type": "Feature", "properties": {"layer": "0", "dxf_type": "LINE"}, "geometry": {"type": "LineString", "coordinates": [[-54.99160018630442, -10.23840975348679], [-54.9916014704483, -10.238409878020686]]}}, {"type": "Feature", "properties": {"layer": "0", "dxf_type": "LINE"}, "geometry": {"type": "LineString", "coordinates": [[-54.99103737333971, -10.238868919003858], [-54.99103608919467, -10.238868794467427]]}}, {"type": "Feature", "properties": {"layer": "0", "dxf_type": "LINE"}, "geometry": {"type": "LineString", "coordinates": [[-54.99103608919467, -10.238868794467427], [-54.99103737333971, -10.238868919003858]]}}, {"type": "Feature", "properties": {"layer": "0", "dxf_type": "LINE"}, "geometry": {"type": "LineString", "coordinates": [[-54.990931605125105, -10.238954989665926], [-54.99093032097985, -10.238954865129035]]}}, {"type": "Feature", "properties": {"layer": "0", "dxf_type": "LINE"}, "geometry": {"type": "LineString", "coordinates": [[-54.99093032097985, -10.238954865129035], [-54.990931605125105, -10.238954989665926]]}}, {"type": "Feature", "properties": {"layer": "0", "dxf_type": "LINE"}, "geometry": {"type": "LineString", "coordinates": [[-54.990367507073785, -10.239414029110785], [-54.9903662220205, -10.239413903661823]]}}, {"type": "Feature", "properties": {"layer": "0", "dxf_type": "LINE"}, "geometry": {"type": "LineString", "coordinates": [[-54.9903662220205, -10.239413903661823], [-54.990367507073785, -10.239414029110785]]}}, {"type": "Feature", "properties": {"layer": "0", "dxf_type": "LINE"}, "geometry": {"type": "LineString", "coordinates": [[-54.990261738517006, -10.239500098579477], [-54.990260453457815, -10.239499974033924]]}}, {"type": "Feature", "properties": {"layer": "0", "dxf_type": "LINE"}, "geometry": {"type": "LineString", "coordinates": [[-54.990260453457815, -10.239499974033924], [-54.990261738517006, -10.239500098579477]]}}, {"type": "Feature", "properties": {"layer": "0", "dxf_type": "LINE"}, "geometry": {"type": "LineString", "coordinates": [[-54.98969763769776, -10.239959136474566], [-54.98969635354997, -10.23995901193211]]}}, {"type": "Feature", "properties": {"layer": "0", "dxf_type": "LINE"}, "geometry": {"type": "LineString", "coordinates": [[-54.98969635354997, -10.23995901193211], [-54.98969763769776, -10.239959136474566]]}}, {"type": "Feature", "properties": {"layer": "0", "dxf_type": "LINE"}, "geometry": {"type": "LineString", "coordinates": [[-54.98959186879309, -10.240045205653717], [-54.98959058464507, -10.240045081110784]]}}, {"type": "Feature", "properties": {"layer": "0", "dxf_type": "LINE"}, "geometry": {"type": "LineString", "coordinates": [[-54.98959058464507, -10.240045081110784], [-54.98959186879309, -10.240045205653717]]}}, {"type": "Feature", "properties": {"layer": "0", "dxf_type": "LINE"}, "geometry": {"type": "LineString", "coordinates": [[-54.9890277661184, -10.240504242004475], [-54.98902648196922, -10.240504117459007]]}}, {"type": "Feature", "properties": {"layer": "0", "dxf_type": "LINE"}, "geometry": {"type": "LineString", "coordinates": [[-54.98902648196922, -10.240504117459007], [-54.9890277661184, -10.240504242004475]]}}, {"type": "Feature", "properties": {"layer": "0", "dxf_type": "LINE"}, "geometry": {"type": "LineString", "coordinates": [[-54.98885148399836, -10.240647690429642], [-54.98885019984881, -10.240647565883386]]}}, {"type": "Feature", "properties": {"layer": "0", "dxf_type": "LINE"}, "geometry": {"type": "LineString", "coordinates": [[-54.99527299565867, -10.241255688203013], [-54.99527286902875, -10.24125696014481]]}}, {"type": "Feature", "properties": {"layer": "0", "dxf_type": "LINE"}, "geometry": {"type": "LineString", "coordinates": [[-54.99512824963221, -10.24108260871073], [-54.9951283753556, -10.241081335859565]]}}, {"type": "Feature", "properties": {"layer": "0", "dxf_type": "LINE"}, "geometry": {"type": "LineString", "coordinates": [[-54.99515560053319, -10.241059181334071], [-54.99515547481561, -10.24106045328139]]}}, {"type": "Feature", "properties": {"layer": "0", "dxf_type": "LINE"}, "geometry": {"type": "LineString", "coordinates": [[-54.99422856826871, -10.239942985857914], [-54.994228693994295, -10.239941713007607]]}}, {"type": "Feature", "properties": {"layer": "0", "dxf_type": "LINE"}, "geometry": {"type": "LineString", "coordinates": [[-54.994228693994295, -10.239941713007607], [-54.99422856826871, -10.239942985857914]]}}, {"type": "Feature", "properties": {"layer": "0", "dxf_type": "LINE"}, "geometry": {"type": "LineString", "coordinates": [[-54.99408373985562, -10.239768381581463], [-54.994083865581565, -10.239767108731282]]}}, {"type": "Feature", "properties": {"layer": "0", "dxf_type": "LINE"}, "geometry": {"type": "LineString", "coordinates": [[-54.9946384250691, -10.239315822086821], [-54.99463829935153, -10.239317094033824]]}}, {"type": "Feature", "properties": {"layer": "0", "dxf_type": "LINE"}, "geometry": {"type": "LineString", "coordinates": [[-54.99405898553496, -10.23861867745612], [-54.994059111259666, -10.23861740460581]]}}, {"type": "Feature", "properties": {"layer": "0", "dxf_type": "LINE"}, "geometry": {"type": "LineString", "coordinates": [[-54.993504552544024, -10.23906869125886], [-54.99350442682231, -10.239069963204578]]}}, {"type": "Feature", "properties": {"layer": "0", "dxf_type": "LINE"}, "geometry": {"type": "LineString", "coordinates": [[-54.99335959917217, -10.238895358747374], [-54.99335972489994, -10.23889408589791]]}}, {"type": "Feature", "properties": {"layer": "0", "dxf_type": "LINE"}, "geometry": {"type": "LineString", "coordinates": [[-54.992432830464956, -10.23777661560631], [-54.99243270473487, -10.237777888454877]]}}, {"type": "Feature", "properties": {"layer": "0", "dxf_type": "LINE"}, "geometry": {"type": "LineString", "coordinates": [[-54.992287878219436, -10.23760328282642], [-54.992288003944196, -10.237602010881858]]}}, {"type": "Feature", "properties": {"layer": "0", "dxf_type": "LINE"}, "geometry": {"type": "LineString", "coordinates": [[-54.99156387272181, -10.23672898580846], [-54.99156374699523, -10.23673025775232]]}}, {"type": "Feature", "properties": {"layer": "0", "dxf_type": "LINE"}, "geometry": {"type": "LineString", "coordinates": [[-54.99063686466425, -10.23561278459416], [-54.99063699039315, -10.23561151265121]]}}, {"type": "Feature", "properties": {"layer": "0", "dxf_type": "LINE"}, "geometry": {"type": "LineString", "coordinates": [[-54.99063699039315, -10.23561151265121], [-54.99063686466425, -10.23561278459416]]}}, {"type": "Feature", "properties": {"layer": "0", "dxf_type": "LINE"}, "geometry": {"type": "LineString", "coordinates": [[-54.99049204003458, -10.235438179421983], [-54.990492165763854, -10.235436907479158]]}}, {"type": "Feature", "properties": {"layer": "0", "dxf_type": "LINE"}, "geometry": {"type": "LineString", "coordinates": [[-54.991045295898004, -10.234986785454526], [-54.99104517017143, -10.234988057398052]]}}, {"type": "Feature", "properties": {"layer": "0", "dxf_type": "LINE"}, "geometry": {"type": "LineString", "coordinates": [[-54.990465871489214, -10.234289637235406], [-54.990465997222934, -10.234288364388572]]}}, {"type": "Feature", "properties": {"layer": "0", "dxf_type": "LINE"}, "geometry": {"type": "LineString", "coordinates": [[-54.98991286877745, -10.234738485526401], [-54.989912742134194, -10.234739757463013]]}}, {"type": "Feature", "properties": {"layer": "0", "dxf_type": "LINE"}, "geometry": {"type": "LineString", "coordinates": [[-54.98976791826707, -10.234565152110498], [-54.98976804399815, -10.234563880168373]]}}, {"type": "Feature", "properties": {"layer": "0", "dxf_type": "LINE"}, "geometry": {"type": "LineString", "coordinates": [[-54.989691201731496, -10.23462641228962], [-54.98969107600004, -10.234627684231645]]}}, {"type": "Feature", "properties": {"layer": "0", "dxf_type": "LINE"}, "geometry": {"type": "LineString", "coordinates": [[-54.988764205944676, -10.233510208012833], [-54.988764331678446, -10.233508936071717]]}}, {"type": "Feature", "properties": {"layer": "0", "dxf_type": "LINE"}, "geometry": {"type": "LineString", "coordinates": [[-54.993279730167366, -10.238959183655215], [-54.99327960443921, -10.238960456504593]]}}, {"type": "Feature", "properties": {"layer": "0", "dxf_type": "LINE"}, "geometry": {"type": "LineString", "coordinates": [[-54.99235271018142, -10.237842986005495], [-54.992352835911895, -10.23784171315701]]}}, {"type": "Feature", "properties": {"layer": "0", "dxf_type": "LINE"}, "geometry": {"type": "LineString", "coordinates": [[-54.98806035476816, -10.239579997225626], [-54.98806022902453, -10.239581269165031]]}}, {"type": "Feature", "properties": {"layer": "0", "dxf_type": "LINE"}, "geometry": {"type": "LineString", "coordinates": [[-54.98675681422231, -10.23800980976421], [-54.986756939974896, -10.238008536922168]]}}, {"type": "Feature", "properties": {"layer": "0", "dxf_type": "LINE"}, "geometry": {"type": "LineString", "coordinates": [[-54.986636728625264, -10.237872394213527], [-54.986636602878065, -10.237873666151572]]}}, {"type": "Feature", "properties": {"layer": "0", "dxf_type": "LINE"}, "geometry": {"type": "LineString", "coordinates": [[-54.98533320063131, -10.236302203551283], [-54.985333326387476, -10.236300930710637]]}}, {"type": "Feature", "properties": {"layer": "0", "dxf_type": "LINE"}, "geometry": {"type": "LineString", "coordinates": [[-54.98552327018407, -10.236731275858467], [-54.98552455431428, -10.236731400414643]]}}, {"type": "Feature", "properties": {"layer": "0", "dxf_type": "LINE"}, "geometry": {"type": "LineString", "coordinates": [[-54.98552420207659, -10.236731686583333], [-54.985522917033826, -10.236731562021506]]}}, {"type": "Feature", "properties": {"layer": "0", "dxf_type": "LINE"}, "geometry": {"type": "LineString", "coordinates": [[-54.98559017975194, -10.23613331222816], [-54.985590305506896, -10.23613203938718]]}}, {"type": "Feature", "properties": {"layer": "0", "dxf_type": "LINE"}, "geometry": {"type": "LineString", "coordinates": [[-54.9854774859972, -10.23622384598092], [-54.985477360247394, -10.236225117917877]]}}, {"type": "Feature", "properties": {"layer": "0", "dxf_type": "LINE"}, "geometry": {"type": "LineString", "coordinates": [[-54.98546722798554, -10.236193139673158], [-54.98546594385752, -10.236193015117173]]}}, {"type": "Feature", "properties": {"layer": "0", "dxf_type": "LINE"}, "geometry": {"type": "LineString", "coordinates": [[-54.985697658477555, -10.236472386209662], [-54.985698942606945, -10.236472510764964]]}}, {"type": "Feature", "properties": {"layer": "0", "dxf_type": "LINE"}, "geometry": {"type": "LineString", "coordinates": [[-54.98604649823676, -10.235772164647578], [-54.98604662398381, -10.235770892709898]]}}, {"type": "Feature", "properties": {"layer": "0", "dxf_type": "LINE"}, "geometry": {"type": "LineString", "coordinates": [[-54.985933804728305, -10.235862698609472], [-54.98593367897501, -10.235863971450872]]}}, {"type": "Feature", "properties": {"layer": "0", "dxf_type": "LINE"}, "geometry": {"type": "LineString", "coordinates": [[-54.98593367897501, -10.235863971450872], [-54.985933804728305, -10.235862698609472]]}}, {"type": "Feature", "properties": {"layer": "0", "dxf_type": "LINE"}, "geometry": {"type": "LineString", "coordinates": [[-54.98582098540463, -10.235954505360883], [-54.985820859656485, -10.235955777298258]]}}, {"type": "Feature", "properties": {"layer": "0", "dxf_type": "LINE"}, "geometry": {"type": "LineString", "coordinates": [[-54.985820859656485, -10.235955777298258], [-54.98582098540463, -10.235954505360883]]}}, {"type": "Feature", "properties": {"layer": "0", "dxf_type": "LINE"}, "geometry": {"type": "LineString", "coordinates": [[-54.985708166024196, -10.236046311156386], [-54.9857080402755, -10.236047583093619]]}}, {"type": "Feature", "properties": {"layer": "0", "dxf_type": "LINE"}, "geometry": {"type": "LineString", "coordinates": [[-54.9857080402755, -10.236047583093619], [-54.985708166024196, -10.236046311156386]]}}, {"type": "Feature", "properties": {"layer": "0", "dxf_type": "LINE"}, "geometry": {"type": "LineString", "coordinates": [[-54.985595346581285, -10.236138116899864], [-54.98559522082634, -10.236139389740845]]}}, {"type": "Feature", "properties": {"layer": "0", "dxf_type": "LINE"}, "geometry": {"type": "LineString", "coordinates": [[-54.98597695673376, -10.236256468135927], [-54.98597683098586, -10.236257740073436]]}}, {"type": "Feature", "properties": {"layer": "0", "dxf_type": "LINE"}, "geometry": {"type": "LineString", "coordinates": [[-54.98597683098586, -10.236257740073436], [-54.98597695673376, -10.236256468135927]]}}, {"type": "Feature", "properties": {"layer": "0", "dxf_type": "LINE"}, "geometry": {"type": "LineString", "coordinates": [[-54.98569490702106, -10.236485983979101], [-54.9856947812718, -10.236487255916252]]}}, {"type": "Feature", "properties": {"layer": "0", "dxf_type": "LINE"}, "geometry": {"type": "LineString", "coordinates": [[-54.99223538330409, -10.23283919561947], [-54.99223666833925, -10.232839320152292]]}}, {"type": "Feature", "properties": {"layer": "0", "dxf_type": "LINE"}, "geometry": {"type": "LineString", "coordinates": [[-54.990614920548175, -10.234159068848886], [-54.990613636422225, -10.234158944314391]]}}, {"type": "Feature", "properties": {"layer": "0", "dxf_type": "LINE"}, "geometry": {"type": "LineString", "coordinates": [[-54.990613636422225, -10.234158944314391], [-54.990614920548175, -10.234159068848886]]}}, {"type": "Feature", "properties": {"layer": "0", "dxf_type": "LINE"}, "geometry": {"type": "LineString", "coordinates": [[-54.990438643030345, -10.234302519894793], [-54.99043735799718, -10.23430239444999]]}}, {"type": "Feature", "properties": {"layer": "0", "dxf_type": "LINE"}, "geometry": {"type": "LineString", "coordinates": [[-54.988604061901775, -10.235794270376363], [-54.98860534603186, -10.235794394919886]]}}, {"type": "Feature", "properties": {"layer": "0", "dxf_type": "LINE"}, "geometry": {"type": "LineString", "coordinates": [[-54.98842906678116, -10.235937843614627], [-54.98842778173817, -10.23593771906467]]}}, {"type": "Feature", "properties": {"layer": "0", "dxf_type": "LINE"}, "geometry": {"type": "LineString", "coordinates": [[-54.98842778173817, -10.23593771906467], [-54.98842906678116, -10.235937843614627]]}}, {"type": "Feature", "properties": {"layer": "0", "dxf_type": "LINE"}, "geometry": {"type": "LineString", "coordinates": [[-54.98680728868424, -10.237257567082771], [-54.986806004550466, -10.23725744253117]]}}, {"type": "Feature", "properties": {"layer": "0", "dxf_type": "LINE"}, "geometry": {"type": "LineString", "coordinates": [[-54.990407485115576, -10.234266378593892], [-54.99040876924171, -10.234266503129266]]}}, {"type": "Feature", "properties": {"layer": "0", "dxf_type": "LINE"}, "geometry": {"type": "LineString", "coordinates": [[-54.988575472375906, -10.235758378001826], [-54.988574188246005, -10.235758253458213]]}}, {"type": "Feature", "properties": {"layer": "0", "dxf_type": "LINE"}, "geometry": {"type": "LineString", "coordinates": [[-54.992870073399544, -10.233034833745746], [-54.99287135752366, -10.233034958270643]]}}, {"type": "Feature", "properties": {"layer": "0", "dxf_type": "LINE"}, "geometry": {"type": "LineString", "coordinates": [[-54.99258931582638, -10.233264480726177], [-54.99258803170168, -10.233264356200012]]}}, {"type": "Feature", "properties": {"layer": "0", "dxf_type": "LINE"}, "geometry": {"type": "LineString", "coordinates": [[-54.99282871893993, -10.233652453185064], [-54.992828593221894, -10.233653725130814]]}}, {"type": "Feature", "properties": {"layer": "0", "dxf_type": "LINE"}, "geometry": {"type": "LineString", "coordinates": [[-54.99256790735968, -10.233339437408098], [-54.99256803307837, -10.233338165462602]]}}, {"type": "Feature", "properties": {"layer": "0", "dxf_type": "LINE"}, "geometry": {"type": "LineString", "coordinates": [[-54.99256803307837, -10.233338165462602], [-54.99256790735968, -10.233339437408098]]}}, {"type": "Feature", "properties": {"layer": "0", "dxf_type": "LINE"}, "geometry": {"type": "LineString", "coordinates": [[-54.992394116755165, -10.233129912192766], [-54.99239424247429, -10.233128640247434]]}}, {"type": "Feature", "properties": {"layer": "0", "dxf_type": "LINE"}, "geometry": {"type": "LineString", "coordinates": [[-54.99239424247429, -10.233128640247434], [-54.992394116755165, -10.233129912192766]]}}, {"type": "Feature", "properties": {"layer": "0", "dxf_type": "LINE"}, "geometry": {"type": "LineString", "coordinates": [[-54.992134011376784, -10.23281632206236], [-54.99213413709657, -10.232815050117283]]}}, {"type": "Feature", "properties": {"layer": "0", "dxf_type": "LINE"}, "geometry": {"type": "LineString", "coordinates": [[-54.99129034963722, -10.234904351147176], [-54.9912902239117, -10.234905623090997]]}}, {"type": "Feature", "properties": {"layer": "0", "dxf_type": "LINE"}, "geometry": {"type": "LineString", "coordinates": [[-54.99059506500118, -10.234067518353106], [-54.99059519072844, -10.234066246409974]]}}, {"type": "Feature", "properties": {"layer": "0", "dxf_type": "LINE"}, "geometry": {"type": "LineString", "coordinates": [[-54.98901203399462, -10.236758368547234], [-54.98901190825802, -10.236759640488168]]}}, {"type": "Feature", "properties": {"layer": "0", "dxf_type": "LINE"}, "geometry": {"type": "LineString", "coordinates": [[-54.98831675409703, -10.235921531344706], [-54.98831687983536, -10.235920259404462]]}}, {"type": "Feature", "properties": {"layer": "0", "dxf_type": "LINE"}, "geometry": {"type": "LineString", "coordinates": [[-54.9874946208125, -10.237993165353378], [-54.98749449506282, -10.237994438196257]]}}, {"type": "Feature", "properties": {"layer": "0", "dxf_type": "LINE"}, "geometry": {"type": "LineString", "coordinates": [[-54.98723381257488, -10.237680145696611], [-54.98723393923206, -10.237678873763501]]}}, {"type": "Feature", "properties": {"layer": "0", "dxf_type": "LINE"}, "geometry": {"type": "LineString", "coordinates": [[-54.98723393923206, -10.237678873763501], [-54.98723381257488, -10.237680145696611]]}}, {"type": "Feature", "properties": {"layer": "0", "dxf_type": "LINE"}, "geometry": {"type": "LineString", "coordinates": [[-54.98706002512873, -10.237470617904984], [-54.987060150873795, -10.237469345966415]]}}, {"type": "Feature", "properties": {"layer": "0", "dxf_type": "LINE"}, "geometry": {"type": "LineString", "coordinates": [[-54.987060150873795, -10.237469345966415], [-54.98706002512873, -10.237470617904984]]}}, {"type": "Feature", "properties": {"layer": "0", "dxf_type": "LINE"}, "geometry": {"type": "LineString", "coordinates": [[-54.9867993434588, -10.23715632611463], [-54.98679946921022, -10.237155053272412]]}}, {"type": "Feature", "properties": {"layer": "0", "dxf_type": "LINE"}, "geometry": {"type": "LineString", "coordinates": [[-54.98736665274416, -10.24131431246013], [-54.98736652699009, -10.241315585302365]]}}, {"type": "Feature", "properties": {"layer": "0", "dxf_type": "LINE"}, "geometry": {"type": "LineString", "coordinates": [[-54.98727963243045, -10.241210821273249], [-54.987279758184734, -10.241209548431101]]}}, {"type": "Feature", "properties": {"layer": "0", "dxf_type": "LINE"}, "geometry": {"type": "LineString", "coordinates": [[-54.98716389824925, -10.24106986303511], [-54.98716377250038, -10.241071134973268]]}}, {"type": "Feature", "properties": {"layer": "0", "dxf_type": "LINE"}, "geometry": {"type": "LineString", "coordinates": [[-54.98707687806892, -10.240966370913865], [-54.98707700381801, -10.240965098975792]]}}, {"type": "Feature", "properties": {"layer": "0", "dxf_type": "LINE"}, "geometry": {"type": "LineString", "coordinates": [[-54.98636752460771, -10.235927286886794], [-54.986368808735726, -10.235927411439082]]}}, {"type": "Feature", "properties": {"layer": "0", "dxf_type": "LINE"}, "geometry": {"type": "LineString", "coordinates": [[-54.98636477319359, -10.23594088376479], [-54.986364647441896, -10.235942156606676]]}}, {"type": "Feature", "properties": {"layer": "0", "dxf_type": "LINE"}, "geometry": {"type": "LineString", "coordinates": [[-54.98703738762309, -10.235382185724246], [-54.98703867266227, -10.235382310279157]]}}, {"type": "Feature", "properties": {"layer": "0", "dxf_type": "LINE"}, "geometry": {"type": "LineString", "coordinates": [[-54.98703463715819, -10.235395782620314], [-54.98703451141545, -10.235397054559181]]}}, {"type": "Feature", "properties": {"layer": "0", "dxf_type": "LINE"}, "geometry": {"type": "LineString", "coordinates": [[-54.98837710887834, -10.234291977005283], [-54.98837839299653, -10.234292102452429]]}}, {"type": "Feature", "properties": {"layer": "0", "dxf_type": "LINE"}, "geometry": {"type": "LineString", "coordinates": [[-54.98837435756853, -10.234305574824477], [-54.98837423183231, -10.234306846765024]]}}, {"type": "Feature", "properties": {"layer": "0", "dxf_type": "LINE"}, "geometry": {"type": "LineString", "coordinates": [[-54.98904696528761, -10.233746870341948], [-54.98904825032266, -10.23374699488782]]}}, {"type": "Feature", "properties": {"layer": "0", "dxf_type": "LINE"}, "geometry": {"type": "LineString", "coordinates": [[-54.9890442149327, -10.233760467275308], [-54.98904408919404, -10.233761740120608]]}}, {"type": "Feature", "properties": {"layer": "0", "dxf_type": "LINE"}, "geometry": {"type": "LineString", "coordinates": [[-54.99045718393606, -10.232599271243286], [-54.99045846805567, -10.232599395777205]]}}, {"type": "Feature", "properties": {"layer": "0", "dxf_type": "LINE"}, "geometry": {"type": "LineString", "coordinates": [[-54.990454432745786, -10.232612868197192], [-54.99045430701967, -10.232614140140374]]}}, {"type": "Feature", "properties": {"layer": "0", "dxf_type": "LINE"}, "geometry": {"type": "LineString", "coordinates": [[-54.991127033508334, -10.232054158888262], [-54.9911283185391, -10.232054283424803]]}}, {"type": "Feature", "properties": {"layer": "0", "dxf_type": "LINE"}, "geometry": {"type": "LineString", "coordinates": [[-54.99112428326725, -10.232067755860218], [-54.991124157544384, -10.232069027804252]]}}, {"type": "Feature", "properties": {"layer": "0", "dxf_type": "LINE"}, "geometry": {"type": "LineString", "coordinates": [[-54.999230413865234, -10.238183135363931], [-54.99912079843988, -10.238184318743379]]}}, {"type": "Feature", "properties": {"layer": "0", "dxf_type": "LINE"}, "geometry": {"type": "LineString", "coordinates": [[-54.997277223520996, -10.24140856497442], [-54.997242840710555, -10.241361106982074]]}}, {"type": "Feature", "properties": {"layer": "0", "dxf_type": "LINE"}, "geometry": {"type": "LineString", "coordinates": [[-54.997883529190595, -10.242215822828097], [-54.9978562051534, -10.242177826307469]]}}, {"type": "Feature", "properties": {"layer": "0", "dxf_type": "LINE"}, "geometry": {"type": "LineString", "coordinates": [[-54.99810620852324, -10.242540710688624], [-54.99807160182687, -10.242492536360123]]}}, {"type": "Feature", "properties": {"layer": "0", "dxf_type": "LINE"}, "geometry": {"type": "LineString", "coordinates": [[-54.9986853475497, -10.243494086123183], [-54.99863231654949, -10.243404517124555]]}}, {"type": "Feature", "properties": {"layer": "0", "dxf_type": "LINE"}, "geometry": {"type": "LineString", "coordinates": [[-54.99911521167109, -10.244231172635988], [-54.999018046233516, -10.244093652773262]]}}, {"type": "Feature", "properties": {"layer": "0", "dxf_type": "LINE"}, "geometry": {"type": "LineString", "coordinates": [[-54.99886668366078, -10.238754467817598], [-54.99891236683137, -10.238731978995608]]}}, {"type": "Feature", "properties": {"layer": "0", "dxf_type": "LINE"}, "geometry": {"type": "LineString", "coordinates": [[-54.99891236683137, -10.238731978995608], [-54.99901161734233, -10.23869481724708]]}}, {"type": "Feature", "properties": {"layer": "0", "dxf_type": "LINE"}, "geometry": {"type": "LineString", "coordinates": [[-54.99901161734233, -10.23869481724708], [-54.999015759282265, -10.238749743466316]]}}, {"type": "Feature", "properties": {"layer": "0", "dxf_type": "LINE"}, "geometry": {"type": "LineString", "coordinates": [[-54.999015759282265, -10.238749743466316], [-54.999019081629676, -10.238837722960342]]}}, {"type": "Feature", "properties": {"layer": "0", "dxf_type": "LINE"}, "geometry": {"type": "LineString", "coordinates": [[-54.999019081629676, -10.238837722960342], [-54.99903871275206, -10.238927630509654]]}}, {"type": "Feature", "properties": {"layer": "0", "dxf_type": "LINE"}, "geometry": {"type": "LineString", "coordinates": [[-54.99903871275206, -10.238927630509654], [-54.99906029568936, -10.239022960955987]]}}, {"type": "Feature", "properties": {"layer": "0", "dxf_type": "LINE"}, "geometry": {"type": "LineString", "coordinates": [[-54.99906029568936, -10.239022960955987], [-54.99911044643227, -10.239114526924393]]}}, {"type": "Feature", "properties": {"layer": "0", "dxf_type": "LINE"}, "geometry": {"type": "LineString", "coordinates": [[-54.99911044643227, -10.239114526924393], [-54.99886668366078, -10.238754467817598]]}}, {"type": "Feature", "properties": {"layer": "0", "dxf_type": "LINE"}, "geometry": {"type": "LineString", "coordinates": [[-54.99886668366078, -10.238754467817598], [-54.99886668366078, -10.238754467817598]]}}, {"type": "Feature", "properties": {"layer": "0", "dxf_type": "LINE"}, "geometry": {"type": "LineString", "coordinates": [[-54.99886668366078, -10.238754467817598], [-54.99891236683137, -10.238731978995608]]}}, {"type": "Feature", "properties": {"layer": "0", "dxf_type": "LINE"}, "geometry": {"type": "LineString", "coordinates": [[-54.99891236683137, -10.238731978995608], [-54.99901161734233, -10.23869481724708]]}}, {"type": "Feature", "properties": {"layer": "0", "dxf_type": "LINE"}, "geometry": {"type": "LineString", "coordinates": [[-54.99901161734233, -10.23869481724708], [-54.999015759282265, -10.238749743466316]]}}, {"type": "Feature", "properties": {"layer": "0", "dxf_type": "LINE"}, "geometry": {"type": "LineString", "coordinates": [[-54.999015759282265, -10.238749743466316], [-54.999019081629676, -10.238837722960342]]}}, {"type": "Feature", "properties": {"layer": "0", "dxf_type": "LINE"}, "geometry": {"type": "LineString", "coordinates": [[-54.999019081629676, -10.238837722960342], [-54.99903871275206, -10.238927630509654]]}}, {"type": "Feature", "properties": {"layer": "0", "dxf_type": "LINE"}, "geometry": {"type": "LineString", "coordinates": [[-54.99903871275206, -10.238927630509654], [-54.99906029568936, -10.239022960955987]]}}, {"type": "Feature", "properties": {"layer": "0", "dxf_type": "LINE"}, "geometry": {"type": "LineString", "coordinates": [[-54.99906029568936, -10.239022960955987], [-54.99911044643227, -10.239114526924393]]}}, {"type": "Feature", "properties": {"layer": "0", "dxf_type": "LINE"}, "geometry": {"type": "LineString", "coordinates": [[-54.99886668366078, -10.238754467817598], [-54.99886668366078, -10.238754467817598]]}}, {"type": "Feature", "properties": {"layer": "0", "dxf_type": "LWPOLYLINE"}, "geometry": {"type": "LineString", "coordinates": [[-54.99316388093794, -10.250928248726131], [-54.99310882843989, -10.250853320792839], [-54.993055028180144, -10.25078055282396], [-54.99300122794918, -10.25070778394664], [-54.99289166891698, -10.250559080301494], [-54.992833651213566, -10.250474908615907], [-54.99279449119425, -10.250417248791873]]}}, {"type": "Feature", "properties": {"layer": "0", "dxf_type": "LINE"}, "geometry": {"type": "LineString", "coordinates": [[-55.00801648231122, -10.239649829356939], [-55.00802559557189, -10.240037542278957]]}}, {"type": "Feature", "properties": {"layer": "0", "dxf_type": "LINE"}, "geometry": {"type": "LineString", "coordinates": [[-55.00802708024875, -10.24010071882164], [-55.00804013561738, -10.240656151850178]]}}, {"type": "Feature", "properties": {"layer": "0", "dxf_type": "LINE"}, "geometry": {"type": "LineString", "coordinates": [[-55.007320480902195, -10.24067274623363], [-55.00732442269521, -10.240840466281949]]}}, {"type": "Feature", "properties": {"layer": "0", "dxf_type": "LINE"}, "geometry": {"type": "LineString", "coordinates": [[-54.97860580656685, -10.233191979482893], [-54.978462624918926, -10.233013173733314]]}}, {"type": "Feature", "properties": {"layer": "0", "dxf_type": "LINE"}, "geometry": {"type": "LineString", "coordinates": [[-54.97841694389534, -10.233348692136687], [-54.978268795656575, -10.233170968177868]]}}, {"type": "Feature", "properties": {"layer": "0", "dxf_type": "LINE"}, "geometry": {"type": "LineString", "coordinates": [[-54.9771150855063, -10.232344129270226], [-54.97731627341161, -10.23258501780818]]}}, {"type": "Feature", "properties": {"layer": "0", "dxf_type": "LINE"}, "geometry": {"type": "LineString", "coordinates": [[-54.97692643407268, -10.232496742185392], [-54.977128600951694, -10.232738802058043]]}}, {"type": "Feature", "properties": {"layer": "0", "dxf_type": "LWPOLYLINE"}, "geometry": {"type": "Polygon", "coordinates": [[[-54.98712466307091, -10.252003464874509], [-54.9878302023967, -10.251423363881822], [-54.987891809943754, -10.25148960486309], [-54.987952391427484, -10.251551121935897], [-54.988007931696785, -10.251635319623325], [-54.988109930958046, -10.251789949027515], [-54.98815690431131, -10.25186115949223], [-54.98820430074314, -10.251933011643494], [-54.98825468394116, -10.252009391028457], [-54.98826541777703, -10.252025662933972], [-54.98762495623469, -10.252450816075463], [-54.98712466307091, -10.252003464874509]]]}}]}