{"type": "FeatureCollection", "name": "0_corrego", "crs": {"type": "name", "properties": {"name": "urn:ogc:def:crs:OGC:1.3:CRS84"}}, "properties": {"source": "8be78050_MAPA TRIBUTAÇÃO 2021 (1).dxf", "assumed_crs": "EPSG:4326", "local_crs": false, "note": "Coordenadas locais do desenho (sem CRS). Use base 'Só CAD' no mapa.", "extent": [4300.4554, 2373.7696, 8215.3349, 6186.7838], "georef": true, "transform": {"scale": 1, "rotation_deg": 0, "tx": 713717.6034368816, "ty": 8862616.121289995, "rmse_m": 0, "epsg": 31981}, "layer": "0 - CÓRREGO", "source_file": "8be78050_MAPA TRIBUTAÇÃO 2021 (1)_georef.geojson", "n_features": 11}, "features": [{"type": "Feature", "properties": {"layer": "0 - CÓRREGO", "dxf_type": "LINE"}, "geometry": {"type": "LineString", "coordinates": [[-54.987236718499915, -10.246484104476663], [-54.987268964407434, -10.246513939083512]]}}, {"type": "Feature", "properties": {"layer": "0 - CÓRREGO", "dxf_type": "LINE"}, "geometry": {"type": "LineString", "coordinates": [[-54.98435454735875, -10.24789921096492], [-54.984379785747834, -10.24792533337917]]}}, {"type": "Feature", "properties": {"layer": "0 - CÓRREGO", "dxf_type": "LINE"}, "geometry": {"type": "LineString", "coordinates": [[-54.9852974894238, -10.24415690353153], [-54.98527081240284, -10.244123205622442]]}}, {"type": "Feature", "properties": {"layer": "0 - CÓRREGO", "dxf_type": "LINE"}, "geometry": {"type": "LineString", "coordinates": [[-54.98527081240284, -10.244123205622442], [-54.985263213931276, -10.244144465663426]]}}, {"type": "Feature", "properties": {"layer": "0 - CÓRREGO", "dxf_type": "LINE"}, "geometry": {"type": "LineString", "coordinates": [[-54.98532498712338, -10.244025125569992], [-54.98535092561051, -10.244054815450472]]}}, {"type": "Feature", "properties": {"layer": "0 - CÓRREGO", "dxf_type": "LINE"}, "geometry": {"type": "LineString", "coordinates": [[-54.98535092561051, -10.244054815450472], [-54.985360979550734, -10.24403115264326]]}}, {"type": "Feature", "properties": {"layer": "0 - CÓRREGO", "dxf_type": "LINE"}, "geometry": {"type": "LineString", "coordinates": [[-54.984786077705444, -10.243349926320015], [-54.98475613702028, -10.243375216738789]]}}, {"type": "Feature", "properties": {"layer": "0 - CÓRREGO", "dxf_type": "LINE"}, "geometry": {"type": "LineString", "coordinates": [[-54.98475613702028, -10.243375216738789], [-54.98477155399805, -10.243383097723472]]}}, {"type": "Feature", "properties": {"layer": "0 - CÓRREGO", "dxf_type": "LINE"}, "geometry": {"type": "LineString", "coordinates": [[-54.98460789918234, -10.243079592255063], [-54.984574389290266, -10.24309867865239]]}}, {"type": "Feature", "properties": {"layer": "0 - CÓRREGO", "dxf_type": "LINE"}, "geometry": {"type": "LineString", "coordinates": [[-54.984111818556066, -10.241020812637851], [-54.98410715414354, -10.241035857434348]]}}, {"type": "Feature", "properties": {"layer": "0 - CÓRREGO", "dxf_type": "LINE"}, "geometry": {"type": "LineString", "coordinates": [[-54.98455295139819, -10.240303424361759], [-54.984583640523745, -10.240322999926349]]}}]}