{"type": "FeatureCollection", "name": "0_cotas", "crs": {"type": "name", "properties": {"name": "urn:ogc:def:crs:OGC:1.3:CRS84"}}, "properties": {"source": "8be78050_MAPA TRIBUTAÇÃO 2021 (1).dxf", "assumed_crs": "EPSG:4326", "local_crs": false, "note": "Coordenadas locais do desenho (sem CRS). Use base 'Só CAD' no mapa.", "extent": [4300.4554, 2373.7696, 8215.3349, 6186.7838], "georef": true, "transform": {"scale": 1, "rotation_deg": 0, "tx": 713717.6034368816, "ty": 8862616.121289995, "rmse_m": 0, "epsg": 31981}, "layer": "0 - Cotas", "source_file": "8be78050_MAPA TRIBUTAÇÃO 2021 (1)_georef.geojson", "n_features": 116}, "features": [{"type": "Feature", "properties": {"layer": "0 - Cotas", "dxf_type": "LINE"}, "geometry": {"type": "LineString", "coordinates": [[-54.99045983032553, -10.246060235105045], [-54.99041393076733, -10.2460040014613]]}}, {"type": "Feature", "properties": {"layer": "0 - Cotas", "dxf_type": "LINE"}, "geometry": {"type": "LineString", "coordinates": [[-54.99045983032553, -10.246060235105045], [-54.990416226519706, -10.246006813283946]]}}, {"type": "Feature", "properties": {"layer": "0 - Cotas", "dxf_type": "LINE"}, "geometry": {"type": "LineString", "coordinates": [[-54.99645552296828, -10.245407561154865], [-54.99625157005111, -10.245551268887414]]}}, {"type": "Feature", "properties": {"layer": "0 - Cotas", "dxf_type": "LINE"}, "geometry": {"type": "LineString", "coordinates": [[-54.99560506511586, -10.244754848301966], [-54.99560821041871, -10.244764942809729]]}}, {"type": "Feature", "properties": {"layer": "0 - Cotas", "dxf_type": "LINE"}, "geometry": {"type": "LineString", "coordinates": [[-54.99333066126968, -10.249523047533444], [-54.99325720736895, -10.249430771877162]]}}, {"type": "Feature", "properties": {"layer": "0 - Cotas", "dxf_type": "LINE"}, "geometry": {"type": "LineString", "coordinates": [[-54.99344743042173, -10.24943185970061], [-54.99337328312284, -10.24934012937025]]}}, {"type": "Feature", "properties": {"layer": "0 - Cotas", "dxf_type": "LINE"}, "geometry": {"type": "LineString", "coordinates": [[-54.99337328312284, -10.24934012937025], [-54.99325720736895, -10.249430771877162]]}}, {"type": "Feature", "properties": {"layer": "0 - Cotas", "dxf_type": "LINE"}, "geometry": {"type": "LineString", "coordinates": [[-54.99277529760096, -10.248954188340182], [-54.99281086661278, -10.248995421609383]]}}, {"type": "Feature", "properties": {"layer": "0 - Cotas", "dxf_type": "LINE"}, "geometry": {"type": "LineString", "coordinates": [[-54.99294609745739, -10.248809652347164], [-54.992980217998586, -10.248852069828946]]}}, {"type": "Feature", "properties": {"layer": "0 - Cotas", "dxf_type": "LINE"}, "geometry": {"type": "LineString", "coordinates": [[-54.992980217998586, -10.248852069828946], [-54.99281086661278, -10.248995421609383]]}}, {"type": "Feature", "properties": {"layer": "0 - Cotas", "dxf_type": "LINE"}, "geometry": {"type": "LineString", "coordinates": [[-54.992980217998586, -10.248852069828946], [-54.99301433855416, -10.248894486404897]]}}, {"type": "Feature", "properties": {"layer": "0 - Cotas", "dxf_type": "LINE"}, "geometry": {"type": "LineString", "coordinates": [[-54.99301433855416, -10.248894486404897], [-54.99284096694909, -10.249030317159123]]}}, {"type": "Feature", "properties": {"layer": "0 - Cotas", "dxf_type": "LINE"}, "geometry": {"type": "LineString", "coordinates": [[-54.99284096694909, -10.249030317159123], [-54.992864679935934, -10.249057806305922]]}}, {"type": "Feature", "properties": {"layer": "0 - Cotas", "dxf_type": "LINE"}, "geometry": {"type": "LineString", "coordinates": [[-54.99284096694909, -10.249030317159123], [-54.9928765359717, -10.249071551328063]]}}, {"type": "Feature", "properties": {"layer": "0 - Cotas", "dxf_type": "LINE"}, "geometry": {"type": "LineString", "coordinates": [[-54.99301433855416, -10.248894486404897], [-54.993048459112735, -10.248936903882743]]}}, {"type": "Feature", "properties": {"layer": "0 - Cotas", "dxf_type": "LINE"}, "geometry": {"type": "LineString", "coordinates": [[-54.993048459112735, -10.248936903882743], [-54.9928765359717, -10.249071551328063]]}}, {"type": "Feature", "properties": {"layer": "0 - Cotas", "dxf_type": "LINE"}, "geometry": {"type": "LineString", "coordinates": [[-54.99485554638534, -10.246785631287732], [-54.99505088230137, -10.246633444290568]]}}, {"type": "Feature", "properties": {"layer": "0 - Cotas", "dxf_type": "LINE"}, "geometry": {"type": "LineString", "coordinates": [[-54.993652851760274, -10.245573226276798], [-54.99369502975017, -10.245619536845263]]}}, {"type": "Feature", "properties": {"layer": "0 - Cotas", "dxf_type": "LINE"}, "geometry": {"type": "LineString", "coordinates": [[-54.99357168682696, -10.245645747698317], [-54.99361861515872, -10.245691301184003]]}}, {"type": "Feature", "properties": {"layer": "0 - Cotas", "dxf_type": "LINE"}, "geometry": {"type": "LineString", "coordinates": [[-54.99361861515872, -10.245691301184003], [-54.99369502975017, -10.245619536845263]]}}, {"type": "Feature", "properties": {"layer": "0 - Cotas", "dxf_type": "CIRCLE", "radius_m": 1.44}, "geometry": {"type": "Polygon", "coordinates": [[[-55.00643760496599, -10.230025855180816], [-55.0064378745436, -10.230023310465018], [-55.00643863902088, -10.230020866403974], [-55.006439871341826, -10.230018617744495], [-55.0064415216934, -10.230016650054761], [-55.006443529374096, -10.230015038893082], [-55.006445814598116, -10.230013847045843], [-55.006448291304686, -10.230013119182505], [-55.006450863491004, -10.230012884544845], [-55.00645343255206, -10.230013150664401], [-55.00645589907182, -10.23001390879708], [-55.00645817015743, -10.230015128544423], [-55.006460156662115, -10.230016764164105], [-55.00646178323995, -10.23001875191981], [-55.00646298648705, -10.230021015493277], [-55.00646372131236, -10.230023468735194], [-55.00646395819438, -10.230026016552287], [-55.006463689529504, -10.230028561273746], [-55.006462924139846, -10.2300310053293], [-55.00646169273151, -10.230033253994472], [-55.006460041467406, -10.23003522167873], [-55.00645803469916, -10.230036832846087], [-55.006455748562445, -10.230038024687797], [-55.006453272768226, -10.230038752556746], [-55.006450700581695, -10.230038987194387], [-55.00644813152044, -10.230038721074765], [-55.00644566408799, -10.230037962936413], [-55.00644339391483, -10.23003674319455], [-55.006441406497615, -10.230035107569176], [-55.0064397808324, -10.230033119818964], [-55.0064385766729, -10.230030856239845], [-55.006437842760334, -10.230028403003493], [-55.00643760496599, -10.230025855180816]]]}}, {"type": "Feature", "properties": {"layer": "0 - Cotas", "dxf_type": "CIRCLE", "radius_m": 1.44}, "geometry": {"type": "Polygon", "coordinates": [[[-55.006119516523405, -10.229811339442454], [-55.00611978519046, -10.229808794721729], [-55.00612055057609, -10.229806351571245], [-55.006121781991034, -10.229804102003728], [-55.006123433255425, -10.229802134321353], [-55.00612544001762, -10.229800524059952], [-55.006127725246344, -10.229799331310973], [-55.00613020195141, -10.22979860344987], [-55.00613277413572, -10.22979836881444], [-55.00613534319434, -10.229798634936135], [-55.006137810623855, -10.229799393076368], [-55.006140080788285, -10.22980061372373], [-55.006142067295464, -10.22980224844094], [-55.006143693870186, -10.229804236197662], [-55.00614489710865, -10.229806500675648], [-55.00614563193684, -10.229808953013864], [-55.006145868816446, -10.229811500830726], [-55.0061456001496, -10.229814045551512], [-55.00614483475847, -10.22981648960598], [-55.00614360334925, -10.229818738269714], [-55.00614195207922, -10.229820706856088], [-55.006139945316946, -10.229822317117582], [-55.006137660088065, -10.229823509866618], [-55.00613518338844, -10.229824236823836], [-55.006132611198275, -10.229824472363156], [-55.00613004214511, -10.22982420533749], [-55.0061275747098, -10.229823448101078], [-55.006125304545286, -10.229822227453608], [-55.00612331803811, -10.229820592736287], [-55.006121691469104, -10.229818604075586], [-55.00612048822515, -10.229816340501428], [-55.00611975340281, -10.229813887259295], [-55.006119516523405, -10.229811339442454]]]}}, {"type": "Feature", "properties": {"layer": "0 - Cotas", "dxf_type": "CIRCLE", "radius_m": 1.44}, "geometry": {"type": "Polygon", "coordinates": [[[-55.005802042473825, -10.229598029456161], [-55.00580231205538, -10.2295954847417], [-55.005803076529936, -10.229593041586705], [-55.005804308858316, -10.22959079202622], [-55.005805959210456, -10.229588824339983], [-55.005807965977965, -10.229587213176698], [-55.00581025211267, -10.229586021339351], [-55.005812728816245, -10.229585293480483], [-55.005815300998556, -10.229585058847277], [-55.005817870054734, -10.229585324971112], [-55.005820336568945, -10.229586083107716], [-55.005822607648554, -10.22958730285849], [-55.00582459414698, -10.229588938480973], [-55.005826219806046, -10.229590926233156], [-55.00582742395406, -10.229593190717356], [-55.00582815786696, -10.229595643050176], [-55.00582839565669, -10.22959819087238], [-55.005828126075336, -10.2296007355869], [-55.00582736159529, -10.229603179645878], [-55.005826129272634, -10.229605428302563], [-55.00582447892049, -10.229607395988905], [-55.0058224721529, -10.2296090071523], [-55.00582018601241, -10.229610199893582], [-55.00581771022681, -10.229610926854173], [-55.00581513803864, -10.229611162391267], [-55.00581256898791, -10.229610895363466], [-55.00581010155536, -10.229610138125071], [-55.00580783048132, -10.229608917470316], [-55.00580584398289, -10.229607281847706], [-55.00580421832391, -10.229605294095432], [-55.005803014170404, -10.22960303051508], [-55.00580228026335, -10.229600577278344], [-55.005802042473825, -10.229598029456161]]]}}, {"type": "Feature", "properties": {"layer": "0 - Cotas", "dxf_type": "LINE"}, "geometry": {"type": "LineString", "coordinates": [[-54.99269233065475, -10.249944381695116], [-54.9927181615251, -10.249981638148917]]}}, {"type": "Feature", "properties": {"layer": "0 - Cotas", "dxf_type": "LINE"}, "geometry": {"type": "LineString", "coordinates": [[-54.992814112463236, -10.249833883028428], [-54.99284321132286, -10.249868695571875]]}}, {"type": "Feature", "properties": {"layer": "0 - Cotas", "dxf_type": "LINE"}, "geometry": {"type": "LineString", "coordinates": [[-54.99284321132286, -10.249868695571875], [-54.9927181615251, -10.249981638148917]]}}, {"type": "Feature", "properties": {"layer": "0 - Cotas", "dxf_type": "LINE"}, "geometry": {"type": "LineString", "coordinates": [[-54.995198800363255, -10.244399647454475], [-54.99513924269867, -10.244455666849698]]}}, {"type": "Feature", "properties": {"layer": "0 - Cotas", "dxf_type": "LINE"}, "geometry": {"type": "LineString", "coordinates": [[-54.99507912727934, -10.244259806763273], [-54.99501361837886, -10.244308877147441]]}}, {"type": "Feature", "properties": {"layer": "0 - Cotas", "dxf_type": "LINE"}, "geometry": {"type": "LineString", "coordinates": [[-54.98664914931051, -10.245454275401656], [-54.98644951407646, -10.245219007528442]]}}, {"type": "Feature", "properties": {"layer": "0 - Cotas", "dxf_type": "LINE"}, "geometry": {"type": "LineString", "coordinates": [[-54.988046373862474, -10.244291131334554], [-54.98784673889894, -10.244055865156078]]}}, {"type": "Feature", "properties": {"layer": "0 - Cotas", "dxf_type": "LINE"}, "geometry": {"type": "LineString", "coordinates": [[-54.98784673889894, -10.244055865156078], [-54.98644951407646, -10.245219007528442]]}}, {"type": "Feature", "properties": {"layer": "0 - Cotas", "dxf_type": "LINE"}, "geometry": {"type": "LineString", "coordinates": [[-54.98775866476955, -10.243952070939386], [-54.986361440222126, -10.245115213869228]]}}, {"type": "Feature", "properties": {"layer": "0 - Cotas", "dxf_type": "LINE"}, "geometry": {"type": "LineString", "coordinates": [[-54.99509019654962, -10.243693803864986], [-54.99500962882745, -10.243763203722214]]}}, {"type": "Feature", "properties": {"layer": "0 - Cotas", "dxf_type": "LINE"}, "geometry": {"type": "LineString", "coordinates": [[-54.99431190793242, -10.245339675665829], [-54.994237369796664, -10.245419141425558]]}}, {"type": "Feature", "properties": {"layer": "0 - Cotas", "dxf_type": "LINE"}, "geometry": {"type": "LineString", "coordinates": [[-54.994237369796664, -10.245419141425558], [-54.99436956661366, -10.245562748599426]]}}, {"type": "Feature", "properties": {"layer": "0 - Cotas", "dxf_type": "LINE"}, "geometry": {"type": "LineString", "coordinates": [[-54.99431190793242, -10.245339675665829], [-54.9944004989403, -10.245437034923063]]}}, {"type": "Feature", "properties": {"layer": "0 - Cotas", "dxf_type": "LINE"}, "geometry": {"type": "LineString", "coordinates": [[-54.9944004989403, -10.245437034923063], [-54.99452213182626, -10.245623394735633]]}}, {"type": "Feature", "properties": {"layer": "0 - Cotas", "dxf_type": "LINE"}, "geometry": {"type": "LineString", "coordinates": [[-54.99436956661366, -10.245562748599426], [-54.9944392076963, -10.245496342286339]]}}, {"type": "Feature", "properties": {"layer": "0 - Cotas", "dxf_type": "LINE"}, "geometry": {"type": "LineString", "coordinates": [[-54.99436956661366, -10.245562748599426], [-54.99431409299399, -10.24561564461125]]}}, {"type": "Feature", "properties": {"layer": "0 - Cotas", "dxf_type": "LINE"}, "geometry": {"type": "LineString", "coordinates": [[-54.994967835709616, -10.243650866922732], [-54.99492059130065, -10.243590121291172]]}}, {"type": "Feature", "properties": {"layer": "0 - Cotas", "dxf_type": "LINE"}, "geometry": {"type": "LineString", "coordinates": [[-54.99509019654962, -10.243693803864986], [-54.99501100610942, -10.24376201723048]]}}, {"type": "Feature", "properties": {"layer": "0 - Cotas", "dxf_type": "LINE"}, "geometry": {"type": "LineString", "coordinates": [[-54.994838774895456, -10.243773379529202], [-54.994931015892455, -10.243685818699877]]}}, {"type": "Feature", "properties": {"layer": "0 - Cotas", "dxf_type": "LINE"}, "geometry": {"type": "LineString", "coordinates": [[-54.99509019654962, -10.243693803864986], [-54.99501100610942, -10.24376201723048]]}}, {"type": "Feature", "properties": {"layer": "0 - Cotas", "dxf_type": "LINE"}, "geometry": {"type": "LineString", "coordinates": [[-54.99493801298345, -10.243679119495562], [-54.99500962882745, -10.243763203722214]]}}, {"type": "Feature", "properties": {"layer": "0 - Cotas", "dxf_type": "LINE"}, "geometry": {"type": "LineString", "coordinates": [[-54.99130593941044, -10.243607541768151], [-54.991233525470534, -10.243520239447403]]}}, {"type": "Feature", "properties": {"layer": "0 - Cotas", "dxf_type": "LINE"}, "geometry": {"type": "LineString", "coordinates": [[-54.99095337260886, -10.243894441553064], [-54.99088095782393, -10.24380713825162]]}}, {"type": "Feature", "properties": {"layer": "0 - Cotas", "dxf_type": "LINE"}, "geometry": {"type": "LineString", "coordinates": [[-54.99088095782393, -10.24380713825162], [-54.991233525470534, -10.243520239447403]]}}, {"type": "Feature", "properties": {"layer": "0 - Cotas", "dxf_type": "LINE"}, "geometry": {"type": "LineString", "coordinates": [[-54.98628489561529, -10.242215249535022], [-54.986075313816556, -10.242389720168548]]}}, {"type": "Feature", "properties": {"layer": "0 - Cotas", "dxf_type": "LINE"}, "geometry": {"type": "LineString", "coordinates": [[-54.98657847439084, -10.242561230366102], [-54.98636889153915, -10.242735701167131]]}}, {"type": "Feature", "properties": {"layer": "0 - Cotas", "dxf_type": "LINE"}, "geometry": {"type": "LineString", "coordinates": [[-54.98636889153915, -10.242735701167131], [-54.986075313816556, -10.242389720168548]]}}, {"type": "Feature", "properties": {"layer": "0 - Cotas", "dxf_type": "LINE"}, "geometry": {"type": "LineString", "coordinates": [[-54.98622210305715, -10.242562710689493], [-54.98643263064822, -10.242389354028205]]}}, {"type": "Feature", "properties": {"layer": "0 - Cotas", "dxf_type": "LINE"}, "geometry": {"type": "LineString", "coordinates": [[-54.99813148647861, -10.237205844452621], [-54.998086638251834, -10.23714878580784]]}}, {"type": "Feature", "properties": {"layer": "0 - Cotas", "dxf_type": "LINE"}, "geometry": {"type": "LineString", "coordinates": [[-54.99833690318728, -10.237037347807263], [-54.99829212646684, -10.236980233584594]]}}, {"type": "Feature", "properties": {"layer": "0 - Cotas", "dxf_type": "LINE"}, "geometry": {"type": "LineString", "coordinates": [[-54.998086638251834, -10.23714878580784], [-54.99812913253067, -10.237202848827728]]}}, {"type": "Feature", "properties": {"layer": "0 - Cotas", "dxf_type": "LINE"}, "geometry": {"type": "LineString", "coordinates": [[-54.99829212646684, -10.236980233584594], [-54.99833455199273, -10.237034349488876]]}}, {"type": "Feature", "properties": {"layer": "0 - Cotas", "dxf_type": "LINE"}, "geometry": {"type": "LineString", "coordinates": [[-54.99812913253067, -10.237202848827728], [-54.99833455199273, -10.237034349488876]]}}, {"type": "Feature", "properties": {"layer": "0 - Cotas", "dxf_type": "LINE"}, "geometry": {"type": "LineString", "coordinates": [[-54.99812913253067, -10.237202848827728], [-54.99822202255589, -10.237314433076072]]}}, {"type": "Feature", "properties": {"layer": "0 - Cotas", "dxf_type": "LINE"}, "geometry": {"type": "LineString", "coordinates": [[-54.99833455199273, -10.237034349488876], [-54.99841778524964, -10.237153175267498]]}}, {"type": "Feature", "properties": {"layer": "0 - Cotas", "dxf_type": "LINE"}, "geometry": {"type": "LineString", "coordinates": [[-54.99841778524964, -10.237153175267498], [-54.99822202255589, -10.237314433076072]]}}, {"type": "Feature", "properties": {"layer": "0 - Cotas", "dxf_type": "LINE"}, "geometry": {"type": "LineString", "coordinates": [[-54.99791689937615, -10.236932837978], [-54.997972960505166, -10.23700416085288]]}}, {"type": "Feature", "properties": {"layer": "0 - Cotas", "dxf_type": "LINE"}, "geometry": {"type": "LineString", "coordinates": [[-54.997972960505166, -10.23700416085288], [-54.99801220358003, -10.23705408740622]]}}, {"type": "Feature", "properties": {"layer": "0 - Cotas", "dxf_type": "LINE"}, "geometry": {"type": "LineString", "coordinates": [[-54.99791689937615, -10.236932837978], [-54.99798641513909, -10.237021278992657]]}}, {"type": "Feature", "properties": {"layer": "0 - Cotas", "dxf_type": "LINE"}, "geometry": {"type": "LineString", "coordinates": [[-54.998121344450915, -10.236762387520228], [-54.998190746544395, -10.236850915476754]]}}, {"type": "Feature", "properties": {"layer": "0 - Cotas", "dxf_type": "LINE"}, "geometry": {"type": "LineString", "coordinates": [[-54.998190746544395, -10.236850915476754], [-54.99798641513909, -10.237021278992657]]}}, {"type": "Feature", "properties": {"layer": "0 - Cotas", "dxf_type": "LINE"}, "geometry": {"type": "LineString", "coordinates": [[-54.99798641513909, -10.237021278992657], [-54.99805364799552, -10.237106898364406]]}}, {"type": "Feature", "properties": {"layer": "0 - Cotas", "dxf_type": "LINE"}, "geometry": {"type": "LineString", "coordinates": [[-54.998190746544395, -10.236850915476754], [-54.99825791066073, -10.236936587719033]]}}, {"type": "Feature", "properties": {"layer": "0 - Cotas", "dxf_type": "LINE"}, "geometry": {"type": "LineString", "coordinates": [[-54.99798641513909, -10.237021278992657], [-54.99804247629769, -10.237092601861082]]}}, {"type": "Feature", "properties": {"layer": "0 - Cotas", "dxf_type": "LINE"}, "geometry": {"type": "LineString", "coordinates": [[-54.998190746544395, -10.236850915476754], [-54.9982467169422, -10.236922309165019]]}}, {"type": "Feature", "properties": {"layer": "0 - Cotas", "dxf_type": "LINE"}, "geometry": {"type": "LineString", "coordinates": [[-54.9982467169422, -10.236922309165019], [-54.99804247629769, -10.237092601861082]]}}, {"type": "Feature", "properties": {"layer": "0 - Cotas", "dxf_type": "LINE"}, "geometry": {"type": "LineString", "coordinates": [[-54.99607060732927, -10.231238376077904], [-54.996139805880496, -10.2313224438682]]}}, {"type": "Feature", "properties": {"layer": "0 - Cotas", "dxf_type": "LINE"}, "geometry": {"type": "LineString", "coordinates": [[-54.99595371568988, -10.23147663562807], [-54.996139805880496, -10.2313224438682]]}}, {"type": "Feature", "properties": {"layer": "0 - Cotas", "dxf_type": "LINE"}, "geometry": {"type": "LineString", "coordinates": [[-54.995711597388684, -10.231534351881054], [-54.99580518500816, -10.231651187963925]]}}, {"type": "Feature", "properties": {"layer": "0 - Cotas", "dxf_type": "LINE"}, "geometry": {"type": "LineString", "coordinates": [[-54.995881008561156, -10.231389622009782], [-54.995977088244686, -10.231504455834553]]}}, {"type": "Feature", "properties": {"layer": "0 - Cotas", "dxf_type": "LINE"}, "geometry": {"type": "LineString", "coordinates": [[-54.995711597388684, -10.231534351881054], [-54.9958590692071, -10.231718457027757]]}}, {"type": "Feature", "properties": {"layer": "0 - Cotas", "dxf_type": "LINE"}, "geometry": {"type": "LineString", "coordinates": [[-54.9960172577956, -10.231552464617778], [-54.99603711700063, -10.231578386648186]]}}, {"type": "Feature", "properties": {"layer": "0 - Cotas", "dxf_type": "LINE"}, "geometry": {"type": "LineString", "coordinates": [[-54.995711597388684, -10.231534351881054], [-54.9958590692071, -10.231718457027757]]}}, {"type": "Feature", "properties": {"layer": "0 - Cotas", "dxf_type": "LINE"}, "geometry": {"type": "LineString", "coordinates": [[-54.99603161725341, -10.231571207278586], [-54.9958590692071, -10.231718457027757]]}}, {"type": "Feature", "properties": {"layer": "0 - Cotas", "dxf_type": "LINE"}, "geometry": {"type": "LineString", "coordinates": [[-54.995711597388684, -10.231534351881054], [-54.99578533328041, -10.231626404007017]]}}, {"type": "Feature", "properties": {"layer": "0 - Cotas", "dxf_type": "LINE"}, "geometry": {"type": "LineString", "coordinates": [[-54.99603161725341, -10.231571207278586], [-54.99621533185731, -10.231414428289607]]}}, {"type": "Feature", "properties": {"layer": "0 - Cotas", "dxf_type": "LINE"}, "geometry": {"type": "LineString", "coordinates": [[-54.99595371568988, -10.23147663562807], [-54.995956630524795, -10.231480113790413]]}}, {"type": "Feature", "properties": {"layer": "0 - Cotas", "dxf_type": "LINE"}, "geometry": {"type": "LineString", "coordinates": [[-54.995956630524795, -10.231480113790413], [-54.99578533328041, -10.231626404007017]]}}, {"type": "Feature", "properties": {"layer": "0 - Cotas", "dxf_type": "LINE"}, "geometry": {"type": "LineString", "coordinates": [[-54.99460450957141, -10.236477872030495], [-54.99448864723809, -10.23633818892402]]}}, {"type": "Feature", "properties": {"layer": "0 - Cotas", "dxf_type": "LINE"}, "geometry": {"type": "LineString", "coordinates": [[-54.99449169100062, -10.236569681311789], [-54.994375829611485, -10.236429998174524]]}}, {"type": "Feature", "properties": {"layer": "0 - Cotas", "dxf_type": "LINE"}, "geometry": {"type": "LineString", "coordinates": [[-54.994375829611485, -10.236429998174524], [-54.99448864723809, -10.23633818892402]]}}, {"type": "Feature", "properties": {"layer": "0 - Cotas", "dxf_type": "LINE"}, "geometry": {"type": "LineString", "coordinates": [[-54.996060376006696, -10.246662990489108], [-54.995950775816965, -10.246745830880837]]}}, {"type": "Feature", "properties": {"layer": "0 - Cotas", "dxf_type": "LINE"}, "geometry": {"type": "LineString", "coordinates": [[-54.99600557591574, -10.24670441114294], [-54.9958345308339, -10.246414816490605]]}}, {"type": "Feature", "properties": {"layer": "0 - Cotas", "dxf_type": "LINE"}, "geometry": {"type": "LineString", "coordinates": [[-54.99452190991132, -10.232896874252308], [-54.99444783305444, -10.232805090030588]]}}, {"type": "Feature", "properties": {"layer": "0 - Cotas", "dxf_type": "LINE"}, "geometry": {"type": "LineString", "coordinates": [[-54.99444783305444, -10.232805090030588], [-54.99455397222215, -10.232719471891699]]}}, {"type": "Feature", "properties": {"layer": "0 - Cotas", "dxf_type": "LINE"}, "geometry": {"type": "LineString", "coordinates": [[-54.99444783305444, -10.232805090030588], [-54.994379448311996, -10.232720371580635]]}}, {"type": "Feature", "properties": {"layer": "0 - Cotas", "dxf_type": "LINE"}, "geometry": {"type": "LineString", "coordinates": [[-54.99462473225094, -10.2326623922068], [-54.99455397222215, -10.232719471891699]]}}, {"type": "Feature", "properties": {"layer": "0 - Cotas", "dxf_type": "LINE"}, "geometry": {"type": "LineString", "coordinates": [[-54.99455635389373, -10.232577669310158], [-54.994379448311996, -10.232720371580635]]}}, {"type": "Feature", "properties": {"layer": "0 - Cotas", "dxf_type": "LINE"}, "geometry": {"type": "LineString", "coordinates": [[-54.99452190991132, -10.232896874252308], [-54.99469880914134, -10.232754176392334]]}}, {"type": "Feature", "properties": {"layer": "0 - Cotas", "dxf_type": "LINE"}, "geometry": {"type": "LineString", "coordinates": [[-54.99437945472817, -10.232720367100569], [-54.99455635389373, -10.232577669310158]]}}, {"type": "Feature", "properties": {"layer": "0 - Cotas", "dxf_type": "LINE"}, "geometry": {"type": "LineString", "coordinates": [[-54.99469880914134, -10.232754176392334], [-54.994545780934644, -10.232564568703452]]}}, {"type": "Feature", "properties": {"layer": "0 - Cotas", "dxf_type": "LINE"}, "geometry": {"type": "LineString", "coordinates": [[-54.99488278366926, -10.232605770334995], [-54.994790796425846, -10.232679973380908]]}}, {"type": "Feature", "properties": {"layer": "0 - Cotas", "dxf_type": "LINE"}, "geometry": {"type": "LineString", "coordinates": [[-54.994790796425846, -10.232679973380908], [-54.9946670892399, -10.232529455714078]]}}, {"type": "Feature", "properties": {"layer": "0 - Cotas", "dxf_type": "LINE"}, "geometry": {"type": "LineString", "coordinates": [[-54.99575219558487, -10.245896552176639], [-54.99582041134964, -10.245982428650018]]}}, {"type": "Feature", "properties": {"layer": "0 - Cotas", "dxf_type": "LINE"}, "geometry": {"type": "LineString", "coordinates": [[-54.988570737365514, -10.242089828715855], [-54.98849832456284, -10.24200252508219]]}}, {"type": "Feature", "properties": {"layer": "0 - Cotas", "dxf_type": "LINE"}, "geometry": {"type": "LineString", "coordinates": [[-54.988073345178194, -10.242202117990056], [-54.988145757880815, -10.242289421703896]]}}, {"type": "Feature", "properties": {"layer": "0 - Cotas", "dxf_type": "LINE"}, "geometry": {"type": "LineString", "coordinates": [[-54.988145757880815, -10.242289421703896], [-54.98849832456284, -10.24200252508219]]}}, {"type": "Feature", "properties": {"layer": "0 - Cotas", "dxf_type": "LINE"}, "geometry": {"type": "LineString", "coordinates": [[-54.99293754518384, -10.23923822902318], [-54.992986903548335, -10.23919806231596]]}}, {"type": "Feature", "properties": {"layer": "0 - Cotas", "dxf_type": "LINE"}, "geometry": {"type": "LineString", "coordinates": [[-54.992986903548335, -10.23919806231596], [-54.9930362618952, -10.239157896502666]]}}, {"type": "Feature", "properties": {"layer": "0 - Cotas", "dxf_type": "LINE"}, "geometry": {"type": "LineString", "coordinates": [[-54.9930362618952, -10.239157896502666], [-54.99308562023577, -10.239117729775522]]}}, {"type": "Feature", "properties": {"layer": "0 - Cotas", "dxf_type": "LINE"}, "geometry": {"type": "LineString", "coordinates": [[-54.99308562023577, -10.239117729775522], [-54.993134978564385, -10.239077563038446]]}}, {"type": "Feature", "properties": {"layer": "0 - Cotas", "dxf_type": "LINE"}, "geometry": {"type": "LineString", "coordinates": [[-54.99285064802586, -10.239133466224825], [-54.992900006379976, -10.239093299529554]]}}, {"type": "Feature", "properties": {"layer": "0 - Cotas", "dxf_type": "LINE"}, "geometry": {"type": "LineString", "coordinates": [[-54.992900006379976, -10.239093299529554], [-54.992949364716445, -10.239053133728214]]}}, {"type": "Feature", "properties": {"layer": "0 - Cotas", "dxf_type": "LINE"}, "geometry": {"type": "LineString", "coordinates": [[-54.992949364716445, -10.239053133728214], [-54.99299872304664, -10.23901296701304]]}}, {"type": "Feature", "properties": {"layer": "0 - Cotas", "dxf_type": "LINE"}, "geometry": {"type": "LineString", "coordinates": [[-54.99299872304664, -10.23901296701304], [-54.99304808136487, -10.238972800287897]]}}, {"type": "Feature", "properties": {"layer": "0 - Cotas", "dxf_type": "LINE"}, "geometry": {"type": "LineString", "coordinates": [[-54.99469880914134, -10.232754176392334], [-54.99461035954816, -10.232825524886312]]}}, {"type": "Feature", "properties": {"layer": "0 - Cotas", "dxf_type": "LINE"}, "geometry": {"type": "LineString", "coordinates": [[-54.99462473225094, -10.2326623922068], [-54.99453628266884, -10.232733741586578]]}}, {"type": "Feature", "properties": {"layer": "0 - Cotas", "dxf_type": "LINE"}, "geometry": {"type": "LineString", "coordinates": [[-54.99453628266884, -10.232733741586578], [-54.99461035954816, -10.232825524886312]]}}, {"type": "Feature", "properties": {"layer": "0 - Cotas", "dxf_type": "LINE"}, "geometry": {"type": "LineString", "coordinates": [[-54.97525095300264, -10.237038391941518], [-54.974560721131866, -10.236196312454462]]}}, {"type": "Feature", "properties": {"layer": "0 - Cotas", "dxf_type": "LINE"}, "geometry": {"type": "LineString", "coordinates": [[-54.974560721131866, -10.236196312454462], [-54.97498417514124, -10.235852505925596]]}}, {"type": "Feature", "properties": {"layer": "0 - Cotas", "dxf_type": "LINE"}, "geometry": {"type": "LineString", "coordinates": [[-54.994897358155356, -10.235739585158038], [-54.99500611915444, -10.235643092742748]]}}, {"type": "Feature", "properties": {"layer": "0 - Cotas", "dxf_type": "LINE"}, "geometry": {"type": "LineString", "coordinates": [[-54.995321597736236, -10.235986507675094], [-54.99525519263758, -10.23591194255792]]}}, {"type": "Feature", "properties": {"layer": "0 - Cotas", "dxf_type": "LINE"}, "geometry": {"type": "LineString", "coordinates": [[-54.99525519263758, -10.23591194255792], [-54.995138729785324, -10.23601781369845]]}}]}