{"type": "FeatureCollection", "name": "0_divisao_dos_terrenos", "crs": {"type": "name", "properties": {"name": "urn:ogc:def:crs:OGC:1.3:CRS84"}}, "properties": {"source": "8be78050_MAPA TRIBUTAÇÃO 2021 (1).dxf", "assumed_crs": "EPSG:4326", "local_crs": false, "note": "Coordenadas locais do desenho (sem CRS). Use base 'Só CAD' no mapa.", "extent": [4300.4554, 2373.7696, 8215.3349, 6186.7838], "georef": true, "transform": {"scale": 1, "rotation_deg": 0, "tx": 713717.6034368816, "ty": 8862616.121289995, "rmse_m": 0, "epsg": 31981}, "layer": "0 - DIVISÃO DOS TERRENOS", "source_file": "8be78050_MAPA TRIBUTAÇÃO 2021 (1)_georef.geojson", "n_features": 172}, "features": [{"type": "Feature", "properties": {"layer": "0 - DIVISÃO DOS TERRENOS", "dxf_type": "LINE"}, "geometry": {"type": "LineString", "coordinates": [[-54.99394094071769, -10.2361341174799], [-54.99339802832419, -10.235497472466662]]}}, {"type": "Feature", "properties": {"layer": "0 - DIVISÃO DOS TERRENOS", "dxf_type": "LINE"}, "geometry": {"type": "LineString", "coordinates": [[-54.99339802832419, -10.235497472466662], [-54.99309168241913, -10.235761524056434]]}}, {"type": "Feature", "properties": {"layer": "0 - DIVISÃO DOS TERRENOS", "dxf_type": "LINE"}, "geometry": {"type": "LineString", "coordinates": [[-54.99309168241913, -10.235761524056434], [-54.99363647352197, -10.236401644955334]]}}, {"type": "Feature", "properties": {"layer": "0 - DIVISÃO DOS TERRENOS", "dxf_type": "LINE"}, "geometry": {"type": "LineString", "coordinates": [[-54.99394094071769, -10.2361341174799], [-54.99399982757494, -10.236203170450588]]}}, {"type": "Feature", "properties": {"layer": "0 - DIVISÃO DOS TERRENOS", "dxf_type": "LINE"}, "geometry": {"type": "LineString", "coordinates": [[-54.99363647352197, -10.236401644955334], [-54.993695291535886, -10.236470755403664]]}}, {"type": "Feature", "properties": {"layer": "0 - DIVISÃO DOS TERRENOS", "dxf_type": "LINE"}, "geometry": {"type": "LineString", "coordinates": [[-54.993695291535886, -10.236470755403664], [-54.99399982757494, -10.236203170450588]]}}, {"type": "Feature", "properties": {"layer": "0 - DIVISÃO DOS TERRENOS", "dxf_type": "LINE"}, "geometry": {"type": "LineString", "coordinates": [[-54.99394094071769, -10.2361341174799], [-54.99363647352197, -10.236401644955334]]}}, {"type": "Feature", "properties": {"layer": "0 - DIVISÃO DOS TERRENOS", "dxf_type": "LINE"}, "geometry": {"type": "LineString", "coordinates": [[-54.99388457594565, -10.236068020510151], [-54.993575377200045, -10.236329858402508]]}}, {"type": "Feature", "properties": {"layer": "0 - DIVISÃO DOS TERRENOS", "dxf_type": "LINE"}, "geometry": {"type": "LineString", "coordinates": [[-54.993824695352146, -10.235997802572642], [-54.993513816186756, -10.236257524816601]]}}, {"type": "Feature", "properties": {"layer": "0 - DIVISÃO DOS TERRENOS", "dxf_type": "LINE"}, "geometry": {"type": "LineString", "coordinates": [[-54.9937674691034, -10.235930696022473], [-54.99345507887494, -10.236188508854575]]}}, {"type": "Feature", "properties": {"layer": "0 - DIVISÃO DOS TERRENOS", "dxf_type": "LINE"}, "geometry": {"type": "LineString", "coordinates": [[-54.99370567256682, -10.23585823086067], [-54.9933960978959, -10.236119207552326]]}}, {"type": "Feature", "properties": {"layer": "0 - DIVISÃO DOS TERRENOS", "dxf_type": "LINE"}, "geometry": {"type": "LineString", "coordinates": [[-54.99364129422174, -10.235782737905646], [-54.99333469729498, -10.23604706385543]]}}, {"type": "Feature", "properties": {"layer": "0 - DIVISÃO DOS TERRENOS", "dxf_type": "LINE"}, "geometry": {"type": "LineString", "coordinates": [[-54.99358506363854, -10.235716799015254], [-54.99327637223951, -10.235978532207103]]}}, {"type": "Feature", "properties": {"layer": "0 - DIVISÃO DOS TERRENOS", "dxf_type": "LINE"}, "geometry": {"type": "LineString", "coordinates": [[-54.993519534848716, -10.235639956628725], [-54.99321059351409, -10.235901243492382]]}}, {"type": "Feature", "properties": {"layer": "0 - DIVISÃO DOS TERRENOS", "dxf_type": "LINE"}, "geometry": {"type": "LineString", "coordinates": [[-54.993458821886286, -10.23556876180343], [-54.993153346522085, -10.235833978546431]]}}, {"type": "Feature", "properties": {"layer": "0 - DIVISÃO DOS TERRENOS", "dxf_type": "LINE"}, "geometry": {"type": "LineString", "coordinates": [[-54.99421049189101, -10.236037545547791], [-54.994452321347325, -10.235836675202078]]}}, {"type": "Feature", "properties": {"layer": "0 - DIVISÃO DOS TERRENOS", "dxf_type": "LINE"}, "geometry": {"type": "LineString", "coordinates": [[-54.994366453276314, -10.235719491189274], [-54.99383243871503, -10.235122979783052]]}}, {"type": "Feature", "properties": {"layer": "0 - DIVISÃO DOS TERRENOS", "dxf_type": "LINE"}, "geometry": {"type": "LineString", "coordinates": [[-54.99383243871503, -10.235122979783052], [-54.993596660680595, -10.235317934692082]]}}, {"type": "Feature", "properties": {"layer": "0 - DIVISÃO DOS TERRENOS", "dxf_type": "LINE"}, "geometry": {"type": "LineString", "coordinates": [[-54.993596660680595, -10.235317934692082], [-54.99421049189101, -10.236037545547791]]}}, {"type": "Feature", "properties": {"layer": "0 - DIVISÃO DOS TERRENOS", "dxf_type": "LINE"}, "geometry": {"type": "LineString", "coordinates": [[-54.994366453276314, -10.235719491189274], [-54.99446324082097, -10.235827605662125]]}}, {"type": "Feature", "properties": {"layer": "0 - DIVISÃO DOS TERRENOS", "dxf_type": "LINE"}, "geometry": {"type": "LineString", "coordinates": [[-54.994452321347325, -10.235836675202078], [-54.99446324082097, -10.235827605662125]]}}, {"type": "Feature", "properties": {"layer": "0 - DIVISÃO DOS TERRENOS", "dxf_type": "LINE"}, "geometry": {"type": "LineString", "coordinates": [[-54.993596660680595, -10.235317934692082], [-54.99365555650571, -10.23538698051073]]}}, {"type": "Feature", "properties": {"layer": "0 - DIVISÃO DOS TERRENOS", "dxf_type": "LINE"}, "geometry": {"type": "LineString", "coordinates": [[-54.99368167838611, -10.235417603730637], [-54.99392179125709, -10.23522279028691]]}}, {"type": "Feature", "properties": {"layer": "0 - DIVISÃO DOS TERRENOS", "dxf_type": "LINE"}, "geometry": {"type": "LineString", "coordinates": [[-54.99374063132269, -10.235486715878661], [-54.99397843648498, -10.235286064200617]]}}, {"type": "Feature", "properties": {"layer": "0 - DIVISÃO DOS TERRENOS", "dxf_type": "LINE"}, "geometry": {"type": "LineString", "coordinates": [[-54.994037463280996, -10.23535199947286], [-54.99380000552887, -10.235556322351142]]}}, {"type": "Feature", "properties": {"layer": "0 - DIVISÃO DOS TERRENOS", "dxf_type": "LINE"}, "geometry": {"type": "LineString", "coordinates": [[-54.99385591918664, -10.235621871471507], [-54.99409944529836, -10.23542123509614]]}}, {"type": "Feature", "properties": {"layer": "0 - DIVISÃO DOS TERRENOS", "dxf_type": "LINE"}, "geometry": {"type": "LineString", "coordinates": [[-54.993916645965136, -10.23569306361392], [-54.994162178596966, -10.235491310567244]]}}, {"type": "Feature", "properties": {"layer": "0 - DIVISÃO DOS TERRENOS", "dxf_type": "LINE"}, "geometry": {"type": "LineString", "coordinates": [[-54.9939744838258, -10.235760868119108], [-54.99422016693876, -10.23555608510986]]}}, {"type": "Feature", "properties": {"layer": "0 - DIVISÃO DOS TERRENOS", "dxf_type": "LINE"}, "geometry": {"type": "LineString", "coordinates": [[-54.994041799353774, -10.235839783298673], [-54.99429454618236, -10.235639168379123]]}}, {"type": "Feature", "properties": {"layer": "0 - DIVISÃO DOS TERRENOS", "dxf_type": "LINE"}, "geometry": {"type": "LineString", "coordinates": [[-54.99409332033621, -10.235900183693957], [-54.994340481789465, -10.235690479724193]]}}, {"type": "Feature", "properties": {"layer": "0 - DIVISÃO DOS TERRENOS", "dxf_type": "LINE"}, "geometry": {"type": "LineString", "coordinates": [[-54.99415065367675, -10.235967396617458], [-54.99440118524961, -10.235758287370473]]}}, {"type": "Feature", "properties": {"layer": "0 - DIVISÃO DOS TERRENOS", "dxf_type": "LINE"}, "geometry": {"type": "LineString", "coordinates": [[-54.9942763893587, -10.234741916665609], [-54.99389934657292, -10.235038155164688]]}}, {"type": "Feature", "properties": {"layer": "0 - DIVISÃO DOS TERRENOS", "dxf_type": "LINE"}, "geometry": {"type": "LineString", "coordinates": [[-54.99389934657292, -10.235038155164688], [-54.99453103819836, -10.23576548930134]]}}, {"type": "Feature", "properties": {"layer": "0 - DIVISÃO DOS TERRENOS", "dxf_type": "LINE"}, "geometry": {"type": "LineString", "coordinates": [[-54.99453103819836, -10.23576548930134], [-54.99488491148016, -10.235463365644863]]}}, {"type": "Feature", "properties": {"layer": "0 - DIVISÃO DOS TERRENOS", "dxf_type": "LINE"}, "geometry": {"type": "LineString", "coordinates": [[-54.99488491148016, -10.235463365644863], [-54.9942763893587, -10.234741916665609]]}}, {"type": "Feature", "properties": {"layer": "0 - DIVISÃO DOS TERRENOS", "dxf_type": "LINE"}, "geometry": {"type": "LineString", "coordinates": [[-54.99467016500987, -10.235646708149753], [-54.99440983463578, -10.23534270470519]]}}, {"type": "Feature", "properties": {"layer": "0 - DIVISÃO DOS TERRENOS", "dxf_type": "LINE"}, "geometry": {"type": "LineString", "coordinates": [[-54.99440983463578, -10.23534270470519], [-54.9942700126986, -10.235464942585967]]}}, {"type": "Feature", "properties": {"layer": "0 - DIVISÃO DOS TERRENOS", "dxf_type": "LINE"}, "geometry": {"type": "LineString", "coordinates": [[-54.99440983463578, -10.23534270470519], [-54.994617508136805, -10.235146339353104]]}}, {"type": "Feature", "properties": {"layer": "0 - DIVISÃO DOS TERRENOS", "dxf_type": "LINE"}, "geometry": {"type": "LineString", "coordinates": [[-54.994678785305155, -10.235218988268144], [-54.99432453031259, -10.235527714322673]]}}, {"type": "Feature", "properties": {"layer": "0 - DIVISÃO DOS TERRENOS", "dxf_type": "LINE"}, "geometry": {"type": "LineString", "coordinates": [[-54.99474998685992, -10.235303403222797], [-54.994531589941545, -10.235484885473713]]}}, {"type": "Feature", "properties": {"layer": "0 - DIVISÃO DOS TERRENOS", "dxf_type": "LINE"}, "geometry": {"type": "LineString", "coordinates": [[-54.994374284037036, -10.235585001521649], [-54.99451003133437, -10.235459710347317]]}}, {"type": "Feature", "properties": {"layer": "0 - DIVISÃO DOS TERRENOS", "dxf_type": "LINE"}, "geometry": {"type": "LineString", "coordinates": [[-54.994501746742074, -10.23500909573291], [-54.99414487559311, -10.235320858930423]]}}, {"type": "Feature", "properties": {"layer": "0 - DIVISÃO DOS TERRENOS", "dxf_type": "LINE"}, "geometry": {"type": "LineString", "coordinates": [[-54.99442114363871, -10.234913535295723], [-54.99423268100747, -10.235065885861696]]}}, {"type": "Feature", "properties": {"layer": "0 - DIVISÃO DOS TERRENOS", "dxf_type": "LINE"}, "geometry": {"type": "LineString", "coordinates": [[-54.99423268100747, -10.235065885861696], [-54.994075348136086, -10.234899872574086]]}}, {"type": "Feature", "properties": {"layer": "0 - DIVISÃO DOS TERRENOS", "dxf_type": "LINE"}, "geometry": {"type": "LineString", "coordinates": [[-54.99398850888611, -10.23496810220879], [-54.99412810677515, -10.235126389768254]]}}, {"type": "Feature", "properties": {"layer": "0 - DIVISÃO DOS TERRENOS", "dxf_type": "LINE"}, "geometry": {"type": "LineString", "coordinates": [[-54.99412810677515, -10.235126389768254], [-54.99404029183684, -10.23520044097613]]}}, {"type": "Feature", "properties": {"layer": "0 - DIVISÃO DOS TERRENOS", "dxf_type": "LINE"}, "geometry": {"type": "LineString", "coordinates": [[-54.99412810677515, -10.235126389768254], [-54.99423268100747, -10.235065885861696]]}}, {"type": "Feature", "properties": {"layer": "0 - DIVISÃO DOS TERRENOS", "dxf_type": "LINE"}, "geometry": {"type": "LineString", "coordinates": [[-54.99423268100747, -10.235065885861696], [-54.99432331125267, -10.235164977397888]]}}, {"type": "Feature", "properties": {"layer": "0 - DIVISÃO DOS TERRENOS", "dxf_type": "LINE"}, "geometry": {"type": "LineString", "coordinates": [[-54.99416742953676, -10.234827525316053], [-54.99432691280382, -10.234989710147678]]}}, {"type": "Feature", "properties": {"layer": "0 - DIVISÃO DOS TERRENOS", "dxf_type": "LINE"}, "geometry": {"type": "LineString", "coordinates": [[-54.99414487559311, -10.235320858930423], [-54.994204389006484, -10.23538938239592]]}}, {"type": "Feature", "properties": {"layer": "0 - DIVISÃO DOS TERRENOS", "dxf_type": "LINE"}, "geometry": {"type": "LineString", "coordinates": [[-54.994501746742074, -10.23500909573291], [-54.99456025562317, -10.23507846263351]]}}, {"type": "Feature", "properties": {"layer": "0 - DIVISÃO DOS TERRENOS", "dxf_type": "LINE"}, "geometry": {"type": "LineString", "coordinates": [[-54.99456025562317, -10.23507846263351], [-54.99436107813419, -10.235252482939089]]}}, {"type": "Feature", "properties": {"layer": "0 - DIVISÃO DOS TERRENOS", "dxf_type": "LINE"}, "geometry": {"type": "LineString", "coordinates": [[-54.99398419075365, -10.235516191149976], [-54.99404431677133, -10.23558815693956]]}}, {"type": "Feature", "properties": {"layer": "0 - DIVISÃO DOS TERRENOS", "dxf_type": "LINE"}, "geometry": {"type": "LineString", "coordinates": [[-54.99420700253883, -10.235708654670223], [-54.99413697724515, -10.23562542647718]]}}, {"type": "Feature", "properties": {"layer": "0 - DIVISÃO DOS TERRENOS", "dxf_type": "LINE"}, "geometry": {"type": "LineString", "coordinates": [[-54.99421690155568, -10.235795332195346], [-54.99427751485392, -10.235861510440184]]}}, {"type": "Feature", "properties": {"layer": "0 - DIVISÃO DOS TERRENOS", "dxf_type": "LINE"}, "geometry": {"type": "LineString", "coordinates": [[-54.99467016500987, -10.235646708149753], [-54.994602280303006, -10.235567435233214]]}}, {"type": "Feature", "properties": {"layer": "0 - DIVISÃO DOS TERRENOS", "dxf_type": "LINE"}, "geometry": {"type": "LineString", "coordinates": [[-54.99488491148016, -10.235463365644863], [-54.99481762579203, -10.235383593880352]]}}, {"type": "Feature", "properties": {"layer": "0 - DIVISÃO DOS TERRENOS", "dxf_type": "LINE"}, "geometry": {"type": "LineString", "coordinates": [[-54.99481762579203, -10.235383593880352], [-54.994602280303006, -10.235567435233214]]}}, {"type": "Feature", "properties": {"layer": "0 - DIVISÃO DOS TERRENOS", "dxf_type": "LINE"}, "geometry": {"type": "LineString", "coordinates": [[-54.99442928598803, -10.235324313174203], [-54.994298536463546, -10.235186620059535]]}}, {"type": "Feature", "properties": {"layer": "0 - DIVISÃO DOS TERRENOS", "dxf_type": "LINE"}, "geometry": {"type": "LineString", "coordinates": [[-54.99087093729666, -10.237557000980297], [-54.9910592124151, -10.237395762643635]]}}, {"type": "Feature", "properties": {"layer": "0 - DIVISÃO DOS TERRENOS", "dxf_type": "LINE"}, "geometry": {"type": "LineString", "coordinates": [[-54.9910592124151, -10.237395762643635], [-54.99167472567434, -10.236885742807688]]}}, {"type": "Feature", "properties": {"layer": "0 - DIVISÃO DOS TERRENOS", "dxf_type": "LINE"}, "geometry": {"type": "LineString", "coordinates": [[-54.99167472567434, -10.236885742807688], [-54.99184130605758, -10.237080034670065]]}}, {"type": "Feature", "properties": {"layer": "0 - DIVISÃO DOS TERRENOS", "dxf_type": "LINE"}, "geometry": {"type": "LineString", "coordinates": [[-54.99147997204123, -10.238264536787499], [-54.99087309747241, -10.237602511327607]]}}, {"type": "Feature", "properties": {"layer": "0 - DIVISÃO DOS TERRENOS", "dxf_type": "LINE"}, "geometry": {"type": "LineString", "coordinates": [[-54.99087309747241, -10.237602511327607], [-54.99087093729666, -10.237557000980297]]}}, {"type": "Feature", "properties": {"layer": "0 - DIVISÃO DOS TERRENOS", "dxf_type": "LINE"}, "geometry": {"type": "LineString", "coordinates": [[-54.99147997204123, -10.238264536787499], [-54.99181959294642, -10.237988164511334]]}}, {"type": "Feature", "properties": {"layer": "0 - DIVISÃO DOS TERRENOS", "dxf_type": "LINE"}, "geometry": {"type": "LineString", "coordinates": [[-54.99181959294642, -10.237988164511334], [-54.99120208474698, -10.237277377996516]]}}, {"type": "Feature", "properties": {"layer": "0 - DIVISÃO DOS TERRENOS", "dxf_type": "LINE"}, "geometry": {"type": "LineString", "coordinates": [[-54.99152847747654, -10.237653074721221], [-54.99139297058901, -10.237765652092538]]}}, {"type": "Feature", "properties": {"layer": "0 - DIVISÃO DOS TERRENOS", "dxf_type": "LINE"}, "geometry": {"type": "LineString", "coordinates": [[-54.99139297058901, -10.237765652092538], [-54.9916797874755, -10.238101933942394]]}}, {"type": "Feature", "properties": {"layer": "0 - DIVISÃO DOS TERRENOS", "dxf_type": "LINE"}, "geometry": {"type": "LineString", "coordinates": [[-54.99139297058901, -10.237765652092538], [-54.9910592124151, -10.237395762643635]]}}, {"type": "Feature", "properties": {"layer": "0 - DIVISÃO DOS TERRENOS", "dxf_type": "LINE"}, "geometry": {"type": "LineString", "coordinates": [[-54.99102679696628, -10.237770179511978], [-54.991236538846, -10.237592286941387]]}}, {"type": "Feature", "properties": {"layer": "0 - DIVISÃO DOS TERRENOS", "dxf_type": "LINE"}, "geometry": {"type": "LineString", "coordinates": [[-54.99115995927971, -10.237915442819565], [-54.991376007064495, -10.237746852477287]]}}, {"type": "Feature", "properties": {"layer": "0 - DIVISÃO DOS TERRENOS", "dxf_type": "LINE"}, "geometry": {"type": "LineString", "coordinates": [[-54.99124249660907, -10.238005480346727], [-54.991453326483075, -10.237836417528914]]}}, {"type": "Feature", "properties": {"layer": "0 - DIVISÃO DOS TERRENOS", "dxf_type": "LINE"}, "geometry": {"type": "LineString", "coordinates": [[-54.9913323429196, -10.238103492179084], [-54.99153637895626, -10.237933793487471]]}}, {"type": "Feature", "properties": {"layer": "0 - DIVISÃO DOS TERRENOS", "dxf_type": "LINE"}, "geometry": {"type": "LineString", "coordinates": [[-54.99181959294642, -10.237988164511334], [-54.99228864601209, -10.23760207359911]]}}, {"type": "Feature", "properties": {"layer": "0 - DIVISÃO DOS TERRENOS", "dxf_type": "LINE"}, "geometry": {"type": "LineString", "coordinates": [[-54.99184130605758, -10.237080034670065], [-54.9922873618763, -10.237601948164604]]}}, {"type": "Feature", "properties": {"layer": "0 - DIVISÃO DOS TERRENOS", "dxf_type": "LINE"}, "geometry": {"type": "LineString", "coordinates": [[-54.99152847747654, -10.237653074721221], [-54.99199781076164, -10.237263156014587]]}}, {"type": "Feature", "properties": {"layer": "0 - DIVISÃO DOS TERRENOS", "dxf_type": "LINE"}, "geometry": {"type": "LineString", "coordinates": [[-54.99152847747654, -10.237653074721221], [-54.99166831432673, -10.237536899283766]]}}, {"type": "Feature", "properties": {"layer": "0 - DIVISÃO DOS TERRENOS", "dxf_type": "LINE"}, "geometry": {"type": "LineString", "coordinates": [[-54.99166831432673, -10.237536899283766], [-54.99180815199674, -10.237420722867727]]}}, {"type": "Feature", "properties": {"layer": "0 - DIVISÃO DOS TERRENOS", "dxf_type": "LINE"}, "geometry": {"type": "LineString", "coordinates": [[-54.99180815199674, -10.237420722867727], [-54.991947989562654, -10.237304547275281]]}}, {"type": "Feature", "properties": {"layer": "0 - DIVISÃO DOS TERRENOS", "dxf_type": "LINE"}, "geometry": {"type": "LineString", "coordinates": [[-54.99138658999405, -10.23712449547112], [-54.99170623896317, -10.237505392229988]]}}, {"type": "Feature", "properties": {"layer": "0 - DIVISÃO DOS TERRENOS", "dxf_type": "LINE"}, "geometry": {"type": "LineString", "coordinates": [[-54.991992171214996, -10.23784611113501], [-54.99213226349119, -10.237730236257722]]}}, {"type": "Feature", "properties": {"layer": "0 - DIVISÃO DOS TERRENOS", "dxf_type": "LINE"}, "geometry": {"type": "LineString", "coordinates": [[-54.99170620961362, -10.237505415550755], [-54.99184604725127, -10.237389240016833]]}}, {"type": "Feature", "properties": {"layer": "0 - DIVISÃO DOS TERRENOS", "dxf_type": "LINE"}, "geometry": {"type": "LineString", "coordinates": [[-54.99184604725127, -10.237389240016833], [-54.991526516419796, -10.237008551110991]]}}, {"type": "Feature", "properties": {"layer": "0 - DIVISÃO DOS TERRENOS", "dxf_type": "LINE"}, "geometry": {"type": "LineString", "coordinates": [[-54.991236538846, -10.237592286941387], [-54.991145320383396, -10.237491193310454]]}}, {"type": "Feature", "properties": {"layer": "0 - DIVISÃO DOS TERRENOS", "dxf_type": "LINE"}, "geometry": {"type": "LineString", "coordinates": [[-54.99102679696628, -10.237770179511978], [-54.990934779190795, -10.237669798602326]]}}, {"type": "Feature", "properties": {"layer": "0 - DIVISÃO DOS TERRENOS", "dxf_type": "LINE"}, "geometry": {"type": "LineString", "coordinates": [[-54.990934779190795, -10.237669798602326], [-54.991145320383396, -10.237491193310454]]}}, {"type": "Feature", "properties": {"layer": "0 - DIVISÃO DOS TERRENOS", "dxf_type": "LINE"}, "geometry": {"type": "LineString", "coordinates": [[-54.99029214685743, -10.242385301218924], [-54.99018637714373, -10.242471370456892]]}}, {"type": "Feature", "properties": {"layer": "0 - DIVISÃO DOS TERRENOS", "dxf_type": "LINE"}, "geometry": {"type": "LineString", "coordinates": [[-54.99018637714373, -10.242471370456892], [-54.99004535076952, -10.242586129972333]]}}, {"type": "Feature", "properties": {"layer": "0 - DIVISÃO DOS TERRENOS", "dxf_type": "LINE"}, "geometry": {"type": "LineString", "coordinates": [[-54.99058180085028, -10.242734512725185], [-54.99047603105665, -10.242820582952442]]}}, {"type": "Feature", "properties": {"layer": "0 - DIVISÃO DOS TERRENOS", "dxf_type": "LINE"}, "geometry": {"type": "LineString", "coordinates": [[-54.99047603105665, -10.242820582952442], [-54.99033500458915, -10.24293534167786]]}}, {"type": "Feature", "properties": {"layer": "0 - DIVISÃO DOS TERRENOS", "dxf_type": "LINE"}, "geometry": {"type": "LineString", "coordinates": [[-54.99033500458915, -10.24293534167786], [-54.99004535076952, -10.242586129972333]]}}, {"type": "Feature", "properties": {"layer": "0 - DIVISÃO DOS TERRENOS", "dxf_type": "LINE"}, "geometry": {"type": "LineString", "coordinates": [[-54.99018637714373, -10.242471370456892], [-54.99047603105665, -10.242820582952442]]}}, {"type": "Feature", "properties": {"layer": "0 - DIVISÃO DOS TERRENOS", "dxf_type": "LINE"}, "geometry": {"type": "LineString", "coordinates": [[-54.988715564003584, -10.24226443505788], [-54.988787976920726, -10.242351738664494]]}}, {"type": "Feature", "properties": {"layer": "0 - DIVISÃO DOS TERRENOS", "dxf_type": "LINE"}, "geometry": {"type": "LineString", "coordinates": [[-54.988362996229014, -10.242551330983536], [-54.98843540908425, -10.242638634661287]]}}, {"type": "Feature", "properties": {"layer": "0 - DIVISÃO DOS TERRENOS", "dxf_type": "LINE"}, "geometry": {"type": "LineString", "coordinates": [[-54.98843540908425, -10.242638634661287], [-54.988787976920726, -10.242351738664494]]}}, {"type": "Feature", "properties": {"layer": "0 - DIVISÃO DOS TERRENOS", "dxf_type": "LINE"}, "geometry": {"type": "LineString", "coordinates": [[-54.99484450298103, -10.228535271186654], [-54.9951341641081, -10.228884469403852]]}}, {"type": "Feature", "properties": {"layer": "0 - DIVISÃO DOS TERRENOS", "dxf_type": "LINE"}, "geometry": {"type": "LineString", "coordinates": [[-54.994295008446514, -10.22896443710739], [-54.99459260437137, -10.22930702544537]]}}, {"type": "Feature", "properties": {"layer": "0 - DIVISÃO DOS TERRENOS", "dxf_type": "LINE"}, "geometry": {"type": "LineString", "coordinates": [[-54.99459260437137, -10.22930702544537], [-54.9951341641081, -10.228884469403852]]}}, {"type": "Feature", "properties": {"layer": "0 - DIVISÃO DOS TERRENOS", "dxf_type": "LINE"}, "geometry": {"type": "LineString", "coordinates": [[-54.994295008446514, -10.22896443710739], [-54.99447415458696, -10.228824519704672]]}}, {"type": "Feature", "properties": {"layer": "0 - DIVISÃO DOS TERRENOS", "dxf_type": "LINE"}, "geometry": {"type": "LineString", "coordinates": [[-54.99459260437137, -10.22930702544537], [-54.99477181854095, -10.229167193280217]]}}, {"type": "Feature", "properties": {"layer": "0 - DIVISÃO DOS TERRENOS", "dxf_type": "LINE"}, "geometry": {"type": "LineString", "coordinates": [[-54.99477181854095, -10.229167193280217], [-54.99447415458696, -10.228824519704672]]}}, {"type": "Feature", "properties": {"layer": "0 - DIVISÃO DOS TERRENOS", "dxf_type": "LINE"}, "geometry": {"type": "LineString", "coordinates": [[-54.9951341641081, -10.228884469403852], [-54.9950646452369, -10.228800661699383]]}}, {"type": "Feature", "properties": {"layer": "0 - DIVISÃO DOS TERRENOS", "dxf_type": "LINE"}, "geometry": {"type": "LineString", "coordinates": [[-54.99477181854095, -10.229167193280217], [-54.99470039620649, -10.229084971013226]]}}, {"type": "Feature", "properties": {"layer": "0 - DIVISÃO DOS TERRENOS", "dxf_type": "LINE"}, "geometry": {"type": "LineString", "coordinates": [[-54.9950646452369, -10.228800661699383], [-54.99488545584666, -10.228940524976197]]}}, {"type": "Feature", "properties": {"layer": "0 - DIVISÃO DOS TERRENOS", "dxf_type": "LINE"}, "geometry": {"type": "LineString", "coordinates": [[-54.9951341641081, -10.228884469403852], [-54.994954950235645, -10.229024302735128]]}}, {"type": "Feature", "properties": {"layer": "0 - DIVISÃO DOS TERRENOS", "dxf_type": "LINE"}, "geometry": {"type": "LineString", "coordinates": [[-54.994954950235645, -10.229024302735128], [-54.99488545584666, -10.228940524976197]]}}, {"type": "Feature", "properties": {"layer": "0 - DIVISÃO DOS TERRENOS", "dxf_type": "LINE"}, "geometry": {"type": "LineString", "coordinates": [[-54.97525095300264, -10.237038391941518], [-54.974560721131866, -10.236196312454462]]}}, {"type": "Feature", "properties": {"layer": "0 - DIVISÃO DOS TERRENOS", "dxf_type": "LINE"}, "geometry": {"type": "LineString", "coordinates": [[-54.97525095300264, -10.237038391941518], [-54.97567416322754, -10.23669428750138]]}}, {"type": "Feature", "properties": {"layer": "0 - DIVISÃO DOS TERRENOS", "dxf_type": "LINE"}, "geometry": {"type": "LineString", "coordinates": [[-54.97498417514124, -10.235852505925596], [-54.974560721131866, -10.236196312454462]]}}, {"type": "Feature", "properties": {"layer": "0 - DIVISÃO DOS TERRENOS", "dxf_type": "LINE"}, "geometry": {"type": "LineString", "coordinates": [[-54.97525095300264, -10.237038391941518], [-54.97567416322754, -10.23669428750138]]}}, {"type": "Feature", "properties": {"layer": "0 - DIVISÃO DOS TERRENOS", "dxf_type": "LINE"}, "geometry": {"type": "LineString", "coordinates": [[-54.97498417514124, -10.235852505925596], [-54.97567416322754, -10.23669428750138]]}}, {"type": "Feature", "properties": {"layer": "0 - DIVISÃO DOS TERRENOS", "dxf_type": "LINE"}, "geometry": {"type": "LineString", "coordinates": [[-54.97567416322754, -10.23669428750138], [-54.97498393064222, -10.235852207016972]]}}, {"type": "Feature", "properties": {"layer": "0 - DIVISÃO DOS TERRENOS", "dxf_type": "LINE"}, "geometry": {"type": "LineString", "coordinates": [[-54.97498393064222, -10.235852207016972], [-54.974560721131866, -10.236196312454462]]}}, {"type": "Feature", "properties": {"layer": "0 - DIVISÃO DOS TERRENOS", "dxf_type": "LINE"}, "geometry": {"type": "LineString", "coordinates": [[-54.97525095300264, -10.237038391941518], [-54.97507839493242, -10.236827872598766]]}}, {"type": "Feature", "properties": {"layer": "0 - DIVISÃO DOS TERRENOS", "dxf_type": "LINE"}, "geometry": {"type": "LineString", "coordinates": [[-54.97567416322754, -10.23669428750138], [-54.97550160498155, -10.236483767457361]]}}, {"type": "Feature", "properties": {"layer": "0 - DIVISÃO DOS TERRENOS", "dxf_type": "LINE"}, "geometry": {"type": "LineString", "coordinates": [[-54.97550160498155, -10.236483767457361], [-54.97507839493242, -10.236827872598766]]}}, {"type": "Feature", "properties": {"layer": "0 - DIVISÃO DOS TERRENOS", "dxf_type": "LINE"}, "geometry": {"type": "LineString", "coordinates": [[-54.974560721131866, -10.236196312454462], [-54.97473327854076, -10.236406832852394]]}}, {"type": "Feature", "properties": {"layer": "0 - DIVISÃO DOS TERRENOS", "dxf_type": "LINE"}, "geometry": {"type": "LineString", "coordinates": [[-54.97498417514124, -10.235852505925596], [-54.975156732737695, -10.236063025216994]]}}, {"type": "Feature", "properties": {"layer": "0 - DIVISÃO DOS TERRENOS", "dxf_type": "LINE"}, "geometry": {"type": "LineString", "coordinates": [[-54.975156732737695, -10.236063025216994], [-54.97473327854076, -10.236406832852394]]}}, {"type": "Feature", "properties": {"layer": "0 - DIVISÃO DOS TERRENOS", "dxf_type": "LINE"}, "geometry": {"type": "LineString", "coordinates": [[-54.97494500620805, -10.236234928677282], [-54.975289999610474, -10.236655820116836]]}}, {"type": "Feature", "properties": {"layer": "0 - DIVISÃO DOS TERRENOS", "dxf_type": "LINE"}, "geometry": {"type": "LineString", "coordinates": [[-54.975289999610474, -10.236655820116836], [-54.97522097622477, -10.236571612405013]]}}, {"type": "Feature", "properties": {"layer": "0 - DIVISÃO DOS TERRENOS", "dxf_type": "LINE"}, "geometry": {"type": "LineString", "coordinates": [[-54.97522097622477, -10.236571612405013], [-54.975151952879756, -10.236487403781226]]}}, {"type": "Feature", "properties": {"layer": "0 - DIVISÃO DOS TERRENOS", "dxf_type": "LINE"}, "geometry": {"type": "LineString", "coordinates": [[-54.975151952879756, -10.236487403781226], [-54.97508293047652, -10.236403196058921]]}}, {"type": "Feature", "properties": {"layer": "0 - DIVISÃO DOS TERRENOS", "dxf_type": "LINE"}, "geometry": {"type": "LineString", "coordinates": [[-54.97508293047652, -10.236403196058921], [-54.9750139071957, -10.236318988322868]]}}, {"type": "Feature", "properties": {"layer": "0 - DIVISÃO DOS TERRENOS", "dxf_type": "LINE"}, "geometry": {"type": "LineString", "coordinates": [[-54.97550160498155, -10.236483767457361], [-54.97543258155955, -10.236399559786042]]}}, {"type": "Feature", "properties": {"layer": "0 - DIVISÃO DOS TERRENOS", "dxf_type": "LINE"}, "geometry": {"type": "LineString", "coordinates": [[-54.97543258155955, -10.236399559786042], [-54.975363558178245, -10.236315351202789]]}}, {"type": "Feature", "properties": {"layer": "0 - DIVISÃO DOS TERRENOS", "dxf_type": "LINE"}, "geometry": {"type": "LineString", "coordinates": [[-54.975363558178245, -10.236315351202789], [-54.97529453482617, -10.236231143515326]]}}, {"type": "Feature", "properties": {"layer": "0 - DIVISÃO DOS TERRENOS", "dxf_type": "LINE"}, "geometry": {"type": "LineString", "coordinates": [[-54.97529453482617, -10.236231143515326], [-54.97522551150905, -10.236146935819795]]}}, {"type": "Feature", "properties": {"layer": "0 - DIVISÃO DOS TERRENOS", "dxf_type": "LINE"}, "geometry": {"type": "LineString", "coordinates": [[-54.97522551150905, -10.236146935819795], [-54.9750139071957, -10.236318988322868]]}}, {"type": "Feature", "properties": {"layer": "0 - DIVISÃO DOS TERRENOS", "dxf_type": "LINE"}, "geometry": {"type": "LineString", "coordinates": [[-54.97529453482617, -10.236231143515326], [-54.97508293047652, -10.236403196058921]]}}, {"type": "Feature", "properties": {"layer": "0 - DIVISÃO DOS TERRENOS", "dxf_type": "LINE"}, "geometry": {"type": "LineString", "coordinates": [[-54.975363558178245, -10.236315351202789], [-54.975151952879756, -10.236487403781226]]}}, {"type": "Feature", "properties": {"layer": "0 - DIVISÃO DOS TERRENOS", "dxf_type": "LINE"}, "geometry": {"type": "LineString", "coordinates": [[-54.97543258155955, -10.236399559786042], [-54.97522097622477, -10.236571612405013]]}}, {"type": "Feature", "properties": {"layer": "0 - DIVISÃO DOS TERRENOS", "dxf_type": "LINE"}, "geometry": {"type": "LineString", "coordinates": [[-54.97473327854076, -10.236406832852394], [-54.974802301750316, -10.236491040637036]]}}, {"type": "Feature", "properties": {"layer": "0 - DIVISÃO DOS TERRENOS", "dxf_type": "LINE"}, "geometry": {"type": "LineString", "coordinates": [[-54.974802301750316, -10.236491040637036], [-54.97487132499482, -10.23657524841361]]}}, {"type": "Feature", "properties": {"layer": "0 - DIVISÃO DOS TERRENOS", "dxf_type": "LINE"}, "geometry": {"type": "LineString", "coordinates": [[-54.97487132499482, -10.23657524841361], [-54.9749403482743, -10.236659456182112]]}}, {"type": "Feature", "properties": {"layer": "0 - DIVISÃO DOS TERRENOS", "dxf_type": "LINE"}, "geometry": {"type": "LineString", "coordinates": [[-54.9749403482743, -10.236659456182112], [-54.97500937158875, -10.236743663942526]]}}, {"type": "Feature", "properties": {"layer": "0 - DIVISÃO DOS TERRENOS", "dxf_type": "LINE"}, "geometry": {"type": "LineString", "coordinates": [[-54.97500937158875, -10.236743663942526], [-54.97522097622477, -10.236571612405013]]}}, {"type": "Feature", "properties": {"layer": "0 - DIVISÃO DOS TERRENOS", "dxf_type": "LINE"}, "geometry": {"type": "LineString", "coordinates": [[-54.975151952879756, -10.236487403781226], [-54.9749403482743, -10.236659456182112]]}}, {"type": "Feature", "properties": {"layer": "0 - DIVISÃO DOS TERRENOS", "dxf_type": "LINE"}, "geometry": {"type": "LineString", "coordinates": [[-54.97508293047652, -10.236403196058921], [-54.97487132499482, -10.23657524841361]]}}, {"type": "Feature", "properties": {"layer": "0 - DIVISÃO DOS TERRENOS", "dxf_type": "LINE"}, "geometry": {"type": "LineString", "coordinates": [[-54.9750139071957, -10.236318988322868], [-54.974802301750316, -10.236491040637036]]}}, {"type": "Feature", "properties": {"layer": "0 - DIVISÃO DOS TERRENOS", "dxf_type": "LINE"}, "geometry": {"type": "LineString", "coordinates": [[-54.97550160498155, -10.236483767457361], [-54.97541696322792, -10.23655258800309]]}}, {"type": "Feature", "properties": {"layer": "0 - DIVISÃO DOS TERRENOS", "dxf_type": "LINE"}, "geometry": {"type": "LineString", "coordinates": [[-54.97541696322792, -10.23655258800309], [-54.975332320520884, -10.236621409417697]]}}, {"type": "Feature", "properties": {"layer": "0 - DIVISÃO DOS TERRENOS", "dxf_type": "LINE"}, "geometry": {"type": "LineString", "coordinates": [[-54.975332320520884, -10.236621409417697], [-54.97524767869701, -10.236690229904793]]}}, {"type": "Feature", "properties": {"layer": "0 - DIVISÃO DOS TERRENOS", "dxf_type": "LINE"}, "geometry": {"type": "LineString", "coordinates": [[-54.97524767869701, -10.236690229904793], [-54.97516303683228, -10.236759051266429]]}}, {"type": "Feature", "properties": {"layer": "0 - DIVISÃO DOS TERRENOS", "dxf_type": "LINE"}, "geometry": {"type": "LineString", "coordinates": [[-54.97567416322754, -10.23669428750138], [-54.975589521437605, -10.23676310808763]]}}, {"type": "Feature", "properties": {"layer": "0 - DIVISÃO DOS TERRENOS", "dxf_type": "LINE"}, "geometry": {"type": "LineString", "coordinates": [[-54.975589521437605, -10.23676310808763], [-54.975504879606824, -10.236831929548437]]}}, {"type": "Feature", "properties": {"layer": "0 - DIVISÃO DOS TERRENOS", "dxf_type": "LINE"}, "geometry": {"type": "LineString", "coordinates": [[-54.975504879606824, -10.236831929548437], [-54.9754202368341, -10.236900750070374]]}}, {"type": "Feature", "properties": {"layer": "0 - DIVISÃO DOS TERRENOS", "dxf_type": "LINE"}, "geometry": {"type": "LineString", "coordinates": [[-54.9754202368341, -10.236900750070374], [-54.97533559493307, -10.236969571472551]]}}, {"type": "Feature", "properties": {"layer": "0 - DIVISÃO DOS TERRENOS", "dxf_type": "LINE"}, "geometry": {"type": "LineString", "coordinates": [[-54.97533559493307, -10.236969571472551], [-54.97516303683228, -10.236759051266429]]}}, {"type": "Feature", "properties": {"layer": "0 - DIVISÃO DOS TERRENOS", "dxf_type": "LINE"}, "geometry": {"type": "LineString", "coordinates": [[-54.97524767869701, -10.236690229904793], [-54.9754202368341, -10.236900750070374]]}}, {"type": "Feature", "properties": {"layer": "0 - DIVISÃO DOS TERRENOS", "dxf_type": "LINE"}, "geometry": {"type": "LineString", "coordinates": [[-54.975332320520884, -10.236621409417697], [-54.975504879606824, -10.236831929548437]]}}, {"type": "Feature", "properties": {"layer": "0 - DIVISÃO DOS TERRENOS", "dxf_type": "LINE"}, "geometry": {"type": "LineString", "coordinates": [[-54.97541696322792, -10.23655258800309], [-54.975589521437605, -10.23676310808763]]}}, {"type": "Feature", "properties": {"layer": "0 - DIVISÃO DOS TERRENOS", "dxf_type": "LINE"}, "geometry": {"type": "LineString", "coordinates": [[-54.97498393064222, -10.235852207016972], [-54.97489928899175, -10.235921028345018]]}}, {"type": "Feature", "properties": {"layer": "0 - DIVISÃO DOS TERRENOS", "dxf_type": "LINE"}, "geometry": {"type": "LineString", "coordinates": [[-54.97489928899175, -10.235921028345018], [-54.97481464731189, -10.235989848739875]]}}, {"type": "Feature", "properties": {"layer": "0 - DIVISÃO DOS TERRENOS", "dxf_type": "LINE"}, "geometry": {"type": "LineString", "coordinates": [[-54.97481464731189, -10.235989848739875], [-54.97473000559118, -10.236058670009285]]}}, {"type": "Feature", "properties": {"layer": "0 - DIVISÃO DOS TERRENOS", "dxf_type": "LINE"}, "geometry": {"type": "LineString", "coordinates": [[-54.97473000559118, -10.236058670009285], [-54.974645363841084, -10.23612749034549]]}}, {"type": "Feature", "properties": {"layer": "0 - DIVISÃO DOS TERRENOS", "dxf_type": "LINE"}, "geometry": {"type": "LineString", "coordinates": [[-54.975156732737695, -10.236063025216994], [-54.97507204214643, -10.23613178752699]]}}, {"type": "Feature", "properties": {"layer": "0 - DIVISÃO DOS TERRENOS", "dxf_type": "LINE"}, "geometry": {"type": "LineString", "coordinates": [[-54.97507204214643, -10.23613178752699], [-54.9749873515258, -10.236200548903774]]}}, {"type": "Feature", "properties": {"layer": "0 - DIVISÃO DOS TERRENOS", "dxf_type": "LINE"}, "geometry": {"type": "LineString", "coordinates": [[-54.9749873515258, -10.236200548903774], [-54.97490265995752, -10.23626931024554]]}}, {"type": "Feature", "properties": {"layer": "0 - DIVISÃO DOS TERRENOS", "dxf_type": "LINE"}, "geometry": {"type": "LineString", "coordinates": [[-54.97490265995752, -10.23626931024554], [-54.974817969266695, -10.236338071563646]]}}, {"type": "Feature", "properties": {"layer": "0 - DIVISÃO DOS TERRENOS", "dxf_type": "LINE"}, "geometry": {"type": "LineString", "coordinates": [[-54.974817969266695, -10.236338071563646], [-54.974645363841084, -10.23612749034549]]}}, {"type": "Feature", "properties": {"layer": "0 - DIVISÃO DOS TERRENOS", "dxf_type": "LINE"}, "geometry": {"type": "LineString", "coordinates": [[-54.97473000559118, -10.236058670009285], [-54.97490265995752, -10.23626931024554]]}}, {"type": "Feature", "properties": {"layer": "0 - DIVISÃO DOS TERRENOS", "dxf_type": "LINE"}, "geometry": {"type": "LineString", "coordinates": [[-54.9749873515258, -10.236200548903774], [-54.97481464731189, -10.235989848739875]]}}, {"type": "Feature", "properties": {"layer": "0 - DIVISÃO DOS TERRENOS", "dxf_type": "LINE"}, "geometry": {"type": "LineString", "coordinates": [[-54.97489928899175, -10.235921028345018], [-54.97507204214643, -10.23613178752699]]}}, {"type": "Feature", "properties": {"layer": "0 - DIVISÃO DOS TERRENOS", "dxf_type": "LINE"}, "geometry": {"type": "LineString", "coordinates": [[-54.99277884675218, -10.247831733537794], [-54.99280277318507, -10.247804427424784]]}}, {"type": "Feature", "properties": {"layer": "0 - DIVISÃO DOS TERRENOS", "dxf_type": "LINE"}, "geometry": {"type": "LineString", "coordinates": [[-54.99280277318507, -10.247804427424784], [-54.99298387879804, -10.247975917676083]]}}, {"type": "Feature", "properties": {"layer": "0 - DIVISÃO DOS TERRENOS", "dxf_type": "LINE"}, "geometry": {"type": "LineString", "coordinates": [[-54.99518019586998, -10.24624781347647], [-54.99536503300472, -10.246403197724113]]}}, {"type": "Feature", "properties": {"layer": "0 - DIVISÃO DOS TERRENOS", "dxf_type": "LINE"}, "geometry": {"type": "LineString", "coordinates": [[-54.99536503300472, -10.246403197724113], [-54.995541858315036, -10.246584305118535]]}}, {"type": "Feature", "properties": {"layer": "0 - DIVISÃO DOS TERRENOS", "dxf_type": "LINE"}, "geometry": {"type": "LineString", "coordinates": [[-54.995364044768884, -10.246475621990848], [-54.99550456322743, -10.246612635456923]]}}, {"type": "Feature", "properties": {"layer": "0 - DIVISÃO DOS TERRENOS", "dxf_type": "LINE"}, "geometry": {"type": "LineString", "coordinates": [[-54.995250711519, -10.246195305661374], [-54.99556967204825, -10.246564279395928]]}}, {"type": "Feature", "properties": {"layer": "0 - DIVISÃO DOS TERRENOS", "dxf_type": "LINE"}, "geometry": {"type": "LineString", "coordinates": [[-54.99531872461742, -10.246146013914432], [-54.99528484550731, -10.246170567020192]]}}, {"type": "Feature", "properties": {"layer": "0 - DIVISÃO DOS TERRENOS", "dxf_type": "LINE"}, "geometry": {"type": "LineString", "coordinates": [[-54.99528484550731, -10.246170567020192], [-54.99558664302657, -10.246550490763006]]}}]}