{"type": "FeatureCollection", "name": "0_iptu", "crs": {"type": "name", "properties": {"name": "urn:ogc:def:crs:OGC:1.3:CRS84"}}, "properties": {"source": "8be78050_MAPA TRIBUTAÇÃO 2021 (1).dxf", "assumed_crs": "EPSG:4326", "local_crs": false, "note": "Coordenadas locais do desenho (sem CRS). Use base 'Só CAD' no mapa.", "extent": [4300.4554, 2373.7696, 8215.3349, 6186.7838], "georef": true, "transform": {"scale": 1, "rotation_deg": 0, "tx": 713717.6034368816, "ty": 8862616.121289995, "rmse_m": 0, "epsg": 31981}, "layer": "0 - IPTU", "source_file": "8be78050_MAPA TRIBUTAÇÃO 2021 (1)_georef.geojson", "n_features": 50}, "features": [{"type": "Feature", "properties": {"layer": "0 - IPTU", "dxf_type": "LINE"}, "geometry": {"type": "LineString", "coordinates": [[-54.983515943874295, -10.251475310967855], [-54.98324409281682, -10.251898426812255]]}}, {"type": "Feature", "properties": {"layer": "0 - IPTU", "dxf_type": "LINE"}, "geometry": {"type": "LineString", "coordinates": [[-54.98374522600869, -10.252440871061607], [-54.98324409281682, -10.251898426812255]]}}, {"type": "Feature", "properties": {"layer": "0 - IPTU", "dxf_type": "LINE"}, "geometry": {"type": "LineString", "coordinates": [[-54.983515943874295, -10.251475310967855], [-54.984105774209006, -10.252154836190885]]}}, {"type": "Feature", "properties": {"layer": "0 - IPTU", "dxf_type": "LINE"}, "geometry": {"type": "LineString", "coordinates": [[-54.984023139540334, -10.25222005619225], [-54.984105774209006, -10.252154836190885]]}}, {"type": "Feature", "properties": {"layer": "0 - IPTU", "dxf_type": "LINE"}, "geometry": {"type": "LineString", "coordinates": [[-54.984105774209006, -10.252154836190885], [-54.98392729031734, -10.251949211412107]]}}, {"type": "Feature", "properties": {"layer": "0 - IPTU", "dxf_type": "LINE"}, "geometry": {"type": "LineString", "coordinates": [[-54.98374522600869, -10.252440871061607], [-54.98356040443751, -10.252240814657013]]}}, {"type": "Feature", "properties": {"layer": "0 - IPTU", "dxf_type": "LINE"}, "geometry": {"type": "LineString", "coordinates": [[-54.98356040443751, -10.252240814657013], [-54.9839272205568, -10.251949130530724]]}}, {"type": "Feature", "properties": {"layer": "0 - IPTU", "dxf_type": "LINE"}, "geometry": {"type": "LineString", "coordinates": [[-54.9839272205568, -10.251949130530724], [-54.98385605655668, -10.25200571877299]]}}, {"type": "Feature", "properties": {"layer": "0 - IPTU", "dxf_type": "LINE"}, "geometry": {"type": "LineString", "coordinates": [[-54.98385605655668, -10.25200571877299], [-54.98378489253236, -10.252062306994649]]}}, {"type": "Feature", "properties": {"layer": "0 - IPTU", "dxf_type": "LINE"}, "geometry": {"type": "LineString", "coordinates": [[-54.98378489253236, -10.252062306994649], [-54.98371372848382, -10.252118895195698]]}}, {"type": "Feature", "properties": {"layer": "0 - IPTU", "dxf_type": "LINE"}, "geometry": {"type": "LineString", "coordinates": [[-54.98371372848382, -10.252118895195698], [-54.98364256441679, -10.252175482472264]]}}, {"type": "Feature", "properties": {"layer": "0 - IPTU", "dxf_type": "LINE"}, "geometry": {"type": "LineString", "coordinates": [[-54.984105774209006, -10.252154836190885], [-54.98403454497656, -10.252211344519727]]}}, {"type": "Feature", "properties": {"layer": "0 - IPTU", "dxf_type": "LINE"}, "geometry": {"type": "LineString", "coordinates": [[-54.98403454497656, -10.252211344519727], [-54.98396331663251, -10.252267852833594]]}}, {"type": "Feature", "properties": {"layer": "0 - IPTU", "dxf_type": "LINE"}, "geometry": {"type": "LineString", "coordinates": [[-54.98396331663251, -10.252267852833594], [-54.983892088264284, -10.252324361126831]]}}, {"type": "Feature", "properties": {"layer": "0 - IPTU", "dxf_type": "LINE"}, "geometry": {"type": "LineString", "coordinates": [[-54.983892088264284, -10.252324361126831], [-54.98382085895927, -10.252380869393773]]}}, {"type": "Feature", "properties": {"layer": "0 - IPTU", "dxf_type": "LINE"}, "geometry": {"type": "LineString", "coordinates": [[-54.98382085895927, -10.252380869393773], [-54.98364256441679, -10.252175482472264]]}}, {"type": "Feature", "properties": {"layer": "0 - IPTU", "dxf_type": "LINE"}, "geometry": {"type": "LineString", "coordinates": [[-54.98371372848382, -10.252118895195698], [-54.983892088264284, -10.252324361126831]]}}, {"type": "Feature", "properties": {"layer": "0 - IPTU", "dxf_type": "LINE"}, "geometry": {"type": "LineString", "coordinates": [[-54.98378489253236, -10.252062306994649], [-54.98396331663251, -10.252267852833594]]}}, {"type": "Feature", "properties": {"layer": "0 - IPTU", "dxf_type": "LINE"}, "geometry": {"type": "LineString", "coordinates": [[-54.98385605655668, -10.25200571877299], [-54.98403454497656, -10.252211344519727]]}}, {"type": "Feature", "properties": {"layer": "0 - IPTU", "dxf_type": "LINE"}, "geometry": {"type": "LineString", "coordinates": [[-54.98382085895927, -10.252380869393773], [-54.98374522600869, -10.252440871061607]]}}, {"type": "Feature", "properties": {"layer": "0 - IPTU", "dxf_type": "LINE"}, "geometry": {"type": "LineString", "coordinates": [[-54.98374522600869, -10.252440871061607], [-54.98356040443751, -10.252240814657013]]}}, {"type": "Feature", "properties": {"layer": "0 - IPTU", "dxf_type": "LINE"}, "geometry": {"type": "LineString", "coordinates": [[-54.98356040443751, -10.252240814657013], [-54.983498796993636, -10.252174129172866]]}}, {"type": "Feature", "properties": {"layer": "0 - IPTU", "dxf_type": "LINE"}, "geometry": {"type": "LineString", "coordinates": [[-54.983498796993636, -10.252174129172866], [-54.98343719049344, -10.252107442783494]]}}, {"type": "Feature", "properties": {"layer": "0 - IPTU", "dxf_type": "LINE"}, "geometry": {"type": "LineString", "coordinates": [[-54.98343719049344, -10.252107442783494], [-54.98337558310028, -10.252040757285295]]}}, {"type": "Feature", "properties": {"layer": "0 - IPTU", "dxf_type": "LINE"}, "geometry": {"type": "LineString", "coordinates": [[-54.9839272205568, -10.251949130530724], [-54.983867726584386, -10.251880588928993]]}}, {"type": "Feature", "properties": {"layer": "0 - IPTU", "dxf_type": "LINE"}, "geometry": {"type": "LineString", "coordinates": [[-54.983867726584386, -10.251880588928993], [-54.98380823172425, -10.251812047315305]]}}, {"type": "Feature", "properties": {"layer": "0 - IPTU", "dxf_type": "LINE"}, "geometry": {"type": "LineString", "coordinates": [[-54.98380823172425, -10.251812047315305], [-54.983748737801555, -10.251743505700974]]}}, {"type": "Feature", "properties": {"layer": "0 - IPTU", "dxf_type": "LINE"}, "geometry": {"type": "LineString", "coordinates": [[-54.983748737801555, -10.251743505700974], [-54.98337558310028, -10.252040757285295]]}}, {"type": "Feature", "properties": {"layer": "0 - IPTU", "dxf_type": "LINE"}, "geometry": {"type": "LineString", "coordinates": [[-54.98343719049344, -10.252107442783494], [-54.9838108591925, -10.25181507365947]]}}, {"type": "Feature", "properties": {"layer": "0 - IPTU", "dxf_type": "LINE"}, "geometry": {"type": "LineString", "coordinates": [[-54.98356040443751, -10.252240814657013], [-54.983498796993636, -10.252174129172866]]}}, {"type": "Feature", "properties": {"layer": "0 - IPTU", "dxf_type": "LINE"}, "geometry": {"type": "LineString", "coordinates": [[-54.983498796993636, -10.252174129172866], [-54.983867726584386, -10.251880588928993]]}}, {"type": "Feature", "properties": {"layer": "0 - IPTU", "dxf_type": "LINE"}, "geometry": {"type": "LineString", "coordinates": [[-54.98374381303386, -10.252094972665132], [-54.983562160531456, -10.251892132015941]]}}, {"type": "Feature", "properties": {"layer": "0 - IPTU", "dxf_type": "LINE"}, "geometry": {"type": "LineString", "coordinates": [[-54.983748737801555, -10.251743505700974], [-54.983570254357474, -10.251537880808973]]}}, {"type": "Feature", "properties": {"layer": "0 - IPTU", "dxf_type": "LINE"}, "geometry": {"type": "LineString", "coordinates": [[-54.98337558310028, -10.252040757285295], [-54.98319076198556, -10.25184070075422]]}}, {"type": "Feature", "properties": {"layer": "0 - IPTU", "dxf_type": "LINE"}, "geometry": {"type": "LineString", "coordinates": [[-54.98319076198556, -10.25184070075422], [-54.983570254357474, -10.251537880808973]]}}, {"type": "Feature", "properties": {"layer": "0 - IPTU", "dxf_type": "LINE"}, "geometry": {"type": "LineString", "coordinates": [[-54.983570254357474, -10.251537880808973], [-54.983499188219945, -10.25159458890362]]}}, {"type": "Feature", "properties": {"layer": "0 - IPTU", "dxf_type": "LINE"}, "geometry": {"type": "LineString", "coordinates": [[-54.983499188219945, -10.25159458890362], [-54.98342812205816, -10.2516512969777]]}}, {"type": "Feature", "properties": {"layer": "0 - IPTU", "dxf_type": "LINE"}, "geometry": {"type": "LineString", "coordinates": [[-54.98342812205816, -10.2516512969777], [-54.98335705587213, -10.251708005031212]]}}, {"type": "Feature", "properties": {"layer": "0 - IPTU", "dxf_type": "LINE"}, "geometry": {"type": "LineString", "coordinates": [[-54.98335705587213, -10.251708005031212], [-54.98328598966185, -10.25176471306415]]}}, {"type": "Feature", "properties": {"layer": "0 - IPTU", "dxf_type": "LINE"}, "geometry": {"type": "LineString", "coordinates": [[-54.983748737801555, -10.251743505700974], [-54.98367762363967, -10.25180015477896]]}}, {"type": "Feature", "properties": {"layer": "0 - IPTU", "dxf_type": "LINE"}, "geometry": {"type": "LineString", "coordinates": [[-54.98367762363967, -10.25180015477896], [-54.983606509453544, -10.25185680383637]]}}, {"type": "Feature", "properties": {"layer": "0 - IPTU", "dxf_type": "LINE"}, "geometry": {"type": "LineString", "coordinates": [[-54.983606509453544, -10.25185680383637], [-54.98353539433061, -10.251913452867514]]}}, {"type": "Feature", "properties": {"layer": "0 - IPTU", "dxf_type": "LINE"}, "geometry": {"type": "LineString", "coordinates": [[-54.98353539433061, -10.251913452867514], [-54.98346428009603, -10.251970101883735]]}}, {"type": "Feature", "properties": {"layer": "0 - IPTU", "dxf_type": "LINE"}, "geometry": {"type": "LineString", "coordinates": [[-54.98346428009603, -10.251970101883735], [-54.98328598966185, -10.25176471306415]]}}, {"type": "Feature", "properties": {"layer": "0 - IPTU", "dxf_type": "LINE"}, "geometry": {"type": "LineString", "coordinates": [[-54.98353539433061, -10.251913452867514], [-54.98335705587213, -10.251708005031212]]}}, {"type": "Feature", "properties": {"layer": "0 - IPTU", "dxf_type": "LINE"}, "geometry": {"type": "LineString", "coordinates": [[-54.983606509453544, -10.25185680383637], [-54.98342812205816, -10.2516512969777]]}}, {"type": "Feature", "properties": {"layer": "0 - IPTU", "dxf_type": "LINE"}, "geometry": {"type": "LineString", "coordinates": [[-54.98367762363967, -10.25180015477896], [-54.983499188219945, -10.25159458890362]]}}, {"type": "Feature", "properties": {"layer": "0 - IPTU", "dxf_type": "LINE"}, "geometry": {"type": "LineString", "coordinates": [[-54.99762954315032, -10.230218186545928], [-54.998015348298196, -10.229902587684647]]}}, {"type": "Feature", "properties": {"layer": "0 - IPTU", "dxf_type": "LINE"}, "geometry": {"type": "LineString", "coordinates": [[-54.998015348298196, -10.229902587684647], [-54.99813437903318, -10.22980521762622]]}}, {"type": "Feature", "properties": {"layer": "0 - IPTU", "dxf_type": "LINE"}, "geometry": {"type": "LineString", "coordinates": [[-54.99762954315032, -10.230218186545928], [-54.99755816636326, -10.230276574891137]]}}]}