{"type": "FeatureCollection", "name": "0_linhas_de_quadra_e_lotes", "crs": {"type": "name", "properties": {"name": "urn:ogc:def:crs:OGC:1.3:CRS84"}}, "properties": {"source": "8be78050_MAPA TRIBUTAÇÃO 2021 (1).dxf", "assumed_crs": "EPSG:4326", "local_crs": false, "note": "Coordenadas locais do desenho (sem CRS). Use base 'Só CAD' no mapa.", "extent": [4300.4554, 2373.7696, 8215.3349, 6186.7838], "georef": true, "transform": {"scale": 1, "rotation_deg": 0, "tx": 713717.6034368816, "ty": 8862616.121289995, "rmse_m": 0, "epsg": 31981}, "layer": "0 - LINHAS DE QUADRA E LOTES", "source_file": "8be78050_MAPA TRIBUTAÇÃO 2021 (1)_georef.geojson", "n_features": 234}, "features": [{"type": "Feature", "properties": {"layer": "0 - LINHAS DE QUADRA E LOTES", "dxf_type": "LINE"}, "geometry": {"type": "LineString", "coordinates": [[-54.99479340398929, -10.235831814420543], [-54.995001313169446, -10.235647356759896]]}}, {"type": "Feature", "properties": {"layer": "0 - LINHAS DE QUADRA E LOTES", "dxf_type": "LINE"}, "geometry": {"type": "LineString", "coordinates": [[-54.995321597736236, -10.235986507675094], [-54.99524692814196, -10.235902661686985]]}}, {"type": "Feature", "properties": {"layer": "0 - LINHAS DE QUADRA E LOTES", "dxf_type": "LINE"}, "geometry": {"type": "LineString", "coordinates": [[-54.99524692814196, -10.235902661686985], [-54.99502056439319, -10.235648478736007]]}}, {"type": "Feature", "properties": {"layer": "0 - LINHAS DE QUADRA E LOTES", "dxf_type": "LINE"}, "geometry": {"type": "LineString", "coordinates": [[-54.995001313169446, -10.235647356759896], [-54.99502056439319, -10.235648478736007]]}}, {"type": "Feature", "properties": {"layer": "0 - LINHAS DE QUADRA E LOTES", "dxf_type": "LINE"}, "geometry": {"type": "LineString", "coordinates": [[-54.995138729785324, -10.23601781369845], [-54.994897358155356, -10.235739585158038]]}}, {"type": "Feature", "properties": {"layer": "0 - LINHAS DE QUADRA E LOTES", "dxf_type": "LINE"}, "geometry": {"type": "LineString", "coordinates": [[-54.99479340398929, -10.235831814420543], [-54.99502956422597, -10.236104742861368]]}}, {"type": "Feature", "properties": {"layer": "0 - LINHAS DE QUADRA E LOTES", "dxf_type": "LINE"}, "geometry": {"type": "LineString", "coordinates": [[-54.99491501892626, -10.236200242355606], [-54.9946818788212, -10.23592188632031]]}}, {"type": "Feature", "properties": {"layer": "0 - LINHAS DE QUADRA E LOTES", "dxf_type": "LINE"}, "geometry": {"type": "LineString", "coordinates": [[-54.9946818788212, -10.23592188632031], [-54.99479340398929, -10.235831814420543]]}}, {"type": "Feature", "properties": {"layer": "0 - LINHAS DE QUADRA E LOTES", "dxf_type": "LINE"}, "geometry": {"type": "LineString", "coordinates": [[-54.9946818788212, -10.23592188632031], [-54.99456633793244, -10.236018250026497]]}}, {"type": "Feature", "properties": {"layer": "0 - LINHAS DE QUADRA E LOTES", "dxf_type": "LINE"}, "geometry": {"type": "LineString", "coordinates": [[-54.99456633793244, -10.236018250026497], [-54.99480148427929, -10.236296971935408]]}}, {"type": "Feature", "properties": {"layer": "0 - LINHAS DE QUADRA E LOTES", "dxf_type": "LINE"}, "geometry": {"type": "LineString", "coordinates": [[-54.99480148427929, -10.236296971935408], [-54.99497111737361, -10.236151284518794]]}}, {"type": "Feature", "properties": {"layer": "0 - LINHAS DE QUADRA E LOTES", "dxf_type": "LINE"}, "geometry": {"type": "LineString", "coordinates": [[-54.99480148427929, -10.236296971935408], [-54.99468505039298, -10.23639397375263]]}}, {"type": "Feature", "properties": {"layer": "0 - LINHAS DE QUADRA E LOTES", "dxf_type": "LINE"}, "geometry": {"type": "LineString", "coordinates": [[-54.99468505039298, -10.23639397375263], [-54.99455800141505, -10.23625155425024]]}}, {"type": "Feature", "properties": {"layer": "0 - LINHAS DE QUADRA E LOTES", "dxf_type": "LINE"}, "geometry": {"type": "LineString", "coordinates": [[-54.99455800141505, -10.23625155425024], [-54.99467932070719, -10.236152170016728]]}}, {"type": "Feature", "properties": {"layer": "0 - LINHAS DE QUADRA E LOTES", "dxf_type": "LINE"}, "geometry": {"type": "LineString", "coordinates": [[-54.99456633793244, -10.236018250026497], [-54.99444573213372, -10.236118098715542]]}}, {"type": "Feature", "properties": {"layer": "0 - LINHAS DE QUADRA E LOTES", "dxf_type": "LINE"}, "geometry": {"type": "LineString", "coordinates": [[-54.99455800141505, -10.23625155425024], [-54.99444573213372, -10.236118098715542]]}}, {"type": "Feature", "properties": {"layer": "0 - LINHAS DE QUADRA E LOTES", "dxf_type": "LINE"}, "geometry": {"type": "LineString", "coordinates": [[-54.995321597736236, -10.235986507675094], [-54.995035639721365, -10.236237771670169]]}}, {"type": "Feature", "properties": {"layer": "0 - LINHAS DE QUADRA E LOTES", "dxf_type": "LINE"}, "geometry": {"type": "LineString", "coordinates": [[-54.995035639721365, -10.236237771670169], [-54.99496814338426, -10.236153879431564]]}}, {"type": "Feature", "properties": {"layer": "0 - LINHAS DE QUADRA E LOTES", "dxf_type": "LINE"}, "geometry": {"type": "LineString", "coordinates": [[-54.995035639721365, -10.236237771670169], [-54.99509849448708, -10.236310941899138]]}}, {"type": "Feature", "properties": {"layer": "0 - LINHAS DE QUADRA E LOTES", "dxf_type": "LINE"}, "geometry": {"type": "LineString", "coordinates": [[-54.99509849448708, -10.236310941899138], [-54.99537463924365, -10.236065968353167]]}}, {"type": "Feature", "properties": {"layer": "0 - LINHAS DE QUADRA E LOTES", "dxf_type": "LINE"}, "geometry": {"type": "LineString", "coordinates": [[-54.99537463924365, -10.236065968353167], [-54.995311011739325, -10.235995808898194]]}}, {"type": "Feature", "properties": {"layer": "0 - LINHAS DE QUADRA E LOTES", "dxf_type": "LINE"}, "geometry": {"type": "LineString", "coordinates": [[-54.99537463924365, -10.236065968353167], [-54.995496566172136, -10.236189505635881]]}}, {"type": "Feature", "properties": {"layer": "0 - LINHAS DE QUADRA E LOTES", "dxf_type": "LINE"}, "geometry": {"type": "LineString", "coordinates": [[-54.995496566172136, -10.236189505635881], [-54.995213728976374, -10.236445148621048]]}}, {"type": "Feature", "properties": {"layer": "0 - LINHAS DE QUADRA E LOTES", "dxf_type": "LINE"}, "geometry": {"type": "LineString", "coordinates": [[-54.995213728976374, -10.236445148621048], [-54.99509849448708, -10.236310941899138]]}}, {"type": "Feature", "properties": {"layer": "0 - LINHAS DE QUADRA E LOTES", "dxf_type": "LINE"}, "geometry": {"type": "LineString", "coordinates": [[-54.995426957104804, -10.2361189776051], [-54.99520753492844, -10.236308609141732]]}}, {"type": "Feature", "properties": {"layer": "0 - LINHAS DE QUADRA E LOTES", "dxf_type": "LINE"}, "geometry": {"type": "LineString", "coordinates": [[-54.99520753492844, -10.236308609141732], [-54.99514467669164, -10.236364727821124]]}}, {"type": "Feature", "properties": {"layer": "0 - LINHAS DE QUADRA E LOTES", "dxf_type": "LINE"}, "geometry": {"type": "LineString", "coordinates": [[-54.995496566172136, -10.236189505635881], [-54.99557279490684, -10.236278824502557]]}}, {"type": "Feature", "properties": {"layer": "0 - LINHAS DE QUADRA E LOTES", "dxf_type": "LINE"}, "geometry": {"type": "LineString", "coordinates": [[-54.99557279490684, -10.236278824502557], [-54.995289733764395, -10.236533646312118]]}}, {"type": "Feature", "properties": {"layer": "0 - LINHAS DE QUADRA E LOTES", "dxf_type": "LINE"}, "geometry": {"type": "LineString", "coordinates": [[-54.995289733764395, -10.236533646312118], [-54.995213728976374, -10.236445148621048]]}}, {"type": "Feature", "properties": {"layer": "0 - LINHAS DE QUADRA E LOTES", "dxf_type": "LINE"}, "geometry": {"type": "LineString", "coordinates": [[-54.99557279490684, -10.236278824502557], [-54.9956849078292, -10.236411114527995]]}}, {"type": "Feature", "properties": {"layer": "0 - LINHAS DE QUADRA E LOTES", "dxf_type": "LINE"}, "geometry": {"type": "LineString", "coordinates": [[-54.9956849078292, -10.236411114527995], [-54.9953991732036, -10.23666164801908]]}}, {"type": "Feature", "properties": {"layer": "0 - LINHAS DE QUADRA E LOTES", "dxf_type": "LINE"}, "geometry": {"type": "LineString", "coordinates": [[-54.9953991732036, -10.23666164801908], [-54.995289733764395, -10.236533646312118]]}}, {"type": "Feature", "properties": {"layer": "0 - LINHAS DE QUADRA E LOTES", "dxf_type": "LINE"}, "geometry": {"type": "LineString", "coordinates": [[-54.9956849078292, -10.236411114527995], [-54.99571794733864, -10.236457010439572]]}}, {"type": "Feature", "properties": {"layer": "0 - LINHAS DE QUADRA E LOTES", "dxf_type": "LINE"}, "geometry": {"type": "LineString", "coordinates": [[-54.99571794733864, -10.236457010439572], [-54.99543998219774, -10.236707439966027]]}}, {"type": "Feature", "properties": {"layer": "0 - LINHAS DE QUADRA E LOTES", "dxf_type": "LINE"}, "geometry": {"type": "LineString", "coordinates": [[-54.99543998219774, -10.236707439966027], [-54.9953991732036, -10.23666164801908]]}}, {"type": "Feature", "properties": {"layer": "0 - LINHAS DE QUADRA E LOTES", "dxf_type": "LINE"}, "geometry": {"type": "LineString", "coordinates": [[-54.99571794733864, -10.236457010439572], [-54.99577606932488, -10.236522382203546]]}}, {"type": "Feature", "properties": {"layer": "0 - LINHAS DE QUADRA E LOTES", "dxf_type": "LINE"}, "geometry": {"type": "LineString", "coordinates": [[-54.99577606932488, -10.236522382203546], [-54.995499845787904, -10.236780156933728]]}}, {"type": "Feature", "properties": {"layer": "0 - LINHAS DE QUADRA E LOTES", "dxf_type": "LINE"}, "geometry": {"type": "LineString", "coordinates": [[-54.995499845787904, -10.236780156933728], [-54.99543998219774, -10.236707439966027]]}}, {"type": "Feature", "properties": {"layer": "0 - LINHAS DE QUADRA E LOTES", "dxf_type": "LINE"}, "geometry": {"type": "LineString", "coordinates": [[-54.995499845787904, -10.236780156933728], [-54.99554418425993, -10.236825873898056]]}}, {"type": "Feature", "properties": {"layer": "0 - LINHAS DE QUADRA E LOTES", "dxf_type": "LINE"}, "geometry": {"type": "LineString", "coordinates": [[-54.99554418425993, -10.236825873898056], [-54.99581808777245, -10.236576132463883]]}}, {"type": "Feature", "properties": {"layer": "0 - LINHAS DE QUADRA E LOTES", "dxf_type": "LINE"}, "geometry": {"type": "LineString", "coordinates": [[-54.99581808777245, -10.236576132463883], [-54.99577606932488, -10.236522382203546]]}}, {"type": "Feature", "properties": {"layer": "0 - LINHAS DE QUADRA E LOTES", "dxf_type": "LINE"}, "geometry": {"type": "LineString", "coordinates": [[-54.99581808777245, -10.236576132463883], [-54.99587939368655, -10.236651554659371]]}}, {"type": "Feature", "properties": {"layer": "0 - LINHAS DE QUADRA E LOTES", "dxf_type": "LINE"}, "geometry": {"type": "LineString", "coordinates": [[-54.99587939368655, -10.236651554659371], [-54.99560054843336, -10.236892872775883]]}}, {"type": "Feature", "properties": {"layer": "0 - LINHAS DE QUADRA E LOTES", "dxf_type": "LINE"}, "geometry": {"type": "LineString", "coordinates": [[-54.99560054843336, -10.236892872775883], [-54.99554418425993, -10.236825873898056]]}}, {"type": "Feature", "properties": {"layer": "0 - LINHAS DE QUADRA E LOTES", "dxf_type": "LINE"}, "geometry": {"type": "LineString", "coordinates": [[-54.99587939368655, -10.236651554659371], [-54.99594506102936, -10.23673160558336]]}}, {"type": "Feature", "properties": {"layer": "0 - LINHAS DE QUADRA E LOTES", "dxf_type": "LINE"}, "geometry": {"type": "LineString", "coordinates": [[-54.99594506102936, -10.23673160558336], [-54.995667563130475, -10.236968497407863]]}}, {"type": "Feature", "properties": {"layer": "0 - LINHAS DE QUADRA E LOTES", "dxf_type": "LINE"}, "geometry": {"type": "LineString", "coordinates": [[-54.995667563130475, -10.236968497407863], [-54.99560054843336, -10.236892872775883]]}}, {"type": "Feature", "properties": {"layer": "0 - LINHAS DE QUADRA E LOTES", "dxf_type": "LINE"}, "geometry": {"type": "LineString", "coordinates": [[-54.99594506102936, -10.23673160558336], [-54.99600576086641, -10.236805602161704]]}}, {"type": "Feature", "properties": {"layer": "0 - LINHAS DE QUADRA E LOTES", "dxf_type": "LINE"}, "geometry": {"type": "LineString", "coordinates": [[-54.99600576086641, -10.236805602161704], [-54.995878789531425, -10.236916680498487]]}}, {"type": "Feature", "properties": {"layer": "0 - LINHAS DE QUADRA E LOTES", "dxf_type": "LINE"}, "geometry": {"type": "LineString", "coordinates": [[-54.995878789531425, -10.236916680498487], [-54.99572814333971, -10.237038866759239]]}}, {"type": "Feature", "properties": {"layer": "0 - LINHAS DE QUADRA E LOTES", "dxf_type": "LINE"}, "geometry": {"type": "LineString", "coordinates": [[-54.99572814333971, -10.237038866759239], [-54.995667563130475, -10.236968497407863]]}}, {"type": "Feature", "properties": {"layer": "0 - LINHAS DE QUADRA E LOTES", "dxf_type": "LINE"}, "geometry": {"type": "LineString", "coordinates": [[-54.99600576086641, -10.236805602161704], [-54.99607059052829, -10.236884197115593]]}}, {"type": "Feature", "properties": {"layer": "0 - LINHAS DE QUADRA E LOTES", "dxf_type": "LINE"}, "geometry": {"type": "LineString", "coordinates": [[-54.99607059052829, -10.236884197115593], [-54.99579149759138, -10.237110584670756]]}}, {"type": "Feature", "properties": {"layer": "0 - LINHAS DE QUADRA E LOTES", "dxf_type": "LINE"}, "geometry": {"type": "LineString", "coordinates": [[-54.99579149759138, -10.237110584670756], [-54.99572814333971, -10.237038866759239]]}}, {"type": "Feature", "properties": {"layer": "0 - LINHAS DE QUADRA E LOTES", "dxf_type": "LINE"}, "geometry": {"type": "LineString", "coordinates": [[-54.99578241978892, -10.23710030990396], [-54.99551840437639, -10.237345428009982]]}}, {"type": "Feature", "properties": {"layer": "0 - LINHAS DE QUADRA E LOTES", "dxf_type": "LINE"}, "geometry": {"type": "LineString", "coordinates": [[-54.99551840437639, -10.237345428009982], [-54.99531928072713, -10.237109057451008]]}}, {"type": "Feature", "properties": {"layer": "0 - LINHAS DE QUADRA E LOTES", "dxf_type": "LINE"}, "geometry": {"type": "LineString", "coordinates": [[-54.99531928072713, -10.237109057451008], [-54.9952184873768, -10.23699175898748]]}}, {"type": "Feature", "properties": {"layer": "0 - LINHAS DE QUADRA E LOTES", "dxf_type": "LINE"}, "geometry": {"type": "LineString", "coordinates": [[-54.9952184873768, -10.23699175898748], [-54.99513798974115, -10.236904296592554]]}}, {"type": "Feature", "properties": {"layer": "0 - LINHAS DE QUADRA E LOTES", "dxf_type": "LINE"}, "geometry": {"type": "LineString", "coordinates": [[-54.99513798974115, -10.236904296592554], [-54.99504720302568, -10.236800077144437]]}}, {"type": "Feature", "properties": {"layer": "0 - LINHAS DE QUADRA E LOTES", "dxf_type": "LINE"}, "geometry": {"type": "LineString", "coordinates": [[-54.99504720302568, -10.236800077144437], [-54.99495697680728, -10.236700489217021]]}}, {"type": "Feature", "properties": {"layer": "0 - LINHAS DE QUADRA E LOTES", "dxf_type": "LINE"}, "geometry": {"type": "LineString", "coordinates": [[-54.99495697680728, -10.236700489217021], [-54.99486502523178, -10.236596496675707]]}}, {"type": "Feature", "properties": {"layer": "0 - LINHAS DE QUADRA E LOTES", "dxf_type": "LINE"}, "geometry": {"type": "LineString", "coordinates": [[-54.99486502523178, -10.236596496675707], [-54.994776636616145, -10.236496110128586]]}}, {"type": "Feature", "properties": {"layer": "0 - LINHAS DE QUADRA E LOTES", "dxf_type": "LINE"}, "geometry": {"type": "LineString", "coordinates": [[-54.994776636616145, -10.236496110128586], [-54.99468505039298, -10.23639397375263]]}}, {"type": "Feature", "properties": {"layer": "0 - LINHAS DE QUADRA E LOTES", "dxf_type": "LINE"}, "geometry": {"type": "LineString", "coordinates": [[-54.99572814333971, -10.237038866759239], [-54.995454727679224, -10.237269840177985]]}}, {"type": "Feature", "properties": {"layer": "0 - LINHAS DE QUADRA E LOTES", "dxf_type": "LINE"}, "geometry": {"type": "LineString", "coordinates": [[-54.99540676092523, -10.23721290123924], [-54.99568070799776, -10.23698376699809]]}}, {"type": "Feature", "properties": {"layer": "0 - LINHAS DE QUADRA E LOTES", "dxf_type": "LINE"}, "geometry": {"type": "LineString", "coordinates": [[-54.99558885148284, -10.236878969795619], [-54.99531928072713, -10.237109057451008]]}}, {"type": "Feature", "properties": {"layer": "0 - LINHAS DE QUADRA E LOTES", "dxf_type": "LINE"}, "geometry": {"type": "LineString", "coordinates": [[-54.995499845787904, -10.236780156933728], [-54.9952184873768, -10.23699175898748]]}}, {"type": "Feature", "properties": {"layer": "0 - LINHAS DE QUADRA E LOTES", "dxf_type": "LINE"}, "geometry": {"type": "LineString", "coordinates": [[-54.99541957815268, -10.236684544447693], [-54.99513798974115, -10.236904296592554]]}}, {"type": "Feature", "properties": {"layer": "0 - LINHAS DE QUADRA E LOTES", "dxf_type": "LINE"}, "geometry": {"type": "LineString", "coordinates": [[-54.995314244685595, -10.23656231427803], [-54.99504720302568, -10.236800077144437]]}}, {"type": "Feature", "properties": {"layer": "0 - LINHAS DE QUADRA E LOTES", "dxf_type": "LINE"}, "geometry": {"type": "LineString", "coordinates": [[-54.995225708508514, -10.236459097642584], [-54.99495697680728, -10.236700489217021]]}}, {"type": "Feature", "properties": {"layer": "0 - LINHAS DE QUADRA E LOTES", "dxf_type": "LINE"}, "geometry": {"type": "LineString", "coordinates": [[-54.99486502523178, -10.236596496675707], [-54.99514145600595, -10.236360976584525]]}}, {"type": "Feature", "properties": {"layer": "0 - LINHAS DE QUADRA E LOTES", "dxf_type": "LINE"}, "geometry": {"type": "LineString", "coordinates": [[-54.99505430979721, -10.236259504921122], [-54.994776636616145, -10.236496110128586]]}}, {"type": "Feature", "properties": {"layer": "0 - LINHAS DE QUADRA E LOTES", "dxf_type": "LINE"}, "geometry": {"type": "LineString", "coordinates": [[-54.99579149759138, -10.237110584670756], [-54.99601104390795, -10.237362892219181]]}}, {"type": "Feature", "properties": {"layer": "0 - LINHAS DE QUADRA E LOTES", "dxf_type": "LINE"}, "geometry": {"type": "LineString", "coordinates": [[-54.99601104390795, -10.237362892219181], [-54.99627237681898, -10.23713378367742]]}}, {"type": "Feature", "properties": {"layer": "0 - LINHAS DE QUADRA E LOTES", "dxf_type": "LINE"}, "geometry": {"type": "LineString", "coordinates": [[-54.99627237681898, -10.23713378367742], [-54.99613470673136, -10.236961604432839]]}}, {"type": "Feature", "properties": {"layer": "0 - LINHAS DE QUADRA E LOTES", "dxf_type": "LINE"}, "geometry": {"type": "LineString", "coordinates": [[-54.99613470673136, -10.236961604432839], [-54.99607059052829, -10.236884197115593]]}}, {"type": "Feature", "properties": {"layer": "0 - LINHAS DE QUADRA E LOTES", "dxf_type": "LINE"}, "geometry": {"type": "LineString", "coordinates": [[-54.995929192047726, -10.237268827507485], [-54.996203542213706, -10.23704769406191]]}}, {"type": "Feature", "properties": {"layer": "0 - LINHAS DE QUADRA E LOTES", "dxf_type": "LINE"}, "geometry": {"type": "LineString", "coordinates": [[-54.99613470673136, -10.236961604432839], [-54.99585801625285, -10.237187029697086]]}}, {"type": "Feature", "properties": {"layer": "0 - LINHAS DE QUADRA E LOTES", "dxf_type": "LINE"}, "geometry": {"type": "LineString", "coordinates": [[-54.99601104390795, -10.237362892219181], [-54.99644996869842, -10.237857770768247]]}}, {"type": "Feature", "properties": {"layer": "0 - LINHAS DE QUADRA E LOTES", "dxf_type": "LINE"}, "geometry": {"type": "LineString", "coordinates": [[-54.99644996869842, -10.237857770768247], [-54.99669513392235, -10.23764734495667]]}}, {"type": "Feature", "properties": {"layer": "0 - LINHAS DE QUADRA E LOTES", "dxf_type": "LINE"}, "geometry": {"type": "LineString", "coordinates": [[-54.99669513392235, -10.23764734495667], [-54.996695062552966, -10.237624983268509]]}}, {"type": "Feature", "properties": {"layer": "0 - LINHAS DE QUADRA E LOTES", "dxf_type": "LINE"}, "geometry": {"type": "LineString", "coordinates": [[-54.996695062552966, -10.237624983268509], [-54.99657260742729, -10.237480175506168]]}}, {"type": "Feature", "properties": {"layer": "0 - LINHAS DE QUADRA E LOTES", "dxf_type": "LINE"}, "geometry": {"type": "LineString", "coordinates": [[-54.99657260742729, -10.237480175506168], [-54.99649608076043, -10.237403631892247]]}}, {"type": "Feature", "properties": {"layer": "0 - LINHAS DE QUADRA E LOTES", "dxf_type": "LINE"}, "geometry": {"type": "LineString", "coordinates": [[-54.99649608076043, -10.237403631892247], [-54.996501232060965, -10.23739887734308]]}}, {"type": "Feature", "properties": {"layer": "0 - LINHAS DE QUADRA E LOTES", "dxf_type": "LINE"}, "geometry": {"type": "LineString", "coordinates": [[-54.996501232060965, -10.23739887734308], [-54.99633706085036, -10.237203469543982]]}}, {"type": "Feature", "properties": {"layer": "0 - LINHAS DE QUADRA E LOTES", "dxf_type": "LINE"}, "geometry": {"type": "LineString", "coordinates": [[-54.99633706085036, -10.237203469543982], [-54.99607400135665, -10.237433875476192]]}}, {"type": "Feature", "properties": {"layer": "0 - LINHAS DE QUADRA E LOTES", "dxf_type": "LINE"}, "geometry": {"type": "LineString", "coordinates": [[-54.99640858725893, -10.237288605811315], [-54.996144016129946, -10.237512816038763]]}}, {"type": "Feature", "properties": {"layer": "0 - LINHAS DE QUADRA E LOTES", "dxf_type": "LINE"}, "geometry": {"type": "LineString", "coordinates": [[-54.99649608076043, -10.237403631892247], [-54.996239745517464, -10.237620748303694]]}}, {"type": "Feature", "properties": {"layer": "0 - LINHAS DE QUADRA E LOTES", "dxf_type": "LINE"}, "geometry": {"type": "LineString", "coordinates": [[-54.99657260742729, -10.237480175506168], [-54.99631231126169, -10.237702564568101]]}}, {"type": "Feature", "properties": {"layer": "0 - LINHAS DE QUADRA E LOTES", "dxf_type": "LINE"}, "geometry": {"type": "LineString", "coordinates": [[-54.99637057030747, -10.237768250790731], [-54.996629576497675, -10.237547543173848]]}}, {"type": "Feature", "properties": {"layer": "0 - LINHAS DE QUADRA E LOTES", "dxf_type": "LINE"}, "geometry": {"type": "LineString", "coordinates": [[-54.99627237681898, -10.23713378367742], [-54.99633706085036, -10.237203469543982]]}}, {"type": "Feature", "properties": {"layer": "0 - LINHAS DE QUADRA E LOTES", "dxf_type": "LINE"}, "geometry": {"type": "LineString", "coordinates": [[-54.994840336690295, -10.239245087513067], [-54.9942641126032, -10.23856858146345]]}}, {"type": "Feature", "properties": {"layer": "0 - LINHAS DE QUADRA E LOTES", "dxf_type": "LINE"}, "geometry": {"type": "LineString", "coordinates": [[-54.9942641126032, -10.23856858146345], [-54.994265057269565, -10.238540825139326]]}}, {"type": "Feature", "properties": {"layer": "0 - LINHAS DE QUADRA E LOTES", "dxf_type": "LINE"}, "geometry": {"type": "LineString", "coordinates": [[-54.994265057269565, -10.238540825139326], [-54.99490804995163, -10.237924763570353]]}}, {"type": "Feature", "properties": {"layer": "0 - LINHAS DE QUADRA E LOTES", "dxf_type": "LINE"}, "geometry": {"type": "LineString", "coordinates": [[-54.99490804995163, -10.237924763570353], [-54.99551840437639, -10.237345428009982]]}}, {"type": "Feature", "properties": {"layer": "0 - LINHAS DE QUADRA E LOTES", "dxf_type": "LINE"}, "geometry": {"type": "LineString", "coordinates": [[-54.99644996869842, -10.237857770768247], [-54.994840336690295, -10.239245087513067]]}}, {"type": "Feature", "properties": {"layer": "0 - LINHAS DE QUADRA E LOTES", "dxf_type": "LINE"}, "geometry": {"type": "LineString", "coordinates": [[-54.99644996869842, -10.237857770768247], [-54.996058659012284, -10.237419756612306]]}}, {"type": "Feature", "properties": {"layer": "0 - LINHAS DE QUADRA E LOTES", "dxf_type": "LINE"}, "geometry": {"type": "LineString", "coordinates": [[-54.98678904434497, -10.248090025880604], [-54.98659464128639, -10.248149052353176]]}}, {"type": "Feature", "properties": {"layer": "0 - LINHAS DE QUADRA E LOTES", "dxf_type": "LINE"}, "geometry": {"type": "LineString", "coordinates": [[-54.98871919290344, -10.247749931477012], [-54.988619533845764, -10.247760137370731]]}}, {"type": "Feature", "properties": {"layer": "0 - LINHAS DE QUADRA E LOTES", "dxf_type": "LINE"}, "geometry": {"type": "LineString", "coordinates": [[-54.988619533845764, -10.247760137370731], [-54.988427516107045, -10.247796548402613]]}}, {"type": "Feature", "properties": {"layer": "0 - LINHAS DE QUADRA E LOTES", "dxf_type": "LINE"}, "geometry": {"type": "LineString", "coordinates": [[-54.986752853922745, -10.247965972256287], [-54.98671098033224, -10.24799777843868]]}}, {"type": "Feature", "properties": {"layer": "0 - LINHAS DE QUADRA E LOTES", "dxf_type": "LINE"}, "geometry": {"type": "LineString", "coordinates": [[-54.98671098033224, -10.24799777843868], [-54.986660009582955, -10.24802455761909]]}}, {"type": "Feature", "properties": {"layer": "0 - LINHAS DE QUADRA E LOTES", "dxf_type": "LINE"}, "geometry": {"type": "LineString", "coordinates": [[-54.986660009582955, -10.24802455761909], [-54.98652945026557, -10.24807363511242]]}}, {"type": "Feature", "properties": {"layer": "0 - LINHAS DE QUADRA E LOTES", "dxf_type": "LINE"}, "geometry": {"type": "LineString", "coordinates": [[-54.9864486236482, -10.248094285133485], [-54.98652945026557, -10.24807363511242]]}}, {"type": "Feature", "properties": {"layer": "0 - LINHAS DE QUADRA E LOTES", "dxf_type": "LINE"}, "geometry": {"type": "LineString", "coordinates": [[-54.98733191036019, -10.246662810880595], [-54.987734744168435, -10.247153875252653]]}}, {"type": "Feature", "properties": {"layer": "0 - LINHAS DE QUADRA E LOTES", "dxf_type": "LINE"}, "geometry": {"type": "LineString", "coordinates": [[-54.987188209471995, -10.247604466738832], [-54.987734744168435, -10.247153875252653]]}}, {"type": "Feature", "properties": {"layer": "0 - LINHAS DE QUADRA E LOTES", "dxf_type": "LINE"}, "geometry": {"type": "LineString", "coordinates": [[-54.987734744168435, -10.247153875252653], [-54.987173621155016, -10.247616493411758]]}}, {"type": "Feature", "properties": {"layer": "0 - LINHAS DE QUADRA E LOTES", "dxf_type": "LINE"}, "geometry": {"type": "LineString", "coordinates": [[-54.987734744168435, -10.247153875252653], [-54.98750469468457, -10.246873150311062]]}}, {"type": "Feature", "properties": {"layer": "0 - LINHAS DE QUADRA E LOTES", "dxf_type": "LINE"}, "geometry": {"type": "LineString", "coordinates": [[-54.987173621155016, -10.247616493411758], [-54.98694353621466, -10.247335796814511]]}}, {"type": "Feature", "properties": {"layer": "0 - LINHAS DE QUADRA E LOTES", "dxf_type": "LINE"}, "geometry": {"type": "LineString", "coordinates": [[-54.98694353621466, -10.247335796814511], [-54.9875045506855, -10.24687326421706]]}}, {"type": "Feature", "properties": {"layer": "0 - LINHAS DE QUADRA E LOTES", "dxf_type": "LINE"}, "geometry": {"type": "LineString", "coordinates": [[-54.987173621155016, -10.247616493411758], [-54.98727883189251, -10.247529753283622]]}}, {"type": "Feature", "properties": {"layer": "0 - LINHAS DE QUADRA E LOTES", "dxf_type": "LINE"}, "geometry": {"type": "LineString", "coordinates": [[-54.9875045506855, -10.24687326421706], [-54.98739232681478, -10.246965788606788]]}}, {"type": "Feature", "properties": {"layer": "0 - LINHAS DE QUADRA E LOTES", "dxf_type": "LINE"}, "geometry": {"type": "LineString", "coordinates": [[-54.987734744168435, -10.247153875252653], [-54.987622519327594, -10.247246398804805]]}}, {"type": "Feature", "properties": {"layer": "0 - LINHAS DE QUADRA E LOTES", "dxf_type": "LINE"}, "geometry": {"type": "LineString", "coordinates": [[-54.987622519327594, -10.247246398804805], [-54.98739232681478, -10.246965788606788]]}}, {"type": "Feature", "properties": {"layer": "0 - LINHAS DE QUADRA E LOTES", "dxf_type": "LINE"}, "geometry": {"type": "LineString", "coordinates": [[-54.987622519327594, -10.247246398804805], [-54.98751029533076, -10.247338923214821]]}}, {"type": "Feature", "properties": {"layer": "0 - LINHAS DE QUADRA E LOTES", "dxf_type": "LINE"}, "geometry": {"type": "LineString", "coordinates": [[-54.98739232681478, -10.246965788606788], [-54.9872801028812, -10.247058312944851]]}}, {"type": "Feature", "properties": {"layer": "0 - LINHAS DE QUADRA E LOTES", "dxf_type": "LINE"}, "geometry": {"type": "LineString", "coordinates": [[-54.9872801028812, -10.247058312944851], [-54.98751029533076, -10.247338923214821]]}}, {"type": "Feature", "properties": {"layer": "0 - LINHAS DE QUADRA E LOTES", "dxf_type": "LINE"}, "geometry": {"type": "LineString", "coordinates": [[-54.9872801028812, -10.247058312944851], [-54.98716787889046, -10.247150836327327]]}}, {"type": "Feature", "properties": {"layer": "0 - LINHAS DE QUADRA E LOTES", "dxf_type": "LINE"}, "geometry": {"type": "LineString", "coordinates": [[-54.98751029533076, -10.247338923214821], [-54.987398070364186, -10.247431446663603]]}}, {"type": "Feature", "properties": {"layer": "0 - LINHAS DE QUADRA E LOTES", "dxf_type": "LINE"}, "geometry": {"type": "LineString", "coordinates": [[-54.987398070364186, -10.247431446663603], [-54.98716787889046, -10.247150836327327]]}}, {"type": "Feature", "properties": {"layer": "0 - LINHAS DE QUADRA E LOTES", "dxf_type": "LINE"}, "geometry": {"type": "LineString", "coordinates": [[-54.987398070364186, -10.247431446663603], [-54.987285846247325, -10.24752397006635]]}}, {"type": "Feature", "properties": {"layer": "0 - LINHAS DE QUADRA E LOTES", "dxf_type": "LINE"}, "geometry": {"type": "LineString", "coordinates": [[-54.98716787889046, -10.247150836327327], [-54.987055654831146, -10.247243360562004]]}}, {"type": "Feature", "properties": {"layer": "0 - LINHAS DE QUADRA E LOTES", "dxf_type": "LINE"}, "geometry": {"type": "LineString", "coordinates": [[-54.987055654831146, -10.247243360562004], [-54.987285846247325, -10.24752397006635]]}}, {"type": "Feature", "properties": {"layer": "0 - LINHAS DE QUADRA E LOTES", "dxf_type": "LINE"}, "geometry": {"type": "LineString", "coordinates": [[-54.98750469468457, -10.246873150311062], [-54.98741842634318, -10.246767878322395]]}}, {"type": "Feature", "properties": {"layer": "0 - LINHAS DE QUADRA E LOTES", "dxf_type": "LINE"}, "geometry": {"type": "LineString", "coordinates": [[-54.987173621155016, -10.247616493411758], [-54.98685725422919, -10.247230536356755]]}}, {"type": "Feature", "properties": {"layer": "0 - LINHAS DE QUADRA E LOTES", "dxf_type": "LINE"}, "geometry": {"type": "LineString", "coordinates": [[-54.98685725422919, -10.247230536356755], [-54.98741842634318, -10.246767878322395]]}}, {"type": "Feature", "properties": {"layer": "0 - LINHAS DE QUADRA E LOTES", "dxf_type": "LINE"}, "geometry": {"type": "LineString", "coordinates": [[-54.98713784094181, -10.246999207052003], [-54.9872240440999, -10.247104531132019]]}}, {"type": "Feature", "properties": {"layer": "0 - LINHAS DE QUADRA E LOTES", "dxf_type": "LINE"}, "geometry": {"type": "LineString", "coordinates": [[-54.98685725422919, -10.247230536356755], [-54.986770973216714, -10.247125274988061]]}}, {"type": "Feature", "properties": {"layer": "0 - LINHAS DE QUADRA E LOTES", "dxf_type": "LINE"}, "geometry": {"type": "LineString", "coordinates": [[-54.98741842634318, -10.246767878322395], [-54.9873321580565, -10.246662606321049]]}}, {"type": "Feature", "properties": {"layer": "0 - LINHAS DE QUADRA E LOTES", "dxf_type": "LINE"}, "geometry": {"type": "LineString", "coordinates": [[-54.9873321580565, -10.246662606321049], [-54.986770973216714, -10.247125274988061]]}}, {"type": "Feature", "properties": {"layer": "0 - LINHAS DE QUADRA E LOTES", "dxf_type": "LINE"}, "geometry": {"type": "LineString", "coordinates": [[-54.98713784094181, -10.246999207052003], [-54.987051565379666, -10.246893940361334]]}}, {"type": "Feature", "properties": {"layer": "0 - LINHAS DE QUADRA E LOTES", "dxf_type": "LINE"}, "geometry": {"type": "LineString", "coordinates": [[-54.986770973216714, -10.247125274988061], [-54.98668469134637, -10.247020013601023]]}}, {"type": "Feature", "properties": {"layer": "0 - LINHAS DE QUADRA E LOTES", "dxf_type": "LINE"}, "geometry": {"type": "LineString", "coordinates": [[-54.987051565379666, -10.246893940361334], [-54.986965290784795, -10.246788673663621]]}}, {"type": "Feature", "properties": {"layer": "0 - LINHAS DE QUADRA E LOTES", "dxf_type": "LINE"}, "geometry": {"type": "LineString", "coordinates": [[-54.986965290784795, -10.246788673663621], [-54.98668469134637, -10.247020013601023]]}}, {"type": "Feature", "properties": {"layer": "0 - LINHAS DE QUADRA E LOTES", "dxf_type": "LINE"}, "geometry": {"type": "LineString", "coordinates": [[-54.98668469134637, -10.247020013601023], [-54.98659840953072, -10.246914752201269]]}}, {"type": "Feature", "properties": {"layer": "0 - LINHAS DE QUADRA E LOTES", "dxf_type": "LINE"}, "geometry": {"type": "LineString", "coordinates": [[-54.986965290784795, -10.246788673663621], [-54.986925028898135, -10.246739549499004]]}}, {"type": "Feature", "properties": {"layer": "0 - LINHAS DE QUADRA E LOTES", "dxf_type": "LINE"}, "geometry": {"type": "LineString", "coordinates": [[-54.986925028898135, -10.246739549499004], [-54.98680646104638, -10.246743225388853]]}}, {"type": "Feature", "properties": {"layer": "0 - LINHAS DE QUADRA E LOTES", "dxf_type": "LINE"}, "geometry": {"type": "LineString", "coordinates": [[-54.986925028898135, -10.246739549499004], [-54.98733191036019, -10.246662810880595]]}}, {"type": "Feature", "properties": {"layer": "0 - LINHAS DE QUADRA E LOTES", "dxf_type": "LINE"}, "geometry": {"type": "LineString", "coordinates": [[-54.9864931988864, -10.247001492115455], [-54.987068410356564, -10.247703234398369]]}}, {"type": "Feature", "properties": {"layer": "0 - LINHAS DE QUADRA E LOTES", "dxf_type": "LINE"}, "geometry": {"type": "LineString", "coordinates": [[-54.987068410356564, -10.247703234398369], [-54.98695618604932, -10.247795758553162]]}}, {"type": "Feature", "properties": {"layer": "0 - LINHAS DE QUADRA E LOTES", "dxf_type": "LINE"}, "geometry": {"type": "LineString", "coordinates": [[-54.98695618604932, -10.247795758553162], [-54.986752853922745, -10.247965972256287]]}}, {"type": "Feature", "properties": {"layer": "0 - LINHAS DE QUADRA E LOTES", "dxf_type": "LINE"}, "geometry": {"type": "LineString", "coordinates": [[-54.98683832638245, -10.24742253864324], [-54.9863824137542, -10.247798416044851]]}}, {"type": "Feature", "properties": {"layer": "0 - LINHAS DE QUADRA E LOTES", "dxf_type": "LINE"}, "geometry": {"type": "LineString", "coordinates": [[-54.98683832638245, -10.24742253864324], [-54.986277203632994, -10.247885156727385]]}}, {"type": "Feature", "properties": {"layer": "0 - LINHAS DE QUADRA E LOTES", "dxf_type": "LINE"}, "geometry": {"type": "LineString", "coordinates": [[-54.9864486236482, -10.248094285133485], [-54.986277203632994, -10.247885156727385]]}}, {"type": "Feature", "properties": {"layer": "0 - LINHAS DE QUADRA E LOTES", "dxf_type": "LINE"}, "geometry": {"type": "LineString", "coordinates": [[-54.98683832638245, -10.24742253864324], [-54.98672610123165, -10.247515061816596]]}}, {"type": "Feature", "properties": {"layer": "0 - LINHAS DE QUADRA E LOTES", "dxf_type": "LINE"}, "geometry": {"type": "LineString", "coordinates": [[-54.987068410356564, -10.247703234398369], [-54.98695618604932, -10.247795758553162]]}}, {"type": "Feature", "properties": {"layer": "0 - LINHAS DE QUADRA E LOTES", "dxf_type": "LINE"}, "geometry": {"type": "LineString", "coordinates": [[-54.98695618604932, -10.247795758553162], [-54.98672610123165, -10.247515061816596]]}}, {"type": "Feature", "properties": {"layer": "0 - LINHAS DE QUADRA E LOTES", "dxf_type": "LINE"}, "geometry": {"type": "LineString", "coordinates": [[-54.98672610123165, -10.247515061816596], [-54.986613876924864, -10.247607585847796]]}}, {"type": "Feature", "properties": {"layer": "0 - LINHAS DE QUADRA E LOTES", "dxf_type": "LINE"}, "geometry": {"type": "LineString", "coordinates": [[-54.98695618604932, -10.247795758553162], [-54.986844665531706, -10.247889114100388]]}}, {"type": "Feature", "properties": {"layer": "0 - LINHAS DE QUADRA E LOTES", "dxf_type": "LINE"}, "geometry": {"type": "LineString", "coordinates": [[-54.986844665531706, -10.247889114100388], [-54.986613876924864, -10.247607585847796]]}}, {"type": "Feature", "properties": {"layer": "0 - LINHAS DE QUADRA E LOTES", "dxf_type": "LINE"}, "geometry": {"type": "LineString", "coordinates": [[-54.986613876924864, -10.247607585847796], [-54.986501652555205, -10.247700109827322]]}}, {"type": "Feature", "properties": {"layer": "0 - LINHAS DE QUADRA E LOTES", "dxf_type": "LINE"}, "geometry": {"type": "LineString", "coordinates": [[-54.986844665531706, -10.247889114100388], [-54.98673179348373, -10.24798086129109]]}}, {"type": "Feature", "properties": {"layer": "0 - LINHAS DE QUADRA E LOTES", "dxf_type": "LINE"}, "geometry": {"type": "LineString", "coordinates": [[-54.98673179348373, -10.24798086129109], [-54.986501652555205, -10.247700109827322]]}}, {"type": "Feature", "properties": {"layer": "0 - LINHAS DE QUADRA E LOTES", "dxf_type": "LINE"}, "geometry": {"type": "LineString", "coordinates": [[-54.986501652555205, -10.247700109827322], [-54.986389428122685, -10.24779263375514]]}}, {"type": "Feature", "properties": {"layer": "0 - LINHAS DE QUADRA E LOTES", "dxf_type": "LINE"}, "geometry": {"type": "LineString", "coordinates": [[-54.98659766136516, -10.248047994127656], [-54.9863824137542, -10.247798416044851]]}}, {"type": "Feature", "properties": {"layer": "0 - LINHAS DE QUADRA E LOTES", "dxf_type": "LINE"}, "geometry": {"type": "LineString", "coordinates": [[-54.986277203632994, -10.247885156727385], [-54.98562416924546, -10.247088469906327]]}}, {"type": "Feature", "properties": {"layer": "0 - LINHAS DE QUADRA E LOTES", "dxf_type": "LINE"}, "geometry": {"type": "LineString", "coordinates": [[-54.986277203632994, -10.247885156727385], [-54.98619092179423, -10.247779895205637]]}}, {"type": "Feature", "properties": {"layer": "0 - LINHAS DE QUADRA E LOTES", "dxf_type": "LINE"}, "geometry": {"type": "LineString", "coordinates": [[-54.98619092179423, -10.247779895205637], [-54.98675204442495, -10.247317277256318]]}}, {"type": "Feature", "properties": {"layer": "0 - LINHAS DE QUADRA E LOTES", "dxf_type": "LINE"}, "geometry": {"type": "LineString", "coordinates": [[-54.986665762527856, -10.247212014952803], [-54.98610463728958, -10.24767463094258]]}}, {"type": "Feature", "properties": {"layer": "0 - LINHAS DE QUADRA E LOTES", "dxf_type": "LINE"}, "geometry": {"type": "LineString", "coordinates": [[-54.98657948067977, -10.247106753540484], [-54.98601835556024, -10.247569369395448]]}}, {"type": "Feature", "properties": {"layer": "0 - LINHAS DE QUADRA E LOTES", "dxf_type": "LINE"}, "geometry": {"type": "LineString", "coordinates": [[-54.9864931988864, -10.247001492115455], [-54.985932072984454, -10.247464106022182]]}}, {"type": "Feature", "properties": {"layer": "0 - LINHAS DE QUADRA E LOTES", "dxf_type": "LINE"}, "geometry": {"type": "LineString", "coordinates": [[-54.986212635675585, -10.24723279922753], [-54.98655776474789, -10.247653847844022]]}}, {"type": "Feature", "properties": {"layer": "0 - LINHAS DE QUADRA E LOTES", "dxf_type": "LINE"}, "geometry": {"type": "LineString", "coordinates": [[-54.9864931988864, -10.247001492115455], [-54.98640691714772, -10.246896230677745]]}}, {"type": "Feature", "properties": {"layer": "0 - LINHAS DE QUADRA E LOTES", "dxf_type": "LINE"}, "geometry": {"type": "LineString", "coordinates": [[-54.985932072984454, -10.247464106022182], [-54.98584579136453, -10.247358844449659]]}}, {"type": "Feature", "properties": {"layer": "0 - LINHAS DE QUADRA E LOTES", "dxf_type": "LINE"}, "geometry": {"type": "LineString", "coordinates": [[-54.98584579136453, -10.247358844449659], [-54.98640691714772, -10.246896230677745]]}}, {"type": "Feature", "properties": {"layer": "0 - LINHAS DE QUADRA E LOTES", "dxf_type": "LINE"}, "geometry": {"type": "LineString", "coordinates": [[-54.986212635675585, -10.24723279922753], [-54.98602856901171, -10.247008241219358]]}}, {"type": "Feature", "properties": {"layer": "0 - LINHAS DE QUADRA E LOTES", "dxf_type": "LINE"}, "geometry": {"type": "LineString", "coordinates": [[-54.98612635399628, -10.247127537722411], [-54.98595379171438, -10.246917014679736]]}}, {"type": "Feature", "properties": {"layer": "0 - LINHAS DE QUADRA E LOTES", "dxf_type": "LINE"}, "geometry": {"type": "LineString", "coordinates": [[-54.98584579136453, -10.247358844449659], [-54.985759509799315, -10.247253582864438]]}}, {"type": "Feature", "properties": {"layer": "0 - LINHAS DE QUADRA E LOTES", "dxf_type": "LINE"}, "geometry": {"type": "LineString", "coordinates": [[-54.98612635399628, -10.247127537722411], [-54.986040072371694, -10.247022276204603]]}}, {"type": "Feature", "properties": {"layer": "0 - LINHAS DE QUADRA E LOTES", "dxf_type": "LINE"}, "geometry": {"type": "LineString", "coordinates": [[-54.986040072371694, -10.247022276204603], [-54.985759509799315, -10.247253582864438]]}}, {"type": "Feature", "properties": {"layer": "0 - LINHAS DE QUADRA E LOTES", "dxf_type": "LINE"}, "geometry": {"type": "LineString", "coordinates": [[-54.98640691714772, -10.246896230677745], [-54.986353974607496, -10.246831642327194]]}}, {"type": "Feature", "properties": {"layer": "0 - LINHAS DE QUADRA E LOTES", "dxf_type": "LINE"}, "geometry": {"type": "LineString", "coordinates": [[-54.986353974607496, -10.246831642327194], [-54.986239658537585, -10.2468577298501]]}}, {"type": "Feature", "properties": {"layer": "0 - LINHAS DE QUADRA E LOTES", "dxf_type": "LINE"}, "geometry": {"type": "LineString", "coordinates": [[-54.98595379171438, -10.246917014679736], [-54.986239658537585, -10.2468577298501]]}}, {"type": "Feature", "properties": {"layer": "0 - LINHAS DE QUADRA E LOTES", "dxf_type": "LINE"}, "geometry": {"type": "LineString", "coordinates": [[-54.98659840953072, -10.246914752201269], [-54.98649899786366, -10.246793472490763]]}}, {"type": "Feature", "properties": {"layer": "0 - LINHAS DE QUADRA E LOTES", "dxf_type": "LINE"}, "geometry": {"type": "LineString", "coordinates": [[-54.986772415289295, -10.246414336582509], [-54.9866735338854, -10.246432550949532]]}}, {"type": "Feature", "properties": {"layer": "0 - LINHAS DE QUADRA E LOTES", "dxf_type": "LINE"}, "geometry": {"type": "LineString", "coordinates": [[-54.9866735338854, -10.246432550949532], [-54.985926841022206, -10.246586902615858]]}}, {"type": "Feature", "properties": {"layer": "0 - LINHAS DE QUADRA E LOTES", "dxf_type": "LINE"}, "geometry": {"type": "LineString", "coordinates": [[-54.98691486597209, -10.24611863893763], [-54.986635419899216, -10.246351266936376]]}}, {"type": "Feature", "properties": {"layer": "0 - LINHAS DE QUADRA E LOTES", "dxf_type": "LINE"}, "geometry": {"type": "LineString", "coordinates": [[-54.986635419899216, -10.246351266936376], [-54.98619504873405, -10.245832294813384]]}}, {"type": "Feature", "properties": {"layer": "0 - LINHAS DE QUADRA E LOTES", "dxf_type": "LINE"}, "geometry": {"type": "LineString", "coordinates": [[-54.986635419899216, -10.246351266936376], [-54.98670022137975, -10.246427634418783]]}}, {"type": "Feature", "properties": {"layer": "0 - LINHAS DE QUADRA E LOTES", "dxf_type": "LINE"}, "geometry": {"type": "LineString", "coordinates": [[-54.98904455477231, -10.245467462095927], [-54.98914138412106, -10.245581573359116]]}}, {"type": "Feature", "properties": {"layer": "0 - LINHAS DE QUADRA E LOTES", "dxf_type": "LINE"}, "geometry": {"type": "LineString", "coordinates": [[-54.98914138412106, -10.245581573359116], [-54.98932930172453, -10.245728020753962]]}}, {"type": "Feature", "properties": {"layer": "0 - LINHAS DE QUADRA E LOTES", "dxf_type": "LINE"}, "geometry": {"type": "LineString", "coordinates": [[-54.98932930172453, -10.245728020753962], [-54.98880722796307, -10.246039517612632]]}}, {"type": "Feature", "properties": {"layer": "0 - LINHAS DE QUADRA E LOTES", "dxf_type": "LINE"}, "geometry": {"type": "LineString", "coordinates": [[-54.98880722796307, -10.246039517612632], [-54.98862722712817, -10.2458000704504]]}}, {"type": "Feature", "properties": {"layer": "0 - LINHAS DE QUADRA E LOTES", "dxf_type": "LINE"}, "geometry": {"type": "LineString", "coordinates": [[-54.98879308161964, -10.246020699090561], [-54.98869760454048, -10.246071735670943]]}}, {"type": "Feature", "properties": {"layer": "0 - LINHAS DE QUADRA E LOTES", "dxf_type": "LINE"}, "geometry": {"type": "LineString", "coordinates": [[-54.98869760454048, -10.246071735670943], [-54.98814327955539, -10.246180467235583]]}}, {"type": "Feature", "properties": {"layer": "0 - LINHAS DE QUADRA E LOTES", "dxf_type": "LINE"}, "geometry": {"type": "LineString", "coordinates": [[-54.98814327955539, -10.246180467235583], [-54.987541770059316, -10.246246180184135]]}}, {"type": "Feature", "properties": {"layer": "0 - LINHAS DE QUADRA E LOTES", "dxf_type": "LINE"}, "geometry": {"type": "LineString", "coordinates": [[-54.987541770059316, -10.246246180184135], [-54.98733211629928, -10.24625914147169]]}}, {"type": "Feature", "properties": {"layer": "0 - LINHAS DE QUADRA E LOTES", "dxf_type": "LINE"}, "geometry": {"type": "LineString", "coordinates": [[-54.98668469134637, -10.247020013601023], [-54.98659840953072, -10.246914752201269]]}}, {"type": "Feature", "properties": {"layer": "0 - LINHAS DE QUADRA E LOTES", "dxf_type": "LINE"}, "geometry": {"type": "LineString", "coordinates": [[-54.986965290784795, -10.246788673663621], [-54.986925028898135, -10.246739549499004]]}}, {"type": "Feature", "properties": {"layer": "0 - LINHAS DE QUADRA E LOTES", "dxf_type": "LINE"}, "geometry": {"type": "LineString", "coordinates": [[-54.9868064601338, -10.2467432253832], [-54.98659840953072, -10.246914752201269]]}}, {"type": "Feature", "properties": {"layer": "0 - LINHAS DE QUADRA E LOTES", "dxf_type": "LINE"}, "geometry": {"type": "LineString", "coordinates": [[-54.9870551644218, -10.24671500594957], [-54.98696559869853, -10.2467890497924]]}}, {"type": "Feature", "properties": {"layer": "0 - LINHAS DE QUADRA E LOTES", "dxf_type": "LINE"}, "geometry": {"type": "LineString", "coordinates": [[-54.986040072371694, -10.247022276204603], [-54.986239658537585, -10.2468577298501]]}}, {"type": "Feature", "properties": {"layer": "0 - LINHAS DE QUADRA E LOTES", "dxf_type": "LINE"}, "geometry": {"type": "LineString", "coordinates": [[-54.985759509799315, -10.247253582864438], [-54.98567322828881, -10.247148321266511]]}}, {"type": "Feature", "properties": {"layer": "0 - LINHAS DE QUADRA E LOTES", "dxf_type": "LINE"}, "geometry": {"type": "LineString", "coordinates": [[-54.986040072371694, -10.247022276204603], [-54.98595379171438, -10.246917014679736]]}}, {"type": "Feature", "properties": {"layer": "0 - LINHAS DE QUADRA E LOTES", "dxf_type": "LINE"}, "geometry": {"type": "LineString", "coordinates": [[-54.98595379171438, -10.246917014679736], [-54.98567322828881, -10.247148321266511]]}}, {"type": "Feature", "properties": {"layer": "0 - LINHAS DE QUADRA E LOTES", "dxf_type": "LINE"}, "geometry": {"type": "LineString", "coordinates": [[-54.99512784967967, -10.244465829894565], [-54.995090001101055, -10.244498482984326]]}}, {"type": "Feature", "properties": {"layer": "0 - LINHAS DE QUADRA E LOTES", "dxf_type": "LINE"}, "geometry": {"type": "LineString", "coordinates": [[-54.99508471271563, -10.244502953711454], [-54.9949613231074, -10.244366516828972]]}}, {"type": "Feature", "properties": {"layer": "0 - LINHAS DE QUADRA E LOTES", "dxf_type": "LINE"}, "geometry": {"type": "LineString", "coordinates": [[-54.99491404426827, -10.244372790441787], [-54.9949621336501, -10.244329908473759]]}}, {"type": "Feature", "properties": {"layer": "0 - LINHAS DE QUADRA E LOTES", "dxf_type": "LINE"}, "geometry": {"type": "LineString", "coordinates": [[-54.99499946561335, -10.24431947874592], [-54.994966156030195, -10.244339409092186]]}}, {"type": "Feature", "properties": {"layer": "0 - LINHAS DE QUADRA E LOTES", "dxf_type": "LINE"}, "geometry": {"type": "LineString", "coordinates": [[-54.994966156030195, -10.244339409092186], [-54.9949613231074, -10.244366516828972]]}}, {"type": "Feature", "properties": {"layer": "0 - LINHAS DE QUADRA E LOTES", "dxf_type": "LINE"}, "geometry": {"type": "LineString", "coordinates": [[-54.99508471271563, -10.244502953711454], [-54.995043447658794, -10.244538601209022]]}}, {"type": "Feature", "properties": {"layer": "0 - LINHAS DE QUADRA E LOTES", "dxf_type": "LINE"}, "geometry": {"type": "LineString", "coordinates": [[-54.995043447658794, -10.244538601209022], [-54.99491404426827, -10.244372790441787]]}}, {"type": "Feature", "properties": {"layer": "0 - LINHAS DE QUADRA E LOTES", "dxf_type": "LINE"}, "geometry": {"type": "LineString", "coordinates": [[-54.98735242013803, -10.244868826471128], [-54.98717776779322, -10.245014219651058]]}}, {"type": "Feature", "properties": {"layer": "0 - LINHAS DE QUADRA E LOTES", "dxf_type": "LINE"}, "geometry": {"type": "LineString", "coordinates": [[-54.98717776779322, -10.245014219651058], [-54.98707297558463, -10.245101455132708]]}}, {"type": "Feature", "properties": {"layer": "0 - LINHAS DE QUADRA E LOTES", "dxf_type": "LINE"}, "geometry": {"type": "LineString", "coordinates": [[-54.98664914931051, -10.245454275401656], [-54.986844760775355, -10.24529143571221]]}}, {"type": "Feature", "properties": {"layer": "0 - LINHAS DE QUADRA E LOTES", "dxf_type": "LINE"}, "geometry": {"type": "LineString", "coordinates": [[-54.98664914931051, -10.245454275401656], [-54.98692859446188, -10.245221647227297]]}}, {"type": "Feature", "properties": {"layer": "0 - LINHAS DE QUADRA E LOTES", "dxf_type": "LINE"}, "geometry": {"type": "LineString", "coordinates": [[-54.9867289600131, -10.2449863795168], [-54.98692859446188, -10.245221647227297]]}}, {"type": "Feature", "properties": {"layer": "0 - LINHAS DE QUADRA E LOTES", "dxf_type": "LINE"}, "geometry": {"type": "LineString", "coordinates": [[-54.98692859446188, -10.245221647227297], [-54.9870264005396, -10.245140226840698]]}}, {"type": "Feature", "properties": {"layer": "0 - LINHAS DE QUADRA E LOTES", "dxf_type": "LINE"}, "geometry": {"type": "LineString", "coordinates": [[-54.9870264005396, -10.245140226840698], [-54.986826766040565, -10.244904960089045]]}}, {"type": "Feature", "properties": {"layer": "0 - LINHAS DE QUADRA E LOTES", "dxf_type": "LINE"}, "geometry": {"type": "LineString", "coordinates": [[-54.9870264005396, -10.245140226840698], [-54.98720105392475, -10.244994834679066]]}}, {"type": "Feature", "properties": {"layer": "0 - LINHAS DE QUADRA E LOTES", "dxf_type": "LINE"}, "geometry": {"type": "LineString", "coordinates": [[-54.98720105392475, -10.244994834679066], [-54.98700141935188, -10.244759567121687]]}}, {"type": "Feature", "properties": {"layer": "0 - LINHAS DE QUADRA E LOTES", "dxf_type": "LINE"}, "geometry": {"type": "LineString", "coordinates": [[-54.99511041062669, -10.2434371170517], [-54.99505387182523, -10.24348286573546]]}}, {"type": "Feature", "properties": {"layer": "0 - LINHAS DE QUADRA E LOTES", "dxf_type": "LINE"}, "geometry": {"type": "LineString", "coordinates": [[-54.99523293276851, -10.243578680950614], [-54.99517428263184, -10.24362174373842]]}}, {"type": "Feature", "properties": {"layer": "0 - LINHAS DE QUADRA E LOTES", "dxf_type": "LINE"}, "geometry": {"type": "LineString", "coordinates": [[-54.99517428263184, -10.24362174373842], [-54.99505387182523, -10.24348286573546]]}}, {"type": "Feature", "properties": {"layer": "0 - LINHAS DE QUADRA E LOTES", "dxf_type": "LINE"}, "geometry": {"type": "LineString", "coordinates": [[-54.990216779584934, -10.244786293447513], [-54.99030844744516, -10.244711699212855]]}}, {"type": "Feature", "properties": {"layer": "0 - LINHAS DE QUADRA E LOTES", "dxf_type": "LINE"}, "geometry": {"type": "LineString", "coordinates": [[-54.990361607293146, -10.244960899427905], [-54.990460488679744, -10.244880763521655]]}}, {"type": "Feature", "properties": {"layer": "0 - LINHAS DE QUADRA E LOTES", "dxf_type": "LINE"}, "geometry": {"type": "LineString", "coordinates": [[-54.990460488679744, -10.244880763521655], [-54.99030844744516, -10.244711699212855]]}}, {"type": "Feature", "properties": {"layer": "0 - LINHAS DE QUADRA E LOTES", "dxf_type": "LINE"}, "geometry": {"type": "LineString", "coordinates": [[-54.99030844744516, -10.244711699212855], [-54.990371909777856, -10.244660058281804]]}}, {"type": "Feature", "properties": {"layer": "0 - LINHAS DE QUADRA E LOTES", "dxf_type": "LINE"}, "geometry": {"type": "LineString", "coordinates": [[-54.99046031830058, -10.244880574453271], [-54.9905167292875, -10.244834670475969]]}}, {"type": "Feature", "properties": {"layer": "0 - LINHAS DE QUADRA E LOTES", "dxf_type": "LINE"}, "geometry": {"type": "LineString", "coordinates": [[-54.9905167292875, -10.244834670475969], [-54.990371909777856, -10.244660058281804]]}}, {"type": "Feature", "properties": {"layer": "0 - LINHAS DE QUADRA E LOTES", "dxf_type": "LINE"}, "geometry": {"type": "LineString", "coordinates": [[-54.99056934803683, -10.24449939479049], [-54.99045652619638, -10.244591202777572]]}}, {"type": "Feature", "properties": {"layer": "0 - LINHAS DE QUADRA E LOTES", "dxf_type": "LINE"}, "geometry": {"type": "LineString", "coordinates": [[-54.99071417586878, -10.244674000628505], [-54.99060135398874, -10.24476580866116]]}}, {"type": "Feature", "properties": {"layer": "0 - LINHAS DE QUADRA E LOTES", "dxf_type": "LINE"}, "geometry": {"type": "LineString", "coordinates": [[-54.99060135398874, -10.24476580866116], [-54.99045652619638, -10.244591202777572]]}}, {"type": "Feature", "properties": {"layer": "0 - LINHAS DE QUADRA E LOTES", "dxf_type": "LINE"}, "geometry": {"type": "LineString", "coordinates": [[-54.98147350163412, -10.245925315597171], [-54.981618077503484, -10.24602470023426]]}}, {"type": "Feature", "properties": {"layer": "0 - LINHAS DE QUADRA E LOTES", "dxf_type": "LINE"}, "geometry": {"type": "LineString", "coordinates": [[-54.981618077503484, -10.24602470023426], [-54.98182082159354, -10.246226561226571]]}}, {"type": "Feature", "properties": {"layer": "0 - LINHAS DE QUADRA E LOTES", "dxf_type": "LINE"}, "geometry": {"type": "LineString", "coordinates": [[-54.98147350163412, -10.245925315597171], [-54.98125109421216, -10.245775761207014]]}}, {"type": "Feature", "properties": {"layer": "0 - LINHAS DE QUADRA E LOTES", "dxf_type": "LINE"}, "geometry": {"type": "LineString", "coordinates": [[-54.98125109421216, -10.245775761207014], [-54.98108062569326, -10.245916182346303]]}}, {"type": "Feature", "properties": {"layer": "0 - LINHAS DE QUADRA E LOTES", "dxf_type": "LINE"}, "geometry": {"type": "LineString", "coordinates": [[-54.98115202104206, -10.246000323713758], [-54.98132557531428, -10.24582584502432]]}}, {"type": "Feature", "properties": {"layer": "0 - LINHAS DE QUADRA E LOTES", "dxf_type": "LINE"}, "geometry": {"type": "LineString", "coordinates": [[-54.98121388961462, -10.246073237139761], [-54.98141697443418, -10.245887304794635]]}}, {"type": "Feature", "properties": {"layer": "0 - LINHAS DE QUADRA E LOTES", "dxf_type": "LINE"}, "geometry": {"type": "LineString", "coordinates": [[-54.981346312120266, -10.246229301409317], [-54.981618077503484, -10.24602470023426]]}}, {"type": "Feature", "properties": {"layer": "0 - LINHAS DE QUADRA E LOTES", "dxf_type": "LINE"}, "geometry": {"type": "LineString", "coordinates": [[-54.98127847575991, -10.246149353734356], [-54.98151476630937, -10.24595368176394]]}}, {"type": "Feature", "properties": {"layer": "0 - LINHAS DE QUADRA E LOTES", "dxf_type": "LINE"}, "geometry": {"type": "LineString", "coordinates": [[-54.98125109421216, -10.245775761207014], [-54.98112877411337, -10.245621912801727]]}}, {"type": "Feature", "properties": {"layer": "0 - LINHAS DE QUADRA E LOTES", "dxf_type": "LINE"}, "geometry": {"type": "LineString", "coordinates": [[-54.98168403201403, -10.246340429573063], [-54.98149142009715, -10.24612005596756]]}}, {"type": "Feature", "properties": {"layer": "0 - LINHAS DE QUADRA E LOTES", "dxf_type": "LINE"}, "geometry": {"type": "LineString", "coordinates": [[-54.981042509024206, -10.245693722759272], [-54.9811658595174, -10.245845971336799]]}}]}