{"type": "FeatureCollection", "name": "0_meio_fio", "crs": {"type": "name", "properties": {"name": "urn:ogc:def:crs:OGC:1.3:CRS84"}}, "properties": {"source": "8be78050_MAPA TRIBUTAÇÃO 2021 (1).dxf", "assumed_crs": "EPSG:4326", "local_crs": false, "note": "Coordenadas locais do desenho (sem CRS). Use base 'Só CAD' no mapa.", "extent": [4300.4554, 2373.7696, 8215.3349, 6186.7838], "georef": true, "transform": {"scale": 1, "rotation_deg": 0, "tx": 713717.6034368816, "ty": 8862616.121289995, "rmse_m": 0, "epsg": 31981}, "layer": "0 - Meio Fio", "source_file": "8be78050_MAPA TRIBUTAÇÃO 2021 (1)_georef.geojson", "n_features": 443}, "features": [{"type": "Feature", "properties": {"layer": "0 - Meio Fio", "dxf_type": "LINE"}, "geometry": {"type": "LineString", "coordinates": [[-54.99795309981418, -10.238770960900755], [-54.99829547920339, -10.238482982481319]]}}, {"type": "Feature", "properties": {"layer": "0 - Meio Fio", "dxf_type": "LINE"}, "geometry": {"type": "LineString", "coordinates": [[-54.99829123489181, -10.23844905379665], [-54.99805684505701, -10.238192275576624]]}}, {"type": "Feature", "properties": {"layer": "0 - Meio Fio", "dxf_type": "LINE"}, "geometry": {"type": "LineString", "coordinates": [[-54.99805684505701, -10.238192275576624], [-54.99779253453472, -10.237878889289314]]}}, {"type": "Feature", "properties": {"layer": "0 - Meio Fio", "dxf_type": "LINE"}, "geometry": {"type": "LineString", "coordinates": [[-54.99779253453472, -10.237878889289314], [-54.99759011808353, -10.237633757649427]]}}, {"type": "Feature", "properties": {"layer": "0 - Meio Fio", "dxf_type": "LINE"}, "geometry": {"type": "LineString", "coordinates": [[-54.99759011808353, -10.237633757649427], [-54.99740018553948, -10.23740501769586]]}}, {"type": "Feature", "properties": {"layer": "0 - Meio Fio", "dxf_type": "LINE"}, "geometry": {"type": "LineString", "coordinates": [[-54.99740018553948, -10.23740501769586], [-54.99717127449482, -10.237122644783936]]}}, {"type": "Feature", "properties": {"layer": "0 - Meio Fio", "dxf_type": "LINE"}, "geometry": {"type": "LineString", "coordinates": [[-54.99712782836049, -10.237105558024982], [-54.9968042804341, -10.237373732413733]]}}, {"type": "Feature", "properties": {"layer": "0 - Meio Fio", "dxf_type": "LINE"}, "geometry": {"type": "LineString", "coordinates": [[-54.99677812847293, -10.237478694933985], [-54.99705936536391, -10.23781765767479]]}}, {"type": "Feature", "properties": {"layer": "0 - Meio Fio", "dxf_type": "LINE"}, "geometry": {"type": "LineString", "coordinates": [[-54.99705936536391, -10.23781765767479], [-54.99766513132608, -10.238551481188011]]}}, {"type": "Feature", "properties": {"layer": "0 - Meio Fio", "dxf_type": "LINE"}, "geometry": {"type": "LineString", "coordinates": [[-54.99766513132608, -10.238551481188011], [-54.99785789513093, -10.238775913284204]]}}, {"type": "Feature", "properties": {"layer": "0 - Meio Fio", "dxf_type": "LINE"}, "geometry": {"type": "LineString", "coordinates": [[-54.998388738140726, -10.238410371026818], [-54.998738825945985, -10.238115618408377]]}}, {"type": "Feature", "properties": {"layer": "0 - Meio Fio", "dxf_type": "LINE"}, "geometry": {"type": "LineString", "coordinates": [[-54.99832353753774, -10.23838452076773], [-54.99790442120666, -10.23789734811637]]}}, {"type": "Feature", "properties": {"layer": "0 - Meio Fio", "dxf_type": "LINE"}, "geometry": {"type": "LineString", "coordinates": [[-54.99790442120666, -10.23789734811637], [-54.9976676122144, -10.237605455499516]]}}, {"type": "Feature", "properties": {"layer": "0 - Meio Fio", "dxf_type": "LINE"}, "geometry": {"type": "LineString", "coordinates": [[-54.9976676122144, -10.237605455499516], [-54.99721852778999, -10.23706078190221]]}}, {"type": "Feature", "properties": {"layer": "0 - Meio Fio", "dxf_type": "LINE"}, "geometry": {"type": "LineString", "coordinates": [[-54.998325604481835, -10.237569222156539], [-54.998741779280394, -10.238042672726817]]}}, {"type": "Feature", "properties": {"layer": "0 - Meio Fio", "dxf_type": "LINE"}, "geometry": {"type": "LineString", "coordinates": [[-54.998325604481835, -10.237569222156539], [-54.99787181042815, -10.237048897303675]]}}, {"type": "Feature", "properties": {"layer": "0 - Meio Fio", "dxf_type": "LINE"}, "geometry": {"type": "LineString", "coordinates": [[-54.99787181042815, -10.237048897303675], [-54.99760575301185, -10.236742966711297]]}}, {"type": "Feature", "properties": {"layer": "0 - Meio Fio", "dxf_type": "LINE"}, "geometry": {"type": "LineString", "coordinates": [[-54.997564571966464, -10.236735913044733], [-54.99722268024705, -10.23701770207053]]}}, {"type": "Feature", "properties": {"layer": "0 - Meio Fio", "dxf_type": "LINE"}, "geometry": {"type": "LineString", "coordinates": [[-54.997674390816144, -10.23668634793677], [-54.99792194082084, -10.236987497631803]]}}, {"type": "Feature", "properties": {"layer": "0 - Meio Fio", "dxf_type": "LINE"}, "geometry": {"type": "LineString", "coordinates": [[-54.99792194082084, -10.236987497631803], [-54.99833269895302, -10.237497628932331]]}}, {"type": "Feature", "properties": {"layer": "0 - Meio Fio", "dxf_type": "LINE"}, "geometry": {"type": "LineString", "coordinates": [[-54.99833269895302, -10.237497628932331], [-54.99866110329787, -10.237861040885276]]}}, {"type": "Feature", "properties": {"layer": "0 - Meio Fio", "dxf_type": "LINE"}, "geometry": {"type": "LineString", "coordinates": [[-54.99866110329787, -10.237861040885276], [-54.998808638168335, -10.238034737181007]]}}, {"type": "Feature", "properties": {"layer": "0 - Meio Fio", "dxf_type": "LINE"}, "geometry": {"type": "LineString", "coordinates": [[-54.99933759373347, -10.237950446445858], [-54.99934685588282, -10.237572017590855]]}}, {"type": "Feature", "properties": {"layer": "0 - Meio Fio", "dxf_type": "LINE"}, "geometry": {"type": "LineString", "coordinates": [[-54.99934685588282, -10.237572017590855], [-54.99935010244588, -10.236817302209522]]}}, {"type": "Feature", "properties": {"layer": "0 - Meio Fio", "dxf_type": "LINE"}, "geometry": {"type": "LineString", "coordinates": [[-54.99935010244588, -10.236817302209522], [-54.999346949498936, -10.236223211892838]]}}, {"type": "Feature", "properties": {"layer": "0 - Meio Fio", "dxf_type": "LINE"}, "geometry": {"type": "LineString", "coordinates": [[-54.999346949498936, -10.236223211892838], [-54.99933983742418, -10.235716076450846]]}}, {"type": "Feature", "properties": {"layer": "0 - Meio Fio", "dxf_type": "LINE"}, "geometry": {"type": "LineString", "coordinates": [[-54.999269454394806, -10.235676431446207], [-54.99913665630012, -10.235699483908126]]}}, {"type": "Feature", "properties": {"layer": "0 - Meio Fio", "dxf_type": "LINE"}, "geometry": {"type": "LineString", "coordinates": [[-54.99913665630012, -10.235699483908126], [-54.99897611565446, -10.235751348232315]]}}, {"type": "Feature", "properties": {"layer": "0 - Meio Fio", "dxf_type": "LINE"}, "geometry": {"type": "LineString", "coordinates": [[-54.99897611565446, -10.235751348232315], [-54.99882053697221, -10.235835634206195]]}}, {"type": "Feature", "properties": {"layer": "0 - Meio Fio", "dxf_type": "LINE"}, "geometry": {"type": "LineString", "coordinates": [[-54.99882053697221, -10.235835634206195], [-54.99868392168043, -10.235918334638917]]}}, {"type": "Feature", "properties": {"layer": "0 - Meio Fio", "dxf_type": "LINE"}, "geometry": {"type": "LineString", "coordinates": [[-54.99868392168043, -10.235918334638917], [-54.99852315460579, -10.236005999033685]]}}, {"type": "Feature", "properties": {"layer": "0 - Meio Fio", "dxf_type": "LINE"}, "geometry": {"type": "LineString", "coordinates": [[-54.99852315460579, -10.236005999033685], [-54.99836931111013, -10.236088592426238]]}}, {"type": "Feature", "properties": {"layer": "0 - Meio Fio", "dxf_type": "LINE"}, "geometry": {"type": "LineString", "coordinates": [[-54.99836931111013, -10.236088592426238], [-54.998332995833316, -10.236110532334555]]}}, {"type": "Feature", "properties": {"layer": "0 - Meio Fio", "dxf_type": "LINE"}, "geometry": {"type": "LineString", "coordinates": [[-54.998332995833316, -10.236110532334555], [-54.99819625021682, -10.236213689320316]]}}, {"type": "Feature", "properties": {"layer": "0 - Meio Fio", "dxf_type": "LINE"}, "geometry": {"type": "LineString", "coordinates": [[-54.99819625021682, -10.236213689320316], [-54.99769051200361, -10.236627377548473]]}}, {"type": "Feature", "properties": {"layer": "0 - Meio Fio", "dxf_type": "LINE"}, "geometry": {"type": "LineString", "coordinates": [[-54.999438025369656, -10.2387764013276], [-54.999433005895625, -10.238173993400467]]}}, {"type": "Feature", "properties": {"layer": "0 - Meio Fio", "dxf_type": "LINE"}, "geometry": {"type": "LineString", "coordinates": [[-54.998835533867016, -10.238238981584146], [-54.99862714257515, -10.23841442306678]]}}, {"type": "Feature", "properties": {"layer": "0 - Meio Fio", "dxf_type": "LINE"}, "geometry": {"type": "LineString", "coordinates": [[-54.99944551217165, -10.23795617118063], [-54.99946380803102, -10.2375149741926]]}}, {"type": "Feature", "properties": {"layer": "0 - Meio Fio", "dxf_type": "LINE"}, "geometry": {"type": "LineString", "coordinates": [[-54.997738180942356, -10.238763547462606], [-54.99748605947406, -10.238460997138251]]}}, {"type": "Feature", "properties": {"layer": "0 - Meio Fio", "dxf_type": "LINE"}, "geometry": {"type": "LineString", "coordinates": [[-54.99748605947406, -10.238460997138251], [-54.997168183573194, -10.23807930926073]]}}, {"type": "Feature", "properties": {"layer": "0 - Meio Fio", "dxf_type": "LINE"}, "geometry": {"type": "LineString", "coordinates": [[-54.997168183573194, -10.23807930926073], [-54.996869426403826, -10.237720576541966]]}}, {"type": "Feature", "properties": {"layer": "0 - Meio Fio", "dxf_type": "LINE"}, "geometry": {"type": "LineString", "coordinates": [[-54.996869426403826, -10.237720576541966], [-54.99681630797986, -10.237656763335767]]}}, {"type": "Feature", "properties": {"layer": "0 - Meio Fio", "dxf_type": "LINE"}, "geometry": {"type": "LineString", "coordinates": [[-54.996762786043, -10.237657536560876], [-54.9963671825442, -10.237981693121663]]}}, {"type": "Feature", "properties": {"layer": "0 - Meio Fio", "dxf_type": "LINE"}, "geometry": {"type": "LineString", "coordinates": [[-54.996319773937294, -10.237939741133156], [-54.996694808316875, -10.237639172391123]]}}, {"type": "Feature", "properties": {"layer": "0 - Meio Fio", "dxf_type": "LINE"}, "geometry": {"type": "LineString", "coordinates": [[-54.996694808316875, -10.237639172391123], [-54.99671947448415, -10.23761725770884]]}}, {"type": "Feature", "properties": {"layer": "0 - Meio Fio", "dxf_type": "LINE"}, "geometry": {"type": "LineString", "coordinates": [[-54.99672328897162, -10.237542252869977], [-54.99639654151498, -10.237145477689575]]}}, {"type": "Feature", "properties": {"layer": "0 - Meio Fio", "dxf_type": "LINE"}, "geometry": {"type": "LineString", "coordinates": [[-54.99639654151498, -10.237145477689575], [-54.996113178921014, -10.23680065674339]]}}, {"type": "Feature", "properties": {"layer": "0 - Meio Fio", "dxf_type": "LINE"}, "geometry": {"type": "LineString", "coordinates": [[-54.996113178921014, -10.23680065674339], [-54.99597108577421, -10.236627743359398]]}}, {"type": "Feature", "properties": {"layer": "0 - Meio Fio", "dxf_type": "LINE"}, "geometry": {"type": "LineString", "coordinates": [[-54.99597108577421, -10.236627743359398], [-54.99563762077476, -10.236221951317754]]}}, {"type": "Feature", "properties": {"layer": "0 - Meio Fio", "dxf_type": "LINE"}, "geometry": {"type": "LineString", "coordinates": [[-54.99563762077476, -10.236221951317754], [-54.99522083731696, -10.235714767102609]]}}, {"type": "Feature", "properties": {"layer": "0 - Meio Fio", "dxf_type": "LINE"}, "geometry": {"type": "LineString", "coordinates": [[-54.99522083731696, -10.235714767102609], [-54.99511323443494, -10.235585150561464]]}}, {"type": "Feature", "properties": {"layer": "0 - Meio Fio", "dxf_type": "LINE"}, "geometry": {"type": "LineString", "coordinates": [[-54.99501068803267, -10.23559666380963], [-54.994938733534596, -10.235656230927685]]}}, {"type": "Feature", "properties": {"layer": "0 - Meio Fio", "dxf_type": "LINE"}, "geometry": {"type": "LineString", "coordinates": [[-54.99706093265219, -10.237045807251386], [-54.9967118943061, -10.237335643513362]]}}, {"type": "Feature", "properties": {"layer": "0 - Meio Fio", "dxf_type": "LINE"}, "geometry": {"type": "LineString", "coordinates": [[-54.9961240476344, -10.23669108146372], [-54.99665262678819, -10.237319254721315]]}}, {"type": "Feature", "properties": {"layer": "0 - Meio Fio", "dxf_type": "LINE"}, "geometry": {"type": "LineString", "coordinates": [[-54.997047091960006, -10.236980710073759], [-54.996885007664886, -10.236785876709206]]}}, {"type": "Feature", "properties": {"layer": "0 - Meio Fio", "dxf_type": "LINE"}, "geometry": {"type": "LineString", "coordinates": [[-54.996885007664886, -10.236785876709206], [-54.99659279204987, -10.236440272166918]]}}, {"type": "Feature", "properties": {"layer": "0 - Meio Fio", "dxf_type": "LINE"}, "geometry": {"type": "LineString", "coordinates": [[-54.99659279204987, -10.236440272166918], [-54.9963090267009, -10.23610178909029]]}}, {"type": "Feature", "properties": {"layer": "0 - Meio Fio", "dxf_type": "LINE"}, "geometry": {"type": "LineString", "coordinates": [[-54.99609406426802, -10.236207618082732], [-54.996245994223074, -10.236081310334809]]}}, {"type": "Feature", "properties": {"layer": "0 - Meio Fio", "dxf_type": "LINE"}, "geometry": {"type": "LineString", "coordinates": [[-54.99609406426802, -10.236207618082732], [-54.99591383305277, -10.236350496586589]]}}, {"type": "Feature", "properties": {"layer": "0 - Meio Fio", "dxf_type": "LINE"}, "geometry": {"type": "LineString", "coordinates": [[-54.99590434818102, -10.23642410515409], [-54.9961240476344, -10.23669108146372]]}}, {"type": "Feature", "properties": {"layer": "0 - Meio Fio", "dxf_type": "LINE"}, "geometry": {"type": "LineString", "coordinates": [[-54.99712605430126, -10.23694208161133], [-54.99678327657836, -10.236550193284593]]}}, {"type": "Feature", "properties": {"layer": "0 - Meio Fio", "dxf_type": "LINE"}, "geometry": {"type": "LineString", "coordinates": [[-54.99678327657836, -10.236550193284593], [-54.996472903428, -10.236174213556772]]}}, {"type": "Feature", "properties": {"layer": "0 - Meio Fio", "dxf_type": "LINE"}, "geometry": {"type": "LineString", "coordinates": [[-54.996472903428, -10.236174213556772], [-54.99635883311945, -10.236030223979663]]}}, {"type": "Feature", "properties": {"layer": "0 - Meio Fio", "dxf_type": "LINE"}, "geometry": {"type": "LineString", "coordinates": [[-54.99637370377691, -10.235974089734329], [-54.99669595297981, -10.235711678209793]]}}, {"type": "Feature", "properties": {"layer": "0 - Meio Fio", "dxf_type": "LINE"}, "geometry": {"type": "LineString", "coordinates": [[-54.996752744499425, -10.235719902829926], [-54.99692538318935, -10.235927982140247]]}}, {"type": "Feature", "properties": {"layer": "0 - Meio Fio", "dxf_type": "LINE"}, "geometry": {"type": "LineString", "coordinates": [[-54.99692538318935, -10.235927982140247], [-54.99742119472628, -10.23652301352435]]}}, {"type": "Feature", "properties": {"layer": "0 - Meio Fio", "dxf_type": "LINE"}, "geometry": {"type": "LineString", "coordinates": [[-54.99742119472628, -10.23652301352435], [-54.9974878428974, -10.236606801636357]]}}, {"type": "Feature", "properties": {"layer": "0 - Meio Fio", "dxf_type": "LINE"}, "geometry": {"type": "LineString", "coordinates": [[-54.99747557478804, -10.236691494268454], [-54.99716749514309, -10.236945546552326]]}}, {"type": "Feature", "properties": {"layer": "0 - Meio Fio", "dxf_type": "LINE"}, "geometry": {"type": "LineString", "coordinates": [[-54.997560536719995, -10.23655592335622], [-54.99710098958116, -10.23601130389485]]}}, {"type": "Feature", "properties": {"layer": "0 - Meio Fio", "dxf_type": "LINE"}, "geometry": {"type": "LineString", "coordinates": [[-54.99710098958116, -10.23601130389485], [-54.99686209975714, -10.235728027999738]]}}, {"type": "Feature", "properties": {"layer": "0 - Meio Fio", "dxf_type": "LINE"}, "geometry": {"type": "LineString", "coordinates": [[-54.99686209975714, -10.235728027999738], [-54.996811699117835, -10.235665838753652]]}}, {"type": "Feature", "properties": {"layer": "0 - Meio Fio", "dxf_type": "LINE"}, "geometry": {"type": "LineString", "coordinates": [[-54.99680628198271, -10.235613486328454], [-54.99713782197042, -10.235342564941051]]}}, {"type": "Feature", "properties": {"layer": "0 - Meio Fio", "dxf_type": "LINE"}, "geometry": {"type": "LineString", "coordinates": [[-54.99720994013979, -10.235343107354716], [-54.9979434932536, -10.236222756184263]]}}, {"type": "Feature", "properties": {"layer": "0 - Meio Fio", "dxf_type": "LINE"}, "geometry": {"type": "LineString", "coordinates": [[-54.99795016268954, -10.2363100231551], [-54.99763024351288, -10.236570238432869]]}}, {"type": "Feature", "properties": {"layer": "0 - Meio Fio", "dxf_type": "LINE"}, "geometry": {"type": "LineString", "coordinates": [[-54.998017875290905, -10.236183651823643], [-54.99776048760603, -10.23587848708449]]}}, {"type": "Feature", "properties": {"layer": "0 - Meio Fio", "dxf_type": "LINE"}, "geometry": {"type": "LineString", "coordinates": [[-54.99776048760603, -10.23587848708449], [-54.997550159776715, -10.23562001204096]]}}, {"type": "Feature", "properties": {"layer": "0 - Meio Fio", "dxf_type": "LINE"}, "geometry": {"type": "LineString", "coordinates": [[-54.997550159776715, -10.23562001204096], [-54.99730883429402, -10.235337857692299]]}}, {"type": "Feature", "properties": {"layer": "0 - Meio Fio", "dxf_type": "LINE"}, "geometry": {"type": "LineString", "coordinates": [[-54.99730883429402, -10.235337857692299], [-54.99727201882958, -10.235287955088648]]}}, {"type": "Feature", "properties": {"layer": "0 - Meio Fio", "dxf_type": "LINE"}, "geometry": {"type": "LineString", "coordinates": [[-54.997276982648465, -10.235235249839464], [-54.99761134415316, -10.234951432632814]]}}, {"type": "Feature", "properties": {"layer": "0 - Meio Fio", "dxf_type": "LINE"}, "geometry": {"type": "LineString", "coordinates": [[-54.997666846909866, -10.234967824228512], [-54.998393901812626, -10.235837068653783]]}}, {"type": "Feature", "properties": {"layer": "0 - Meio Fio", "dxf_type": "LINE"}, "geometry": {"type": "LineString", "coordinates": [[-54.99840713268391, -10.235947364597235], [-54.9980847191522, -10.23618677848558]]}}, {"type": "Feature", "properties": {"layer": "0 - Meio Fio", "dxf_type": "LINE"}, "geometry": {"type": "LineString", "coordinates": [[-54.998393901812626, -10.235837068653783], [-54.998425215209615, -10.235892554311029]]}}, {"type": "Feature", "properties": {"layer": "0 - Meio Fio", "dxf_type": "LINE"}, "geometry": {"type": "LineString", "coordinates": [[-54.998515889732516, -10.235874961282311], [-54.99813668607431, -10.235403595058047]]}}, {"type": "Feature", "properties": {"layer": "0 - Meio Fio", "dxf_type": "LINE"}, "geometry": {"type": "LineString", "coordinates": [[-54.99813668607431, -10.235403595058047], [-54.99788747470626, -10.235114709849002]]}}, {"type": "Feature", "properties": {"layer": "0 - Meio Fio", "dxf_type": "LINE"}, "geometry": {"type": "LineString", "coordinates": [[-54.99788747470626, -10.235114709849002], [-54.99772269555743, -10.234918296594568]]}}, {"type": "Feature", "properties": {"layer": "0 - Meio Fio", "dxf_type": "LINE"}, "geometry": {"type": "LineString", "coordinates": [[-54.997715991656094, -10.234866067308756], [-54.9980659334703, -10.234583619881827]]}}, {"type": "Feature", "properties": {"layer": "0 - Meio Fio", "dxf_type": "LINE"}, "geometry": {"type": "LineString", "coordinates": [[-54.99811857871015, -10.234597859649835], [-54.99864446922705, -10.235223007731852]]}}, {"type": "Feature", "properties": {"layer": "0 - Meio Fio", "dxf_type": "LINE"}, "geometry": {"type": "LineString", "coordinates": [[-54.99864446922705, -10.235223007731852], [-54.99878454941562, -10.235389526929179]]}}, {"type": "Feature", "properties": {"layer": "0 - Meio Fio", "dxf_type": "LINE"}, "geometry": {"type": "LineString", "coordinates": [[-54.99878454941562, -10.235389526929179], [-54.99893515920014, -10.235568561498994]]}}, {"type": "Feature", "properties": {"layer": "0 - Meio Fio", "dxf_type": "LINE"}, "geometry": {"type": "LineString", "coordinates": [[-54.99892515397444, -10.235659205159493], [-54.998587611746274, -10.235896799236073]]}}, {"type": "Feature", "properties": {"layer": "0 - Meio Fio", "dxf_type": "LINE"}, "geometry": {"type": "LineString", "coordinates": [[-54.9993244152363, -10.235570955071854], [-54.99932261124639, -10.234408520502734]]}}, {"type": "Feature", "properties": {"layer": "0 - Meio Fio", "dxf_type": "LINE"}, "geometry": {"type": "LineString", "coordinates": [[-54.99932261124639, -10.234408520502734], [-54.99929974086063, -10.23399988372474]]}}, {"type": "Feature", "properties": {"layer": "0 - Meio Fio", "dxf_type": "LINE"}, "geometry": {"type": "LineString", "coordinates": [[-54.999102596798245, -10.235634826466868], [-54.99927454417994, -10.235615809407959]]}}, {"type": "Feature", "properties": {"layer": "0 - Meio Fio", "dxf_type": "LINE"}, "geometry": {"type": "LineString", "coordinates": [[-54.999091700129874, -10.233860427179316], [-54.999299063608724, -10.233857901932847]]}}, {"type": "Feature", "properties": {"layer": "0 - Meio Fio", "dxf_type": "LINE"}, "geometry": {"type": "LineString", "coordinates": [[-54.99934358803144, -10.233799275919305], [-54.99934013834971, -10.233430658653585]]}}, {"type": "Feature", "properties": {"layer": "0 - Meio Fio", "dxf_type": "LINE"}, "geometry": {"type": "LineString", "coordinates": [[-54.99934013834971, -10.233430658653585], [-54.999334861869436, -10.233145460590363]]}}, {"type": "Feature", "properties": {"layer": "0 - Meio Fio", "dxf_type": "LINE"}, "geometry": {"type": "LineString", "coordinates": [[-54.999334861869436, -10.233145460590363], [-54.99932408708648, -10.232948090203504]]}}, {"type": "Feature", "properties": {"layer": "0 - Meio Fio", "dxf_type": "LINE"}, "geometry": {"type": "LineString", "coordinates": [[-54.99932408708648, -10.232948090203504], [-54.99929811659964, -10.232492084070909]]}}, {"type": "Feature", "properties": {"layer": "0 - Meio Fio", "dxf_type": "LINE"}, "geometry": {"type": "LineString", "coordinates": [[-54.99929811659964, -10.232492084070909], [-54.999275453852526, -10.23227399587642]]}}, {"type": "Feature", "properties": {"layer": "0 - Meio Fio", "dxf_type": "LINE"}, "geometry": {"type": "LineString", "coordinates": [[-54.99914490442194, -10.232216141290099], [-54.99897706005177, -10.232360116152595]]}}, {"type": "Feature", "properties": {"layer": "0 - Meio Fio", "dxf_type": "LINE"}, "geometry": {"type": "LineString", "coordinates": [[-54.99897706005177, -10.232360116152595], [-54.998497379245116, -10.23274745151518]]}}, {"type": "Feature", "properties": {"layer": "0 - Meio Fio", "dxf_type": "LINE"}, "geometry": {"type": "LineString", "coordinates": [[-54.998497379245116, -10.23274745151518], [-54.998359972552954, -10.232871611091136]]}}, {"type": "Feature", "properties": {"layer": "0 - Meio Fio", "dxf_type": "LINE"}, "geometry": {"type": "LineString", "coordinates": [[-54.99835245681354, -10.232919177266858], [-54.99850744837489, -10.233113670542838]]}}, {"type": "Feature", "properties": {"layer": "0 - Meio Fio", "dxf_type": "LINE"}, "geometry": {"type": "LineString", "coordinates": [[-54.99850744837489, -10.233113670542838], [-54.9987717429595, -10.23343433945732]]}}, {"type": "Feature", "properties": {"layer": "0 - Meio Fio", "dxf_type": "LINE"}, "geometry": {"type": "LineString", "coordinates": [[-54.99850042691692, -10.23402389982117], [-54.99791732642555, -10.233311338522732]]}}, {"type": "Feature", "properties": {"layer": "0 - Meio Fio", "dxf_type": "LINE"}, "geometry": {"type": "LineString", "coordinates": [[-54.998248391063015, -10.232956425228245], [-54.99789976736953, -10.233246733729176]]}}, {"type": "Feature", "properties": {"layer": "0 - Meio Fio", "dxf_type": "LINE"}, "geometry": {"type": "LineString", "coordinates": [[-54.99829473328621, -10.232966378616121], [-54.99863825441323, -10.233399829355072]]}}, {"type": "Feature", "properties": {"layer": "0 - Meio Fio", "dxf_type": "LINE"}, "geometry": {"type": "LineString", "coordinates": [[-54.99863825441323, -10.233399829355072], [-54.99886222499704, -10.233660233318686]]}}, {"type": "Feature", "properties": {"layer": "0 - Meio Fio", "dxf_type": "LINE"}, "geometry": {"type": "LineString", "coordinates": [[-54.99886222499704, -10.233660233318686], [-54.99888544743391, -10.233686736351636]]}}, {"type": "Feature", "properties": {"layer": "0 - Meio Fio", "dxf_type": "LINE"}, "geometry": {"type": "LineString", "coordinates": [[-54.99888544743391, -10.233686736351636], [-54.99894945525389, -10.233815413964537]]}}, {"type": "Feature", "properties": {"layer": "0 - Meio Fio", "dxf_type": "LINE"}, "geometry": {"type": "LineString", "coordinates": [[-54.99893083245204, -10.233860078970329], [-54.99856293989587, -10.23402240863622]]}}, {"type": "Feature", "properties": {"layer": "0 - Meio Fio", "dxf_type": "LINE"}, "geometry": {"type": "LineString", "coordinates": [[-54.99618936804426, -10.236001670400418], [-54.99585759885483, -10.236278348015817]]}}, {"type": "Feature", "properties": {"layer": "0 - Meio Fio", "dxf_type": "LINE"}, "geometry": {"type": "LineString", "coordinates": [[-54.995390360039025, -10.235801521451224], [-54.99579677658452, -10.236282884382982]]}}, {"type": "Feature", "properties": {"layer": "0 - Meio Fio", "dxf_type": "LINE"}, "geometry": {"type": "LineString", "coordinates": [[-54.995390360039025, -10.235801521451224], [-54.995168951037066, -10.235539281725167]]}}, {"type": "Feature", "properties": {"layer": "0 - Meio Fio", "dxf_type": "LINE"}, "geometry": {"type": "LineString", "coordinates": [[-54.995175094709225, -10.23546805072227], [-54.99545816035489, -10.235241414981289]]}}, {"type": "Feature", "properties": {"layer": "0 - Meio Fio", "dxf_type": "LINE"}, "geometry": {"type": "LineString", "coordinates": [[-54.99545816035489, -10.235241414981289], [-54.99551952253153, -10.235196057208714]]}}, {"type": "Feature", "properties": {"layer": "0 - Meio Fio", "dxf_type": "LINE"}, "geometry": {"type": "LineString", "coordinates": [[-54.99556603291488, -10.23520556010341], [-54.995661534293625, -10.23532366824949]]}}, {"type": "Feature", "properties": {"layer": "0 - Meio Fio", "dxf_type": "LINE"}, "geometry": {"type": "LineString", "coordinates": [[-54.995661534293625, -10.23532366824949], [-54.996190084657165, -10.23596921223127]]}}, {"type": "Feature", "properties": {"layer": "0 - Meio Fio", "dxf_type": "LINE"}, "geometry": {"type": "LineString", "coordinates": [[-54.99819551011497, -10.23456981047806], [-54.99837767674463, -10.234784883508292]]}}, {"type": "Feature", "properties": {"layer": "0 - Meio Fio", "dxf_type": "LINE"}, "geometry": {"type": "LineString", "coordinates": [[-54.99837767674463, -10.234784883508292], [-54.99864581452805, -10.235112636918515]]}}, {"type": "Feature", "properties": {"layer": "0 - Meio Fio", "dxf_type": "LINE"}, "geometry": {"type": "LineString", "coordinates": [[-54.99864581452805, -10.235112636918515], [-54.998911677328316, -10.235439877245998]]}}, {"type": "Feature", "properties": {"layer": "0 - Meio Fio", "dxf_type": "LINE"}, "geometry": {"type": "LineString", "coordinates": [[-54.998911677328316, -10.235439877245998], [-54.998999395509315, -10.235537360754204]]}}, {"type": "Feature", "properties": {"layer": "0 - Meio Fio", "dxf_type": "LINE"}, "geometry": {"type": "LineString", "coordinates": [[-54.998637552699314, -10.23410726870732], [-54.9984994781791, -10.23422125136613]]}}, {"type": "Feature", "properties": {"layer": "0 - Meio Fio", "dxf_type": "LINE"}, "geometry": {"type": "LineString", "coordinates": [[-54.9984994781791, -10.23422125136613], [-54.99818070890574, -10.23448888783514]]}}, {"type": "Feature", "properties": {"layer": "0 - Meio Fio", "dxf_type": "LINE"}, "geometry": {"type": "LineString", "coordinates": [[-54.99631554391342, -10.23591081674711], [-54.99663643117032, -10.235635951677574]]}}, {"type": "Feature", "properties": {"layer": "0 - Meio Fio", "dxf_type": "LINE"}, "geometry": {"type": "LineString", "coordinates": [[-54.99624316118073, -10.235895270977696], [-54.99601093228011, -10.235618257329074]]}}, {"type": "Feature", "properties": {"layer": "0 - Meio Fio", "dxf_type": "LINE"}, "geometry": {"type": "LineString", "coordinates": [[-54.99601093228011, -10.235618257329074], [-54.99564173509564, -10.235177113539237]]}}, {"type": "Feature", "properties": {"layer": "0 - Meio Fio", "dxf_type": "LINE"}, "geometry": {"type": "LineString", "coordinates": [[-54.99564173509564, -10.235177113539237], [-54.99562400788257, -10.235157680288403]]}}, {"type": "Feature", "properties": {"layer": "0 - Meio Fio", "dxf_type": "LINE"}, "geometry": {"type": "LineString", "coordinates": [[-54.995619242736446, -10.235106020684396], [-54.99596839492657, -10.234834356653929]]}}, {"type": "Feature", "properties": {"layer": "0 - Meio Fio", "dxf_type": "LINE"}, "geometry": {"type": "LineString", "coordinates": [[-54.99601666903718, -10.234847246490617], [-54.99622514975647, -10.235082755719178]]}}, {"type": "Feature", "properties": {"layer": "0 - Meio Fio", "dxf_type": "LINE"}, "geometry": {"type": "LineString", "coordinates": [[-54.99622514975647, -10.235082755719178], [-54.99662676696, -10.235567882808752]]}}, {"type": "Feature", "properties": {"layer": "0 - Meio Fio", "dxf_type": "LINE"}, "geometry": {"type": "LineString", "coordinates": [[-54.99745350284885, -10.233673767750432], [-54.99805870740835, -10.234411042565336]]}}, {"type": "Feature", "properties": {"layer": "0 - Meio Fio", "dxf_type": "LINE"}, "geometry": {"type": "LineString", "coordinates": [[-54.9978436748189, -10.233338857368683], [-54.998442746638894, -10.234072028853427]]}}, {"type": "Feature", "properties": {"layer": "0 - Meio Fio", "dxf_type": "LINE"}, "geometry": {"type": "LineString", "coordinates": [[-54.99779647705382, -10.233334502973914], [-54.99745182008996, -10.233614829709554]]}}, {"type": "Feature", "properties": {"layer": "0 - Meio Fio", "dxf_type": "LINE"}, "geometry": {"type": "LineString", "coordinates": [[-54.99843816797485, -10.234147184583307], [-54.99812031709516, -10.234409389544261]]}}, {"type": "Feature", "properties": {"layer": "0 - Meio Fio", "dxf_type": "LINE"}, "geometry": {"type": "LineString", "coordinates": [[-54.9976688342367, -10.234780889668775], [-54.997988142270906, -10.23450530262302]]}}, {"type": "Feature", "properties": {"layer": "0 - Meio Fio", "dxf_type": "LINE"}, "geometry": {"type": "LineString", "coordinates": [[-54.99759261196562, -10.234768176103833], [-54.997017530671705, -10.234066676085428]]}}, {"type": "Feature", "properties": {"layer": "0 - Meio Fio", "dxf_type": "LINE"}, "geometry": {"type": "LineString", "coordinates": [[-54.99700773189916, -10.233984982454302], [-54.99733525045819, -10.233715568803675]]}}, {"type": "Feature", "properties": {"layer": "0 - Meio Fio", "dxf_type": "LINE"}, "geometry": {"type": "LineString", "coordinates": [[-54.99740124492497, -10.233723811914972], [-54.99798435587268, -10.234460055113196]]}}, {"type": "Feature", "properties": {"layer": "0 - Meio Fio", "dxf_type": "LINE"}, "geometry": {"type": "LineString", "coordinates": [[-54.996102474716466, -10.23480463155704], [-54.99669161898224, -10.235521043058444]]}}, {"type": "Feature", "properties": {"layer": "0 - Meio Fio", "dxf_type": "LINE"}, "geometry": {"type": "LineString", "coordinates": [[-54.996436798034566, -10.234451325436256], [-54.99608840926365, -10.234730595914865]]}}, {"type": "Feature", "properties": {"layer": "0 - Meio Fio", "dxf_type": "LINE"}, "geometry": {"type": "LineString", "coordinates": [[-54.996480333349844, -10.234459810129787], [-54.99709005362868, -10.235205105065479]]}}, {"type": "Feature", "properties": {"layer": "0 - Meio Fio", "dxf_type": "LINE"}, "geometry": {"type": "LineString", "coordinates": [[-54.99709376849756, -10.235274968667479], [-54.996757935803004, -10.23553788465938]]}}, {"type": "Feature", "properties": {"layer": "0 - Meio Fio", "dxf_type": "LINE"}, "geometry": {"type": "LineString", "coordinates": [[-54.99714977858542, -10.235141396257395], [-54.99683258836458, -10.234771625689417]]}}, {"type": "Feature", "properties": {"layer": "0 - Meio Fio", "dxf_type": "LINE"}, "geometry": {"type": "LineString", "coordinates": [[-54.99683258836458, -10.234771625689417], [-54.996545223879075, -10.234423374760905]]}}, {"type": "Feature", "properties": {"layer": "0 - Meio Fio", "dxf_type": "LINE"}, "geometry": {"type": "LineString", "coordinates": [[-54.99755744087805, -10.234877468223386], [-54.99721113504284, -10.235159470910224]]}}, {"type": "Feature", "properties": {"layer": "0 - Meio Fio", "dxf_type": "LINE"}, "geometry": {"type": "LineString", "coordinates": [[-54.99753563571957, -10.234816631052237], [-54.99729016267769, -10.234520567004504]]}}, {"type": "Feature", "properties": {"layer": "0 - Meio Fio", "dxf_type": "LINE"}, "geometry": {"type": "LineString", "coordinates": [[-54.99729016267769, -10.234520567004504], [-54.99694515052631, -10.234104449380993]]}}, {"type": "Feature", "properties": {"layer": "0 - Meio Fio", "dxf_type": "LINE"}, "geometry": {"type": "LineString", "coordinates": [[-54.99689677505427, -10.2340811033904], [-54.996545852438594, -10.234359417029085]]}}, {"type": "Feature", "properties": {"layer": "0 - Meio Fio", "dxf_type": "LINE"}, "geometry": {"type": "LineString", "coordinates": [[-54.998365587556115, -10.238633710202421], [-54.998169830966354, -10.238781020288863]]}}, {"type": "Feature", "properties": {"layer": "0 - Meio Fio", "dxf_type": "LINE"}, "geometry": {"type": "LineString", "coordinates": [[-54.998712287113534, -10.238767422133982], [-54.998563331324746, -10.238589329359426]]}}, {"type": "Feature", "properties": {"layer": "0 - Meio Fio", "dxf_type": "LINE"}, "geometry": {"type": "LineString", "coordinates": [[-54.99506252331133, -10.235365105435017], [-54.99543163008918, -10.235075812032477]]}}, {"type": "Feature", "properties": {"layer": "0 - Meio Fio", "dxf_type": "LINE"}, "geometry": {"type": "LineString", "coordinates": [[-54.9950045499927, -10.235339905731582], [-54.99474489602914, -10.2350310499319]]}}, {"type": "Feature", "properties": {"layer": "0 - Meio Fio", "dxf_type": "LINE"}, "geometry": {"type": "LineString", "coordinates": [[-54.99474489602914, -10.2350310499319], [-54.9944115812089, -10.234625374721283]]}}, {"type": "Feature", "properties": {"layer": "0 - Meio Fio", "dxf_type": "LINE"}, "geometry": {"type": "LineString", "coordinates": [[-54.99442390652263, -10.234556369345809], [-54.994745397220946, -10.234287086188896]]}}, {"type": "Feature", "properties": {"layer": "0 - Meio Fio", "dxf_type": "LINE"}, "geometry": {"type": "LineString", "coordinates": [[-54.99481807413831, -10.234284918957483], [-54.99542447044696, -10.235029224956845]]}}, {"type": "Feature", "properties": {"layer": "0 - Meio Fio", "dxf_type": "LINE"}, "geometry": {"type": "LineString", "coordinates": [[-54.995881645274224, -10.23470126122443], [-54.995524028196755, -10.234986569269449]]}}, {"type": "Feature", "properties": {"layer": "0 - Meio Fio", "dxf_type": "LINE"}, "geometry": {"type": "LineString", "coordinates": [[-54.99547647161218, -10.234985126535006], [-54.995239302559725, -10.234699942312949]]}}, {"type": "Feature", "properties": {"layer": "0 - Meio Fio", "dxf_type": "LINE"}, "geometry": {"type": "LineString", "coordinates": [[-54.995239302559725, -10.234699942312949], [-54.99486817569805, -10.234253679869042]]}}, {"type": "Feature", "properties": {"layer": "0 - Meio Fio", "dxf_type": "LINE"}, "geometry": {"type": "LineString", "coordinates": [[-54.99486386625216, -10.234193122161543], [-54.995201653821894, -10.233897268588889]]}}, {"type": "Feature", "properties": {"layer": "0 - Meio Fio", "dxf_type": "LINE"}, "geometry": {"type": "LineString", "coordinates": [[-54.99526419286706, -10.233912826175967], [-54.99543480081761, -10.234120937723354]]}}, {"type": "Feature", "properties": {"layer": "0 - Meio Fio", "dxf_type": "LINE"}, "geometry": {"type": "LineString", "coordinates": [[-54.99543480081761, -10.234120937723354], [-54.99586929979794, -10.23465620328445]]}}, {"type": "Feature", "properties": {"layer": "0 - Meio Fio", "dxf_type": "LINE"}, "geometry": {"type": "LineString", "coordinates": [[-54.99518315208512, -10.235355690385717], [-54.99591424951643, -10.234753096800722]]}}, {"type": "Feature", "properties": {"layer": "0 - Meio Fio", "dxf_type": "LINE"}, "geometry": {"type": "LineString", "coordinates": [[-54.99591424951643, -10.234753096800722], [-54.99638350737798, -10.234374613125441]]}}, {"type": "Feature", "properties": {"layer": "0 - Meio Fio", "dxf_type": "LINE"}, "geometry": {"type": "LineString", "coordinates": [[-54.99638350737798, -10.234374613125441], [-54.99683942491752, -10.234000792948676]]}}, {"type": "Feature", "properties": {"layer": "0 - Meio Fio", "dxf_type": "LINE"}, "geometry": {"type": "LineString", "coordinates": [[-54.99683942491752, -10.234000792948676], [-54.99742616603231, -10.233517566954829]]}}, {"type": "Feature", "properties": {"layer": "0 - Meio Fio", "dxf_type": "LINE"}, "geometry": {"type": "LineString", "coordinates": [[-54.99742616603231, -10.233517566954829], [-54.999086154191, -10.232152549712351]]}}, {"type": "Feature", "properties": {"layer": "0 - Meio Fio", "dxf_type": "LINE"}, "geometry": {"type": "LineString", "coordinates": [[-54.999086154191, -10.232152549712351], [-54.99923988442262, -10.232014557861657]]}}, {"type": "Feature", "properties": {"layer": "0 - Meio Fio", "dxf_type": "LINE"}, "geometry": {"type": "LineString", "coordinates": [[-54.99925716830627, -10.232040827295842], [-54.99907965930057, -10.232186208094323]]}}, {"type": "Feature", "properties": {"layer": "0 - Meio Fio", "dxf_type": "LINE"}, "geometry": {"type": "LineString", "coordinates": [[-54.99907965930057, -10.232186208094323], [-54.9987518050726, -10.232446750002948]]}}, {"type": "Feature", "properties": {"layer": "0 - Meio Fio", "dxf_type": "LINE"}, "geometry": {"type": "LineString", "coordinates": [[-54.9987518050726, -10.232446750002948], [-54.99853088720401, -10.232632001363237]]}}, {"type": "Feature", "properties": {"layer": "0 - Meio Fio", "dxf_type": "LINE"}, "geometry": {"type": "LineString", "coordinates": [[-54.99853088720401, -10.232632001363237], [-54.998297482527825, -10.232821289488518]]}}, {"type": "Feature", "properties": {"layer": "0 - Meio Fio", "dxf_type": "LINE"}, "geometry": {"type": "LineString", "coordinates": [[-54.998297482527825, -10.232821289488518], [-54.99817575608191, -10.2329212162853]]}}, {"type": "Feature", "properties": {"layer": "0 - Meio Fio", "dxf_type": "LINE"}, "geometry": {"type": "LineString", "coordinates": [[-54.99817575608191, -10.2329212162853], [-54.99785157712643, -10.233189191782055]]}}, {"type": "Feature", "properties": {"layer": "0 - Meio Fio", "dxf_type": "LINE"}, "geometry": {"type": "LineString", "coordinates": [[-54.99785157712643, -10.233189191782055], [-54.99737979903252, -10.233575582913561]]}}, {"type": "Feature", "properties": {"layer": "0 - Meio Fio", "dxf_type": "LINE"}, "geometry": {"type": "LineString", "coordinates": [[-54.99737979903252, -10.233575582913561], [-54.99679455291452, -10.234057150253491]]}}, {"type": "Feature", "properties": {"layer": "0 - Meio Fio", "dxf_type": "LINE"}, "geometry": {"type": "LineString", "coordinates": [[-54.99679455291452, -10.234057150253491], [-54.996318564110766, -10.23445391578118]]}}, {"type": "Feature", "properties": {"layer": "0 - Meio Fio", "dxf_type": "LINE"}, "geometry": {"type": "LineString", "coordinates": [[-54.996318564110766, -10.23445391578118], [-54.99521899177046, -10.235348603887335]]}}, {"type": "Feature", "properties": {"layer": "0 - Meio Fio", "dxf_type": "LINE"}, "geometry": {"type": "LineString", "coordinates": [[-54.99521899177046, -10.235348603887335], [-54.99493924543185, -10.235574727413187]]}}, {"type": "Feature", "properties": {"layer": "0 - Meio Fio", "dxf_type": "LINE"}, "geometry": {"type": "LineString", "coordinates": [[-54.99518315208512, -10.235355690385717], [-54.994939396195754, -10.235550722879061]]}}, {"type": "Feature", "properties": {"layer": "0 - Meio Fio", "dxf_type": "LINE"}, "geometry": {"type": "LineString", "coordinates": [[-54.99632796562354, -10.23432622312952], [-54.99597412934911, -10.234614133093412]]}}, {"type": "Feature", "properties": {"layer": "0 - Meio Fio", "dxf_type": "LINE"}, "geometry": {"type": "LineString", "coordinates": [[-54.99591262933973, -10.234592065631327], [-54.9955428740381, -10.234142455083397]]}}, {"type": "Feature", "properties": {"layer": "0 - Meio Fio", "dxf_type": "LINE"}, "geometry": {"type": "LineString", "coordinates": [[-54.9955428740381, -10.234142455083397], [-54.995306086102545, -10.233869164449542]]}}, {"type": "Feature", "properties": {"layer": "0 - Meio Fio", "dxf_type": "LINE"}, "geometry": {"type": "LineString", "coordinates": [[-54.99566979168146, -10.233536581710284], [-54.995300889856296, -10.233824399123625]]}}, {"type": "Feature", "properties": {"layer": "0 - Meio Fio", "dxf_type": "LINE"}, "geometry": {"type": "LineString", "coordinates": [[-54.99572177235947, -10.233547746193938], [-54.996156819952546, -10.234069603205823]]}}, {"type": "Feature", "properties": {"layer": "0 - Meio Fio", "dxf_type": "LINE"}, "geometry": {"type": "LineString", "coordinates": [[-54.996156819952546, -10.234069603205823], [-54.99632499825864, -10.23427992400028]]}}, {"type": "Feature", "properties": {"layer": "0 - Meio Fio", "dxf_type": "LINE"}, "geometry": {"type": "LineString", "coordinates": [[-54.99677791230156, -10.23389608168485], [-54.99617326107195, -10.233179925138112]]}}, {"type": "Feature", "properties": {"layer": "0 - Meio Fio", "dxf_type": "LINE"}, "geometry": {"type": "LineString", "coordinates": [[-54.9961113088867, -10.233168582734127], [-54.99578625727294, -10.233431826527825]]}}, {"type": "Feature", "properties": {"layer": "0 - Meio Fio", "dxf_type": "LINE"}, "geometry": {"type": "LineString", "coordinates": [[-54.99579019236567, -10.233510765932234], [-54.9963749763787, -10.234215840751649]]}}, {"type": "Feature", "properties": {"layer": "0 - Meio Fio", "dxf_type": "LINE"}, "geometry": {"type": "LineString", "coordinates": [[-54.99645239075818, -10.234233854378626], [-54.99678201265351, -10.233948717067138]]}}, {"type": "Feature", "properties": {"layer": "0 - Meio Fio", "dxf_type": "LINE"}, "geometry": {"type": "LineString", "coordinates": [[-54.996238306105305, -10.23314863857962], [-54.99684153447005, -10.233853929241446]]}}, {"type": "Feature", "properties": {"layer": "0 - Meio Fio", "dxf_type": "LINE"}, "geometry": {"type": "LineString", "coordinates": [[-54.996566847636025, -10.23279653111116], [-54.99623434957694, -10.233061751736175]]}}, {"type": "Feature", "properties": {"layer": "0 - Meio Fio", "dxf_type": "LINE"}, "geometry": {"type": "LineString", "coordinates": [[-54.997215015903386, -10.233513234079346], [-54.99665453208376, -10.232810434432437]]}}, {"type": "Feature", "properties": {"layer": "0 - Meio Fio", "dxf_type": "LINE"}, "geometry": {"type": "LineString", "coordinates": [[-54.997225805678966, -10.233586799403943], [-54.99690904820565, -10.233854344791425]]}}, {"type": "Feature", "properties": {"layer": "0 - Meio Fio", "dxf_type": "LINE"}, "geometry": {"type": "LineString", "coordinates": [[-54.99769366203809, -10.233200932184383], [-54.99733412956003, -10.233501137671919]]}}, {"type": "Feature", "properties": {"layer": "0 - Meio Fio", "dxf_type": "LINE"}, "geometry": {"type": "LineString", "coordinates": [[-54.997273127039946, -10.233482841102944], [-54.996689206351135, -10.232746722399584]]}}, {"type": "Feature", "properties": {"layer": "0 - Meio Fio", "dxf_type": "LINE"}, "geometry": {"type": "LineString", "coordinates": [[-54.9970252567035, -10.232417434859721], [-54.99669076685209, -10.232691445343766]]}}, {"type": "Feature", "properties": {"layer": "0 - Meio Fio", "dxf_type": "LINE"}, "geometry": {"type": "LineString", "coordinates": [[-54.99770203896667, -10.233157795145095], [-54.99737846432042, -10.232782771303501]]}}, {"type": "Feature", "properties": {"layer": "0 - Meio Fio", "dxf_type": "LINE"}, "geometry": {"type": "LineString", "coordinates": [[-54.99737846432042, -10.232782771303501], [-54.99708161092259, -10.232429964726078]]}}, {"type": "Feature", "properties": {"layer": "0 - Meio Fio", "dxf_type": "LINE"}, "geometry": {"type": "LineString", "coordinates": [[-54.99715391648821, -10.232384516554074], [-54.99774600728918, -10.233108558635598]]}}, {"type": "Feature", "properties": {"layer": "0 - Meio Fio", "dxf_type": "LINE"}, "geometry": {"type": "LineString", "coordinates": [[-54.99813317380936, -10.232824192927058], [-54.997796483969864, -10.23311377746757]]}}, {"type": "Feature", "properties": {"layer": "0 - Meio Fio", "dxf_type": "LINE"}, "geometry": {"type": "LineString", "coordinates": [[-54.998141007743186, -10.232790507568668], [-54.99752911336175, -10.232056877513806]]}}, {"type": "Feature", "properties": {"layer": "0 - Meio Fio", "dxf_type": "LINE"}, "geometry": {"type": "LineString", "coordinates": [[-54.99747282805006, -10.232044133023793], [-54.99715521774952, -10.232330253894725]]}}, {"type": "Feature", "properties": {"layer": "0 - Meio Fio", "dxf_type": "LINE"}, "geometry": {"type": "LineString", "coordinates": [[-54.998248930339756, -10.232745052221155], [-54.99859535432174, -10.232454666378095]]}}, {"type": "Feature", "properties": {"layer": "0 - Meio Fio", "dxf_type": "LINE"}, "geometry": {"type": "LineString", "coordinates": [[-54.99858983653172, -10.232414678995395], [-54.99837512297804, -10.23216507599666]]}}, {"type": "Feature", "properties": {"layer": "0 - Meio Fio", "dxf_type": "LINE"}, "geometry": {"type": "LineString", "coordinates": [[-54.99837512297804, -10.23216507599666], [-54.99797432956883, -10.231680608074399]]}}, {"type": "Feature", "properties": {"layer": "0 - Meio Fio", "dxf_type": "LINE"}, "geometry": {"type": "LineString", "coordinates": [[-54.99791665644878, -10.231682536667726], [-54.997592124719894, -10.231940758414718]]}}, {"type": "Feature", "properties": {"layer": "0 - Meio Fio", "dxf_type": "LINE"}, "geometry": {"type": "LineString", "coordinates": [[-54.9976008486879, -10.232020702676095], [-54.99819837812455, -10.232734273871076]]}}, {"type": "Feature", "properties": {"layer": "0 - Meio Fio", "dxf_type": "LINE"}, "geometry": {"type": "LineString", "coordinates": [[-54.998040833600484, -10.231583917573131], [-54.99838619167461, -10.231319098103937]]}}, {"type": "Feature", "properties": {"layer": "0 - Meio Fio", "dxf_type": "LINE"}, "geometry": {"type": "LineString", "coordinates": [[-54.99843401105283, -10.231325132961942], [-54.99904681444688, -10.232035801946273]]}}, {"type": "Feature", "properties": {"layer": "0 - Meio Fio", "dxf_type": "LINE"}, "geometry": {"type": "LineString", "coordinates": [[-54.99904212868006, -10.232088913961872], [-54.99871391576801, -10.23235690378597]]}}, {"type": "Feature", "properties": {"layer": "0 - Meio Fio", "dxf_type": "LINE"}, "geometry": {"type": "LineString", "coordinates": [[-54.998639940975664, -10.232350704502323], [-54.998044952877436, -10.231651917996308]]}}, {"type": "Feature", "properties": {"layer": "0 - Meio Fio", "dxf_type": "LINE"}, "geometry": {"type": "LineString", "coordinates": [[-54.99433735468325, -10.234714119886387], [-54.9949515717442, -10.235441188291329]]}}, {"type": "Feature", "properties": {"layer": "0 - Meio Fio", "dxf_type": "LINE"}, "geometry": {"type": "LineString", "coordinates": [[-54.994248655041204, -10.234708950531171], [-54.99393886189368, -10.23495891964136]]}}, {"type": "Feature", "properties": {"layer": "0 - Meio Fio", "dxf_type": "LINE"}, "geometry": {"type": "LineString", "coordinates": [[-54.9991088571084, -10.231993085115967], [-54.99859472406816, -10.231396113784427]]}}, {"type": "Feature", "properties": {"layer": "0 - Meio Fio", "dxf_type": "LINE"}, "geometry": {"type": "LineString", "coordinates": [[-54.99859472406816, -10.231396113784427], [-54.99847527645212, -10.231258630074763]]}}, {"type": "Feature", "properties": {"layer": "0 - Meio Fio", "dxf_type": "LINE"}, "geometry": {"type": "LineString", "coordinates": [[-54.998775791592074, -10.231061572731441], [-54.9985210903606, -10.23120519154188]]}}, {"type": "Feature", "properties": {"layer": "0 - Meio Fio", "dxf_type": "LINE"}, "geometry": {"type": "LineString", "coordinates": [[-54.99894820511944, -10.230960612073122], [-54.998775791592074, -10.231061572731441]]}}, {"type": "Feature", "properties": {"layer": "0 - Meio Fio", "dxf_type": "LINE"}, "geometry": {"type": "LineString", "coordinates": [[-54.998990629404396, -10.230979745893961], [-54.99914323699429, -10.231208626599273]]}}, {"type": "Feature", "properties": {"layer": "0 - Meio Fio", "dxf_type": "LINE"}, "geometry": {"type": "LineString", "coordinates": [[-54.99914323699429, -10.231208626599273], [-54.99927546202432, -10.231468746373473]]}}, {"type": "Feature", "properties": {"layer": "0 - Meio Fio", "dxf_type": "LINE"}, "geometry": {"type": "LineString", "coordinates": [[-54.99929644061159, -10.231871772632406], [-54.99916199462389, -10.231991623790632]]}}, {"type": "Feature", "properties": {"layer": "0 - Meio Fio", "dxf_type": "LINE"}, "geometry": {"type": "LineString", "coordinates": [[-54.99433975370439, -10.234468926852259], [-54.99413766080155, -10.234223450596303]]}}, {"type": "Feature", "properties": {"layer": "0 - Meio Fio", "dxf_type": "LINE"}, "geometry": {"type": "LineString", "coordinates": [[-54.99413766080155, -10.234223450596303], [-54.99389115883923, -10.233907466702775]]}}, {"type": "Feature", "properties": {"layer": "0 - Meio Fio", "dxf_type": "LINE"}, "geometry": {"type": "LineString", "coordinates": [[-54.99389115883923, -10.233907466702775], [-54.99376534810758, -10.233693506634992]]}}, {"type": "Feature", "properties": {"layer": "0 - Meio Fio", "dxf_type": "LINE"}, "geometry": {"type": "LineString", "coordinates": [[-54.99399718628931, -10.233461025152636], [-54.993776190681004, -10.233634355753397]]}}, {"type": "Feature", "properties": {"layer": "0 - Meio Fio", "dxf_type": "LINE"}, "geometry": {"type": "LineString", "coordinates": [[-54.99399718628931, -10.233461025152636], [-54.994040195356334, -10.233427292837497]]}}, {"type": "Feature", "properties": {"layer": "0 - Meio Fio", "dxf_type": "LINE"}, "geometry": {"type": "LineString", "coordinates": [[-54.9940931859653, -10.23342729854939], [-54.99432922048411, -10.233717440613392]]}}, {"type": "Feature", "properties": {"layer": "0 - Meio Fio", "dxf_type": "LINE"}, "geometry": {"type": "LineString", "coordinates": [[-54.99432922048411, -10.233717440613392], [-54.99468978050611, -10.234160739442181]]}}, {"type": "Feature", "properties": {"layer": "0 - Meio Fio", "dxf_type": "LINE"}, "geometry": {"type": "LineString", "coordinates": [[-54.99468933389099, -10.234231850056213], [-54.99439148666203, -10.234481328414038]]}}, {"type": "Feature", "properties": {"layer": "0 - Meio Fio", "dxf_type": "LINE"}, "geometry": {"type": "LineString", "coordinates": [[-54.9947567875544, -10.234127908781236], [-54.994225845111764, -10.233495359807414]]}}, {"type": "Feature", "properties": {"layer": "0 - Meio Fio", "dxf_type": "LINE"}, "geometry": {"type": "LineString", "coordinates": [[-54.994225845111764, -10.233495359807414], [-54.994147962091205, -10.23340092796784]]}}, {"type": "Feature", "properties": {"layer": "0 - Meio Fio", "dxf_type": "LINE"}, "geometry": {"type": "LineString", "coordinates": [[-54.99414998425334, -10.233318865222216], [-54.994431837741736, -10.23309825634235]]}}, {"type": "Feature", "properties": {"layer": "0 - Meio Fio", "dxf_type": "LINE"}, "geometry": {"type": "LineString", "coordinates": [[-54.994431837741736, -10.23309825634235], [-54.99447890509265, -10.233057962077995]]}}, {"type": "Feature", "properties": {"layer": "0 - Meio Fio", "dxf_type": "LINE"}, "geometry": {"type": "LineString", "coordinates": [[-54.99453766241028, -10.233065785106115], [-54.994926785382454, -10.233532274376524]]}}, {"type": "Feature", "properties": {"layer": "0 - Meio Fio", "dxf_type": "LINE"}, "geometry": {"type": "LineString", "coordinates": [[-54.994926785382454, -10.233532274376524], [-54.995142507531, -10.233790763849232]]}}, {"type": "Feature", "properties": {"layer": "0 - Meio Fio", "dxf_type": "LINE"}, "geometry": {"type": "LineString", "coordinates": [[-54.99514667745751, -10.23384753598031], [-54.99482200526136, -10.23412628222617]]}}, {"type": "Feature", "properties": {"layer": "0 - Meio Fio", "dxf_type": "LINE"}, "geometry": {"type": "LineString", "coordinates": [[-54.995605230243726, -10.23349517131741], [-54.99526283574893, -10.233764006862751]]}}, {"type": "Feature", "properties": {"layer": "0 - Meio Fio", "dxf_type": "LINE"}, "geometry": {"type": "LineString", "coordinates": [[-54.9952051617308, -10.23374408257092], [-54.99485042951924, -10.233312902893674]]}}, {"type": "Feature", "properties": {"layer": "0 - Meio Fio", "dxf_type": "LINE"}, "geometry": {"type": "LineString", "coordinates": [[-54.99485042951924, -10.233312902893674], [-54.99458752972951, -10.233011073341897]]}}, {"type": "Feature", "properties": {"layer": "0 - Meio Fio", "dxf_type": "LINE"}, "geometry": {"type": "LineString", "coordinates": [[-54.99460923706562, -10.232944975809344], [-54.99493791632667, -10.232680572387046]]}}, {"type": "Feature", "properties": {"layer": "0 - Meio Fio", "dxf_type": "LINE"}, "geometry": {"type": "LineString", "coordinates": [[-54.99498197672169, -10.232688370772342], [-54.99560694670901, -10.233441832371081]]}}, {"type": "Feature", "properties": {"layer": "0 - Meio Fio", "dxf_type": "LINE"}, "geometry": {"type": "LineString", "coordinates": [[-54.99568831826808, -10.233386347241604], [-54.99504732535924, -10.232632559293169]]}}, {"type": "Feature", "properties": {"layer": "0 - Meio Fio", "dxf_type": "LINE"}, "geometry": {"type": "LineString", "coordinates": [[-54.9957237017984, -10.23338370965446], [-54.99605979349279, -10.233108002814696]]}}, {"type": "Feature", "properties": {"layer": "0 - Meio Fio", "dxf_type": "LINE"}, "geometry": {"type": "LineString", "coordinates": [[-54.99605262343548, -10.233029030827584], [-54.99576483432806, -10.232694839333702]]}}, {"type": "Feature", "properties": {"layer": "0 - Meio Fio", "dxf_type": "LINE"}, "geometry": {"type": "LineString", "coordinates": [[-54.99576483432806, -10.232694839333702], [-54.995454186789594, -10.232327777683462]]}}, {"type": "Feature", "properties": {"layer": "0 - Meio Fio", "dxf_type": "LINE"}, "geometry": {"type": "LineString", "coordinates": [[-54.99538681108516, -10.232310667289742], [-54.99506619263024, -10.2325636999033]]}}, {"type": "Feature", "properties": {"layer": "0 - Meio Fio", "dxf_type": "LINE"}, "geometry": {"type": "LineString", "coordinates": [[-54.99654441615445, -10.23271527406235], [-54.99616837406423, -10.233013583159437]]}}, {"type": "Feature", "properties": {"layer": "0 - Meio Fio", "dxf_type": "LINE"}, "geometry": {"type": "LineString", "coordinates": [[-54.996117434440784, -10.232985589604086], [-54.99580919974012, -10.232621037854583]]}}, {"type": "Feature", "properties": {"layer": "0 - Meio Fio", "dxf_type": "LINE"}, "geometry": {"type": "LineString", "coordinates": [[-54.99580919974012, -10.232621037854583], [-54.995185579406645, -10.23188818914282]]}}, {"type": "Feature", "properties": {"layer": "0 - Meio Fio", "dxf_type": "LINE"}, "geometry": {"type": "LineString", "coordinates": [[-54.995185579406645, -10.23188818914282], [-54.994663763843604, -10.231253284978976]]}}, {"type": "Feature", "properties": {"layer": "0 - Meio Fio", "dxf_type": "LINE"}, "geometry": {"type": "LineString", "coordinates": [[-54.994663763843604, -10.231253284978976], [-54.994409418608065, -10.23093874581412]]}}, {"type": "Feature", "properties": {"layer": "0 - Meio Fio", "dxf_type": "LINE"}, "geometry": {"type": "LineString", "coordinates": [[-54.99442538416873, -10.23086082755499], [-54.99474549235734, -10.230601169147052]]}}, {"type": "Feature", "properties": {"layer": "0 - Meio Fio", "dxf_type": "LINE"}, "geometry": {"type": "LineString", "coordinates": [[-54.99480723696701, -10.23061684745369], [-54.99521091437404, -10.231082924847557]]}}, {"type": "Feature", "properties": {"layer": "0 - Meio Fio", "dxf_type": "LINE"}, "geometry": {"type": "LineString", "coordinates": [[-54.99521091437404, -10.231082924847557], [-54.99566354375025, -10.231628767222528]]}}, {"type": "Feature", "properties": {"layer": "0 - Meio Fio", "dxf_type": "LINE"}, "geometry": {"type": "LineString", "coordinates": [[-54.99566354375025, -10.231628767222528], [-54.9964695189435, -10.232594143805333]]}}, {"type": "Feature", "properties": {"layer": "0 - Meio Fio", "dxf_type": "LINE"}, "geometry": {"type": "LineString", "coordinates": [[-54.9964695189435, -10.232594143805333], [-54.99652362870554, -10.232660705523195]]}}, {"type": "Feature", "properties": {"layer": "0 - Meio Fio", "dxf_type": "LINE"}, "geometry": {"type": "LineString", "coordinates": [[-54.993736547822245, -10.233585919692295], [-54.9939930673101, -10.233362909780134]]}}, {"type": "Feature", "properties": {"layer": "0 - Meio Fio", "dxf_type": "LINE"}, "geometry": {"type": "LineString", "coordinates": [[-54.99398411925476, -10.233286683844279], [-54.99378041736892, -10.233074774699508]]}}, {"type": "Feature", "properties": {"layer": "0 - Meio Fio", "dxf_type": "LINE"}, "geometry": {"type": "LineString", "coordinates": [[-54.99378041736892, -10.233074774699508], [-54.99354426815392, -10.232796064499976]]}}, {"type": "Feature", "properties": {"layer": "0 - Meio Fio", "dxf_type": "LINE"}, "geometry": {"type": "LineString", "coordinates": [[-54.99354426815392, -10.232796064499976], [-54.99321333109008, -10.232384338969453]]}}, {"type": "Feature", "properties": {"layer": "0 - Meio Fio", "dxf_type": "LINE"}, "geometry": {"type": "LineString", "coordinates": [[-54.99321333109008, -10.232384338969453], [-54.99297873902852, -10.232107186551284]]}}, {"type": "Feature", "properties": {"layer": "0 - Meio Fio", "dxf_type": "LINE"}, "geometry": {"type": "LineString", "coordinates": [[-54.99292564758752, -10.232088270945132], [-54.992560737915255, -10.232374118400207]]}}, {"type": "Feature", "properties": {"layer": "0 - Meio Fio", "dxf_type": "LINE"}, "geometry": {"type": "LineString", "coordinates": [[-54.99256970135622, -10.232442327529789], [-54.992894483063104, -10.232812970355678]]}}, {"type": "Feature", "properties": {"layer": "0 - Meio Fio", "dxf_type": "LINE"}, "geometry": {"type": "LineString", "coordinates": [[-54.992894483063104, -10.232812970355678], [-54.99313700553936, -10.233032506138398]]}}, {"type": "Feature", "properties": {"layer": "0 - Meio Fio", "dxf_type": "LINE"}, "geometry": {"type": "LineString", "coordinates": [[-54.99313700553936, -10.233032506138398], [-54.99351516468858, -10.233423550182984]]}}, {"type": "Feature", "properties": {"layer": "0 - Meio Fio", "dxf_type": "LINE"}, "geometry": {"type": "LineString", "coordinates": [[-54.99351516468858, -10.233423550182984], [-54.993670953601914, -10.233592156439997]]}}, {"type": "Feature", "properties": {"layer": "0 - Meio Fio", "dxf_type": "LINE"}, "geometry": {"type": "LineString", "coordinates": [[-54.9940494033528, -10.233283318676843], [-54.99373138614872, -10.232926960568767]]}}, {"type": "Feature", "properties": {"layer": "0 - Meio Fio", "dxf_type": "LINE"}, "geometry": {"type": "LineString", "coordinates": [[-54.99373138614872, -10.232926960568767], [-54.99354968123006, -10.232721317334802]]}}, {"type": "Feature", "properties": {"layer": "0 - Meio Fio", "dxf_type": "LINE"}, "geometry": {"type": "LineString", "coordinates": [[-54.99354968123006, -10.232721317334802], [-54.99334139400057, -10.232445988645976]]}}, {"type": "Feature", "properties": {"layer": "0 - Meio Fio", "dxf_type": "LINE"}, "geometry": {"type": "LineString", "coordinates": [[-54.99334139400057, -10.232445988645976], [-54.99310513445467, -10.23213384696261]]}}, {"type": "Feature", "properties": {"layer": "0 - Meio Fio", "dxf_type": "LINE"}, "geometry": {"type": "LineString", "coordinates": [[-54.99310513445467, -10.23213384696261], [-54.99303455108321, -10.232038939319182]]}}, {"type": "Feature", "properties": {"layer": "0 - Meio Fio", "dxf_type": "LINE"}, "geometry": {"type": "LineString", "coordinates": [[-54.99304109150798, -10.23200306955944], [-54.99338365942471, -10.231714793138284]]}}, {"type": "Feature", "properties": {"layer": "0 - Meio Fio", "dxf_type": "LINE"}, "geometry": {"type": "LineString", "coordinates": [[-54.99344820705735, -10.231735487695767], [-54.99368929818839, -10.232032045484063]]}}, {"type": "Feature", "properties": {"layer": "0 - Meio Fio", "dxf_type": "LINE"}, "geometry": {"type": "LineString", "coordinates": [[-54.99368929818839, -10.232032045484063], [-54.99391574820581, -10.232316432018598]]}}, {"type": "Feature", "properties": {"layer": "0 - Meio Fio", "dxf_type": "LINE"}, "geometry": {"type": "LineString", "coordinates": [[-54.99391574820581, -10.232316432018598], [-54.99443965882202, -10.232953489887132]]}}, {"type": "Feature", "properties": {"layer": "0 - Meio Fio", "dxf_type": "LINE"}, "geometry": {"type": "LineString", "coordinates": [[-54.99442868450427, -10.233010395569519], [-54.994104452429916, -10.233282207167266]]}}, {"type": "Feature", "properties": {"layer": "0 - Meio Fio", "dxf_type": "LINE"}, "geometry": {"type": "LineString", "coordinates": [[-54.99450809717278, -10.232924479892862], [-54.9939951353922, -10.232311119921842]]}}, {"type": "Feature", "properties": {"layer": "0 - Meio Fio", "dxf_type": "LINE"}, "geometry": {"type": "LineString", "coordinates": [[-54.9939951353922, -10.232311119921842], [-54.99350512568702, -10.231699374356948]]}}, {"type": "Feature", "properties": {"layer": "0 - Meio Fio", "dxf_type": "LINE"}, "geometry": {"type": "LineString", "coordinates": [[-54.99490426475652, -10.23256885902468], [-54.994437084408574, -10.231998821969434]]}}, {"type": "Feature", "properties": {"layer": "0 - Meio Fio", "dxf_type": "LINE"}, "geometry": {"type": "LineString", "coordinates": [[-54.994437084408574, -10.231998821969434], [-54.99422375494274, -10.231746847178446]]}}, {"type": "Feature", "properties": {"layer": "0 - Meio Fio", "dxf_type": "LINE"}, "geometry": {"type": "LineString", "coordinates": [[-54.99422375494274, -10.231746847178446], [-54.99388843958709, -10.231364985359047]]}}, {"type": "Feature", "properties": {"layer": "0 - Meio Fio", "dxf_type": "LINE"}, "geometry": {"type": "LineString", "coordinates": [[-54.99382458576783, -10.231346868638692], [-54.99349533697228, -10.231628420343728]]}}, {"type": "Feature", "properties": {"layer": "0 - Meio Fio", "dxf_type": "LINE"}, "geometry": {"type": "LineString", "coordinates": [[-54.99489046336985, -10.232634632882487], [-54.9945509872946, -10.232916061093466]]}}, {"type": "Feature", "properties": {"layer": "0 - Meio Fio", "dxf_type": "LINE"}, "geometry": {"type": "LineString", "coordinates": [[-54.9949644425821, -10.232532255694334], [-54.9946883471451, -10.232186858227726]]}}, {"type": "Feature", "properties": {"layer": "0 - Meio Fio", "dxf_type": "LINE"}, "geometry": {"type": "LineString", "coordinates": [[-54.9946883471451, -10.232186858227726], [-54.99438002786995, -10.23180114872981]]}}, {"type": "Feature", "properties": {"layer": "0 - Meio Fio", "dxf_type": "LINE"}, "geometry": {"type": "LineString", "coordinates": [[-54.99438002786995, -10.23180114872981], [-54.99394333689571, -10.231299211728889]]}}, {"type": "Feature", "properties": {"layer": "0 - Meio Fio", "dxf_type": "LINE"}, "geometry": {"type": "LineString", "coordinates": [[-54.99534827405057, -10.232273289575573], [-54.99520208346335, -10.232398696988374]]}}, {"type": "Feature", "properties": {"layer": "0 - Meio Fio", "dxf_type": "LINE"}, "geometry": {"type": "LineString", "coordinates": [[-54.99520208346335, -10.232398696988374], [-54.995005213961356, -10.23254122879746]]}}, {"type": "Feature", "properties": {"layer": "0 - Meio Fio", "dxf_type": "LINE"}, "geometry": {"type": "LineString", "coordinates": [[-54.99536062539577, -10.232232059092844], [-54.99521623534777, -10.232031985940676]]}}, {"type": "Feature", "properties": {"layer": "0 - Meio Fio", "dxf_type": "LINE"}, "geometry": {"type": "LineString", "coordinates": [[-54.99521623534777, -10.232031985940676], [-54.99507984508435, -10.231859532569684]]}}, {"type": "Feature", "properties": {"layer": "0 - Meio Fio", "dxf_type": "LINE"}, "geometry": {"type": "LineString", "coordinates": [[-54.99507984508435, -10.231859532569684], [-54.994760051471175, -10.231487963287234]]}}, {"type": "Feature", "properties": {"layer": "0 - Meio Fio", "dxf_type": "LINE"}, "geometry": {"type": "LineString", "coordinates": [[-54.994760051471175, -10.231487963287234], [-54.99446258127281, -10.231140327104614]]}}, {"type": "Feature", "properties": {"layer": "0 - Meio Fio", "dxf_type": "LINE"}, "geometry": {"type": "LineString", "coordinates": [[-54.99446258127281, -10.231140327104614], [-54.99433647929749, -10.230999388913606]]}}, {"type": "Feature", "properties": {"layer": "0 - Meio Fio", "dxf_type": "LINE"}, "geometry": {"type": "LineString", "coordinates": [[-54.99427652881023, -10.230986174807375], [-54.9941118022173, -10.231120044876077]]}}, {"type": "Feature", "properties": {"layer": "0 - Meio Fio", "dxf_type": "LINE"}, "geometry": {"type": "LineString", "coordinates": [[-54.9941118022173, -10.231120044876077], [-54.9939373698487, -10.231250644291675]]}}, {"type": "Feature", "properties": {"layer": "0 - Meio Fio", "dxf_type": "LINE"}, "geometry": {"type": "LineString", "coordinates": [[-54.99389150046595, -10.234887068704445], [-54.99422497470746, -10.234624224599912]]}}, {"type": "Feature", "properties": {"layer": "0 - Meio Fio", "dxf_type": "LINE"}, "geometry": {"type": "LineString", "coordinates": [[-54.99422312278421, -10.234580692960506], [-54.99399545739951, -10.234305037953279]]}}, {"type": "Feature", "properties": {"layer": "0 - Meio Fio", "dxf_type": "LINE"}, "geometry": {"type": "LineString", "coordinates": [[-54.99399545739951, -10.234305037953279], [-54.99366353617444, -10.233912832065313]]}}, {"type": "Feature", "properties": {"layer": "0 - Meio Fio", "dxf_type": "LINE"}, "geometry": {"type": "LineString", "coordinates": [[-54.99366353617444, -10.233912832065313], [-54.993225203539424, -10.233415381624486]]}}, {"type": "Feature", "properties": {"layer": "0 - Meio Fio", "dxf_type": "LINE"}, "geometry": {"type": "LineString", "coordinates": [[-54.993225203539424, -10.233415381624486], [-54.99300122777982, -10.233175981747955]]}}, {"type": "Feature", "properties": {"layer": "0 - Meio Fio", "dxf_type": "LINE"}, "geometry": {"type": "LineString", "coordinates": [[-54.99300122777982, -10.233175981747955], [-54.99289404981807, -10.233086906460105]]}}, {"type": "Feature", "properties": {"layer": "0 - Meio Fio", "dxf_type": "LINE"}, "geometry": {"type": "LineString", "coordinates": [[-54.992388424777594, -10.23281526013158], [-54.99228090381665, -10.23278078934925]]}}, {"type": "Feature", "properties": {"layer": "0 - Meio Fio", "dxf_type": "LINE"}, "geometry": {"type": "LineString", "coordinates": [[-54.99228090381665, -10.23278078934925], [-54.992086707014465, -10.232740583575595]]}}, {"type": "Feature", "properties": {"layer": "0 - Meio Fio", "dxf_type": "LINE"}, "geometry": {"type": "LineString", "coordinates": [[-54.992874164110695, -10.23202274550341], [-54.992509834490626, -10.23231983403209]]}}, {"type": "Feature", "properties": {"layer": "0 - Meio Fio", "dxf_type": "LINE"}, "geometry": {"type": "LineString", "coordinates": [[-54.99245135010371, -10.232312185003588], [-54.99216328325335, -10.231980852123575]]}}, {"type": "Feature", "properties": {"layer": "0 - Meio Fio", "dxf_type": "LINE"}, "geometry": {"type": "LineString", "coordinates": [[-54.99216328325335, -10.231980852123575], [-54.991561060816224, -10.231235629862494]]}}, {"type": "Feature", "properties": {"layer": "0 - Meio Fio", "dxf_type": "LINE"}, "geometry": {"type": "LineString", "coordinates": [[-54.99155992390772, -10.231154049428422], [-54.991924646802374, -10.230852331695495]]}}, {"type": "Feature", "properties": {"layer": "0 - Meio Fio", "dxf_type": "LINE"}, "geometry": {"type": "LineString", "coordinates": [[-54.99199376496902, -10.230872334261912], [-54.99225871472549, -10.2312084246726]]}}, {"type": "Feature", "properties": {"layer": "0 - Meio Fio", "dxf_type": "LINE"}, "geometry": {"type": "LineString", "coordinates": [[-54.99225871472549, -10.2312084246726], [-54.992877233925576, -10.231976293836379]]}}, {"type": "Feature", "properties": {"layer": "0 - Meio Fio", "dxf_type": "LINE"}, "geometry": {"type": "LineString", "coordinates": [[-54.992982185704086, -10.231941376191415], [-54.993332341857716, -10.231646236127443]]}}, {"type": "Feature", "properties": {"layer": "0 - Meio Fio", "dxf_type": "LINE"}, "geometry": {"type": "LineString", "coordinates": [[-54.99333428518044, -10.2316017200253], [-54.99294556348195, -10.23113918227103]]}}, {"type": "Feature", "properties": {"layer": "0 - Meio Fio", "dxf_type": "LINE"}, "geometry": {"type": "LineString", "coordinates": [[-54.99294556348195, -10.23113918227103], [-54.992444204355024, -10.230518263310788]]}}, {"type": "Feature", "properties": {"layer": "0 - Meio Fio", "dxf_type": "LINE"}, "geometry": {"type": "LineString", "coordinates": [[-54.992375996124, -10.23049970007923], [-54.99203604275873, -10.230763131117858]]}}, {"type": "Feature", "properties": {"layer": "0 - Meio Fio", "dxf_type": "LINE"}, "geometry": {"type": "LineString", "coordinates": [[-54.992044033867266, -10.230817606393591], [-54.992894192308675, -10.231916608527467]]}}, {"type": "Feature", "properties": {"layer": "0 - Meio Fio", "dxf_type": "LINE"}, "geometry": {"type": "LineString", "coordinates": [[-54.99294014438063, -10.231028856886695], [-54.99339598061638, -10.231571058776359]]}}, {"type": "Feature", "properties": {"layer": "0 - Meio Fio", "dxf_type": "LINE"}, "geometry": {"type": "LineString", "coordinates": [[-54.99294014438063, -10.231028856886695], [-54.99248419946745, -10.230477612936651]]}}, {"type": "Feature", "properties": {"layer": "0 - Meio Fio", "dxf_type": "LINE"}, "geometry": {"type": "LineString", "coordinates": [[-54.99248133408213, -10.230421700394698], [-54.993271079787185, -10.229760653101255]]}}, {"type": "Feature", "properties": {"layer": "0 - Meio Fio", "dxf_type": "LINE"}, "geometry": {"type": "LineString", "coordinates": [[-54.99333328670572, -10.229766030691673], [-54.993753993683846, -10.230278048553481]]}}, {"type": "Feature", "properties": {"layer": "0 - Meio Fio", "dxf_type": "LINE"}, "geometry": {"type": "LineString", "coordinates": [[-54.993753993683846, -10.230278048553481], [-54.99424297582637, -10.230866949552544]]}}, {"type": "Feature", "properties": {"layer": "0 - Meio Fio", "dxf_type": "LINE"}, "geometry": {"type": "LineString", "coordinates": [[-54.99423430005079, -10.230906906401584], [-54.99344555372059, -10.231579279100476]]}}, {"type": "Feature", "properties": {"layer": "0 - Meio Fio", "dxf_type": "LINE"}, "geometry": {"type": "LineString", "coordinates": [[-54.994700494668905, -10.2305381959155], [-54.994342435962785, -10.230837884780227]]}}, {"type": "Feature", "properties": {"layer": "0 - Meio Fio", "dxf_type": "LINE"}, "geometry": {"type": "LineString", "coordinates": [[-54.99429645772128, -10.230832541344522], [-54.993807590823835, -10.230250851711729]]}}, {"type": "Feature", "properties": {"layer": "0 - Meio Fio", "dxf_type": "LINE"}, "geometry": {"type": "LineString", "coordinates": [[-54.993807590823835, -10.230250851711729], [-54.99336937702192, -10.229722865796939]]}}, {"type": "Feature", "properties": {"layer": "0 - Meio Fio", "dxf_type": "LINE"}, "geometry": {"type": "LineString", "coordinates": [[-54.99471375316983, -10.23048226965091], [-54.99438712093797, -10.230080256567135]]}}, {"type": "Feature", "properties": {"layer": "0 - Meio Fio", "dxf_type": "LINE"}, "geometry": {"type": "LineString", "coordinates": [[-54.99438712093797, -10.230080256567135], [-54.9941908290962, -10.22983600518521]]}}, {"type": "Feature", "properties": {"layer": "0 - Meio Fio", "dxf_type": "LINE"}, "geometry": {"type": "LineString", "coordinates": [[-54.9941908290962, -10.22983600518521], [-54.99378926359278, -10.22937675564189]]}}, {"type": "Feature", "properties": {"layer": "0 - Meio Fio", "dxf_type": "LINE"}, "geometry": {"type": "LineString", "coordinates": [[-54.993736438530334, -10.229369679643108], [-54.99336788791468, -10.229669519814268]]}}, {"type": "Feature", "properties": {"layer": "0 - Meio Fio", "dxf_type": "LINE"}, "geometry": {"type": "LineString", "coordinates": [[-54.99657606446215, -10.23261997480215], [-54.996125941299766, -10.232094862007752]]}}, {"type": "Feature", "properties": {"layer": "0 - Meio Fio", "dxf_type": "LINE"}, "geometry": {"type": "LineString", "coordinates": [[-54.996125941299766, -10.232094862007752], [-54.995862533905225, -10.231760538796808]]}}, {"type": "Feature", "properties": {"layer": "0 - Meio Fio", "dxf_type": "LINE"}, "geometry": {"type": "LineString", "coordinates": [[-54.995862533905225, -10.231760538796808], [-54.99533683736716, -10.23113497805356]]}}, {"type": "Feature", "properties": {"layer": "0 - Meio Fio", "dxf_type": "LINE"}, "geometry": {"type": "LineString", "coordinates": [[-54.99533683736716, -10.23113497805356], [-54.99486095348082, -10.23055624490594]]}}, {"type": "Feature", "properties": {"layer": "0 - Meio Fio", "dxf_type": "LINE"}, "geometry": {"type": "LineString", "coordinates": [[-54.99486303342351, -10.230499956907053], [-54.995194024417515, -10.230242156523426]]}}, {"type": "Feature", "properties": {"layer": "0 - Meio Fio", "dxf_type": "LINE"}, "geometry": {"type": "LineString", "coordinates": [[-54.995256002923874, -10.230256186517868], [-54.99548196618448, -10.230511796249502]]}}, {"type": "Feature", "properties": {"layer": "0 - Meio Fio", "dxf_type": "LINE"}, "geometry": {"type": "LineString", "coordinates": [[-54.99548196618448, -10.230511796249502], [-54.99570280676381, -10.230760548825709]]}}, {"type": "Feature", "properties": {"layer": "0 - Meio Fio", "dxf_type": "LINE"}, "geometry": {"type": "LineString", "coordinates": [[-54.99570280676381, -10.230760548825709], [-54.996069810074594, -10.23120763417068]]}}, {"type": "Feature", "properties": {"layer": "0 - Meio Fio", "dxf_type": "LINE"}, "geometry": {"type": "LineString", "coordinates": [[-54.996069810074594, -10.23120763417068], [-54.99648456306356, -10.231695435724554]]}}, {"type": "Feature", "properties": {"layer": "0 - Meio Fio", "dxf_type": "LINE"}, "geometry": {"type": "LineString", "coordinates": [[-54.99648456306356, -10.231695435724554], [-54.99676395099075, -10.23204376917673]]}}, {"type": "Feature", "properties": {"layer": "0 - Meio Fio", "dxf_type": "LINE"}, "geometry": {"type": "LineString", "coordinates": [[-54.99676395099075, -10.23204376917673], [-54.996990744314395, -10.232317281082437]]}}, {"type": "Feature", "properties": {"layer": "0 - Meio Fio", "dxf_type": "LINE"}, "geometry": {"type": "LineString", "coordinates": [[-54.99697489351834, -10.232364754319487], [-54.996646161506796, -10.23263841602709]]}}, {"type": "Feature", "properties": {"layer": "0 - Meio Fio", "dxf_type": "LINE"}, "geometry": {"type": "LineString", "coordinates": [[-54.99928334322427, -10.238035835575747], [-54.999281065887075, -10.238064872795855]]}}, {"type": "Feature", "properties": {"layer": "0 - Meio Fio", "dxf_type": "LINE"}, "geometry": {"type": "LineString", "coordinates": [[-54.999281065887075, -10.238064872795855], [-54.99909024832621, -10.23806439070161]]}}, {"type": "Feature", "properties": {"layer": "0 - Meio Fio", "dxf_type": "LINE"}, "geometry": {"type": "LineString", "coordinates": [[-54.99909024832621, -10.23806439070161], [-54.99909492878173, -10.238057441193922]]}}, {"type": "Feature", "properties": {"layer": "0 - Meio Fio", "dxf_type": "LINE"}, "geometry": {"type": "LineString", "coordinates": [[-54.99909492878173, -10.238057441193922], [-54.99921124882411, -10.238055992620168]]}}, {"type": "Feature", "properties": {"layer": "0 - Meio Fio", "dxf_type": "LINE"}, "geometry": {"type": "LineString", "coordinates": [[-54.99921124882411, -10.238055992620168], [-54.99928334322427, -10.238035835575747]]}}, {"type": "Feature", "properties": {"layer": "0 - Meio Fio", "dxf_type": "LINE"}, "geometry": {"type": "LineString", "coordinates": [[-54.99908005322063, -10.238058214754991], [-54.99907521425536, -10.2380638092089]]}}, {"type": "Feature", "properties": {"layer": "0 - Meio Fio", "dxf_type": "LINE"}, "geometry": {"type": "LineString", "coordinates": [[-54.99907521425536, -10.2380638092089], [-54.9989991025486, -10.238067236069453]]}}, {"type": "Feature", "properties": {"layer": "0 - Meio Fio", "dxf_type": "LINE"}, "geometry": {"type": "LineString", "coordinates": [[-54.99908005322063, -10.238058214754991], [-54.998996518713746, -10.238060730904342]]}}, {"type": "Feature", "properties": {"layer": "0 - Meio Fio", "dxf_type": "LINE"}, "geometry": {"type": "LineString", "coordinates": [[-54.99885867413999, -10.238133954163416], [-54.99882142500701, -10.238158665197837]]}}, {"type": "Feature", "properties": {"layer": "0 - Meio Fio", "dxf_type": "LINE"}, "geometry": {"type": "LineString", "coordinates": [[-54.99882142500701, -10.238158665197837], [-54.998739789594765, -10.238228129441586]]}}, {"type": "Feature", "properties": {"layer": "0 - Meio Fio", "dxf_type": "LINE"}, "geometry": {"type": "LineString", "coordinates": [[-54.998739789594765, -10.238228129441586], [-54.998480889430205, -10.23843855922565]]}}, {"type": "Feature", "properties": {"layer": "0 - Meio Fio", "dxf_type": "LINE"}, "geometry": {"type": "LineString", "coordinates": [[-54.998480889430205, -10.23843855922565], [-54.99834215440286, -10.238552736236]]}}, {"type": "Feature", "properties": {"layer": "0 - Meio Fio", "dxf_type": "LINE"}, "geometry": {"type": "LineString", "coordinates": [[-54.99834215440286, -10.238552736236], [-54.99810872223986, -10.238745301712042]]}}, {"type": "Feature", "properties": {"layer": "0 - Meio Fio", "dxf_type": "LINE"}, "geometry": {"type": "LineString", "coordinates": [[-54.9988507814274, -10.238125899555797], [-54.998788060711156, -10.238175527849867]]}}, {"type": "Feature", "properties": {"layer": "0 - Meio Fio", "dxf_type": "LINE"}, "geometry": {"type": "LineString", "coordinates": [[-54.998788060711156, -10.238175527849867], [-54.998511006204694, -10.238402139219986]]}}, {"type": "Feature", "properties": {"layer": "0 - Meio Fio", "dxf_type": "LINE"}, "geometry": {"type": "LineString", "coordinates": [[-54.998511006204694, -10.238402139219986], [-54.99807100811422, -10.238760759018808]]}}, {"type": "Feature", "properties": {"layer": "0 - Meio Fio", "dxf_type": "LINE"}, "geometry": {"type": "LineString", "coordinates": [[-54.999422166963846, -10.23803510745006], [-54.99936051177788, -10.238034728288643]]}}, {"type": "Feature", "properties": {"layer": "0 - Meio Fio", "dxf_type": "LINE"}, "geometry": {"type": "LineString", "coordinates": [[-54.999358453415304, -10.238079934449502], [-54.9994192326013, -10.238078990303963]]}}, {"type": "Feature", "properties": {"layer": "0 - Meio Fio", "dxf_type": "LINE"}, "geometry": {"type": "LineString", "coordinates": [[-54.99475263589945, -10.230440266150985], [-54.99441874023955, -10.230039604918623]]}}, {"type": "Feature", "properties": {"layer": "0 - Meio Fio", "dxf_type": "LINE"}, "geometry": {"type": "LineString", "coordinates": [[-54.99441874023955, -10.230039604918623], [-54.99384691039885, -10.22932996318717]]}}, {"type": "Feature", "properties": {"layer": "0 - Meio Fio", "dxf_type": "LINE"}, "geometry": {"type": "LineString", "coordinates": [[-54.994813361857766, -10.230445218560345], [-54.99515240213787, -10.230166117140662]]}}, {"type": "Feature", "properties": {"layer": "0 - Meio Fio", "dxf_type": "LINE"}, "geometry": {"type": "LineString", "coordinates": [[-54.99515458654652, -10.230109894854548], [-54.99482887518209, -10.229725112088165]]}}, {"type": "Feature", "properties": {"layer": "0 - Meio Fio", "dxf_type": "LINE"}, "geometry": {"type": "LineString", "coordinates": [[-54.99482887518209, -10.229725112088165], [-54.99432310596343, -10.229131062952886]]}}, {"type": "Feature", "properties": {"layer": "0 - Meio Fio", "dxf_type": "LINE"}, "geometry": {"type": "LineString", "coordinates": [[-54.99432310596343, -10.229131062952886], [-54.99424343928335, -10.229027970685593]]}}, {"type": "Feature", "properties": {"layer": "0 - Meio Fio", "dxf_type": "LINE"}, "geometry": {"type": "LineString", "coordinates": [[-54.99418032590524, -10.229020763593638], [-54.99385037279253, -10.229261939082374]]}}, {"type": "Feature", "properties": {"layer": "0 - Meio Fio", "dxf_type": "LINE"}, "geometry": {"type": "LineString", "coordinates": [[-54.99530972834331, -10.230188616486565], [-54.99568680412083, -10.23063472547455]]}}, {"type": "Feature", "properties": {"layer": "0 - Meio Fio", "dxf_type": "LINE"}, "geometry": {"type": "LineString", "coordinates": [[-54.99568680412083, -10.23063472547455], [-54.995944286640125, -10.230944397441542]]}}, {"type": "Feature", "properties": {"layer": "0 - Meio Fio", "dxf_type": "LINE"}, "geometry": {"type": "LineString", "coordinates": [[-54.995944286640125, -10.230944397441542], [-54.99625171222419, -10.231322252306299]]}}, {"type": "Feature", "properties": {"layer": "0 - Meio Fio", "dxf_type": "LINE"}, "geometry": {"type": "LineString", "coordinates": [[-54.99625171222419, -10.231322252306299], [-54.99649833185088, -10.231619230252877]]}}, {"type": "Feature", "properties": {"layer": "0 - Meio Fio", "dxf_type": "LINE"}, "geometry": {"type": "LineString", "coordinates": [[-54.99649833185088, -10.231619230252877], [-54.99664298171131, -10.231785719281204]]}}, {"type": "Feature", "properties": {"layer": "0 - Meio Fio", "dxf_type": "LINE"}, "geometry": {"type": "LineString", "coordinates": [[-54.99664298171131, -10.231785719281204], [-54.997027860491805, -10.232258226567554]]}}, {"type": "Feature", "properties": {"layer": "0 - Meio Fio", "dxf_type": "LINE"}, "geometry": {"type": "LineString", "coordinates": [[-54.99741749130556, -10.231974131697559], [-54.99709468878258, -10.232254967869485]]}}, {"type": "Feature", "properties": {"layer": "0 - Meio Fio", "dxf_type": "LINE"}, "geometry": {"type": "LineString", "coordinates": [[-54.99740855713125, -10.231918985293486], [-54.9972152530189, -10.231671705480476]]}}, {"type": "Feature", "properties": {"layer": "0 - Meio Fio", "dxf_type": "LINE"}, "geometry": {"type": "LineString", "coordinates": [[-54.9972152530189, -10.231671705480476], [-54.99680448990053, -10.231175973781738]]}}, {"type": "Feature", "properties": {"layer": "0 - Meio Fio", "dxf_type": "LINE"}, "geometry": {"type": "LineString", "coordinates": [[-54.99680448990053, -10.231175973781738], [-54.99664238142058, -10.230985821170458]]}}, {"type": "Feature", "properties": {"layer": "0 - Meio Fio", "dxf_type": "LINE"}, "geometry": {"type": "LineString", "coordinates": [[-54.99664238142058, -10.230985821170458], [-54.99647485280119, -10.23077175440445]]}}, {"type": "Feature", "properties": {"layer": "0 - Meio Fio", "dxf_type": "LINE"}, "geometry": {"type": "LineString", "coordinates": [[-54.99647485280119, -10.23077175440445], [-54.99613407463049, -10.230339073131558]]}}, {"type": "Feature", "properties": {"layer": "0 - Meio Fio", "dxf_type": "LINE"}, "geometry": {"type": "LineString", "coordinates": [[-54.99613407463049, -10.230339073131558], [-54.99593881805248, -10.230108310014252]]}}, {"type": "Feature", "properties": {"layer": "0 - Meio Fio", "dxf_type": "LINE"}, "geometry": {"type": "LineString", "coordinates": [[-54.99593881805248, -10.230108310014252], [-54.99572131240274, -10.229858351546298]]}}, {"type": "Feature", "properties": {"layer": "0 - Meio Fio", "dxf_type": "LINE"}, "geometry": {"type": "LineString", "coordinates": [[-54.99565652054749, -10.229832386106999], [-54.99531216912958, -10.230133561833387]]}}, {"type": "Feature", "properties": {"layer": "0 - Meio Fio", "dxf_type": "LINE"}, "geometry": {"type": "LineString", "coordinates": [[-54.99562222907943, -10.229745255573931], [-54.99523558074264, -10.229248211371297]]}}, {"type": "Feature", "properties": {"layer": "0 - Meio Fio", "dxf_type": "LINE"}, "geometry": {"type": "LineString", "coordinates": [[-54.99513473886204, -10.228830257468701], [-54.994905684807925, -10.228551719695696]]}}, {"type": "Feature", "properties": {"layer": "0 - Meio Fio", "dxf_type": "LINE"}, "geometry": {"type": "LineString", "coordinates": [[-54.99481007479984, -10.228528854644152], [-54.99430022602015, -10.228917855786554]]}}, {"type": "Feature", "properties": {"layer": "0 - Meio Fio", "dxf_type": "LINE"}, "geometry": {"type": "LineString", "coordinates": [[-54.994296898703325, -10.228997232203218], [-54.994622740034465, -10.229385378655062]]}}, {"type": "Feature", "properties": {"layer": "0 - Meio Fio", "dxf_type": "LINE"}, "geometry": {"type": "LineString", "coordinates": [[-54.994622740034465, -10.229385378655062], [-54.99520255397966, -10.230062336577914]]}}, {"type": "Feature", "properties": {"layer": "0 - Meio Fio", "dxf_type": "LINE"}, "geometry": {"type": "LineString", "coordinates": [[-54.99526255133831, -10.230081298822025], [-54.9956062671521, -10.22979153487446]]}}, {"type": "Feature", "properties": {"layer": "0 - Meio Fio", "dxf_type": "LINE"}, "geometry": {"type": "LineString", "coordinates": [[-54.995658929335676, -10.229678141973356], [-54.99526529203485, -10.229188743550663]]}}, {"type": "Feature", "properties": {"layer": "0 - Meio Fio", "dxf_type": "LINE"}, "geometry": {"type": "LineString", "coordinates": [[-54.99523712427108, -10.229118733946871], [-54.995255860655426, -10.228867811891822]]}}, {"type": "Feature", "properties": {"layer": "0 - Meio Fio", "dxf_type": "LINE"}, "geometry": {"type": "LineString", "coordinates": [[-54.99524655977437, -10.228830005907453], [-54.99494918588897, -10.228473920299516]]}}, {"type": "Feature", "properties": {"layer": "0 - Meio Fio", "dxf_type": "LINE"}, "geometry": {"type": "LineString", "coordinates": [[-54.99523558074264, -10.229248211371297], [-54.99519264503327, -10.229193016516875]]}}, {"type": "Feature", "properties": {"layer": "0 - Meio Fio", "dxf_type": "LINE"}, "geometry": {"type": "LineString", "coordinates": [[-54.99519264503327, -10.229193016516875], [-54.99518616834396, -10.22888928663309]]}}, {"type": "Feature", "properties": {"layer": "0 - Meio Fio", "dxf_type": "LINE"}, "geometry": {"type": "LineString", "coordinates": [[-54.99518616834396, -10.22888928663309], [-54.99513473886204, -10.228830257468701]]}}, {"type": "Feature", "properties": {"layer": "0 - Meio Fio", "dxf_type": "LINE"}, "geometry": {"type": "LineString", "coordinates": [[-54.99526529203485, -10.229188743550663], [-54.995235602904664, -10.22913911074826]]}}, {"type": "Feature", "properties": {"layer": "0 - Meio Fio", "dxf_type": "LINE"}, "geometry": {"type": "LineString", "coordinates": [[-54.995235602904664, -10.22913911074826], [-54.99523712427108, -10.229118733946871]]}}, {"type": "Feature", "properties": {"layer": "0 - Meio Fio", "dxf_type": "LINE"}, "geometry": {"type": "LineString", "coordinates": [[-54.99511285041518, -10.228297122874778], [-54.994950507246855, -10.228426379395788]]}}, {"type": "Feature", "properties": {"layer": "0 - Meio Fio", "dxf_type": "LINE"}, "geometry": {"type": "LineString", "coordinates": [[-54.995176168148376, -10.22831290563263], [-54.99602109801031, -10.229335473231624]]}}, {"type": "Feature", "properties": {"layer": "0 - Meio Fio", "dxf_type": "LINE"}, "geometry": {"type": "LineString", "coordinates": [[-54.99572693746181, -10.229673208522355], [-54.996036765344776, -10.229410473254106]]}}, {"type": "Feature", "properties": {"layer": "0 - Meio Fio", "dxf_type": "LINE"}, "geometry": {"type": "LineString", "coordinates": [[-54.997491655659154, -10.23189680713901], [-54.99721245148599, -10.231560952176004]]}}, {"type": "Feature", "properties": {"layer": "0 - Meio Fio", "dxf_type": "LINE"}, "geometry": {"type": "LineString", "coordinates": [[-54.99721245148599, -10.231560952176004], [-54.99655194310322, -10.23077394810983]]}}, {"type": "Feature", "properties": {"layer": "0 - Meio Fio", "dxf_type": "LINE"}, "geometry": {"type": "LineString", "coordinates": [[-54.99655194310322, -10.23077394810983], [-54.99606568973835, -10.230163303769888]]}}, {"type": "Feature", "properties": {"layer": "0 - Meio Fio", "dxf_type": "LINE"}, "geometry": {"type": "LineString", "coordinates": [[-54.99606568973835, -10.230163303769888], [-54.99576527075351, -10.229799603226084]]}}, {"type": "Feature", "properties": {"layer": "0 - Meio Fio", "dxf_type": "LINE"}, "geometry": {"type": "LineString", "coordinates": [[-54.99608931618523, -10.229479030246095], [-54.99576758349824, -10.2297416696744]]}}, {"type": "Feature", "properties": {"layer": "0 - Meio Fio", "dxf_type": "LINE"}, "geometry": {"type": "LineString", "coordinates": [[-54.9961594963659, -10.229492980364622], [-54.99678522399756, -10.230240478859296]]}}, {"type": "Feature", "properties": {"layer": "0 - Meio Fio", "dxf_type": "LINE"}, "geometry": {"type": "LineString", "coordinates": [[-54.99678522399756, -10.230240478859296], [-54.99789536233841, -10.231571771728248]]}}, {"type": "Feature", "properties": {"layer": "0 - Meio Fio", "dxf_type": "LINE"}, "geometry": {"type": "LineString", "coordinates": [[-54.99787944707885, -10.231616164977416], [-54.99753957870701, -10.231890681388526]]}}, {"type": "Feature", "properties": {"layer": "0 - Meio Fio", "dxf_type": "LINE"}, "geometry": {"type": "LineString", "coordinates": [[-54.99793136519945, -10.231505829544094], [-54.99711093261547, -10.230535098305714]]}}, {"type": "Feature", "properties": {"layer": "0 - Meio Fio", "dxf_type": "LINE"}, "geometry": {"type": "LineString", "coordinates": [[-54.99711093261547, -10.230535098305714], [-54.99621302381983, -10.229452408186312]]}}, {"type": "Feature", "properties": {"layer": "0 - Meio Fio", "dxf_type": "LINE"}, "geometry": {"type": "LineString", "coordinates": [[-54.99620559359321, -10.229376047835965], [-54.99655555708646, -10.229090070500886]]}}, {"type": "Feature", "properties": {"layer": "0 - Meio Fio", "dxf_type": "LINE"}, "geometry": {"type": "LineString", "coordinates": [[-54.99662264464424, -10.229112006623836], [-54.9972426163622, -10.22988484745834]]}}, {"type": "Feature", "properties": {"layer": "0 - Meio Fio", "dxf_type": "LINE"}, "geometry": {"type": "LineString", "coordinates": [[-54.9972426163622, -10.22988484745834], [-54.99810498210967, -10.230955397855379]]}}, {"type": "Feature", "properties": {"layer": "0 - Meio Fio", "dxf_type": "LINE"}, "geometry": {"type": "LineString", "coordinates": [[-54.99810498210967, -10.230955397855379], [-54.998327080635896, -10.23121935358397]]}}, {"type": "Feature", "properties": {"layer": "0 - Meio Fio", "dxf_type": "LINE"}, "geometry": {"type": "LineString", "coordinates": [[-54.99832590415112, -10.23127049038206], [-54.997990591864564, -10.231528007303824]]}}, {"type": "Feature", "properties": {"layer": "0 - Meio Fio", "dxf_type": "LINE"}, "geometry": {"type": "LineString", "coordinates": [[-54.99650631105699, -10.228981859810878], [-54.99625206789436, -10.228678577425661]]}}, {"type": "Feature", "properties": {"layer": "0 - Meio Fio", "dxf_type": "LINE"}, "geometry": {"type": "LineString", "coordinates": [[-54.99625206789436, -10.228678577425661], [-54.995874860401095, -10.228229164676797]]}}, {"type": "Feature", "properties": {"layer": "0 - Meio Fio", "dxf_type": "LINE"}, "geometry": {"type": "LineString", "coordinates": [[-54.995874860401095, -10.228229164676797], [-54.995630264611776, -10.227957523554881]]}}, {"type": "Feature", "properties": {"layer": "0 - Meio Fio", "dxf_type": "LINE"}, "geometry": {"type": "LineString", "coordinates": [[-54.99556666786311, -10.227937345207085], [-54.99523143351517, -10.228196192423946]]}}, {"type": "Feature", "properties": {"layer": "0 - Meio Fio", "dxf_type": "LINE"}, "geometry": {"type": "LineString", "coordinates": [[-54.99522728547432, -10.228259231767801], [-54.99532398219593, -10.228381009706805]]}}, {"type": "Feature", "properties": {"layer": "0 - Meio Fio", "dxf_type": "LINE"}, "geometry": {"type": "LineString", "coordinates": [[-54.99532398219593, -10.228381009706805], [-54.99608591951728, -10.229296914926179]]}}, {"type": "Feature", "properties": {"layer": "0 - Meio Fio", "dxf_type": "LINE"}, "geometry": {"type": "LineString", "coordinates": [[-54.99650623369984, -10.229031880646994], [-54.99614987896201, -10.229319113919468]]}}, {"type": "Feature", "properties": {"layer": "0 - Meio Fio", "dxf_type": "LINE"}, "geometry": {"type": "LineString", "coordinates": [[-54.998404217759116, -10.231161978550915], [-54.99793703368342, -10.230641575642228]]}}, {"type": "Feature", "properties": {"layer": "0 - Meio Fio", "dxf_type": "LINE"}, "geometry": {"type": "LineString", "coordinates": [[-54.99793703368342, -10.230641575642228], [-54.997493951153956, -10.230086091952415]]}}, {"type": "Feature", "properties": {"layer": "0 - Meio Fio", "dxf_type": "LINE"}, "geometry": {"type": "LineString", "coordinates": [[-54.997493951153956, -10.230086091952415], [-54.99683858727214, -10.229265806379006]]}}, {"type": "Feature", "properties": {"layer": "0 - Meio Fio", "dxf_type": "LINE"}, "geometry": {"type": "LineString", "coordinates": [[-54.99683858727214, -10.229265806379006], [-54.99666224553411, -10.22905291675344]]}}, {"type": "Feature", "properties": {"layer": "0 - Meio Fio", "dxf_type": "LINE"}, "geometry": {"type": "LineString", "coordinates": [[-54.99667264069696, -10.229005022150536], [-54.996989351388436, -10.228729222965182]]}}, {"type": "Feature", "properties": {"layer": "0 - Meio Fio", "dxf_type": "LINE"}, "geometry": {"type": "LineString", "coordinates": [[-54.99706188138164, -10.228753646622705], [-54.99746275076803, -10.22922368865962]]}}, {"type": "Feature", "properties": {"layer": "0 - Meio Fio", "dxf_type": "LINE"}, "geometry": {"type": "LineString", "coordinates": [[-54.99746275076803, -10.22922368865962], [-54.99795577174137, -10.229810189199338]]}}, {"type": "Feature", "properties": {"layer": "0 - Meio Fio", "dxf_type": "LINE"}, "geometry": {"type": "LineString", "coordinates": [[-54.99795577174137, -10.229810189199338], [-54.99884303937703, -10.230859078587697]]}}, {"type": "Feature", "properties": {"layer": "0 - Meio Fio", "dxf_type": "LINE"}, "geometry": {"type": "LineString", "coordinates": [[-54.998830654620164, -10.230899023712269], [-54.99845953970408, -10.231173932328767]]}}, {"type": "Feature", "properties": {"layer": "0 - Meio Fio", "dxf_type": "LINE"}, "geometry": {"type": "LineString", "coordinates": [[-54.99655952504703, -10.228948032506004], [-54.99585245598964, -10.22810945131456]]}}, {"type": "Feature", "properties": {"layer": "0 - Meio Fio", "dxf_type": "LINE"}, "geometry": {"type": "LineString", "coordinates": [[-54.99585245598964, -10.22810945131456], [-54.99567407930555, -10.2278992226575]]}}, {"type": "Feature", "properties": {"layer": "0 - Meio Fio", "dxf_type": "LINE"}, "geometry": {"type": "LineString", "coordinates": [[-54.99672036388894, -10.228348025994034], [-54.99695235372806, -10.228622897326817]]}}, {"type": "Feature", "properties": {"layer": "0 - Meio Fio", "dxf_type": "LINE"}, "geometry": {"type": "LineString", "coordinates": [[-54.996933581568136, -10.228685445444931], [-54.996603009199276, -10.228960341233481]]}}, {"type": "Feature", "properties": {"layer": "0 - Meio Fio", "dxf_type": "LINE"}, "geometry": {"type": "LineString", "coordinates": [[-54.991473514129474, -10.231282096284104], [-54.99270316618862, -10.23271657958266]]}}, {"type": "Feature", "properties": {"layer": "0 - Meio Fio", "dxf_type": "LINE"}, "geometry": {"type": "LineString", "coordinates": [[-54.99140809432485, -10.231279546718582], [-54.99052635854692, -10.23199585709575]]}}, {"type": "Feature", "properties": {"layer": "0 - Meio Fio", "dxf_type": "LINE"}, "geometry": {"type": "LineString", "coordinates": [[-54.9986134464478, -10.230491146584042], [-54.99827165819262, -10.230087074581652]]}}, {"type": "Feature", "properties": {"layer": "0 - Meio Fio", "dxf_type": "LINE"}, "geometry": {"type": "LineString", "coordinates": [[-54.99827165819262, -10.230087074581652], [-54.99766162216239, -10.229362265730941]]}}, {"type": "Feature", "properties": {"layer": "0 - Meio Fio", "dxf_type": "LINE"}, "geometry": {"type": "LineString", "coordinates": [[-54.99766162216239, -10.229362265730941], [-54.9974365379986, -10.229089499932659]]}}, {"type": "Feature", "properties": {"layer": "0 - Meio Fio", "dxf_type": "LINE"}, "geometry": {"type": "LineString", "coordinates": [[-54.9974365379986, -10.229089499932659], [-54.99714560609657, -10.228743677036151]]}}, {"type": "Feature", "properties": {"layer": "0 - Meio Fio", "dxf_type": "LINE"}, "geometry": {"type": "LineString", "coordinates": [[-54.99755269841349, -10.228268712919698], [-54.99715267114039, -10.228602928045918]]}}, {"type": "Feature", "properties": {"layer": "0 - Meio Fio", "dxf_type": "LINE"}, "geometry": {"type": "LineString", "coordinates": [[-54.99739167756738, -10.228299241564054], [-54.997052233574955, -10.228582357914428]]}}, {"type": "Feature", "properties": {"layer": "0 - Meio Fio", "dxf_type": "LINE"}, "geometry": {"type": "LineString", "coordinates": [[-54.996992310269455, -10.228561497343446], [-54.996640845496046, -10.228141273169975]]}}, {"type": "Feature", "properties": {"layer": "0 - Meio Fio", "dxf_type": "LINE"}, "geometry": {"type": "LineString", "coordinates": [[-54.996640845496046, -10.228141273169975], [-54.99612067788094, -10.227518101315423]]}}, {"type": "Feature", "properties": {"layer": "0 - Meio Fio", "dxf_type": "LINE"}, "geometry": {"type": "LineString", "coordinates": [[-54.997108163383785, -10.227891004152863], [-54.99739574701024, -10.228233242184032]]}}, {"type": "Feature", "properties": {"layer": "0 - Meio Fio", "dxf_type": "LINE"}, "geometry": {"type": "LineString", "coordinates": [[-54.99744351072379, -10.228200325772992], [-54.996923275967816, -10.227554230078297]]}}]}