{"type": "FeatureCollection", "name": "0_numero_de_quadra", "crs": {"type": "name", "properties": {"name": "urn:ogc:def:crs:OGC:1.3:CRS84"}}, "properties": {"source": "8be78050_MAPA TRIBUTAÇÃO 2021 (1).dxf", "assumed_crs": "EPSG:4326", "local_crs": false, "note": "Coordenadas locais do desenho (sem CRS). Use base 'Só CAD' no mapa.", "extent": [4300.4554, 2373.7696, 8215.3349, 6186.7838], "georef": true, "transform": {"scale": 1, "rotation_deg": 0, "tx": 713717.6034368816, "ty": 8862616.121289995, "rmse_m": 0, "epsg": 31981}, "layer": "0 - Número de Quadra", "source_file": "8be78050_MAPA TRIBUTAÇÃO 2021 (1)_georef.geojson", "n_features": 46}, "features": [{"type": "Feature", "properties": {"layer": "0 - Número de Quadra", "dxf_type": "CIRCLE", "radius_m": 5.98}, "geometry": {"type": "Polygon", "coordinates": [[[-54.990639137322454, -10.2454203434406], [-54.990640251381755, -10.245409807009114], [-54.99064342074538, -10.245399688237137], [-54.99064852158631, -10.245390375948528], [-54.99065535817215, -10.245382228693378], [-54.990663668437406, -10.24537555941578], [-54.99067313318324, -10.245370623759804], [-54.990683387992185, -10.245367612007879], [-54.99069403880449, -10.245366639233923], [-54.99070467653073, -10.245367743585891], [-54.990714892593985, -10.245370881862158], [-54.99072429350247, -10.245375934121245], [-54.99073251908966, -10.245382705602333], [-54.99073925340256, -10.245390936735665], [-54.99074423651382, -10.245400311350828], [-54.99074727722388, -10.245410468506156], [-54.990748259352145, -10.24542101789428], [-54.99074714438365, -10.24543155432114], [-54.99074397593519, -10.245441673100322], [-54.99073887510134, -10.24545098448689], [-54.99073203759721, -10.245459132642136], [-54.99072372733052, -10.24546580192131], [-54.990714263494645, -10.245470737583984], [-54.99070400868231, -10.245473749336307], [-54.99069335786633, -10.245474722109893], [-54.99068272013669, -10.245473617756906], [-54.99067250407086, -10.245470479479065], [-54.99066310224842, -10.245465427212489], [-54.99065487666123, -10.24545865572955], [-54.99064814326804, -10.2454504236964], [-54.990643160153695, -10.245441049984064], [-54.990640118534465, -10.24543089282271], [-54.990639137322454, -10.2454203434406]]]}}, {"type": "Feature", "properties": {"layer": "0 - Número de Quadra", "dxf_type": "CIRCLE", "radius_m": 5.98}, "geometry": {"type": "Polygon", "coordinates": [[[-54.993150278368, -10.243252866920782], [-54.99315139324275, -10.243242329563898], [-54.993154561578244, -10.24323221164516], [-54.99315966230648, -10.243222899295422], [-54.99316649878114, -10.243214751965368], [-54.99317480894669, -10.243208081698086], [-54.99318427359693, -10.243203145948707], [-54.993194528323784, -10.24320013409937], [-54.99320517907067, -10.24319916122774], [-54.993215816750656, -10.243200265485521], [-54.99322603278859, -10.243203403674704], [-54.993235434606255, -10.243208455862804], [-54.993243660206424, -10.243215228184544], [-54.993250393646726, -10.24322345926484], [-54.993255376817785, -10.24323283385025], [-54.99325841761082, -10.243242990090742], [-54.993259399825206, -10.243253540391006], [-54.99325828495953, -10.24326407684502], [-54.99325511662093, -10.243274195669203], [-54.993250015899775, -10.243283507116901], [-54.99324317942509, -10.243291654448804], [-54.99323486925812, -10.243298324717662], [-54.993225404605255, -10.2433032604681], [-54.993215149875, -10.243306272317836], [-54.993204499124445, -10.243307245189092], [-54.993193861441064, -10.243306140930295], [-54.99318364540055, -10.243303002739538], [-54.9931742435815, -10.243297950549593], [-54.99316601798135, -10.243291178226], [-54.99315928454247, -10.243282947144131], [-54.99315430136834, -10.243273573461545], [-54.9931512605844, -10.243263416316788], [-54.993150278368, -10.243252866920782]]]}}, {"type": "Feature", "properties": {"layer": "0 - Número de Quadra", "dxf_type": "CIRCLE", "radius_m": 5.98}, "geometry": {"type": "Polygon", "coordinates": [[[-54.99472447462667, -10.241975986355481], [-54.99472558943779, -10.241965448981691], [-54.99472875770576, -10.24195533103496], [-54.99473385836514, -10.241946018647205], [-54.99474069568484, -10.241937871276216], [-54.99474900578678, -10.241931200955607], [-54.99475846946722, -10.241926265142551], [-54.99476872414541, -10.241923253232684], [-54.994779374854055, -10.241922280300367], [-54.99479001250772, -10.241923384499632], [-54.99480022853225, -10.241926522634722], [-54.994809630349934, -10.24193157477523], [-54.99481785596356, -10.24193834705771], [-54.994824589430245, -10.241946578108582], [-54.994829572639574, -10.241955952675545], [-54.994832614393886, -10.241966108914887], [-54.99483359575297, -10.241976659214687], [-54.99483248186348, -10.241987195691236], [-54.99482931267986, -10.241997314537786], [-54.99482421202755, -10.242006626023496], [-54.99481737562039, -10.242014773401962], [-54.99480906551703, -10.242021443724152], [-54.99479960092141, -10.242026379532636], [-54.99478934623981, -10.2420293914429], [-54.99477869552749, -10.242030364374848], [-54.99476805787044, -10.242029260174567], [-54.99475784184334, -10.242026122037903], [-54.994748440936824, -10.242021069901176], [-54.99474021532322, -10.242014297616846], [-54.99473348094539, -10.242006066558773], [-54.99472849773299, -10.241996692894636], [-54.99472545690034, -10.241986535756652], [-54.99472447462667, -10.241975986355481]]]}}, {"type": "Feature", "properties": {"layer": "0 - Número de Quadra", "dxf_type": "CIRCLE", "radius_m": 5.98}, "geometry": {"type": "Polygon", "coordinates": [[[-54.9960830426715, -10.240953217577031], [-54.99608415742283, -10.240942681092644], [-54.99608732655203, -10.240932562223692], [-54.996092427153705, -10.24092324980343], [-54.99609926350466, -10.240915102387], [-54.996107573548414, -10.240908432924677], [-54.996117038094624, -10.240903497067636], [-54.99612729273918, -10.240900484202152], [-54.996137943411846, -10.240899512121862], [-54.99614858105106, -10.24090061536725], [-54.996158797060716, -10.24090375436002], [-54.99616819796795, -10.240908806454254], [-54.99617642360058, -10.240915577799326], [-54.99618315800386, -10.240923808830715], [-54.996188141247, -10.24093318338194], [-54.99619118212535, -10.240943340513791], [-54.996192164451834, -10.240953889919782], [-54.996191049703896, -10.240964426405204], [-54.99618788148984, -10.240974545281334], [-54.99618278089523, -10.240983856799538], [-54.996175943626014, -10.2409920051161], [-54.996167633580825, -10.24099867457999], [-54.99615816994457, -10.241003610443718], [-54.996147915302295, -10.241006622405699], [-54.99613726462028, -10.24100759538952], [-54.996126626983354, -10.241006491239217], [-54.996116410965435, -10.241003353148773], [-54.996107009144254, -10.24099830104707], [-54.99609878351164, -10.240991529700151], [-54.99609205002803, -10.240983297768906], [-54.99608706678182, -10.240973924120526], [-54.99608402499431, -10.24096376698267], [-54.9960830426715, -10.240953217577031]]]}}, {"type": "Feature", "properties": {"layer": "0 - Número de Quadra", "dxf_type": "CIRCLE", "radius_m": 5.98}, "geometry": {"type": "Polygon", "coordinates": [[[-54.99111880558517, -10.246028367349426], [-54.991119920547526, -10.246017830919712], [-54.99112308899404, -10.246007712136024], [-54.991128189835585, -10.24599839983939], [-54.99113502642717, -10.245990252574579], [-54.99114333761568, -10.245983583291688], [-54.991152801464104, -10.245978647618289], [-54.99116305629781, -10.245975634950284], [-54.99117370713238, -10.24597466216424], [-54.99118434488322, -10.24597576650462], [-54.99119456096676, -10.245978905674194], [-54.99120396281418, -10.245983957929722], [-54.99121218842712, -10.245990729403346], [-54.991218921851555, -10.245998960525604], [-54.991223904984395, -10.246008335137569], [-54.99122694662524, -10.246018492297706], [-54.991227927855064, -10.246029041681728], [-54.99122681380866, -10.24603957811814], [-54.99122364445217, -10.24604969689775], [-54.9912185436177, -10.24605900829234], [-54.99121170702608, -10.246067155559004], [-54.99120339674303, -10.246073825752994], [-54.99119393197942, -10.246078761421808], [-54.991183677148, -10.246081773186296], [-54.99117302630975, -10.246082745972002], [-54.99116238855552, -10.246081641630573], [-54.99115217246371, -10.246078503363337], [-54.99114277152748, -10.246073451111608], [-54.991134545007675, -10.246066678726606], [-54.99112781158467, -10.246058447602776], [-54.991122828448745, -10.246049073893628], [-54.99111978772389, -10.246038916738751], [-54.99111880558517, -10.246028367349426]]]}}, {"type": "Feature", "properties": {"layer": "0 - Número de Quadra", "dxf_type": "CIRCLE", "radius_m": 5.98}, "geometry": {"type": "Polygon", "coordinates": [[[-54.99215255054733, -10.24498109207066], [-54.99215366546583, -10.244970555629564], [-54.99215683386461, -10.244960436826963], [-54.992161934656394, -10.24495112450461], [-54.9921687721107, -10.244942977213892], [-54.99217708233856, -10.244936307889208], [-54.99218654614256, -10.244931372176438], [-54.9921968009372, -10.244928359467353], [-54.992207451733876, -10.244927387543985], [-54.99221808946629, -10.244928490940726], [-54.99222830553473, -10.244931630073536], [-54.99223770737666, -10.244936682296688], [-54.99224593299392, -10.244943453743582], [-54.99225266643232, -10.244951684845777], [-54.99225764958824, -10.244961059445119], [-54.99226069126038, -10.244971216600549], [-54.99226167344109, -10.244981765993613], [-54.99226055852598, -10.244992302435758], [-54.99225738921721, -10.24500242123428], [-54.992252288432496, -10.245011732654596], [-54.992245451890746, -10.245019879952801], [-54.99223714165577, -10.245026550182944], [-54.99222767693659, -10.245031485891136], [-54.99221742214423, -10.245034497696702], [-54.99220677133819, -10.245035470523618], [-54.99219613360807, -10.24503436622194], [-54.99218591753135, -10.245031227991475], [-54.992176516600615, -10.245026175772113], [-54.99216829098907, -10.245019403419484], [-54.99216155663952, -10.245011172310079], [-54.99215657348053, -10.245001798613561], [-54.992153532724366, -10.244991641463384], [-54.99215255054733, -10.24498109207066]]]}}, {"type": "Feature", "properties": {"layer": "0 - Número de Quadra", "dxf_type": "CIRCLE", "radius_m": 5.98}, "geometry": {"type": "Polygon", "coordinates": [[[-54.99351910955688, -10.243771857864852], [-54.99352022441913, -10.243761321408929], [-54.993523392757645, -10.24375120258177], [-54.99352849348747, -10.243741890226065], [-54.993535330880476, -10.243733742894436], [-54.99354364105008, -10.243727073522903], [-54.993553105713666, -10.243722137764768], [-54.99356335954436, -10.243719125900759], [-54.99357401122268, -10.243718153025782], [-54.99358464892326, -10.243719257274986], [-54.99359486407014, -10.243722395450698], [-54.99360426590943, -10.243727447631992], [-54.99361249153618, -10.24373421904434], [-54.993619225908446, -10.243742450126282], [-54.993624209096595, -10.243751824709344], [-54.99362724989811, -10.243761981853137], [-54.993628232128884, -10.243772531250709], [-54.99362711727002, -10.243783067707662], [-54.993623948934086, -10.243793186536383], [-54.99361884820566, -10.243802498893931], [-54.993612010812626, -10.243810646227413], [-54.9936037006416, -10.24381731560052], [-54.9935942359754, -10.243822251359711], [-54.993583982141296, -10.243825263224101], [-54.99357333137187, -10.24382623610436], [-54.99356269275533, -10.24382513184849], [-54.99355247760587, -10.24382199367122], [-54.993543075765196, -10.24381694148808], [-54.99353485013846, -10.243810170073878], [-54.993528115767624, -10.243801938990362], [-54.993523132582084, -10.243792564406244], [-54.993520091783964, -10.243782407262069], [-54.99351910955688, -10.243771857864852]]]}}, {"type": "Feature", "properties": {"layer": "0 - Número de Quadra", "dxf_type": "CIRCLE", "radius_m": 5.98}, "geometry": {"type": "Polygon", "coordinates": [[[-54.99521498396337, -10.242536700716029], [-54.995216097845905, -10.24252616423645], [-54.99521926702649, -10.242516045385106], [-54.99522436767949, -10.24250673389284], [-54.995231204090885, -10.242498586506054], [-54.99523951420188, -10.242491916173936], [-54.995248978808384, -10.242486980354098], [-54.995259233503994, -10.242483968431394], [-54.995269884233316, -10.242482995486302], [-54.99528052191013, -10.242484099673348], [-54.995290737959365, -10.242487237797246], [-54.995300138889824, -10.242492289922387], [-54.99530836544101, -10.242499062202578], [-54.99531509893137, -10.24250729324769], [-54.99532008216783, -10.242516666907328], [-54.995323123022295, -10.24252682404399], [-54.995324105314296, -10.242537373447123], [-54.995322990522574, -10.242547909922111], [-54.99531982225715, -10.242558028780639], [-54.99531472159986, -10.242567341178635], [-54.99530788518844, -10.24257548856727], [-54.99529957416914, -10.242582157991453], [-54.99529011047258, -10.242587093817972], [-54.99527985576789, -10.242590106644949], [-54.995269205034894, -10.242591079589685], [-54.995258567354696, -10.242589975401605], [-54.995248351308554, -10.242586836372263], [-54.99523894946414, -10.242581784239658], [-54.99523072381986, -10.242575012867118], [-54.995223990330935, -10.242566781820432], [-54.995219007102754, -10.242557407255852], [-54.99521596533913, -10.242547250113178], [-54.99521498396337, -10.242536700716029]]]}}, {"type": "Feature", "properties": {"layer": "0 - Número de Quadra", "dxf_type": "CIRCLE", "radius_m": 5.98}, "geometry": {"type": "Polygon", "coordinates": [[[-54.996500105451254, -10.241536177810653], [-54.99650122019484, -10.24152564132296], [-54.996504388408404, -10.241515522443247], [-54.99650948901178, -10.24150621001621], [-54.99651632536916, -10.241498062591626], [-54.9965246354238, -10.241491393120095], [-54.996534099984956, -10.24148645725313], [-54.99654435464793, -10.241483444377396], [-54.99655500534179, -10.241482472286924], [-54.996565643004146, -10.241483575522585], [-54.99657585903802, -10.24148671450646], [-54.996585260882156, -10.241491766598594], [-54.99659348653834, -10.24149853793742], [-54.996600220050894, -10.241506768958647], [-54.99660520331333, -10.24151614350722], [-54.99660824420769, -10.241526300638402], [-54.99660922654629, -10.241536850045737], [-54.9966081118061, -10.241547386534444], [-54.99660494359512, -10.241557505415717], [-54.996599842998805, -10.241566816940713], [-54.99659300663573, -10.24157496527103], [-54.99658469657965, -10.241581634744138], [-54.99657523201589, -10.241586570612162], [-54.99656497735519, -10.241589582584393], [-54.99655432665198, -10.2415905555784], [-54.99654368899191, -10.24158945143782], [-54.996533472949785, -10.241586313356272], [-54.996524071104254, -10.24158126126229], [-54.996515845448094, -10.241574489921616], [-54.996509111942636, -10.241566257994931], [-54.99650412867713, -10.241556884349185], [-54.99650108778618, -10.241546727217623], [-54.996500105451254, -10.241536177810653]]]}}, {"type": "Feature", "properties": {"layer": "0 - Número de Quadra", "dxf_type": "CIRCLE", "radius_m": 5.98}, "geometry": {"type": "Polygon", "coordinates": [[[-54.991564046707126, -10.246437376323659], [-54.991565161659125, -10.246426839890134], [-54.991568330098914, -10.246416721100427], [-54.99157343093767, -10.246407408795793], [-54.99158026844307, -10.246399261526944], [-54.99158857872422, -10.246392592227435], [-54.99159804258163, -10.24638765654218], [-54.99160829742776, -10.246384643861889], [-54.99161894827203, -10.24638367196749], [-54.991629586958894, -10.246384775397907], [-54.99163980214927, -10.246387914551091], [-54.99164920401707, -10.246392966797249], [-54.99165742965052, -10.246399738263243], [-54.991664164007425, -10.246407969385546], [-54.99166914715875, -10.24641734399417], [-54.9916721879034, -10.246427501147695], [-54.991673170059435, -10.246438050538806], [-54.99167205511083, -10.246448586973383], [-54.99166888667362, -10.24645870576465], [-54.99166378584195, -10.246468017167244], [-54.99165694833652, -10.246476164437945], [-54.99164863804826, -10.246482834642915], [-54.99163917327565, -10.246487770323588], [-54.991628919344386, -10.246490782105997], [-54.991618267578176, -10.246491754898303], [-54.9916076298062, -10.246490650568592], [-54.99159741369495, -10.24648751231211], [-54.991588012738355, -10.246482460069748], [-54.9915797871106, -10.246475687698018], [-54.991573052755136, -10.246467456574138], [-54.991568069600724, -10.24645808286834], [-54.99156502885949, -10.246447925714431], [-54.991564046707126, -10.246437376323659]]]}}, {"type": "Feature", "properties": {"layer": "0 - Número de Quadra", "dxf_type": "CIRCLE", "radius_m": 5.98}, "geometry": {"type": "Polygon", "coordinates": [[[-54.992652509193974, -10.24547990031929], [-54.9926536241069, -10.245469362970072], [-54.992656793405665, -10.245459245070327], [-54.99266189419518, -10.245449932739136], [-54.99266873073933, -10.245441785432098], [-54.99267704097992, -10.245435115191412], [-54.99268650570789, -10.245430179471198], [-54.99269676051213, -10.245427167652473], [-54.99270741133311, -10.245426194811715], [-54.992718049081056, -10.24542729909945], [-54.9927282651782, -10.245430437316516], [-54.99273766613146, -10.245435489523718], [-54.99274589176693, -10.245442261866106], [-54.99275262614087, -10.245450492967793], [-54.992757609317934, -10.245459867563472], [-54.992760650101715, -10.245470023808345], [-54.99276163229192, -10.245480574106935], [-54.99276051738807, -10.245491110553283], [-54.992757349004464, -10.245501228460222], [-54.99275224821634, -10.245510540793259], [-54.99274541075959, -10.245518688096519], [-54.99273710051757, -10.245525358338773], [-54.99272763669957, -10.24553029406568], [-54.992717381891914, -10.245533305884793], [-54.992706731067265, -10.245534278725195], [-54.99269609331593, -10.245533174436428], [-54.9926858772162, -10.2455300362178], [-54.99267647534898, -10.245524984003117], [-54.99266824971353, -10.245518211658878], [-54.99266151625359, -10.245509980561252], [-54.99265653307914, -10.24550060596451], [-54.99265349138619, -10.245490449713623], [-54.992652509193974, -10.24547990031929]]]}}, {"type": "Feature", "properties": {"layer": "0 - Número de Quadra", "dxf_type": "CIRCLE", "radius_m": 5.98}, "geometry": {"type": "Polygon", "coordinates": [[[-54.99395568885566, -10.244339105742664], [-54.99395680370938, -10.244328569283226], [-54.99395997204399, -10.244318450450574], [-54.993965072774664, -10.244309138087624], [-54.9939719092607, -10.24430099074163], [-54.99398022035298, -10.244294321365853], [-54.99398968412393, -10.244289384687562], [-54.993999938885025, -10.244286372818186], [-54.994010589671504, -10.24428539992664], [-54.99402122739492, -10.244286504165398], [-54.99403144347843, -10.24428964233718], [-54.99404084533639, -10.244294695414052], [-54.99404907098687, -10.244301466819667], [-54.99405580446872, -10.24430969789108], [-54.99406078767666, -10.24431907247126], [-54.99406382940737, -10.244329229619936], [-54.99406481073839, -10.244339779013288], [-54.994063696800616, -10.244350315479393], [-54.99406052755602, -10.24436043430797], [-54.99405542683242, -10.244369745768882], [-54.99404859034637, -10.244377893116727], [-54.994040280159545, -10.24438456340359], [-54.99403081547909, -10.24438949917343], [-54.99402056071459, -10.244392511043188], [-54.99400990992444, -10.244393483934374], [-54.99399927219764, -10.244392379694588], [-54.993989056111545, -10.244389241521247], [-54.99397965515908, -10.244384189352045], [-54.99397142860173, -10.244377417035063], [-54.9939646951213, -10.244369185962077], [-54.9939597119103, -10.24435981228472], [-54.99395667109557, -10.244349655141294], [-54.99395568885566, -10.244339105742664]]]}}, {"type": "Feature", "properties": {"layer": "0 - Número de Quadra", "dxf_type": "CIRCLE", "radius_m": 5.98}, "geometry": {"type": "Polygon", "coordinates": [[[-54.99551744291852, -10.24304636074872], [-54.99551855770886, -10.243035824272495], [-54.99552172597605, -10.24302570541201], [-54.99552682663784, -10.24301639301124], [-54.995533663968764, -10.243008245624578], [-54.99554197408459, -10.243001576190126], [-54.99555143779221, -10.242996640357983], [-54.99556169250413, -10.242993628428373], [-54.99557234325178, -10.242992655476469], [-54.99558298094823, -10.24299375965699], [-54.99559319701765, -10.242996897774967], [-54.99560259888062, -10.243001949900592], [-54.99561082454389, -10.243008721267138], [-54.995617558051485, -10.243016952309251], [-54.9956225422097, -10.2430263268767], [-54.99562558307608, -10.243036484012986], [-54.99562656537656, -10.24304703341707], [-54.99562545058961, -10.243057569894347], [-54.99562228232501, -10.243067688756394], [-54.99561718075203, -10.243077001153381], [-54.99561034433366, -10.243085148547522], [-54.99560203421641, -10.243091817983546], [-54.995592569593605, -10.243096753811125], [-54.99558231487828, -10.243099765741102], [-54.995571664126956, -10.243100738692668], [-54.995561026427126, -10.243099634511097], [-54.99555081035513, -10.24309649639158], [-54.99554140940332, -10.243091444269732], [-54.99553318374008, -10.243084672901338], [-54.99552644932134, -10.243076441852025], [-54.9955214660783, -10.243067067289145], [-54.99551842521534, -10.243056910152472], [-54.99551744291852, -10.24304636074872]]]}}, {"type": "Feature", "properties": {"layer": "0 - Número de Quadra", "dxf_type": "CIRCLE", "radius_m": 5.98}, "geometry": {"type": "Polygon", "coordinates": [[[-54.99693635581448, -10.242014695572898], [-54.996937470548666, -10.242004159081581], [-54.99694063875689, -10.24199404019617], [-54.99694573935921, -10.241984727761574], [-54.99695257663241, -10.24197658033349], [-54.996960886694495, -10.241969910851621], [-54.996970350354424, -10.241964974967877], [-54.996980605032206, -10.241961962080596], [-54.996991255749435, -10.241960989074748], [-54.99700189342604, -10.241962093203297], [-54.99701210948128, -10.241965232177096], [-54.99702151134742, -10.241970284260455], [-54.997029737025386, -10.241977055592152], [-54.99703647055867, -10.241985286608164], [-54.99704145383999, -10.241994661153642], [-54.997044495663225, -10.242004818289583], [-54.99704547710236, -10.242015367692709], [-54.99704436328413, -10.24202590419068], [-54.99704119416592, -10.242036023072012], [-54.99703609357066, -10.242045334604562], [-54.99702925721001, -10.242053482040117], [-54.997020947140825, -10.242060152427465], [-54.99701148256572, -10.242065088306632], [-54.99700122789021, -10.242068100290421], [-54.9969905771693, -10.242069073295905], [-54.996979939489314, -10.242067969166337], [-54.99696972342581, -10.242064831094854], [-54.99696032247085, -10.242059779015282], [-54.99695209679858, -10.242053006777835], [-54.996945362354154, -10.242044775754627], [-54.99694037906977, -10.24203540211198], [-54.9969373381625, -10.24202524498129], [-54.99693635581448, -10.242014695572898]]]}}, {"type": "Feature", "properties": {"layer": "0 - Número de Quadra", "dxf_type": "CIRCLE", "radius_m": 5.98}, "geometry": {"type": "Polygon", "coordinates": [[[-54.991954880712605, -10.246909427144214], [-54.9919559956566, -10.246898890707481], [-54.99195916409232, -10.246888771912763], [-54.99196426493108, -10.24687945960151], [-54.99197110152797, -10.246871312319046], [-54.99197941181709, -10.246864643010504], [-54.991988876598676, -10.246859707321144], [-54.991999131459565, -10.2468566946308], [-54.99200978232687, -10.246855721822484], [-54.992020420114734, -10.246856826141581], [-54.99203063623816, -10.24685996529162], [-54.992040038126824, -10.246865017530148], [-54.992048263780745, -10.246871788989958], [-54.99205499724435, -10.24688002010211], [-54.99205998041303, -10.24688939470807], [-54.99206302117243, -10.246899551860887], [-54.99206400334006, -10.246910101253278], [-54.992062888399445, -10.24692063769105], [-54.99205971996631, -10.246930756487307], [-54.99205461913464, -10.24694006789652], [-54.992047782537725, -10.24694821518084], [-54.99203947224149, -10.246954885394857], [-54.99203000745729, -10.246959821085257], [-54.99201975259869, -10.24696283287212], [-54.99200910172771, -10.246963805680064], [-54.991998463936454, -10.246962701359948], [-54.99198824780474, -10.246959563112219], [-54.991978845914694, -10.246954510871861], [-54.991970620266486, -10.246947738506297], [-54.991963886804314, -10.246939507392572], [-54.99195890363255, -10.246930133689437], [-54.991955862876566, -10.246919976536256], [-54.991954880712605, -10.246909427144214]]]}}, {"type": "Feature", "properties": {"layer": "0 - Número de Quadra", "dxf_type": "CIRCLE", "radius_m": 5.98}, "geometry": {"type": "Polygon", "coordinates": [[[-54.99306387064362, -10.245931504332415], [-54.993064985542, -10.245920967883675], [-54.99306815392885, -10.245910849069038], [-54.99307325471169, -10.245901537634598], [-54.9930800921715, -10.245893390324593], [-54.99308840241913, -10.245886720074155], [-54.993097866245236, -10.24588178433779], [-54.99310812106347, -10.245878772508174], [-54.993118771901166, -10.245877799656585], [-54.993129409667915, -10.245878903933951], [-54.99313962578523, -10.24588204214152], [-54.99314902767183, -10.24588709434609], [-54.99315725332786, -10.245893866681762], [-54.99316398680878, -10.245902097772902], [-54.99316897000936, -10.245911471461786], [-54.993172011715394, -10.245921628615369], [-54.99317299392365, -10.245932178011389], [-54.99317187902865, -10.245942714461176], [-54.9931687097318, -10.245952833271742], [-54.99316360894466, -10.24596214561191], [-54.993156772397406, -10.245970292929407], [-54.99314846215404, -10.245976962277528], [-54.99313899741274, -10.24598189800932], [-54.99312874258542, -10.2459849107432], [-54.99311809174405, -10.24598588359444], [-54.993107453973906, -10.245984779316037], [-54.9930972378597, -10.245981640203027], [-54.993087836884285, -10.245976588002243], [-54.9930796112226, -10.245969816568607], [-54.99307287683052, -10.245961585470257], [-54.99306789363825, -10.245952210876428], [-54.993064852848185, -10.245942053728099], [-54.99306387064362, -10.245931504332415]]]}}, {"type": "Feature", "properties": {"layer": "0 - Número de Quadra", "dxf_type": "CIRCLE", "radius_m": 5.98}, "geometry": {"type": "Polygon", "coordinates": [[[-54.99432657439938, -10.244828571444572], [-54.994327689245935, -10.244818034982154], [-54.99433085757734, -10.244807916144861], [-54.99433595921581, -10.244798604685291], [-54.994342795706785, -10.244790457331936], [-54.994351105901, -10.244783787038278], [-54.99436057059119, -10.244778851260516], [-54.994370825367696, -10.244775839381827], [-54.99438147617203, -10.244774866481041], [-54.99439211391509, -10.244775970710968], [-54.99440233001927, -10.244779108874685], [-54.99441173099124, -10.24478416103501], [-54.99441995665635, -10.24479093333884], [-54.99442669106975, -10.244799164411727], [-54.99443167430024, -10.244808538085598], [-54.99443471513252, -10.24481869522801], [-54.994435697386976, -10.244829244628194], [-54.99443458253812, -10.24483978199553], [-54.994431414214986, -10.244849899930498], [-54.9944263134848, -10.244859212301446], [-54.99441947608123, -10.244867359651025], [-54.99441116588558, -10.244874029946237], [-54.99440170210536, -10.2448789657307], [-54.99439144732545, -10.244881977609758], [-54.99438079651743, -10.24488295051019], [-54.99437015877099, -10.244881846279231], [-54.994359942664225, -10.244878708113973], [-54.99435054077829, -10.244873655946156], [-54.9943423151132, -10.244866883640494], [-54.99433558161381, -10.244858652571658], [-54.99433059747904, -10.2448492779872], [-54.99432755664448, -10.244839121748285], [-54.99432657439938, -10.244828571444572]]]}}, {"type": "Feature", "properties": {"layer": "0 - Número de Quadra", "dxf_type": "CIRCLE", "radius_m": 5.98}, "geometry": {"type": "Polygon", "coordinates": [[[-54.995861380615764, -10.243483123703035], [-54.995862495399294, -10.24347258722401], [-54.99586566366323, -10.243462468359176], [-54.995870764325474, -10.243453155952677], [-54.99587760166053, -10.243445008559076], [-54.995885911784015, -10.24343833911679], [-54.99589537550252, -10.2434334032762], [-54.99590563023383, -10.243430390433993], [-54.995916280991786, -10.243429418377275], [-54.99592691871156, -10.243430521645633], [-54.99593713479394, -10.24343366065988], [-54.995946536675845, -10.243438712778907], [-54.99595476235756, -10.243445484140102], [-54.995961495882476, -10.24345371517833], [-54.995966479143604, -10.24346308973784], [-54.9959695209356, -10.243473246879152], [-54.99597050324623, -10.243483796284364], [-54.99596938846609, -10.243494332764419], [-54.99596621929217, -10.243504451625189], [-54.995961118636984, -10.243513763129648], [-54.9959542822088, -10.24352191143461], [-54.995945972083895, -10.24352858087847], [-54.995936507450196, -10.243533516714495], [-54.99592625272117, -10.243536528653198], [-54.99591560195387, -10.243537501613448], [-54.99590496423638, -10.243536397440172], [-54.99589474814573, -10.24353325932825], [-54.99588534717501, -10.243528207213004], [-54.99587712149331, -10.243521435849962], [-54.99587038706293, -10.24351320390065], [-54.995865403798746, -10.243503830243963], [-54.995862362922715, -10.243493673107894], [-54.995861380615764, -10.243483123703035]]]}}, {"type": "Feature", "properties": {"layer": "0 - Número de Quadra", "dxf_type": "CIRCLE", "radius_m": 5.98}, "geometry": {"type": "Polygon", "coordinates": [[[-54.99718329567427, -10.242438851182818], [-54.99718441040465, -10.242428314689647], [-54.99718757861232, -10.242418195801386], [-54.99719267921168, -10.242408884266965], [-54.99719951649077, -10.242400736834396], [-54.997207826567355, -10.242394066443604], [-54.99721729023871, -10.242389130554452], [-54.997227544924414, -10.242386118565486], [-54.99723819565688, -10.242385145554108], [-54.997248833349765, -10.242386249677395], [-54.9972590494274, -10.242389387742504], [-54.99726845131004, -10.242394439821714], [-54.99727667699799, -10.242401212053945], [-54.99728341054548, -10.242409443067563], [-54.99728839384469, -10.242418816707756], [-54.997291435677674, -10.242428973843403], [-54.99729241803629, -10.242439523252939], [-54.99729130330929, -10.242450059747146], [-54.997288134191635, -10.242460178631342], [-54.99728303358799, -10.242469491071494], [-54.99727619722145, -10.242477638511533], [-54.997267887149114, -10.242484308000016], [-54.99725842256258, -10.242489243884608], [-54.9972481678678, -10.24249225677784], [-54.997237517137336, -10.24249322888498], [-54.99722687943539, -10.242492125664546], [-54.997216663360845, -10.242488986693997], [-54.997207262389374, -10.24248393461856], [-54.997199036695775, -10.242477163288363], [-54.99719230223714, -10.242468932267549], [-54.99718731894621, -10.242459557722412], [-54.9971842780292, -10.242449400592005], [-54.99718329567427, -10.242438851182818]]]}}, {"type": "Feature", "properties": {"layer": "0 - Número de Quadra", "dxf_type": "CIRCLE", "radius_m": 5.98}, "geometry": {"type": "Polygon", "coordinates": [[[-54.992404803838525, -10.24733122312978], [-54.99240591877212, -10.247320686689209], [-54.99240908811377, -10.24731056789407], [-54.99241418894418, -10.247301256478663], [-54.992421025542555, -10.24729310918644], [-54.992429335842886, -10.24728643896296], [-54.992438800633835, -10.247281503261672], [-54.99244905550188, -10.247278491462847], [-54.99245970638502, -10.247277518642214], [-54.9924703441911, -10.247278622949523], [-54.99248056034011, -10.247281761184858], [-54.99248996133699, -10.247286813408326], [-54.99249818700615, -10.247293585764345], [-54.99250492140256, -10.247301816876524], [-54.9925099045957, -10.247311190575223], [-54.992512945371686, -10.247321347727071], [-54.99251392755307, -10.247331897120924], [-54.992512812622856, -10.247342433562531], [-54.992509644196375, -10.247352552364866], [-54.992504543361655, -10.247361864686], [-54.99249770585069, -10.24737001197444], [-54.992489395554614, -10.247376681295606], [-54.992479931673635, -10.247381617003597], [-54.992469676796496, -10.247384629706684], [-54.99245902591537, -10.247385601623076], [-54.992448388100215, -10.247384498218619], [-54.992438171954305, -10.247381359077842], [-54.992428770043446, -10.247376306846892], [-54.99242054436863, -10.247369535392906], [-54.99241381088621, -10.247361304284787], [-54.99240882770138, -10.247351929681148], [-54.99240578601623, -10.247341772523281], [-54.992404803838525, -10.24733122312978]]]}}, {"type": "Feature", "properties": {"layer": "0 - Número de Quadra", "dxf_type": "CIRCLE", "radius_m": 5.98}, "geometry": {"type": "Polygon", "coordinates": [[[-54.99276859012437, -10.247721798656288], [-54.992769705050044, -10.247711262212677], [-54.99277287347453, -10.247701143407124], [-54.99277797521648, -10.24769183199102], [-54.99278481181733, -10.247683684691145], [-54.99279312212363, -10.247677014458997], [-54.992802586923766, -10.247672078748346], [-54.992812840891304, -10.247669066934202], [-54.992823492701504, -10.247668094109573], [-54.99283413052393, -10.247669198407653], [-54.992844346690525, -10.247672336634535], [-54.992853747705546, -10.247677388850644], [-54.99286197339269, -10.247684161200683], [-54.99286870780626, -10.247692392308485], [-54.99287369101507, -10.247701766004583], [-54.99287673180462, -10.247711923155707], [-54.99287771399697, -10.247722472550741], [-54.992876599068985, -10.247733009899273], [-54.99287343065278, -10.247743127802499], [-54.99286832981912, -10.24775244012997], [-54.99286149230565, -10.24776058742606], [-54.99285318199793, -10.247767257659783], [-54.992843718107764, -10.24777219337713], [-54.992833463224244, -10.247775205186016], [-54.99282281232294, -10.247776178015933], [-54.99281217358454, -10.247775073711178], [-54.99280195832795, -10.247771935488375], [-54.99279255639896, -10.247766883264786], [-54.992784330711835, -10.247760110912896], [-54.99277759721227, -10.247751879809151], [-54.99277261309918, -10.247742505202474], [-54.992769572307346, -10.247732348954854], [-54.99276859012437, -10.247721798656288]]]}}, {"type": "Feature", "properties": {"layer": "0 - Número de Quadra", "dxf_type": "CIRCLE", "radius_m": 5.98}, "geometry": {"type": "Polygon", "coordinates": [[[-54.99344116669611, -10.246314723127927], [-54.99344228158606, -10.24630418667599], [-54.9934454508804, -10.246294067861976], [-54.99345055166166, -10.246284756420906], [-54.99345738821091, -10.246276609097217], [-54.99346569846405, -10.246269938837674], [-54.99347516321155, -10.24626500309711], [-54.99348541804156, -10.246261991257311], [-54.993496068893535, -10.246261018395586], [-54.99350670667652, -10.246262122663252], [-54.9935169228114, -10.24626526086192], [-54.99352632380365, -10.24627031305311], [-54.993534549477864, -10.246277085382479], [-54.99354128388881, -10.246285316474653], [-54.99354626710541, -10.246294690160774], [-54.99354930791287, -10.246304847307943], [-54.99355029013256, -10.246315396705207], [-54.993549175245995, -10.24632593315817], [-54.99354600686683, -10.24633605197936], [-54.99354090608127, -10.246345364326174], [-54.99353406861942, -10.246353511646069], [-54.99352575837054, -10.246360181003315], [-54.993516294533, -10.24636511675056], [-54.993506039693905, -10.24636812949464], [-54.993495388838255, -10.246369102356011], [-54.993484751051874, -10.246367998087312], [-54.9934745349201, -10.246364858983183], [-54.99346513301388, -10.24635980678453], [-54.99345690733401, -10.246353035357181], [-54.99345017383706, -10.246344804269077], [-54.99344519062876, -10.246335429678], [-54.99344214891212, -10.24632527252483], [-54.99344116669611, -10.246314723127927]]]}}, {"type": "Feature", "properties": {"layer": "0 - Número de Quadra", "dxf_type": "CIRCLE", "radius_m": 5.98}, "geometry": {"type": "Polygon", "coordinates": [[[-54.9946578079243, -10.245201937597882], [-54.9946589227695, -10.245191400228837], [-54.994662091091335, -10.245181282291139], [-54.99466719182232, -10.245171969916335], [-54.99467402922861, -10.245163822561722], [-54.994682339428785, -10.24515715226027], [-54.99469180321534, -10.245152216468469], [-54.99470205800344, -10.245149204581072], [-54.99471270882157, -10.245148231671642], [-54.99472334658008, -10.245149335893261], [-54.994733562700794, -10.245152474049387], [-54.99474296460231, -10.24515752620873], [-54.994751190284184, -10.245164298507193], [-54.99475792380091, -10.24517252957053], [-54.99476290704017, -10.245181904145978], [-54.99476594880312, -10.245192060389483], [-54.99476693106181, -10.245202610694621], [-54.99476581622568, -10.245213147160813], [-54.99476264698817, -10.245223265998343], [-54.99475754626425, -10.245232577471109], [-54.994750709770514, -10.245240724833202], [-54.99474239956892, -10.245247395136213], [-54.99473293486717, -10.245252330923458], [-54.994722680075675, -10.245255342811221], [-54.99471202925387, -10.245256315720319], [-54.994701391491965, -10.245255211497645], [-54.994691175368665, -10.245252073339975], [-54.994681774378336, -10.2452470211844], [-54.99467354869648, -10.2452402488841], [-54.994666814268605, -10.245232017813562], [-54.994661831026285, -10.245222644140942], [-54.99465879018499, -10.245212486998781], [-54.9946578079243, -10.245201937597882]]]}}, {"type": "Feature", "properties": {"layer": "0 - Número de Quadra", "dxf_type": "CIRCLE", "radius_m": 5.98}, "geometry": {"type": "Polygon", "coordinates": [[[-54.99617456569839, -10.243856613986473], [-54.996175680481144, -10.243846076600999], [-54.99617884964863, -10.24383595864166], [-54.996183950310765, -10.24382664622984], [-54.99619078673638, -10.243818498824197], [-54.996199096871784, -10.243811828470763], [-54.996208561511985, -10.243806892627966], [-54.99621881624927, -10.24380388068154], [-54.99622946702662, -10.24380290771288], [-54.996240104756005, -10.243804011877412], [-54.99625032086032, -10.24380714998072], [-54.996259721846236, -10.243812202087982], [-54.99626794753857, -10.243818974348075], [-54.996274681991416, -10.243827205388293], [-54.9962796652664, -10.243836579945654], [-54.99628270616331, -10.24384673617687], [-54.99628368847757, -10.243857286486978], [-54.99628257370389, -10.243867822969602], [-54.99627940544588, -10.243877941840012], [-54.996274304790816, -10.24388725334979], [-54.99626746745261, -10.243895400751658], [-54.996259157315784, -10.243902071106668], [-54.99624969358553, -10.243907006956151], [-54.99623943884485, -10.243910018902957], [-54.99622878806382, -10.243910991871264], [-54.99621815033105, -10.243909887705698], [-54.99620793422416, -10.243906749600837], [-54.99619853232428, -10.243901697486102], [-54.99619030663196, -10.243894925224158], [-54.996183573093106, -10.243886694187994], [-54.99617858981506, -10.243877320533457], [-54.996175548014655, -10.243867163392347], [-54.99617456569839, -10.243856613986473]]]}}, {"type": "Feature", "properties": {"layer": "0 - Número de Quadra", "dxf_type": "CIRCLE", "radius_m": 5.98}, "geometry": {"type": "Polygon", "coordinates": [[[-54.99745879057967, -10.242766049695273], [-54.99745990531004, -10.242755512295954], [-54.99746307350907, -10.242745394308043], [-54.99746817411397, -10.242736081865056], [-54.9974750104832, -10.242727934421215], [-54.997483320565244, -10.242721264024027], [-54.99749278515714, -10.242716328133596], [-54.997503039853044, -10.242713316137493], [-54.99751369059754, -10.242712343119015], [-54.997524328303825, -10.242713447235516], [-54.997534544395705, -10.242716585294405], [-54.99754394629291, -10.242721637368208], [-54.99755217199516, -10.242728409596051], [-54.99755890555615, -10.242736640606465], [-54.997563888861855, -10.242746015148645], [-54.997566929798325, -10.24275617137427], [-54.99756791215945, -10.24276672168858], [-54.99756679743815, -10.242777258185045], [-54.997563629236026, -10.242787377078402], [-54.99755852863818, -10.242796688619347], [-54.997551692268935, -10.242804836065035], [-54.997543382185476, -10.2428115064638], [-54.99753391759096, -10.242816442355288], [-54.99752366289165, -10.242819454351775], [-54.997513012143486, -10.242820427369898], [-54.997502374433815, -10.242819323252364], [-54.99749215833934, -10.24281618519192], [-54.99748275644075, -10.242811133116275], [-54.99747453073852, -10.24280436088658], [-54.99746779717896, -10.242796129874591], [-54.99746281387019, -10.242786756235239], [-54.9974597729428, -10.242776599105344], [-54.99745879057967, -10.242766049695273]]]}}, {"type": "Feature", "properties": {"layer": "0 - Número de Quadra", "dxf_type": "CIRCLE", "radius_m": 5.98}, "geometry": {"type": "Polygon", "coordinates": [[[-54.99790469155042, -10.24340110431376], [-54.997905805354364, -10.243390567809197], [-54.99790897446854, -10.243380448917549], [-54.99791407507551, -10.243371136467339], [-54.99792091145192, -10.243362989014855], [-54.99792922154028, -10.243356319511763], [-54.997938686148544, -10.24335138361079], [-54.99794894086454, -10.2433483716038], [-54.99795959163209, -10.243347398574503], [-54.99797022936352, -10.243348502680675], [-54.99798044548164, -10.24335164073012], [-54.99798984649262, -10.243356692790105], [-54.99799807313855, -10.243363464113045], [-54.99800480672308, -10.243371695118626], [-54.998009790049544, -10.24338106965801], [-54.9980128309975, -10.24339122678682], [-54.99801381337722, -10.243401776198679], [-54.998012698664084, -10.243412312698661], [-54.99800953046507, -10.243422431597462], [-54.99800442985948, -10.243431744049518], [-54.99799759348306, -10.243439891503847], [-54.9979892824807, -10.243446561002914], [-54.9979798187824, -10.24345149691055], [-54.997969564063, -10.243454508917944], [-54.997958913291775, -10.243455481946866], [-54.997948275556965, -10.243454377839685], [-54.99793805943625, -10.243451239788664], [-54.99792865751131, -10.243446187721231], [-54.99792043177798, -10.24343941640204], [-54.997913698194864, -10.243431185394886], [-54.997908714871016, -10.243421810854443], [-54.99790567301389, -10.243411653719647], [-54.99790469155042, -10.24340110431376]]]}}, {"type": "Feature", "properties": {"layer": "0 - Número de Quadra", "dxf_type": "CIRCLE", "radius_m": 5.98}, "geometry": {"type": "Polygon", "coordinates": [[[-54.99854106174521, -10.244067086525748], [-54.9985421764477, -10.244056550021472], [-54.998545344640995, -10.244046431115823], [-54.99855044524006, -10.24403711955836], [-54.99855728253293, -10.244028972098038], [-54.998565592636844, -10.244022301675804], [-54.998575056348024, -10.244017365752747], [-54.99858531108453, -10.244014353728705], [-54.998595961876816, -10.244013380682437], [-54.99860659963625, -10.244014484772356], [-54.998616815784594, -10.244017622806902], [-54.998626217739385, -10.24402267485953], [-54.998634443498155, -10.244029447070188], [-54.99864117711242, -10.244037678068043], [-54.998646160471786, -10.244047051698942], [-54.998649202356006, -10.244057208832064], [-54.99865018384238, -10.24406775824036], [-54.99864907005585, -10.244078294751285], [-54.99864590095256, -10.244088413652861], [-54.99864080034922, -10.244097726116053], [-54.998633963968906, -10.244105873583841], [-54.99862565386923, -10.244112543103777], [-54.99861618924287, -10.244117479022265], [-54.99860593449729, -10.244120491950596], [-54.99859528370132, -10.244121464996509], [-54.99858464593851, -10.24412036090556], [-54.99857442979326, -10.244117221965551], [-54.99856502874964, -10.24411216991671], [-54.99855680298522, -10.244105398608077], [-54.99855006845981, -10.244097167603028], [-54.998545085108724, -10.244087793067184], [-54.99854204414048, -10.24407763593931], [-54.99854106174521, -10.244067086525748]]]}}, {"type": "Feature", "properties": {"layer": "0 - Número de Quadra", "dxf_type": "CIRCLE", "radius_m": 5.98}, "geometry": {"type": "Polygon", "coordinates": [[[-54.99718149485348, -10.245204572430952], [-54.99718260961126, -10.245194035941322], [-54.99718577877602, -10.245183917065537], [-54.99719087944098, -10.245174604637125], [-54.99719771588052, -10.245166457211544], [-54.99720602603476, -10.245159787739427], [-54.9972154907091, -10.245154851872307], [-54.99722574549452, -10.24515183899685], [-54.99723639631536, -10.245150866907114], [-54.997247034104355, -10.245151970143882], [-54.99725725025967, -10.245155109129252], [-54.997266651302816, -10.245160161217553], [-54.997274877056405, -10.245166932558394], [-54.99728161156105, -10.245175163587412], [-54.99728659488205, -10.24518453813823], [-54.997289635811754, -10.245194695271646], [-54.99729061816114, -10.245205244681095], [-54.99728950340675, -10.245215781171773], [-54.99728633515714, -10.245225900054736], [-54.99728123449925, -10.245235211581111], [-54.99727439714711, -10.245243359002918], [-54.99726608698577, -10.2452500293805], [-54.99725662322139, -10.245254965254297], [-54.99724636843825, -10.245257977226238], [-54.99723571760806, -10.245258950219524], [-54.99722507982135, -10.24525784607782], [-54.99721486365777, -10.245254707994794], [-54.997205461700666, -10.24524965589903], [-54.99719723595276, -10.24524288365245], [-54.99719050236213, -10.24523465262748], [-54.99718551903806, -10.245225278979488], [-54.99718247719918, -10.245215121840067], [-54.99718149485348, -10.245204572430952]]]}}, {"type": "Feature", "properties": {"layer": "0 - Número de Quadra", "dxf_type": "CIRCLE", "radius_m": 5.98}, "geometry": {"type": "Polygon", "coordinates": [[[-54.99768401929888, -10.245825343033554], [-54.99768513404651, -10.245814806539821], [-54.997688302293675, -10.245804687652019], [-54.997693402958916, -10.24579537521515], [-54.99770023940403, -10.245787227779372], [-54.99770855048151, -10.24578055830133], [-54.99771801425862, -10.245775622416149], [-54.99772826906346, -10.245772609527835], [-54.99773891990706, -10.245771637425282], [-54.997749557721285, -10.245772740649826], [-54.997759773903326, -10.245775879623977], [-54.99776917588623, -10.245780931708152], [-54.99777740166644, -10.245787703041085], [-54.99778413528352, -10.24579593405872], [-54.99778911862697, -10.245805308606135], [-54.99779216048828, -10.24581546574426], [-54.99779314193995, -10.24582601514973], [-54.99779202810829, -10.245836551650115], [-54.99778885895113, -10.245846670533851], [-54.997783758292954, -10.24585598206866], [-54.997776921842146, -10.245864130410194], [-54.99776861167582, -10.24587079989543], [-54.99775914698352, -10.245875735776051], [-54.99774889218095, -10.245878747760862], [-54.997738241328, -10.24587972076695], [-54.99772760351606, -10.245878616637485], [-54.997717387325764, -10.245875478565667], [-54.99770798625405, -10.245870426485268], [-54.99769975956128, -10.245863655144863], [-54.99769302595131, -10.245855423221746], [-54.99768804260479, -10.245846049577175], [-54.997685001659455, -10.24583589244429], [-54.99768401929888, -10.245825343033554]]]}}, {"type": "Feature", "properties": {"layer": "0 - Número de Quadra", "dxf_type": "CIRCLE", "radius_m": 5.98}, "geometry": {"type": "Polygon", "coordinates": [[[-54.996635673667626, -10.244439340850333], [-54.996636788435524, -10.24442880436501], [-54.996639956691716, -10.244418685490322], [-54.99664505734872, -10.244409373974678], [-54.99665189469237, -10.244401226565364], [-54.996660204837966, -10.244394556201408], [-54.99666966949267, -10.24438962034727], [-54.99667992333564, -10.244386608383497], [-54.99669057504691, -10.244385635408804], [-54.99670121279986, -10.244386739562191], [-54.99671142801651, -10.244389877649672], [-54.996720829940294, -10.24439492975369], [-54.99672905565733, -10.244401702006593], [-54.99673579013334, -10.244409933041572], [-54.99674077343473, -10.244419306691958], [-54.99674381434347, -10.244429463826249], [-54.996744796677, -10.244440013233957], [-54.996743681912484, -10.24445054972031], [-54.996740513658885, -10.244460668596542], [-54.996735412997594, -10.244469981017938], [-54.99672857565392, -10.244478128429085], [-54.996720265512586, -10.244484797890742], [-54.99671080085526, -10.244489733745926], [-54.996700547003215, -10.244492746613982], [-54.99668989620084, -10.24449371959395], [-54.99667925753192, -10.244492615433902], [-54.996669042318366, -10.244489476440961], [-54.99665964039319, -10.244484424335113], [-54.996651414670495, -10.244477652984234], [-54.996644680195914, -10.244469421947697], [-54.99663969690282, -10.244460047392344], [-54.996636655997484, -10.24444989025769], [-54.996635673667626, -10.244439340850333]]]}}, {"type": "Feature", "properties": {"layer": "0 - Número de Quadra", "dxf_type": "CIRCLE", "radius_m": 5.98}, "geometry": {"type": "Polygon", "coordinates": [[[-54.99507348114277, -10.245726516230713], [-54.99507459597401, -10.245715979762199], [-54.99507776429755, -10.245705860915338], [-54.99508286502901, -10.245696548533576], [-54.99508970244023, -10.245688401170579], [-54.99509801264388, -10.24568173176354], [-54.995107476443486, -10.245676795961495], [-54.995117731253714, -10.245673783159639], [-54.99512838208537, -10.24567281114358], [-54.995139019870805, -10.245673914451269], [-54.995149236008274, -10.24567705350208], [-54.995158637932576, -10.245682105653444], [-54.99516686364239, -10.245688877041522], [-54.99517359717998, -10.245697108100137], [-54.99517858043791, -10.245706482672798], [-54.99518162221095, -10.24571663981947], [-54.995182604487596, -10.24572718922205], [-54.995181489659736, -10.245737725691608], [-54.9951783204262, -10.245747844534405], [-54.995173219701805, -10.245757156014125], [-54.99516638319747, -10.245765304288486], [-54.995158072992396, -10.245771973697101], [-54.995148608277596, -10.24577690949458], [-54.99513835346965, -10.245779921392913], [-54.99512770262863, -10.24578089431252], [-54.9951170648455, -10.245779790099897], [-54.995106848699756, -10.245776651951433], [-54.99509744768664, -10.245771599803849], [-54.99508922197685, -10.24576482841392], [-54.995082487533786, -10.245756596444219], [-54.99507750427279, -10.245747222774384], [-54.99507446341573, -10.245737065632953], [-54.99507348114277, -10.245726516230713]]]}}, {"type": "Feature", "properties": {"layer": "0 - Número de Quadra", "dxf_type": "CIRCLE", "radius_m": 5.98}, "geometry": {"type": "Polygon", "coordinates": [[[-54.99378885346038, -10.246662317055472], [-54.99378996834251, -10.24665178060062], [-54.993793136719475, -10.246641661776344], [-54.99379823749916, -10.24663235032911], [-54.993805074962694, -10.24662420300364], [-54.993813385220754, -10.246617532735677], [-54.99382284906361, -10.246612596980384], [-54.99383310390428, -10.246609585131154], [-54.99384375476922, -10.246608612260063], [-54.993854392566995, -10.246609716518735], [-54.9938646087179, -10.246612854709191], [-54.993874010639374, -10.246617906898843], [-54.99388223633022, -10.246624679222377], [-54.993888969844576, -10.246632910304633], [-54.993893953988476, -10.246642283993852], [-54.99389699480882, -10.246652441140297], [-54.99389797703907, -10.246662990538667], [-54.99389686216033, -10.246673526994568], [-54.99389369378595, -10.246683645820406], [-54.99388859208939, -10.246692958167737], [-54.99388175553842, -10.246701105500689], [-54.99387344528461, -10.246707774866342], [-54.993863980526555, -10.246712710617066], [-54.9938537256768, -10.246715723370544], [-54.99384307480818, -10.246716696241295], [-54.99383243700702, -10.246715591981575], [-54.993822220859215, -10.246712452885694], [-54.993812819848934, -10.246707400699828], [-54.99380459415242, -10.246700629278328], [-54.99379785972692, -10.246692398188863], [-54.993792876503896, -10.246683023600333], [-54.99378983568695, -10.246672866453505], [-54.99378885346038, -10.246662317055472]]]}}, {"type": "Feature", "properties": {"layer": "0 - Número de Quadra", "dxf_type": "CIRCLE", "radius_m": 5.98}, "geometry": {"type": "Polygon", "coordinates": [[[-54.9931403034265, -10.24812208217454], [-54.993141418344095, -10.248111545727827], [-54.99314458676392, -10.248101426917394], [-54.99314968759222, -10.248092115489165], [-54.99315652510824, -10.24808396818713], [-54.99316483542066, -10.24807729794613], [-54.993174299317644, -10.248072362220293], [-54.99318455421014, -10.248069350401895], [-54.993195205122596, -10.248068377561784], [-54.99320584387435, -10.248069481856083], [-54.99321605914636, -10.2480726200687], [-54.99322546109252, -10.24807767228293], [-54.99323368679808, -10.248084444626855], [-54.99324042122921, -10.248092675730177], [-54.99324540445404, -10.248102049423641], [-54.993248445257464, -10.248112206574026], [-54.993249427461, -10.248122755970261], [-54.9932483125468, -10.248133292417991], [-54.99324514412955, -10.248143411229986], [-54.993240043296964, -10.248152723563944], [-54.99323320578091, -10.248160870867828], [-54.993224895472764, -10.248167540206518], [-54.99321543066058, -10.248172475927786], [-54.99320517667158, -10.24817548865608], [-54.99319452484854, -10.248176460586322], [-54.99318388700029, -10.248175357200504], [-54.993173670818805, -10.248172218076814], [-54.99316426978384, -10.248167165866374], [-54.99315604407261, -10.248160394424476], [-54.9931493096429, -10.24815216331958], [-54.99314432642638, -10.248142788721175], [-54.99314128562636, -10.248132631570408], [-54.9931403034265, -10.24812208217454]]]}}, {"type": "Feature", "properties": {"layer": "0 - Número de Quadra", "dxf_type": "CIRCLE", "radius_m": 5.98}, "geometry": {"type": "Polygon", "coordinates": [[[-54.99357973786599, -10.248335123213083], [-54.993580852771466, -10.248324586762388], [-54.99358402118158, -10.248314467945546], [-54.993589122921264, -10.248305155610486], [-54.99359595952089, -10.248297008292406], [-54.99360426982701, -10.248290338943434], [-54.99361373463922, -10.248285403210389], [-54.993623989543174, -10.248282390474767], [-54.993634640458644, -10.248281418525256], [-54.99364527831479, -10.248282521897247], [-54.993655494507124, -10.248285661007657], [-54.99366489555576, -10.248290713205982], [-54.99367312128313, -10.248297484637634], [-54.99367985573081, -10.248305715734752], [-54.9936848389663, -10.248315090328324], [-54.993687879785256, -10.248325247477519], [-54.99368886200289, -10.248335796875171], [-54.99368774710082, -10.248346333326912], [-54.993684578693276, -10.248356452145318], [-54.99367947787326, -10.248365763583971], [-54.993672640361034, -10.24837391089827], [-54.9936643300478, -10.2483805811527], [-54.99365486614556, -10.248385516892439], [-54.99364461124389, -10.248388528724542], [-54.993633960319045, -10.2483895015776], [-54.993623322465204, -10.24838839730067], [-54.993613106264604, -10.248385259092606], [-54.99360370430199, -10.248380206886798], [-54.99359547858033, -10.248373434549416], [-54.99358874504666, -10.248365203456355], [-54.993583760895504, -10.248355829759971], [-54.993580720079954, -10.248345672610396], [-54.99357973786599, -10.248335123213083]]]}}, {"type": "Feature", "properties": {"layer": "0 - Número de Quadra", "dxf_type": "CIRCLE", "radius_m": 5.98}, "geometry": {"type": "Polygon", "coordinates": [[[-54.99287523982845, -10.248955761047734], [-54.992876354762885, -10.24894522460466], [-54.99287952320405, -10.24893510580047], [-54.99288462405735, -10.24892579438086], [-54.9928914616011, -10.248917647089483], [-54.992899771942874, -10.248910976860769], [-54.992909236782324, -10.24890604115401], [-54.99291949079147, -10.248903029344062], [-54.99293014264402, -10.248902056523775], [-54.99294078050787, -10.248903160826183], [-54.992950996713375, -10.248906299057202], [-54.992960397763305, -10.2489113512771], [-54.992968623480024, -10.248918123630437], [-54.9929753579167, -10.248926354740902], [-54.992980341141234, -10.248935728438978], [-54.992983381938544, -10.248945885591265], [-54.99298436413037, -10.24895643498662], [-54.99298324919932, -10.248966971430713], [-54.992980080760745, -10.248977090236462], [-54.99297497990314, -10.248986402561805], [-54.99296814235937, -10.248994549855032], [-54.99295983202186, -10.249001219181435], [-54.99295036809239, -10.24900615489489], [-54.99294011316155, -10.24900916760348], [-54.992929462217916, -10.249010140429034], [-54.992918823438096, -10.249009036119974], [-54.99290860814828, -10.24900589698913], [-54.99289920618437, -10.249000844761754], [-54.99289098046198, -10.24899407331045], [-54.99288424602673, -10.248985842198405], [-54.992879262810504, -10.248976467595389], [-54.992876222016605, -10.24896631044272], [-54.99287523982845, -10.248955761047734]]]}}, {"type": "Feature", "properties": {"layer": "0 - Número de Quadra", "dxf_type": "CIRCLE", "radius_m": 5.98}, "geometry": {"type": "Polygon", "coordinates": [[[-54.993870214117045, -10.248703206853028], [-54.993871329016734, -10.248692670399965], [-54.99387449742411, -10.248682551579446], [-54.99387959825157, -10.248673239233897], [-54.99388643485467, -10.248665091909958], [-54.99389474516724, -10.248658422554364], [-54.99390420998863, -10.248653486814183], [-54.99391446490414, -10.248650474071194], [-54.99392511583877, -10.24864950121044], [-54.993935753704115, -10.248650605479321], [-54.99394596991218, -10.24865374458329], [-54.99395537188937, -10.248658796781674], [-54.99396359763232, -10.248665568208795], [-54.993970331182034, -10.248673799296986], [-54.99397531443061, -10.248683173888619], [-54.99397835526059, -10.248693331037302], [-54.993979337486785, -10.248703880435908], [-54.993978222590485, -10.248714416889987], [-54.9939750541857, -10.248724535712068], [-54.993969953365315, -10.248733847155577], [-54.993963116762195, -10.248741994481367], [-54.99395480644251, -10.248748664742422], [-54.993945341618506, -10.248753600483665], [-54.993935086705285, -10.248756612323168], [-54.993924435766964, -10.24875758518355], [-54.99391379789824, -10.248756480913649], [-54.9939035816819, -10.24875334271199], [-54.99389417970332, -10.248748290511765], [-54.99388595396607, -10.248741518178903], [-54.99387922041779, -10.24873328708914], [-54.993874237166146, -10.248723913400331], [-54.99387119633957, -10.248713756251266], [-54.993870214117045, -10.248703206853028]]]}}, {"type": "Feature", "properties": {"layer": "0 - Número de Quadra", "dxf_type": "CIRCLE", "radius_m": 5.98}, "geometry": {"type": "Polygon", "coordinates": [[[-54.99318359515281, -10.249294062109813], [-54.993184710080605, -10.24928352566417], [-54.993187879430586, -10.249273406861585], [-54.99319298028314, -10.249264095436645], [-54.99319981691661, -10.249255948133163], [-54.99320812726365, -10.249249277897137], [-54.99321759211113, -10.24924434218249], [-54.99322784704334, -10.249241330370014], [-54.99323849799583, -10.249240357535964], [-54.993249135873775, -10.249241461830596], [-54.9932593520944, -10.249244600054489], [-54.993268753159896, -10.249249652268185], [-54.99327697889203, -10.249256424616483], [-54.99328371334336, -10.249264655723282], [-54.99328869658125, -10.249274029419155], [-54.99329173739009, -10.249284186570833], [-54.99329271959119, -10.249294735967188], [-54.993291604661096, -10.24930527331775], [-54.99328843623197, -10.249315391223645], [-54.99328333537512, -10.249324703554315], [-54.993276497829044, -10.249332850854016], [-54.993268187480574, -10.249339521091613], [-54.99325872354307, -10.249344456812958], [-54.99324846860745, -10.249347468625816], [-54.993237817651284, -10.249348441459512], [-54.99322717976995, -10.249347337163845], [-54.99321696354674, -10.249344198938394], [-54.99320756156727, -10.249339146717215], [-54.99319933583516, -10.249332374367066], [-54.99319260229783, -10.249324143264326], [-54.993187619068244, -10.249314768663512], [-54.993184577344536, -10.249304612409697], [-54.99318359515281, -10.249294062109813]]]}}, {"type": "Feature", "properties": {"layer": "0 - Número de Quadra", "dxf_type": "CIRCLE", "radius_m": 5.98}, "geometry": {"type": "Polygon", "coordinates": [[[-54.99355950593529, -10.249697522536268], [-54.993560619942315, -10.249686986081853], [-54.993563789287556, -10.249676867274328], [-54.9935688901447, -10.249667554938942], [-54.99357572678074, -10.249659407627565], [-54.993584037128244, -10.249652738286464], [-54.99359350198522, -10.249647802562144], [-54.99360375693559, -10.249644789835774], [-54.993614407897354, -10.249643817895643], [-54.99362504579787, -10.249644921276854], [-54.99363526203098, -10.249648060395893], [-54.99364466311521, -10.24965311260198], [-54.99365288978421, -10.249659884045842], [-54.99365962334069, -10.249668115142468], [-54.993664606589086, -10.249677489739554], [-54.993667647411954, -10.24968764689048], [-54.99366862962438, -10.249698196288053], [-54.993667514708164, -10.249708732737849], [-54.993664346278095, -10.249718851552569], [-54.99365924542802, -10.24972816298592], [-54.99365240879197, -10.249736310299143], [-54.99364409752476, -10.249742980540068], [-54.993634633577756, -10.249747916271087], [-54.993624378629676, -10.249750928093952], [-54.99361372765854, -10.249751900937618], [-54.99360308976031, -10.249750796651487], [-54.99359287351894, -10.249747658434773], [-54.993583471520736, -10.249742606221202], [-54.99357524577003, -10.249735833877242], [-54.99356851221497, -10.249727602779041], [-54.993563528963506, -10.249718229084783], [-54.993560487231456, -10.249708071927834], [-54.99355950593529, -10.249697522536268]]]}}, {"type": "Feature", "properties": {"layer": "0 - Número de Quadra", "dxf_type": "CIRCLE", "radius_m": 5.98}, "geometry": {"type": "Polygon", "coordinates": [[[-54.994257698106296, -10.24904853356455], [-54.99425881299685, -10.24903799710816], [-54.9942619813982, -10.249027878282378], [-54.99426708221731, -10.24901856683371], [-54.99427391882119, -10.249010419501305], [-54.99428223005626, -10.249003749237842], [-54.994291693972535, -10.24899881348164], [-54.994301948892804, -10.248995801631777], [-54.99431259984047, -10.248994828760297], [-54.994323237720906, -10.248995933018907], [-54.99433345395125, -10.248999071209566], [-54.99434285594589, -10.249004123399727], [-54.99435108170079, -10.249010895724044], [-54.99435781526764, -10.249019126807317], [-54.99436279853788, -10.249028500492127], [-54.99436584029468, -10.249038657645578], [-54.9943668216202, -10.249049207039809], [-54.994365707639936, -10.249059744406745], [-54.994362538334265, -10.249069862324557], [-54.994357437510864, -10.249079174678954], [-54.99435060090696, -10.249087322013214], [-54.99434229058306, -10.249093992283898], [-54.994332825751584, -10.249098928035512], [-54.994322570827904, -10.249101939885776], [-54.994311919876566, -10.249102912756884], [-54.99430128199273, -10.249101808497256], [-54.9942910657598, -10.24909867030502], [-54.994281664676365, -10.249093618118664], [-54.994273438008904, -10.249086845786849], [-54.994266704443476, -10.249078614701999], [-54.99426172118153, -10.249069240112247], [-54.99425868033505, -10.249059083867943], [-54.994257698106296, -10.24904853356455]]]}}, {"type": "Feature", "properties": {"layer": "0 - Número de Quadra", "dxf_type": "CIRCLE", "radius_m": 5.98}, "geometry": {"type": "Polygon", "coordinates": [[[-54.99449603113548, -10.247356504069852], [-54.994497146007255, -10.247345966705115], [-54.99450031436858, -10.247335848775295], [-54.99450541515047, -10.247326536411629], [-54.994512251704556, -10.247318389065361], [-54.99452056197223, -10.24731171878018], [-54.994530026743405, -10.247306783011942], [-54.994540281605325, -10.247303771143493], [-54.99455093249621, -10.247302798253234], [-54.99456157032362, -10.247303902493577], [-54.994571786506725, -10.247307040667195], [-54.99458118846174, -10.247312092842188], [-54.994589414186144, -10.247318865153815], [-54.9945961477328, -10.247327096227332], [-54.99460113098824, -10.247336470809586], [-54.99460417184044, -10.24734662705064], [-54.99460515408652, -10.247357177355203], [-54.99460403922383, -10.24736771381709], [-54.99460087086509, -10.247377831748487], [-54.99459577008459, -10.247387144113983], [-54.99458893353049, -10.247395291462121], [-54.99458062326139, -10.247401961748855], [-54.994571158487595, -10.247406897518156], [-54.99456090362228, -10.247409909386986], [-54.99455025272772, -10.247410882276892], [-54.994539614896915, -10.247409778035513], [-54.99452939871122, -10.24740663986034], [-54.994519996754825, -10.247401587683498], [-54.99451177103044, -10.24739481537004], [-54.994505037485204, -10.24738658429493], [-54.994500054232375, -10.247377209711631], [-54.99449701338358, -10.247367053470178], [-54.99449603113548, -10.247356504069852]]]}}, {"type": "Feature", "properties": {"layer": "0 - Número de Quadra", "dxf_type": "CIRCLE", "radius_m": 5.98}, "geometry": {"type": "Polygon", "coordinates": [[[-54.9953912405545, -10.248201411884589], [-54.99539235539993, -10.248190875416118], [-54.995395523753785, -10.248180756570354], [-54.995400624524855, -10.248171445094584], [-54.99540746199458, -10.248163297734578], [-54.995415772273404, -10.248156627427461], [-54.99542523615081, -10.248151691629873], [-54.995435491038464, -10.248148679736854], [-54.99544614196103, -10.248147706822124], [-54.99545677982487, -10.248148811039034], [-54.99546699604772, -10.24815194919115], [-54.99547639804428, -10.248157001347408], [-54.99548462381044, -10.248163773643759], [-54.99549135739745, -10.248172004706108], [-54.995496340695986, -10.248181378377774], [-54.9954993824881, -10.248191535526425], [-54.99550036385464, -10.248202084924372], [-54.995499249919504, -10.248212622303388], [-54.995496080661326, -10.2482227402412], [-54.995490979885965, -10.248232052622699], [-54.9954841433288, -10.248240199990187], [-54.99547583304856, -10.248246870298884], [-54.99546636825596, -10.2482518060919], [-54.995456113364895, -10.248254817985298], [-54.995445462438646, -10.248255790899677], [-54.99543482457142, -10.248254686681735], [-54.995424608345985, -10.248251548528062], [-54.99541520726062, -10.248246496375584], [-54.995406981494476, -10.248239724077383], [-54.99540024699631, -10.24823149300783], [-54.99539526370608, -10.248222118431215], [-54.995392222824265, -10.248211962191697], [-54.9953912405545, -10.248201411884589]]]}}, {"type": "Feature", "properties": {"layer": "0 - Número de Quadra", "dxf_type": "CIRCLE", "radius_m": 5.98}, "geometry": {"type": "Polygon", "coordinates": [[[-54.995656532609644, -10.24639968831963], [-54.99565764652176, -10.246389150936785], [-54.99566081574561, -10.246379032991912], [-54.99566591647638, -10.24636972060017], [-54.995672752980255, -10.246361573219499], [-54.99568106320054, -10.246354902894911], [-54.995690527929, -10.246349967083797], [-54.99570078275449, -10.246346955170601], [-54.99571143361664, -10.246345982235509], [-54.995722071424126, -10.246347086432591], [-54.995732287596866, -10.246350224566239], [-54.995741688638894, -10.246355276700411], [-54.99574991437288, -10.24636204898301], [-54.99575664885131, -10.246370280040402], [-54.995761632134815, -10.246379654609004], [-54.99576467302288, -10.24638981084504], [-54.995765655311246, -10.246400361153405], [-54.99576454049563, -10.24641089762777], [-54.995761372181256, -10.246421016483731], [-54.99575627145755, -10.246430327973435], [-54.99574943404108, -10.246438475350327], [-54.995741123819364, -10.246445145676471], [-54.99573166000088, -10.246450081494292], [-54.995721405171984, -10.246453093407856], [-54.99571075430615, -10.246454066342611], [-54.995700116495286, -10.246452962144478], [-54.99568990031995, -10.246449824009288], [-54.99568049836395, -10.24644477186763], [-54.99567227262999, -10.246437999583193], [-54.99566553906556, -10.246429768529854], [-54.99566055577899, -10.246420394864078], [-54.99565751398743, -10.24641023771813], [-54.995656532609644, -10.24639968831963]]]}}, {"type": "Feature", "properties": {"layer": "0 - Número de Quadra", "dxf_type": "CIRCLE", "radius_m": 5.98}, "geometry": {"type": "Polygon", "coordinates": [[[-54.99640383186196, -10.247383289441581], [-54.99640494666649, -10.247372752962248], [-54.99640811497694, -10.247362634098483], [-54.99641321570944, -10.247353321694373], [-54.996420052223215, -10.247345174298816], [-54.99642836336809, -10.247338504866914], [-54.99643782720876, -10.247333569032005], [-54.99644808207088, -10.247330556196177], [-54.99645873296326, -10.247329584146303], [-54.99646937081593, -10.247330687421698], [-54.99647958702456, -10.24733382644291], [-54.99648898902121, -10.247338878568554], [-54.99649721480177, -10.247345649935772], [-54.996503948405795, -10.247353880979178], [-54.99650893172329, -10.247363255542874], [-54.99651197354675, -10.24737341268716], [-54.996512954950134, -10.247383962088424], [-54.99651184106158, -10.247394498574401], [-54.996508671841134, -10.247404617434098], [-54.9965035711157, -10.247413928936167], [-54.99649673459623, -10.247422077237465], [-54.996488424362504, -10.247428746676565], [-54.99647895960665, -10.24743368250691], [-54.9964687047468, -10.247436694439232], [-54.99645805384506, -10.24743766739264], [-54.99644741599468, -10.247436563212329], [-54.99643719977779, -10.247433425093442], [-54.99642779869233, -10.247428372971576], [-54.99641957199921, -10.247421601596885], [-54.99641283840229, -10.247413369648017], [-54.99640785508173, -10.24740399598715], [-54.99640481417425, -10.247393838848101], [-54.99640383186196, -10.247383289441581]]]}}, {"type": "Feature", "properties": {"layer": "0 - Número de Quadra", "dxf_type": "CIRCLE", "radius_m": 5.98}, "geometry": {"type": "Polygon", "coordinates": [[[-54.9917199015099, -10.24450119692806], [-54.991721016437666, -10.244490660490543], [-54.991724184841644, -10.244480541693584], [-54.99172928562867, -10.244471230282596], [-54.99173612217272, -10.244463082091382], [-54.99174443330559, -10.244456412782561], [-54.991753897098164, -10.244451477080824], [-54.99176415187223, -10.244448465287057], [-54.991774802656856, -10.24444749247115], [-54.99178544036364, -10.24444859678266], [-54.99179565641641, -10.244451735021524], [-54.991805058236366, -10.244456787253345], [-54.9918132838319, -10.244463558707277], [-54.99182001724396, -10.244471790718501], [-54.99182500038678, -10.24448116441701], [-54.99182804204274, -10.244491321573282], [-54.9918290232979, -10.244501870959324], [-54.9918279092861, -10.244512407403494], [-54.99182473997213, -10.244522526196372], [-54.991819639180804, -10.24453183851309], [-54.99181280264243, -10.24453998580227], [-54.99180449242069, -10.244546655118304], [-54.99179502771294, -10.244551590815462], [-54.99178477292977, -10.244554603513514], [-54.99177412214717, -10.244555575425169], [-54.9917634844313, -10.244554472016521], [-54.99175326838164, -10.244551332872195], [-54.99174386747286, -10.244546280644167], [-54.991735640964784, -10.244539509182744], [-54.991728907548456, -10.244531278073833], [-54.99172392441393, -10.24452190347038], [-54.99172088367397, -10.244511746319368], [-54.9917199015099, -10.24450119692806]]]}}, {"type": "Feature", "properties": {"layer": "0 - Número de Quadra", "dxf_type": "CIRCLE", "radius_m": 5.98}, "geometry": {"type": "Polygon", "coordinates": [[[-54.9921910635193, -10.248325305247524], [-54.992192178469665, -10.248314768810292], [-54.992195346921115, -10.24830465001535], [-54.99220044777868, -10.248295338608045], [-54.99220728440789, -10.248287191325876], [-54.99221559565419, -10.248280521119666], [-54.99222505956717, -10.248275585425489], [-54.99223531446974, -10.24827257364005], [-54.992245965386, -10.24827160083292], [-54.9922566032225, -10.248272705153331], [-54.99226681939809, -10.248275843400869], [-54.99227622132925, -10.2482808956408], [-54.992284447014384, -10.248287668005855], [-54.99229118050787, -10.248295899119304], [-54.992296163703976, -10.248305272822503], [-54.99229920538869, -10.248315429981915], [-54.99230018664698, -10.248325979369412], [-54.99229907260689, -10.2483365167172], [-54.99229590325113, -10.24834663460418], [-54.99229080238927, -10.248355946917217], [-54.99228396576003, -10.248364094201236], [-54.99227565543059, -10.24837076351078], [-54.992266190596716, -10.24837570010426], [-54.992255935690736, -10.248378711890082], [-54.99224528477081, -10.248379684696854], [-54.99223464693091, -10.248378580375409], [-54.992224430752735, -10.248375442126315], [-54.99221502973847, -10.248370388986292], [-54.99220680313507, -10.248363617517628], [-54.992200069643005, -10.248355386402604], [-54.99219508645522, -10.248346011794464], [-54.992192045680795, -10.24833585554419], [-54.9921910635193, -10.248325305247524]]]}}, {"type": "Feature", "properties": {"layer": "0 - Número de Quadra", "dxf_type": "CIRCLE", "radius_m": 5.98}, "geometry": {"type": "Polygon", "coordinates": [[[-54.99466686927341, -10.249686553381602], [-54.99466798415701, -10.249676016922058], [-54.994671153469, -10.249665898097035], [-54.994676254291214, -10.249656586641951], [-54.994683090908836, -10.24964843839796], [-54.994691401238306, -10.249641769024038], [-54.99470086608401, -10.249636833264134], [-54.994711121024615, -10.249633821404602], [-54.99472177199534, -10.249632848523555], [-54.99473240990067, -10.24963395277303], [-54.99474262615677, -10.249637090955362], [-54.994752027264475, -10.24964214313265], [-54.99476025304962, -10.249648914547258], [-54.99476698754589, -10.249657146535828], [-54.99477197083573, -10.249666520218188], [-54.99477501169588, -10.24967667736542], [-54.99477599394566, -10.249687226766598], [-54.994774879065446, -10.249697763227184], [-54.99477171066864, -10.24970788205941], [-54.99476660984213, -10.249717194420223], [-54.994759772317586, -10.249725341756555], [-54.99475146198669, -10.249732011132032], [-54.99474199805096, -10.249736946898643], [-54.99473174310126, -10.249739959662428], [-54.99472109213255, -10.249740931639236], [-54.99471045421814, -10.249739828292611], [-54.994700237965134, -10.249736689204852], [-54.99469083594345, -10.249731637020073], [-54.994682610158335, -10.24972486560363], [-54.9946758765704, -10.249716634522999], [-54.99467089328885, -10.249707259935695], [-54.994667851519516, -10.24969710278243], [-54.99466686927341, -10.249686553381602]]]}}]}