{"type": "FeatureCollection", "name": "0_quadras", "crs": {"type": "name", "properties": {"name": "urn:ogc:def:crs:OGC:1.3:CRS84"}}, "properties": {"source": "8be78050_MAPA TRIBUTAÇÃO 2021 (1).dxf", "assumed_crs": "EPSG:4326", "local_crs": false, "note": "Coordenadas locais do desenho (sem CRS). Use base 'Só CAD' no mapa.", "extent": [4300.4554, 2373.7696, 8215.3349, 6186.7838], "georef": true, "transform": {"scale": 1, "rotation_deg": 0, "tx": 713717.6034368816, "ty": 8862616.121289995, "rmse_m": 0, "epsg": 31981}, "layer": "0 - QUADRAS", "source_file": "8be78050_MAPA TRIBUTAÇÃO 2021 (1)_georef.geojson", "n_features": 8}, "features": [{"type": "Feature", "properties": {"layer": "0 - QUADRAS", "dxf_type": "CIRCLE", "radius_m": 2.6}, "geometry": {"type": "Polygon", "coordinates": [[[-54.98284330473597, -10.249850548580783], [-54.982843789089166, -10.249845972352812], [-54.98284516483315, -10.24984157792156], [-54.98284738070629, -10.24983753400099], [-54.98285034993634, -10.249833996429752], [-54.98285395941772, -10.24983110009304], [-54.98285806972862, -10.249828956210854], [-54.982862523367224, -10.249827648773541], [-54.98286714845341, -10.24982722642953], [-54.98287176874434, -10.249827706163085], [-54.982876205488196, -10.249829068786365], [-54.98288028834656, -10.249831263526684], [-54.98288385998023, -10.249834204439356], [-54.982886785123526, -10.249837778599298], [-54.982888948736296, -10.249841849705124], [-54.98289026967548, -10.249846260875847], [-54.982890695168145, -10.24985084275172], [-54.98289021173388, -10.249855418081673], [-54.982888835077816, -10.24985981250754], [-54.98288662011751, -10.249863856434121], [-54.98288364996915, -10.249867394903923], [-54.982880041400094, -10.249870291246616], [-54.9828759310887, -10.249872435128982], [-54.98287147744945, -10.249873742566367], [-54.98286685144999, -10.249874164904663], [-54.982862232071, -10.24987368517656], [-54.98285779532666, -10.249872322552987], [-54.98285371246803, -10.249870127812336], [-54.98285013992179, -10.249867186893631], [-54.98284721569706, -10.24986361183518], [-54.9828450511722, -10.24985954072349], [-54.98284373114625, -10.249855129558373], [-54.98284330473597, -10.249850548580783]]]}}, {"type": "Feature", "properties": {"layer": "0 - QUADRAS", "dxf_type": "CIRCLE", "radius_m": 2.6}, "geometry": {"type": "Polygon", "coordinates": [[[-54.97979184784856, -10.249173113953544], [-54.979792332241786, -10.24916853773812], [-54.9797937080206, -10.249164143327107], [-54.97979592392204, -10.249160099433704], [-54.97979889317277, -10.249156561895497], [-54.979802502672136, -10.249153664692548], [-54.9798066129807, -10.249151521755035], [-54.9798110666194, -10.249150213456234], [-54.97981569169115, -10.249149791154561], [-54.97982031195941, -10.2491502709288], [-54.97982474866749, -10.24915163449341], [-54.97982883149532, -10.249153828362632], [-54.97983240308217, -10.24915677020603], [-54.97983532726856, -10.249160344380202], [-54.97983749174804, -10.249164415503863], [-54.97983881172899, -10.249168826672893], [-54.97983923809055, -10.249173408550059], [-54.979838753703696, -10.2491779838618], [-54.97983737792537, -10.249182378273094], [-54.97983516202419, -10.249186422166847], [-54.979832192767724, -10.249189960609279], [-54.97982858418639, -10.249192856914338], [-54.9798244738716, -10.24919500075591], [-54.979820020238, -10.249196308150905], [-54.97981539425297, -10.249196730446853], [-54.979810774896656, -10.249196250678077], [-54.97980633818236, -10.249194888017044], [-54.97980225535999, -10.249192693243616], [-54.97979868285484, -10.249189752298056], [-54.97979575867445, -10.249186177219709], [-54.97979359419546, -10.249182106095853], [-54.979792274215164, -10.249177694926763], [-54.97979184784856, -10.249173113953544]]]}}, {"type": "Feature", "properties": {"layer": "0 - QUADRAS", "dxf_type": "CIRCLE", "radius_m": 2.6}, "geometry": {"type": "Polygon", "coordinates": [[[-54.98176834818802, -10.249260896985131], [-54.981768832548084, -10.24925632166526], [-54.981770209214446, -10.249251927246442], [-54.98177242418167, -10.249247883329222], [-54.981775393420705, -10.24924434486505], [-54.9817790029018, -10.249241448540777], [-54.9817831132032, -10.249239305575934], [-54.981787566840346, -10.249237997248711], [-54.98179219282884, -10.249237574924285], [-54.98179681219422, -10.249238054665557], [-54.98180124891717, -10.249239418205008], [-54.981805331764456, -10.249241612052181], [-54.981808904292926, -10.24924455297929], [-54.98181182849984, -10.249248128043911], [-54.98181399209495, -10.249252199153648], [-54.981815313017535, -10.249256610325574], [-54.98181573941363, -10.249261191301693], [-54.98181525504849, -10.249265767525637], [-54.9818138783826, -10.249270161944768], [-54.98181166341564, -10.249274205862333], [-54.9818086941766, -10.249277744326859], [-54.98180508469523, -10.249280640651426], [-54.98180097439335, -10.24928278361647], [-54.981796520755566, -10.249284091943762], [-54.981791895678946, -10.24928451427379], [-54.98178727540036, -10.24928403452665], [-54.981782838676914, -10.24928267098691], [-54.98177875582937, -10.249280477139385], [-54.9817751833009, -10.24927753621193], [-54.98177225909425, -10.24927396114701], [-54.98177009549964, -10.249269890037073], [-54.98176877457769, -10.249265478865059], [-54.98176834818802, -10.249260896985131]]]}}, {"type": "Feature", "properties": {"layer": "0 - QUADRAS", "dxf_type": "CIRCLE", "radius_m": 2.6}, "geometry": {"type": "Polygon", "coordinates": [[[-54.984254651919905, -10.248942251989163], [-54.984255136243604, -10.24893767665859], [-54.9842565128755, -10.248933282222348], [-54.98425872781146, -10.248929238281635], [-54.98426169702363, -10.248925699788835], [-54.98426530648332, -10.248922803431856], [-54.98426941676958, -10.248920660431525], [-54.98427387039845, -10.248919352067379], [-54.984278496385826, -10.248918929706027], [-54.9842831157573, -10.248919409411757], [-54.984287552493335, -10.248920772918446], [-54.984291635360165, -10.248922966736886], [-54.9842952079139, -10.248925907640409], [-54.984298132150855, -10.248929482687457], [-54.98430029577958, -10.24893355378637], [-54.98430161673811, -10.248937964954576], [-54.98430204317105, -10.248942545934257], [-54.984301558842276, -10.248947122168904], [-54.98430018221087, -10.248951516605446], [-54.984297967275175, -10.24895556054651], [-54.98429499806299, -10.24895909903967], [-54.98429138860303, -10.248961995396932], [-54.98428727831628, -10.248964138397463], [-54.98428282468677, -10.24896544676168], [-54.984278199611275, -10.248965869128623], [-54.98427357932659, -10.248965389417037], [-54.984269142590065, -10.248964025910059], [-54.98426505972298, -10.248961832091268], [-54.984261487169235, -10.24895889118741], [-54.98425856293256, -10.248955316140048], [-54.98425639930433, -10.248951245040939], [-54.98425507834644, -10.248946833872656], [-54.984254651919905, -10.248942251989163]]]}}, {"type": "Feature", "properties": {"layer": "0 - QUADRAS", "dxf_type": "CIRCLE", "radius_m": 2.6}, "geometry": {"type": "Polygon", "coordinates": [[[-54.98373007209893, -10.248659328990607], [-54.98373055643451, -10.248654752758222], [-54.98373193215864, -10.248650358319615], [-54.98373414801048, -10.248646314388967], [-54.9837371172243, -10.248642775901505], [-54.98374072577135, -10.248639879544957], [-54.98374483605582, -10.248637736551208], [-54.983749289681256, -10.248636428193894], [-54.9837539156637, -10.248636005839359], [-54.98375853594149, -10.248636485557288], [-54.9837629717576, -10.248637849064318], [-54.983767054616294, -10.248640042888011], [-54.9837706271614, -10.24864298379581], [-54.98377355138957, -10.248646558846035], [-54.98377571592227, -10.248650629952527], [-54.98377703596013, -10.24865504111567], [-54.98377746238009, -10.248659622998485], [-54.98377697805086, -10.248664198327187], [-54.98377560232722, -10.24866859276609], [-54.98377338647565, -10.248672636697084], [-54.98377041726182, -10.248676175184881], [-54.98376680780193, -10.248679071536076], [-54.98376269751696, -10.248681214530029], [-54.98375824480346, -10.24868252289306], [-54.98375361882032, -10.248682945247545], [-54.98374899854189, -10.248682465529406], [-54.98374456181271, -10.248681102016429], [-54.98374047895376, -10.248678908192389], [-54.98373690732123, -10.248675967289888], [-54.98373398309334, -10.248672392239381], [-54.98373181856113, -10.248668321132689], [-54.98373049852392, -10.248663909969475], [-54.98373007209893, -10.248659328990607]]]}}, {"type": "Feature", "properties": {"layer": "0 - QUADRAS", "dxf_type": "CIRCLE", "radius_m": 3.41}, "geometry": {"type": "Polygon", "coordinates": [[[-55.00925353034346, -10.23720972342444], [-55.009254165593866, -10.237203710756066], [-55.00925597386777, -10.237197936671254], [-55.0092588844293, -10.237192622199911], [-55.00926278557314, -10.237187972754427], [-55.009267527435576, -10.237184166395844], [-55.00927292749799, -10.237181349347864], [-55.009278779746325, -10.237179630629289], [-55.009284857453885, -10.237179074839686], [-55.00929092776532, -10.237179704960377], [-55.00929675721716, -10.237181495156756], [-55.00930212264339, -10.237184378076492], [-55.00930681666777, -10.237188242171337], [-55.009310659521965, -10.237192939000845], [-55.009313503574596, -10.237198288683647], [-55.00931523877839, -10.237204084450477], [-55.00931579989741, -10.23721010443941], [-55.00931516373554, -10.237216117102532], [-55.0093133563694, -10.23722189209731], [-55.00931044581396, -10.23722720566536], [-55.00930654467012, -10.237231855111444], [-55.00930180280722, -10.237235661470539], [-55.0092964018314, -10.237238478513282], [-55.00929055048887, -10.237240198141459], [-55.009284472785765, -10.237240753027056], [-55.00927840246759, -10.237240123809926], [-55.00927257210798, -10.23723833270356], [-55.00926720759385, -10.237235449788809], [-55.00926251356948, -10.237231585693364], [-55.00925867071575, -10.237226888863342], [-55.00925582665833, -10.237221540084088], [-55.00925409054872, -10.237215743407674], [-55.00925353034346, -10.23720972342444]]]}}, {"type": "Feature", "properties": {"layer": "0 - QUADRAS", "dxf_type": "CIRCLE", "radius_m": 6.65}, "geometry": {"type": "Polygon", "coordinates": [[[-55.007955499365, -10.233757693993207], [-55.00795673973059, -10.233745965873943], [-55.00796026595984, -10.23373470280678], [-55.00796594211336, -10.233724337845523], [-55.00797355216728, -10.233715268300505], [-55.007982800999166, -10.233707843993637], [-55.0079933345769, -10.233702349303337], [-55.00800474821674, -10.233698995983762], [-55.0080166030712, -10.233697913322482], [-55.00802844351264, -10.23369914101538], [-55.00803981444344, -10.233702633792399], [-55.00805027866263, -10.23370825700402], [-55.00805943507178, -10.233715793964185], [-55.008066930476076, -10.233724955965757], [-55.00807247687771, -10.233735389617681], [-55.00807586231374, -10.233746694989966], [-55.00807695625808, -10.233758437397732], [-55.00807571589669, -10.233770165518273], [-55.008072189670635, -10.233781428587358], [-55.00806651351884, -10.233791793550898], [-55.00805890438309, -10.23380086219988], [-55.008049654636885, -10.23380828650313], [-55.00803912105592, -10.233813781194739], [-55.008027707411884, -10.233817134514796], [-55.00801585254723, -10.23381821807954], [-55.008004012107236, -10.23381698948147], [-55.00799264117323, -10.23381349670252], [-55.00798217695232, -10.233807873488626], [-55.00797302145574, -10.233800336531738], [-55.00796552513502, -10.23379117542654], [-55.00795997873661, -10.233780741773304], [-55.0079565933048, -10.233769436400541], [-55.007955499365, -10.233757693993207]]]}}, {"type": "Feature", "properties": {"layer": "0 - QUADRAS", "dxf_type": "CIRCLE", "radius_m": 6.65}, "geometry": {"type": "Polygon", "coordinates": [[[-55.006897622413824, -10.232860936046315], [-55.00689886189514, -10.232849207931576], [-55.006902388143516, -10.232837944880485], [-55.00690806521883, -10.232827579946223], [-55.00691567435922, -10.23281851042154], [-55.006924924092466, -10.232811086149702], [-55.00693545764925, -10.232805591491239], [-55.00694687125917, -10.232802238204657], [-55.006958726075894, -10.232801155576269], [-55.006970566473235, -10.232802383300692], [-55.00698193735527, -10.232805876106662], [-55.00699240152289, -10.232811499343534], [-55.00700155696711, -10.232819036318709], [-55.007009052320235, -10.232828198335424], [-55.0070145995864, -10.23283863200204], [-55.00701798497943, -10.232849937377043], [-55.007019078887424, -10.23286167978104], [-55.00701783849776, -10.232873407891466], [-55.00701431225822, -10.232884670040574], [-55.007008635178984, -10.232895035881025], [-55.00700102604422, -10.23290410450409], [-55.00699177722176, -10.232911528783479], [-55.00698124366174, -10.232917023443262], [-55.00696983004762, -10.232920376730302], [-55.00695797522071, -10.232921460262169], [-55.00694613482481, -10.232920231632555], [-55.00693476393958, -10.23291673882468], [-55.006924299770226, -10.23291111558553], [-55.00691514341348, -10.232903578602462], [-55.00690764805648, -10.232894417487705], [-55.00690210079918, -10.232883982915865], [-55.00689871540473, -10.232872678444291], [-55.006897622413824, -10.232860936046315]]]}}]}