{"type": "FeatureCollection", "name": "area_sem_ocupacao", "crs": {"type": "name", "properties": {"name": "urn:ogc:def:crs:OGC:1.3:CRS84"}}, "properties": {"source": "8be78050_MAPA TRIBUTAÇÃO 2021 (1).dxf", "assumed_crs": "EPSG:4326", "local_crs": false, "note": "Coordenadas locais do desenho (sem CRS). Use base 'Só CAD' no mapa.", "extent": [4300.4554, 2373.7696, 8215.3349, 6186.7838], "georef": true, "transform": {"scale": 1, "rotation_deg": 0, "tx": 713717.6034368816, "ty": 8862616.121289995, "rmse_m": 0, "epsg": 31981}, "layer": "AREA SEM OCUPACAO", "source_file": "8be78050_MAPA TRIBUTAÇÃO 2021 (1)_georef.geojson", "n_features": 9}, "features": [{"type": "Feature", "properties": {"layer": "AREA SEM OCUPACAO", "dxf_type": "LINE"}, "geometry": {"type": "LineString", "coordinates": [[-54.998854297336486, -10.243537968345423], [-54.998854297336486, -10.243537968345423]]}}, {"type": "Feature", "properties": {"layer": "AREA SEM OCUPACAO", "dxf_type": "LINE"}, "geometry": {"type": "LineString", "coordinates": [[-54.999066378002105, -10.2405591777574], [-54.99929423677073, -10.240553839841592]]}}, {"type": "Feature", "properties": {"layer": "AREA SEM OCUPACAO", "dxf_type": "LINE"}, "geometry": {"type": "LineString", "coordinates": [[-54.99925389306988, -10.240155533252242], [-54.999224674944756, -10.240107846876864]]}}, {"type": "Feature", "properties": {"layer": "AREA SEM OCUPACAO", "dxf_type": "LINE"}, "geometry": {"type": "LineString", "coordinates": [[-54.999224674944756, -10.240107846876864], [-54.999180296831746, -10.240117634562475]]}}, {"type": "Feature", "properties": {"layer": "AREA SEM OCUPACAO", "dxf_type": "LINE"}, "geometry": {"type": "LineString", "coordinates": [[-54.999180296831746, -10.240117634562475], [-54.99906012367391, -10.240214308484347]]}}, {"type": "Feature", "properties": {"layer": "AREA SEM OCUPACAO", "dxf_type": "LINE"}, "geometry": {"type": "LineString", "coordinates": [[-54.99906012367391, -10.240214308484347], [-54.99906012367391, -10.240214308484347]]}}, {"type": "Feature", "properties": {"layer": "AREA SEM OCUPACAO", "dxf_type": "LINE"}, "geometry": {"type": "LineString", "coordinates": [[-54.9989469752221, -10.243993070543182], [-54.99911520891635, -10.244231175330821]]}}, {"type": "Feature", "properties": {"layer": "AREA SEM OCUPACAO", "dxf_type": "LINE"}, "geometry": {"type": "LineString", "coordinates": [[-54.99909131808202, -10.240049279319699], [-54.99909131808202, -10.240049279319699]]}}, {"type": "Feature", "properties": {"layer": "AREA SEM OCUPACAO", "dxf_type": "LINE"}, "geometry": {"type": "LineString", "coordinates": [[-54.99909131808202, -10.240049279319699], [-54.99909131808202, -10.240049279319699]]}}]}