{"type": "FeatureCollection", "name": "boundary_lotes", "crs": {"type": "name", "properties": {"name": "urn:ogc:def:crs:OGC:1.3:CRS84"}}, "properties": {"source": "8be78050_MAPA TRIBUTAÇÃO 2021 (1).dxf", "assumed_crs": "EPSG:4326", "local_crs": false, "note": "Coordenadas locais do desenho (sem CRS). Use base 'Só CAD' no mapa.", "extent": [4300.4554, 2373.7696, 8215.3349, 6186.7838], "georef": true, "transform": {"scale": 1, "rotation_deg": 0, "tx": 713717.6034368816, "ty": 8862616.121289995, "rmse_m": 0, "epsg": 31981}, "layer": "Boundary_Lotes", "source_file": "8be78050_MAPA TRIBUTAÇÃO 2021 (1)_georef.geojson", "n_features": 55}, "features": [{"type": "Feature", "properties": {"layer": "Boundary_Lotes", "dxf_type": "LWPOLYLINE"}, "geometry": {"type": "Polygon", "coordinates": [[[-54.981239660056715, -10.241764317480456], [-54.981355216573384, -10.241903484726627], [-54.981300329149086, -10.241947233360408], [-54.981255636214996, -10.241942682210864], [-54.9811608436451, -10.241828522283217], [-54.981239660056715, -10.241764317480456]]]}}, {"type": "Feature", "properties": {"layer": "Boundary_Lotes", "dxf_type": "LWPOLYLINE"}, "geometry": {"type": "Polygon", "coordinates": [[[-54.981239660056715, -10.241764317480456], [-54.98131111860067, -10.241706105129932], [-54.9814271787001, -10.241845879293935], [-54.98135558896549, -10.24190318784242], [-54.981355216573384, -10.241903484726627], [-54.981239660056715, -10.241764317480456]]]}}, {"type": "Feature", "properties": {"layer": "Boundary_Lotes", "dxf_type": "LWPOLYLINE"}, "geometry": {"type": "Polygon", "coordinates": [[[-54.98131111860067, -10.241706105129932], [-54.98138225146844, -10.241648158295925], [-54.98149830072293, -10.241787918810747], [-54.9814275510978, -10.241845581505741], [-54.9814271787001, -10.241845879293935], [-54.98131111860067, -10.241706105129932]]]}}, {"type": "Feature", "properties": {"layer": "Boundary_Lotes", "dxf_type": "LWPOLYLINE"}, "geometry": {"type": "Polygon", "coordinates": [[[-54.98138225146844, -10.241648158295925], [-54.981451489117994, -10.241591756219293], [-54.98156709370503, -10.241730979737957], [-54.98149867039998, -10.241787618293818], [-54.98149830072293, -10.241787918810747], [-54.98138225146844, -10.241648158295925]]]}}, {"type": "Feature", "properties": {"layer": "Boundary_Lotes", "dxf_type": "LWPOLYLINE"}, "geometry": {"type": "Polygon", "coordinates": [[[-54.981451489117994, -10.241591756219293], [-54.981522750358174, -10.24153370528736], [-54.98163865111325, -10.24167328766751], [-54.98156708917083, -10.241730975190231], [-54.981451489117994, -10.241591756219293]]]}}, {"type": "Feature", "properties": {"layer": "Boundary_Lotes", "dxf_type": "LWPOLYLINE"}, "geometry": {"type": "Polygon", "coordinates": [[[-54.981522750358174, -10.24153370528736], [-54.9815928052979, -10.241476636634873], [-54.98170933100375, -10.241616971312471], [-54.98163864929957, -10.241673285848428], [-54.981522750358174, -10.24153370528736]]]}}, {"type": "Feature", "properties": {"layer": "Boundary_Lotes", "dxf_type": "LWPOLYLINE"}, "geometry": {"type": "Polygon", "coordinates": [[[-54.9815928052979, -10.241476636634873], [-54.98166229698094, -10.241420026367312], [-54.98177980085963, -10.241561538566653], [-54.981709329190075, -10.241616969493375], [-54.9815928052979, -10.241476636634873]]]}}, {"type": "Feature", "properties": {"layer": "Boundary_Lotes", "dxf_type": "LWPOLYLINE"}, "geometry": {"type": "Polygon", "coordinates": [[[-54.98166229698094, -10.241420026367312], [-54.98173719073389, -10.241359016805696], [-54.98184427881464, -10.241488037318177], [-54.98184561674417, -10.241499568730873], [-54.981842724300535, -10.24151089039635], [-54.98178017506465, -10.241561243500882], [-54.98177980085963, -10.241561538566653], [-54.98166229698094, -10.241420026367312]]]}}, {"type": "Feature", "properties": {"layer": "Boundary_Lotes", "dxf_type": "LWPOLYLINE"}, "geometry": {"type": "Polygon", "coordinates": [[[-54.98182858155789, -10.241284567140156], [-54.981912627358454, -10.241216100976704], [-54.98202970381662, -10.241357098825413], [-54.98195971557583, -10.241415467835822], [-54.98194321566696, -10.241416077733733], [-54.981930518730046, -10.241409587474314], [-54.98182858155789, -10.241284567140156]]]}}, {"type": "Feature", "properties": {"layer": "Boundary_Lotes", "dxf_type": "LWPOLYLINE"}, "geometry": {"type": "Polygon", "coordinates": [[[-54.981912627358454, -10.241216100976704], [-54.98199773996831, -10.241146765510294], [-54.9821128646768, -10.241285412792182], [-54.98203006987106, -10.241356793765624], [-54.98202970381662, -10.241357098825413], [-54.981912627358454, -10.241216100976704]]]}}, {"type": "Feature", "properties": {"layer": "Boundary_Lotes", "dxf_type": "LWPOLYLINE"}, "geometry": {"type": "Polygon", "coordinates": [[[-54.98199773996831, -10.241146765510294], [-54.982128619430206, -10.241040147262495], [-54.98224329495332, -10.241178252981731], [-54.9821128646768, -10.241285412792182], [-54.98199773996831, -10.241146765510294]]]}}, {"type": "Feature", "properties": {"layer": "Boundary_Lotes", "dxf_type": "LWPOLYLINE"}, "geometry": {"type": "Polygon", "coordinates": [[[-54.981345585064766, -10.242028385741515], [-54.981415073122086, -10.241969779692399], [-54.98153350693969, -10.242111584307404], [-54.981454599202394, -10.24217535834504], [-54.9813457734821, -10.242042741982516], [-54.981345585064766, -10.242028385741515]]]}}, {"type": "Feature", "properties": {"layer": "Boundary_Lotes", "dxf_type": "LWPOLYLINE"}, "geometry": {"type": "Polygon", "coordinates": [[[-54.981415073122086, -10.241969779692399], [-54.98141523001045, -10.241969647790773], [-54.98148870191639, -10.241910835047518], [-54.981604228794275, -10.242054424905795], [-54.98153350693969, -10.242111584307404], [-54.981415073122086, -10.241969779692399]]]}}, {"type": "Feature", "properties": {"layer": "Boundary_Lotes", "dxf_type": "LWPOLYLINE"}, "geometry": {"type": "Polygon", "coordinates": [[[-54.98148870191639, -10.241910835047518], [-54.981557710746095, -10.241851085242653], [-54.98167542209903, -10.241996886053922], [-54.981604228794275, -10.242054424905795], [-54.98148870191639, -10.241910835047518]]]}}, {"type": "Feature", "properties": {"layer": "Boundary_Lotes", "dxf_type": "LWPOLYLINE"}, "geometry": {"type": "Polygon", "coordinates": [[[-54.981557710746095, -10.241851085242653], [-54.98163172721866, -10.241794900805855], [-54.98174711439037, -10.24193894261265], [-54.98167542209903, -10.241996886053922], [-54.981557710746095, -10.241851085242653]]]}}, {"type": "Feature", "properties": {"layer": "Boundary_Lotes", "dxf_type": "LWPOLYLINE"}, "geometry": {"type": "Polygon", "coordinates": [[[-54.98163172721866, -10.241794900805855], [-54.98170449316858, -10.241734859715903], [-54.98181875069895, -10.241881044902794], [-54.98174711439037, -10.24193894261265], [-54.98163172721866, -10.241794900805855]]]}}, {"type": "Feature", "properties": {"layer": "Boundary_Lotes", "dxf_type": "LWPOLYLINE"}, "geometry": {"type": "Polygon", "coordinates": [[[-54.98170449316858, -10.241734859715903], [-54.981773126832046, -10.24167727601404], [-54.98188916332185, -10.241824136596618], [-54.98181875069895, -10.241881044902794], [-54.98170449316858, -10.241734859715903]]]}}, {"type": "Feature", "properties": {"layer": "Boundary_Lotes", "dxf_type": "LWPOLYLINE"}, "geometry": {"type": "Polygon", "coordinates": [[[-54.981773126832046, -10.24167727601404], [-54.981843222135915, -10.24162031873754], [-54.981959618121316, -10.24176719327939], [-54.98188916332185, -10.241824136596618], [-54.981773126832046, -10.24167727601404]]]}}, {"type": "Feature", "properties": {"layer": "Boundary_Lotes", "dxf_type": "LWPOLYLINE"}, "geometry": {"type": "Polygon", "coordinates": [[[-54.981843222135915, -10.24162031873754], [-54.9819151921557, -10.241561731564754], [-54.982030735177396, -10.24170971441412], [-54.981959618121316, -10.24176719327939], [-54.981843222135915, -10.24162031873754]]]}}, {"type": "Feature", "properties": {"layer": "Boundary_Lotes", "dxf_type": "LWPOLYLINE"}, "geometry": {"type": "Polygon", "coordinates": [[[-54.9819151921557, -10.241561731564754], [-54.9819851885581, -10.241503233362625], [-54.98210105141155, -10.241652884089973], [-54.982030735177396, -10.24170971441412], [-54.9819151921557, -10.241561731564754]]]}}, {"type": "Feature", "properties": {"layer": "Boundary_Lotes", "dxf_type": "LWPOLYLINE"}, "geometry": {"type": "Polygon", "coordinates": [[[-54.9819851885581, -10.241503233362625], [-54.9820567244047, -10.241445901704244], [-54.98217248671725, -10.241595147734902], [-54.98210105141155, -10.241652884089973], [-54.9819851885581, -10.241503233362625]]]}}, {"type": "Feature", "properties": {"layer": "Boundary_Lotes", "dxf_type": "LWPOLYLINE"}, "geometry": {"type": "Polygon", "coordinates": [[[-54.9820567244047, -10.241445901704244], [-54.9821276321853, -10.241389463716034], [-54.982243272550974, -10.241537937927792], [-54.98217248671725, -10.241595147734902], [-54.9820567244047, -10.241445901704244]]]}}, {"type": "Feature", "properties": {"layer": "Boundary_Lotes", "dxf_type": "LWPOLYLINE"}, "geometry": {"type": "Polygon", "coordinates": [[[-54.9821276321853, -10.241389463716034], [-54.98218626617331, -10.241341585561157], [-54.98225049961276, -10.241347710398466], [-54.982342242796975, -10.241457948031085], [-54.982243272550974, -10.241537937927792], [-54.9821276321853, -10.241389463716034]]]}}, {"type": "Feature", "properties": {"layer": "Boundary_Lotes", "dxf_type": "LWPOLYLINE"}, "geometry": {"type": "Polygon", "coordinates": [[[-54.981454599202394, -10.24217535834504], [-54.98153350693969, -10.242111584307404], [-54.98164842117063, -10.242249174694809], [-54.981579191863545, -10.242302505340323], [-54.98157283629108, -10.24230542982841], [-54.98156439969339, -10.242305229220264], [-54.981557240407085, -10.242299598588039], [-54.981454599202394, -10.24217535834504]]]}}, {"type": "Feature", "properties": {"layer": "Boundary_Lotes", "dxf_type": "LWPOLYLINE"}, "geometry": {"type": "Polygon", "coordinates": [[[-54.98153350693969, -10.242111584307404], [-54.981604228794275, -10.242054424905795], [-54.98171770667553, -10.242195468350236], [-54.98164842117063, -10.242249174694809], [-54.98153350693969, -10.242111584307404]]]}}, {"type": "Feature", "properties": {"layer": "Boundary_Lotes", "dxf_type": "LWPOLYLINE"}, "geometry": {"type": "Polygon", "coordinates": [[[-54.981604228794275, -10.242054424905795], [-54.98167542209903, -10.241996886053922], [-54.98179014539526, -10.242138986650646], [-54.98171770667553, -10.242195468350236], [-54.981604228794275, -10.242054424905795]]]}}, {"type": "Feature", "properties": {"layer": "Boundary_Lotes", "dxf_type": "LWPOLYLINE"}, "geometry": {"type": "Polygon", "coordinates": [[[-54.98167542209903, -10.241996886053922], [-54.98174711439037, -10.24193894261265], [-54.981861347215784, -10.242081543623387], [-54.98179014539526, -10.242138986650646], [-54.98167542209903, -10.241996886053922]]]}}, {"type": "Feature", "properties": {"layer": "Boundary_Lotes", "dxf_type": "LWPOLYLINE"}, "geometry": {"type": "Polygon", "coordinates": [[[-54.98174711439037, -10.24193894261265], [-54.98181875069895, -10.241881044902794], [-54.98193090266089, -10.242024537796604], [-54.981861347215784, -10.242081543623387], [-54.98174711439037, -10.24193894261265]]]}}, {"type": "Feature", "properties": {"layer": "Boundary_Lotes", "dxf_type": "LWPOLYLINE"}, "geometry": {"type": "Polygon", "coordinates": [[[-54.98181875069895, -10.241881044902794], [-54.98188916332185, -10.241824136596618], [-54.98200086058037, -10.241965505158122], [-54.98193090266089, -10.242024537796604], [-54.98181875069895, -10.241881044902794]]]}}, {"type": "Feature", "properties": {"layer": "Boundary_Lotes", "dxf_type": "LWPOLYLINE"}, "geometry": {"type": "Polygon", "coordinates": [[[-54.98188916332185, -10.241824136596618], [-54.981959618121316, -10.24176719327939], [-54.98207113065717, -10.24190790352656], [-54.98200086058037, -10.241965505158122], [-54.98188916332185, -10.241824136596618]]]}}, {"type": "Feature", "properties": {"layer": "Boundary_Lotes", "dxf_type": "LWPOLYLINE"}, "geometry": {"type": "Polygon", "coordinates": [[[-54.981959618121316, -10.24176719327939], [-54.982030735177396, -10.24170971441412], [-54.98213972601167, -10.241849305311703], [-54.98207113065717, -10.24190790352656], [-54.981959618121316, -10.24176719327939]]]}}, {"type": "Feature", "properties": {"layer": "Boundary_Lotes", "dxf_type": "LWPOLYLINE"}, "geometry": {"type": "Polygon", "coordinates": [[[-54.982030735177396, -10.24170971441412], [-54.98210105141155, -10.241652884089973], [-54.98220798366759, -10.24179099785075], [-54.98213972601167, -10.241849305311703], [-54.982030735177396, -10.24170971441412]]]}}, {"type": "Feature", "properties": {"layer": "Boundary_Lotes", "dxf_type": "LWPOLYLINE"}, "geometry": {"type": "Polygon", "coordinates": [[[-54.98210105141155, -10.241652884089973], [-54.98217248671725, -10.241595147734902], [-54.982279237721286, -10.241732775851519], [-54.98220798366759, -10.24179099785075], [-54.98210105141155, -10.241652884089973]]]}}, {"type": "Feature", "properties": {"layer": "Boundary_Lotes", "dxf_type": "LWPOLYLINE"}, "geometry": {"type": "Polygon", "coordinates": [[[-54.98217248671725, -10.241595147734902], [-54.982243272550974, -10.241537937927792], [-54.98235015024463, -10.241675161855595], [-54.982279237721286, -10.241732775851519], [-54.98217248671725, -10.241595147734902]]]}}, {"type": "Feature", "properties": {"layer": "Boundary_Lotes", "dxf_type": "LWPOLYLINE"}, "geometry": {"type": "Polygon", "coordinates": [[[-54.982243272550974, -10.241537937927792], [-54.982342242796975, -10.241457948031085], [-54.98242263719529, -10.241556900363049], [-54.98241649010639, -10.241619797337286], [-54.98235015024463, -10.241675161855595], [-54.982243272550974, -10.241537937927792]]]}}, {"type": "Feature", "properties": {"layer": "Boundary_Lotes", "dxf_type": "LWPOLYLINE"}, "geometry": {"type": "Polygon", "coordinates": [[[-54.98165885219956, -10.242421110735185], [-54.981664724636715, -10.242357084017922], [-54.98171479711235, -10.242316241358939], [-54.981827896531975, -10.242459138177757], [-54.98174728475476, -10.242524958111158], [-54.98165885219956, -10.242421110735185]]]}}, {"type": "Feature", "properties": {"layer": "Boundary_Lotes", "dxf_type": "LWPOLYLINE"}, "geometry": {"type": "Polygon", "coordinates": [[[-54.98171479711235, -10.242316241358939], [-54.98178337083514, -10.242254306764355], [-54.98189893038501, -10.24240113820497], [-54.981827896531975, -10.242459138177757], [-54.98171479711235, -10.242316241358939]]]}}, {"type": "Feature", "properties": {"layer": "Boundary_Lotes", "dxf_type": "LWPOLYLINE"}, "geometry": {"type": "Polygon", "coordinates": [[[-54.98178337083514, -10.242254306764355], [-54.9818529346426, -10.242198151600363], [-54.98196868544222, -10.242344183336847], [-54.98189893038501, -10.24240113820497], [-54.98178337083514, -10.242254306764355]]]}}, {"type": "Feature", "properties": {"layer": "Boundary_Lotes", "dxf_type": "LWPOLYLINE"}, "geometry": {"type": "Polygon", "coordinates": [[[-54.9818529346426, -10.242198151600363], [-54.98192493932953, -10.242140311300075], [-54.98203921104012, -10.24228659868213], [-54.98196868544222, -10.242344183336847], [-54.9818529346426, -10.242198151600363]]]}}, {"type": "Feature", "properties": {"layer": "Boundary_Lotes", "dxf_type": "LWPOLYLINE"}, "geometry": {"type": "Polygon", "coordinates": [[[-54.98192493932953, -10.242140311300075], [-54.98199465673275, -10.242083238671514], [-54.98211103923018, -10.242227950046713], [-54.98203921104012, -10.24228659868213], [-54.98192493932953, -10.242140311300075]]]}}, {"type": "Feature", "properties": {"layer": "Boundary_Lotes", "dxf_type": "LWPOLYLINE"}, "geometry": {"type": "Polygon", "coordinates": [[[-54.98199465673275, -10.242083238671514], [-54.982066569410584, -10.242026663240217], [-54.98217901917695, -10.242172443926952], [-54.98211103923018, -10.242227950046713], [-54.98199465673275, -10.242083238671514]]]}}, {"type": "Feature", "properties": {"layer": "Boundary_Lotes", "dxf_type": "LWPOLYLINE"}, "geometry": {"type": "Polygon", "coordinates": [[[-54.982066569410584, -10.242026663240217], [-54.9821362889215, -10.241967662533455], [-54.982251370192365, -10.242113369134989], [-54.98217901917695, -10.242172443926952], [-54.982066569410584, -10.242026663240217]]]}}, {"type": "Feature", "properties": {"layer": "Boundary_Lotes", "dxf_type": "LWPOLYLINE"}, "geometry": {"type": "Polygon", "coordinates": [[[-54.9821362889215, -10.241967662533455], [-54.982206490560046, -10.24190933550342], [-54.982325753084154, -10.242052633781334], [-54.982251370192365, -10.242113369134989], [-54.9821362889215, -10.241967662533455]]]}}, {"type": "Feature", "properties": {"layer": "Boundary_Lotes", "dxf_type": "LWPOLYLINE"}, "geometry": {"type": "Polygon", "coordinates": [[[-54.982206490560046, -10.24190933550342], [-54.98227925236429, -10.241851528722748], [-54.98239576025762, -10.24199547335979], [-54.982325753084154, -10.242052633781334], [-54.982206490560046, -10.24190933550342]]]}}, {"type": "Feature", "properties": {"layer": "Boundary_Lotes", "dxf_type": "LWPOLYLINE"}, "geometry": {"type": "Polygon", "coordinates": [[[-54.98227925236429, -10.241851528722748], [-54.982347616159345, -10.241794905880674], [-54.98235011826815, -10.241797250794452], [-54.98248619555838, -10.241963183435637], [-54.98250748032076, -10.241988970413514], [-54.982436582958954, -10.24204590930446], [-54.98227925236429, -10.241851528722748]]]}}, {"type": "Feature", "properties": {"layer": "Boundary_Lotes", "dxf_type": "LWPOLYLINE"}, "geometry": {"type": "Polygon", "coordinates": [[[-54.98235011826815, -10.241797250794452], [-54.98242094267868, -10.241738851638281], [-54.98253616064682, -10.241878252379335], [-54.98255791123253, -10.241903543282245], [-54.98248619555838, -10.241963183435637], [-54.98235011826815, -10.241797250794452]]]}}, {"type": "Feature", "properties": {"layer": "Boundary_Lotes", "dxf_type": "LWPOLYLINE"}, "geometry": {"type": "Polygon", "coordinates": [[[-54.98242094267868, -10.241738851638281], [-54.982497382391976, -10.241676102404073], [-54.98258064085532, -10.241783098348654], [-54.982585917541854, -10.241833457481878], [-54.98253616064682, -10.241878252379335], [-54.98242094267868, -10.241738851638281]]]}}, {"type": "Feature", "properties": {"layer": "Boundary_Lotes", "dxf_type": "LWPOLYLINE"}, "geometry": {"type": "Polygon", "coordinates": [[[-54.98174728475476, -10.242524958111158], [-54.981827896531975, -10.242459138177757], [-54.98194062937677, -10.242601571703153], [-54.98188040195112, -10.24264955376474], [-54.98187515960414, -10.242653365580173], [-54.9818658174296, -10.242655082889144], [-54.98185380865753, -10.242650450819088], [-54.98174728475476, -10.242524958111158]]]}}, {"type": "Feature", "properties": {"layer": "Boundary_Lotes", "dxf_type": "LWPOLYLINE"}, "geometry": {"type": "Polygon", "coordinates": [[[-54.981827896531975, -10.242459138177757], [-54.98189893038501, -10.24240113820497], [-54.98201257347211, -10.242545534333273], [-54.98194062937677, -10.242601571703153], [-54.981827896531975, -10.242459138177757]]]}}, {"type": "Feature", "properties": {"layer": "Boundary_Lotes", "dxf_type": "LWPOLYLINE"}, "geometry": {"type": "Polygon", "coordinates": [[[-54.98189893038501, -10.24240113820497], [-54.98196868544222, -10.242344183336847], [-54.98208254049867, -10.242487822373784], [-54.98201257347211, -10.242545534333273], [-54.98189893038501, -10.24240113820497]]]}}, {"type": "Feature", "properties": {"layer": "Boundary_Lotes", "dxf_type": "LWPOLYLINE"}, "geometry": {"type": "Polygon", "coordinates": [[[-54.98196868544222, -10.242344183336847], [-54.98203921104012, -10.24228659868213], [-54.982151900447995, -10.242430859588646], [-54.98208254049867, -10.242487822373784], [-54.98196868544222, -10.242344183336847]]]}}, {"type": "Feature", "properties": {"layer": "Boundary_Lotes", "dxf_type": "LWPOLYLINE"}, "geometry": {"type": "Polygon", "coordinates": [[[-54.98203921104012, -10.24228659868213], [-54.98211103923018, -10.242227950046713], [-54.982227129352346, -10.242372298922216], [-54.982151900447995, -10.242430859588646], [-54.98203921104012, -10.24228659868213]]]}}, {"type": "Feature", "properties": {"layer": "Boundary_Lotes", "dxf_type": "LWPOLYLINE"}, "geometry": {"type": "Polygon", "coordinates": [[[-54.98211103923018, -10.242227950046713], [-54.98217901917695, -10.242172443926952], [-54.982293140901156, -10.242320391708676], [-54.982227129352346, -10.242372298922216], [-54.98211103923018, -10.242227950046713]]]}}, {"type": "Feature", "properties": {"layer": "Boundary_Lotes", "dxf_type": "LWPOLYLINE"}, "geometry": {"type": "Polygon", "coordinates": [[[-54.98217901917695, -10.242172443926952], [-54.982251370192365, -10.242113369134989], [-54.982366451569106, -10.242259074810768], [-54.982293140901156, -10.242320391708676], [-54.98217901917695, -10.242172443926952]]]}}, {"type": "Feature", "properties": {"layer": "Boundary_Lotes", "dxf_type": "LWPOLYLINE"}, "geometry": {"type": "Polygon", "coordinates": [[[-54.982251370192365, -10.242113369134989], [-54.982325753084154, -10.242052633781334], [-54.98239576025762, -10.24199547335979], [-54.982436582958954, -10.24204590930446], [-54.98246193451324, -10.242077427030756], [-54.98244498729627, -10.242132600833884], [-54.98242582361779, -10.242190045077464], [-54.98242344850617, -10.242194170274], [-54.98241712945894, -10.242204884949853], [-54.9824021131045, -10.242225453480449], [-54.982388625803566, -10.242240610716491], [-54.982366451569106, -10.242259074810768], [-54.982251370192365, -10.242113369134989]]]}}]}