{"type": "FeatureCollection", "name": "corrego", "crs": {"type": "name", "properties": {"name": "urn:ogc:def:crs:OGC:1.3:CRS84"}}, "properties": {"source": "8be78050_MAPA TRIBUTAÇÃO 2021 (1).dxf", "assumed_crs": "EPSG:4326", "local_crs": false, "note": "Coordenadas locais do desenho (sem CRS). Use base 'Só CAD' no mapa.", "extent": [4300.4554, 2373.7696, 8215.3349, 6186.7838], "georef": true, "transform": {"scale": 1, "rotation_deg": 0, "tx": 713717.6034368816, "ty": 8862616.121289995, "rmse_m": 0, "epsg": 31981}, "layer": "CORREGO", "source_file": "8be78050_MAPA TRIBUTAÇÃO 2021 (1)_georef.geojson", "n_features": 94}, "features": [{"type": "Feature", "properties": {"layer": "CORREGO", "dxf_type": "LINE"}, "geometry": {"type": "LineString", "coordinates": [[-54.99919130040705, -10.244338869778872], [-54.99921133144485, -10.244367219884278]]}}, {"type": "Feature", "properties": {"layer": "CORREGO", "dxf_type": "LINE"}, "geometry": {"type": "LineString", "coordinates": [[-54.99921133144485, -10.244367219884278], [-54.99921845813774, -10.244356145475392]]}}, {"type": "Feature", "properties": {"layer": "CORREGO", "dxf_type": "LINE"}, "geometry": {"type": "LineString", "coordinates": [[-54.99921845813774, -10.244356145475392], [-54.99927160059031, -10.244265477177967]]}}, {"type": "Feature", "properties": {"layer": "CORREGO", "dxf_type": "LINE"}, "geometry": {"type": "LineString", "coordinates": [[-54.99927160059031, -10.244265477177967], [-54.999339106738965, -10.244150342153027]]}}, {"type": "Feature", "properties": {"layer": "CORREGO", "dxf_type": "LINE"}, "geometry": {"type": "LineString", "coordinates": [[-54.999339106738965, -10.244150342153027], [-54.99938491077572, -10.24404105483429]]}}, {"type": "Feature", "properties": {"layer": "CORREGO", "dxf_type": "LINE"}, "geometry": {"type": "LineString", "coordinates": [[-54.99938491077572, -10.24404105483429], [-54.99941053534519, -10.24395195903393]]}}, {"type": "Feature", "properties": {"layer": "CORREGO", "dxf_type": "LINE"}, "geometry": {"type": "LineString", "coordinates": [[-54.99941053534519, -10.24395195903393], [-54.999450039770856, -10.243743690295283]]}}, {"type": "Feature", "properties": {"layer": "CORREGO", "dxf_type": "LINE"}, "geometry": {"type": "LineString", "coordinates": [[-54.999450039770856, -10.243743690295283], [-54.99948072468405, -10.243557827986317]]}}, {"type": "Feature", "properties": {"layer": "CORREGO", "dxf_type": "LINE"}, "geometry": {"type": "LineString", "coordinates": [[-54.99948072468405, -10.243557827986317], [-54.999499309778564, -10.243366643942629]]}}, {"type": "Feature", "properties": {"layer": "CORREGO", "dxf_type": "LINE"}, "geometry": {"type": "LineString", "coordinates": [[-54.999499309778564, -10.243366643942629], [-54.999501993530245, -10.243327098401894]]}}, {"type": "Feature", "properties": {"layer": "CORREGO", "dxf_type": "LINE"}, "geometry": {"type": "LineString", "coordinates": [[-54.999501993530245, -10.243327098401894], [-54.99950197720972, -10.24297359793233]]}}, {"type": "Feature", "properties": {"layer": "CORREGO", "dxf_type": "LINE"}, "geometry": {"type": "LineString", "coordinates": [[-54.99950197720972, -10.24297359793233], [-54.999496503824254, -10.242815628803994]]}}, {"type": "Feature", "properties": {"layer": "CORREGO", "dxf_type": "LINE"}, "geometry": {"type": "LineString", "coordinates": [[-54.999496503824254, -10.242815628803994], [-54.999501954306446, -10.242485351230751]]}}, {"type": "Feature", "properties": {"layer": "CORREGO", "dxf_type": "LINE"}, "geometry": {"type": "LineString", "coordinates": [[-54.999501954306446, -10.242485351230751], [-54.99950193272476, -10.242029908841536]]}}, {"type": "Feature", "properties": {"layer": "CORREGO", "dxf_type": "LINE"}, "geometry": {"type": "LineString", "coordinates": [[-54.99950193272476, -10.242029908841536], [-54.999498657377124, -10.24172121119484]]}}, {"type": "Feature", "properties": {"layer": "CORREGO", "dxf_type": "LINE"}, "geometry": {"type": "LineString", "coordinates": [[-54.999498657377124, -10.24172121119484], [-54.99949586379664, -10.241397818697962]]}}, {"type": "Feature", "properties": {"layer": "CORREGO", "dxf_type": "LINE"}, "geometry": {"type": "LineString", "coordinates": [[-54.99949586379664, -10.241397818697962], [-54.99949424391888, -10.240851554595771]]}}, {"type": "Feature", "properties": {"layer": "CORREGO", "dxf_type": "LINE"}, "geometry": {"type": "LineString", "coordinates": [[-54.99949424391888, -10.240851554595771], [-54.99949016880531, -10.240556705558683]]}}, {"type": "Feature", "properties": {"layer": "CORREGO", "dxf_type": "LINE"}, "geometry": {"type": "LineString", "coordinates": [[-54.99949016880531, -10.240556705558683], [-54.99947869029281, -10.240396412553336]]}}, {"type": "Feature", "properties": {"layer": "CORREGO", "dxf_type": "LINE"}, "geometry": {"type": "LineString", "coordinates": [[-54.99947869029281, -10.240396412553336], [-54.99942702865706, -10.240165444931463]]}}, {"type": "Feature", "properties": {"layer": "CORREGO", "dxf_type": "LINE"}, "geometry": {"type": "LineString", "coordinates": [[-54.99942702865706, -10.240165444931463], [-54.99935259121288, -10.239876853960764]]}}, {"type": "Feature", "properties": {"layer": "CORREGO", "dxf_type": "LINE"}, "geometry": {"type": "LineString", "coordinates": [[-54.99935259121288, -10.239876853960764], [-54.99930921514327, -10.239717505516348]]}}, {"type": "Feature", "properties": {"layer": "CORREGO", "dxf_type": "LINE"}, "geometry": {"type": "LineString", "coordinates": [[-54.99930921514327, -10.239717505516348], [-54.9992722301417, -10.239567017781217]]}}, {"type": "Feature", "properties": {"layer": "CORREGO", "dxf_type": "LINE"}, "geometry": {"type": "LineString", "coordinates": [[-54.9992722301417, -10.239567017781217], [-54.999222684028275, -10.239428779599184]]}}, {"type": "Feature", "properties": {"layer": "CORREGO", "dxf_type": "LINE"}, "geometry": {"type": "LineString", "coordinates": [[-54.999222684028275, -10.239428779599184], [-54.99917686721923, -10.239332397970957]]}}, {"type": "Feature", "properties": {"layer": "CORREGO", "dxf_type": "LINE"}, "geometry": {"type": "LineString", "coordinates": [[-54.99917686721923, -10.239332397970957], [-54.99912134107471, -10.239239402375862]]}}, {"type": "Feature", "properties": {"layer": "CORREGO", "dxf_type": "LINE"}, "geometry": {"type": "LineString", "coordinates": [[-54.99912134107471, -10.239239402375862], [-54.99905976927842, -10.239145199005916]]}}, {"type": "Feature", "properties": {"layer": "CORREGO", "dxf_type": "LINE"}, "geometry": {"type": "LineString", "coordinates": [[-54.99905976927842, -10.239145199005916], [-54.99901326727364, -10.239069180374797]]}}, {"type": "Feature", "properties": {"layer": "CORREGO", "dxf_type": "LINE"}, "geometry": {"type": "LineString", "coordinates": [[-54.99901326727364, -10.239069180374797], [-54.99894315945511, -10.238957602586265]]}}, {"type": "Feature", "properties": {"layer": "CORREGO", "dxf_type": "LINE"}, "geometry": {"type": "LineString", "coordinates": [[-54.99894315945511, -10.238957602586265], [-54.99885119762954, -10.238821739304623]]}}, {"type": "Feature", "properties": {"layer": "CORREGO", "dxf_type": "LINE"}, "geometry": {"type": "LineString", "coordinates": [[-54.99885119762954, -10.238821739304623], [-54.998744348753284, -10.238688634497052]]}}, {"type": "Feature", "properties": {"layer": "CORREGO", "dxf_type": "LINE"}, "geometry": {"type": "LineString", "coordinates": [[-54.998744348753284, -10.238688634497052], [-54.99869893980128, -10.238626354079848]]}}, {"type": "Feature", "properties": {"layer": "CORREGO", "dxf_type": "LINE"}, "geometry": {"type": "LineString", "coordinates": [[-54.99869893980128, -10.238626354079848], [-54.99865282995279, -10.238558695518861]]}}, {"type": "Feature", "properties": {"layer": "CORREGO", "dxf_type": "LINE"}, "geometry": {"type": "LineString", "coordinates": [[-54.99865282995279, -10.238558695518861], [-54.998626408787764, -10.238491854107904]]}}, {"type": "Feature", "properties": {"layer": "CORREGO", "dxf_type": "LINE"}, "geometry": {"type": "LineString", "coordinates": [[-54.998626408787764, -10.238491854107904], [-54.99860000128232, -10.23844233648435]]}}, {"type": "Feature", "properties": {"layer": "CORREGO", "dxf_type": "LINE"}, "geometry": {"type": "LineString", "coordinates": [[-54.99860000128232, -10.23844233648435], [-54.99859937619122, -10.238439565727157]]}}, {"type": "Feature", "properties": {"layer": "CORREGO", "dxf_type": "LINE"}, "geometry": {"type": "LineString", "coordinates": [[-54.99859937619122, -10.238439565727157], [-54.99851217762626, -10.238512499272957]]}}, {"type": "Feature", "properties": {"layer": "CORREGO", "dxf_type": "LINE"}, "geometry": {"type": "LineString", "coordinates": [[-54.99851217762626, -10.238512499272957], [-54.998515320399285, -10.238516169558347]]}}, {"type": "Feature", "properties": {"layer": "CORREGO", "dxf_type": "LINE"}, "geometry": {"type": "LineString", "coordinates": [[-54.998515320399285, -10.238516169558347], [-54.99855069688512, -10.23855448038109]]}}, {"type": "Feature", "properties": {"layer": "CORREGO", "dxf_type": "LINE"}, "geometry": {"type": "LineString", "coordinates": [[-54.99855069688512, -10.23855448038109], [-54.99858359150252, -10.238587491592053]]}}, {"type": "Feature", "properties": {"layer": "CORREGO", "dxf_type": "LINE"}, "geometry": {"type": "LineString", "coordinates": [[-54.99858359150252, -10.238587491592053], [-54.99863809537665, -10.23864350954698]]}}, {"type": "Feature", "properties": {"layer": "CORREGO", "dxf_type": "LINE"}, "geometry": {"type": "LineString", "coordinates": [[-54.99863809537665, -10.23864350954698], [-54.998704922245544, -10.23873005651128]]}}, {"type": "Feature", "properties": {"layer": "CORREGO", "dxf_type": "LINE"}, "geometry": {"type": "LineString", "coordinates": [[-54.998704922245544, -10.23873005651128], [-54.99881518919475, -10.238882452212954]]}}, {"type": "Feature", "properties": {"layer": "CORREGO", "dxf_type": "LINE"}, "geometry": {"type": "LineString", "coordinates": [[-54.99881518919475, -10.238882452212954], [-54.9988919587696, -10.23899026728739]]}}, {"type": "Feature", "properties": {"layer": "CORREGO", "dxf_type": "LINE"}, "geometry": {"type": "LineString", "coordinates": [[-54.9988919587696, -10.23899026728739], [-54.998954323317825, -10.239084650913401]]}}, {"type": "Feature", "properties": {"layer": "CORREGO", "dxf_type": "LINE"}, "geometry": {"type": "LineString", "coordinates": [[-54.998954323317825, -10.239084650913401], [-54.999048544773785, -10.239230276004514]]}}, {"type": "Feature", "properties": {"layer": "CORREGO", "dxf_type": "LINE"}, "geometry": {"type": "LineString", "coordinates": [[-54.999048544773785, -10.239230276004514], [-54.99908609546311, -10.2392867392157]]}}, {"type": "Feature", "properties": {"layer": "CORREGO", "dxf_type": "LINE"}, "geometry": {"type": "LineString", "coordinates": [[-54.99908609546311, -10.2392867392157], [-54.9991421615882, -10.239384872427497]]}}, {"type": "Feature", "properties": {"layer": "CORREGO", "dxf_type": "LINE"}, "geometry": {"type": "LineString", "coordinates": [[-54.9991421615882, -10.239384872427497], [-54.999171843012014, -10.239452974969183]]}}, {"type": "Feature", "properties": {"layer": "CORREGO", "dxf_type": "LINE"}, "geometry": {"type": "LineString", "coordinates": [[-54.999171843012014, -10.239452974969183], [-54.99920939169407, -10.239565513104356]]}}, {"type": "Feature", "properties": {"layer": "CORREGO", "dxf_type": "LINE"}, "geometry": {"type": "LineString", "coordinates": [[-54.99920939169407, -10.239565513104356], [-54.99924002390442, -10.239677745653426]]}}, {"type": "Feature", "properties": {"layer": "CORREGO", "dxf_type": "LINE"}, "geometry": {"type": "LineString", "coordinates": [[-54.99924002390442, -10.239677745653426], [-54.999269969622496, -10.239786230829706]]}}, {"type": "Feature", "properties": {"layer": "CORREGO", "dxf_type": "LINE"}, "geometry": {"type": "LineString", "coordinates": [[-54.999269969622496, -10.239786230829706], [-54.99929083747336, -10.239870594991029]]}}, {"type": "Feature", "properties": {"layer": "CORREGO", "dxf_type": "LINE"}, "geometry": {"type": "LineString", "coordinates": [[-54.99929083747336, -10.239870594991029], [-54.999295619345936, -10.23990642523062]]}}, {"type": "Feature", "properties": {"layer": "CORREGO", "dxf_type": "LINE"}, "geometry": {"type": "LineString", "coordinates": [[-54.999295619345936, -10.23990642523062], [-54.99930831852105, -10.239942611504427]]}}, {"type": "Feature", "properties": {"layer": "CORREGO", "dxf_type": "LINE"}, "geometry": {"type": "LineString", "coordinates": [[-54.99930831852105, -10.239942611504427], [-54.999330237997306, -10.240020669127484]]}}, {"type": "Feature", "properties": {"layer": "CORREGO", "dxf_type": "LINE"}, "geometry": {"type": "LineString", "coordinates": [[-54.999330237997306, -10.240020669127484], [-54.99934016130942, -10.240055067539124]]}}, {"type": "Feature", "properties": {"layer": "CORREGO", "dxf_type": "LINE"}, "geometry": {"type": "LineString", "coordinates": [[-54.99934016130942, -10.240055067539124], [-54.99935232093338, -10.240104970257518]]}}, {"type": "Feature", "properties": {"layer": "CORREGO", "dxf_type": "LINE"}, "geometry": {"type": "LineString", "coordinates": [[-54.99935232093338, -10.240104970257518], [-54.999361287934505, -10.240136297579586]]}}, {"type": "Feature", "properties": {"layer": "CORREGO", "dxf_type": "LINE"}, "geometry": {"type": "LineString", "coordinates": [[-54.999361287934505, -10.240136297579586], [-54.99937560761021, -10.240192471452737]]}}, {"type": "Feature", "properties": {"layer": "CORREGO", "dxf_type": "LINE"}, "geometry": {"type": "LineString", "coordinates": [[-54.99937560761021, -10.240192471452737], [-54.99937949688483, -10.240205316638363]]}}, {"type": "Feature", "properties": {"layer": "CORREGO", "dxf_type": "LINE"}, "geometry": {"type": "LineString", "coordinates": [[-54.99937949688483, -10.240205316638363], [-54.999381610676316, -10.240217364488835]]}}, {"type": "Feature", "properties": {"layer": "CORREGO", "dxf_type": "LINE"}, "geometry": {"type": "LineString", "coordinates": [[-54.999381610676316, -10.240217364488835], [-54.99939114321575, -10.240252811761062]]}}, {"type": "Feature", "properties": {"layer": "CORREGO", "dxf_type": "LINE"}, "geometry": {"type": "LineString", "coordinates": [[-54.99939114321575, -10.240252811761062], [-54.99940705977051, -10.240316000870466]]}}, {"type": "Feature", "properties": {"layer": "CORREGO", "dxf_type": "LINE"}, "geometry": {"type": "LineString", "coordinates": [[-54.99940705977051, -10.240316000870466], [-54.99941926390447, -10.24037263448385]]}}, {"type": "Feature", "properties": {"layer": "CORREGO", "dxf_type": "LINE"}, "geometry": {"type": "LineString", "coordinates": [[-54.99941926390447, -10.24037263448385], [-54.99942552847502, -10.240418408877112]]}}, {"type": "Feature", "properties": {"layer": "CORREGO", "dxf_type": "LINE"}, "geometry": {"type": "LineString", "coordinates": [[-54.99942552847502, -10.240418408877112], [-54.99943214264714, -10.24046227904442]]}}, {"type": "Feature", "properties": {"layer": "CORREGO", "dxf_type": "LINE"}, "geometry": {"type": "LineString", "coordinates": [[-54.99943214264714, -10.24046227904442], [-54.999436962104525, -10.240496919952067]]}}, {"type": "Feature", "properties": {"layer": "CORREGO", "dxf_type": "LINE"}, "geometry": {"type": "LineString", "coordinates": [[-54.999436962104525, -10.240496919952067], [-54.99944116752174, -10.240529064059471]]}}, {"type": "Feature", "properties": {"layer": "CORREGO", "dxf_type": "LINE"}, "geometry": {"type": "LineString", "coordinates": [[-54.99944116752174, -10.240529064059471], [-54.999443201455044, -10.24056855094645]]}}, {"type": "Feature", "properties": {"layer": "CORREGO", "dxf_type": "LINE"}, "geometry": {"type": "LineString", "coordinates": [[-54.999443201455044, -10.24056855094645], [-54.99944528996726, -10.24064460100502]]}}, {"type": "Feature", "properties": {"layer": "CORREGO", "dxf_type": "LINE"}, "geometry": {"type": "LineString", "coordinates": [[-54.99944528996726, -10.24064460100502], [-54.99944545847128, -10.240683080292968]]}}, {"type": "Feature", "properties": {"layer": "CORREGO", "dxf_type": "LINE"}, "geometry": {"type": "LineString", "coordinates": [[-54.99944545847128, -10.240683080292968], [-54.99944611138777, -10.24079189148985]]}}, {"type": "Feature", "properties": {"layer": "CORREGO", "dxf_type": "LINE"}, "geometry": {"type": "LineString", "coordinates": [[-54.99944611138777, -10.24079189148985], [-54.99944699064751, -10.240918019652975]]}}, {"type": "Feature", "properties": {"layer": "CORREGO", "dxf_type": "LINE"}, "geometry": {"type": "LineString", "coordinates": [[-54.99944699064751, -10.240918019652975], [-54.999446976923174, -10.24103446762032]]}}, {"type": "Feature", "properties": {"layer": "CORREGO", "dxf_type": "LINE"}, "geometry": {"type": "LineString", "coordinates": [[-54.999446976923174, -10.24103446762032], [-54.999449038996, -10.241235101788517]]}}, {"type": "Feature", "properties": {"layer": "CORREGO", "dxf_type": "LINE"}, "geometry": {"type": "LineString", "coordinates": [[-54.999449038996, -10.241235101788517], [-54.9994504032045, -10.241435833805571]]}}, {"type": "Feature", "properties": {"layer": "CORREGO", "dxf_type": "LINE"}, "geometry": {"type": "LineString", "coordinates": [[-54.9994504032045, -10.241435833805571], [-54.9994515355618, -10.241611391006662]]}}, {"type": "Feature", "properties": {"layer": "CORREGO", "dxf_type": "LINE"}, "geometry": {"type": "LineString", "coordinates": [[-54.9994515355618, -10.241611391006662], [-54.9994507602881, -10.241875771438636]]}}, {"type": "Feature", "properties": {"layer": "CORREGO", "dxf_type": "LINE"}, "geometry": {"type": "LineString", "coordinates": [[-54.9994507602881, -10.241875771438636], [-54.99945312425574, -10.242085005584117]]}}, {"type": "Feature", "properties": {"layer": "CORREGO", "dxf_type": "LINE"}, "geometry": {"type": "LineString", "coordinates": [[-54.99945312425574, -10.242085005584117], [-54.99945324046191, -10.242204297185694]]}}, {"type": "Feature", "properties": {"layer": "CORREGO", "dxf_type": "LINE"}, "geometry": {"type": "LineString", "coordinates": [[-54.99945324046191, -10.242204297185694], [-54.99945410415331, -10.242341478430594]]}}, {"type": "Feature", "properties": {"layer": "CORREGO", "dxf_type": "LINE"}, "geometry": {"type": "LineString", "coordinates": [[-54.99945410415331, -10.242341478430594], [-54.99945437067284, -10.24251611191033]]}}, {"type": "Feature", "properties": {"layer": "CORREGO", "dxf_type": "LINE"}, "geometry": {"type": "LineString", "coordinates": [[-54.99945437067284, -10.24251611191033], [-54.99945597205116, -10.242923050380762]]}}, {"type": "Feature", "properties": {"layer": "CORREGO", "dxf_type": "LINE"}, "geometry": {"type": "LineString", "coordinates": [[-54.99945597205116, -10.242923050380762], [-54.99945692358366, -10.24310602586688]]}}, {"type": "Feature", "properties": {"layer": "CORREGO", "dxf_type": "LINE"}, "geometry": {"type": "LineString", "coordinates": [[-54.99945692358366, -10.24310602586688], [-54.999458754952116, -10.243305138196286]]}}, {"type": "Feature", "properties": {"layer": "CORREGO", "dxf_type": "LINE"}, "geometry": {"type": "LineString", "coordinates": [[-54.999458754952116, -10.243305138196286], [-54.99945246397962, -10.243428887392618]]}}, {"type": "Feature", "properties": {"layer": "CORREGO", "dxf_type": "LINE"}, "geometry": {"type": "LineString", "coordinates": [[-54.99945246397962, -10.243428887392618], [-54.99943911692565, -10.243549544236675]]}}, {"type": "Feature", "properties": {"layer": "CORREGO", "dxf_type": "LINE"}, "geometry": {"type": "LineString", "coordinates": [[-54.99943911692565, -10.243549544236675], [-54.99940972107521, -10.24372034243726]]}}, {"type": "Feature", "properties": {"layer": "CORREGO", "dxf_type": "LINE"}, "geometry": {"type": "LineString", "coordinates": [[-54.99940972107521, -10.24372034243726], [-54.99936527312542, -10.243947800887698]]}}, {"type": "Feature", "properties": {"layer": "CORREGO", "dxf_type": "LINE"}, "geometry": {"type": "LineString", "coordinates": [[-54.99936527312542, -10.243947800887698], [-54.99935036301798, -10.2440163133687]]}}, {"type": "Feature", "properties": {"layer": "CORREGO", "dxf_type": "LINE"}, "geometry": {"type": "LineString", "coordinates": [[-54.99935036301798, -10.2440163133687], [-54.99933131619726, -10.24407941662083]]}}, {"type": "Feature", "properties": {"layer": "CORREGO", "dxf_type": "LINE"}, "geometry": {"type": "LineString", "coordinates": [[-54.99933131619726, -10.24407941662083], [-54.99928154152245, -10.24418547779466]]}}, {"type": "Feature", "properties": {"layer": "CORREGO", "dxf_type": "LINE"}, "geometry": {"type": "LineString", "coordinates": [[-54.99928154152245, -10.24418547779466], [-54.99919130040705, -10.244338869778872]]}}]}