{"type": "FeatureCollection", "name": "cotas", "crs": {"type": "name", "properties": {"name": "urn:ogc:def:crs:OGC:1.3:CRS84"}}, "properties": {"source": "8be78050_MAPA TRIBUTAÇÃO 2021 (1).dxf", "assumed_crs": "EPSG:4326", "local_crs": false, "note": "Coordenadas locais do desenho (sem CRS). Use base 'Só CAD' no mapa.", "extent": [4300.4554, 2373.7696, 8215.3349, 6186.7838], "georef": true, "transform": {"scale": 1, "rotation_deg": 0, "tx": 713717.6034368816, "ty": 8862616.121289995, "rmse_m": 0, "epsg": 31981}, "layer": "COTAS", "source_file": "8be78050_MAPA TRIBUTAÇÃO 2021 (1)_georef.geojson", "n_features": 203}, "features": [{"type": "Feature", "properties": {"layer": "COTAS", "dxf_type": "LINE"}, "geometry": {"type": "LineString", "coordinates": [[-54.99365991035765, -10.234555919229775], [-54.9933778675384, -10.234785442201344]]}}, {"type": "Feature", "properties": {"layer": "COTAS", "dxf_type": "LINE"}, "geometry": {"type": "LineString", "coordinates": [[-54.9933778675384, -10.234785442201344], [-54.993609589399405, -10.235064808802859]]}}, {"type": "Feature", "properties": {"layer": "COTAS", "dxf_type": "LINE"}, "geometry": {"type": "LineString", "coordinates": [[-54.993609589399405, -10.235064808802859], [-54.99417367587635, -10.234605762176423]]}}, {"type": "Feature", "properties": {"layer": "COTAS", "dxf_type": "LINE"}, "geometry": {"type": "LineString", "coordinates": [[-54.99417367587635, -10.234605762176423], [-54.99289920646229, -10.233069244904666]]}}, {"type": "Feature", "properties": {"layer": "COTAS", "dxf_type": "LINE"}, "geometry": {"type": "LineString", "coordinates": [[-54.99289920646229, -10.233069244904666], [-54.99261716383273, -10.233298767376317]]}}, {"type": "Feature", "properties": {"layer": "COTAS", "dxf_type": "LINE"}, "geometry": {"type": "LineString", "coordinates": [[-54.99261716383273, -10.233298767376317], [-54.99365991035765, -10.234555919229775]]}}, {"type": "Feature", "properties": {"layer": "COTAS", "dxf_type": "LINE"}, "geometry": {"type": "LineString", "coordinates": [[-54.99272541571865, -10.23285971984973], [-54.99168267861662, -10.231602566638054]]}}, {"type": "Feature", "properties": {"layer": "COTAS", "dxf_type": "LINE"}, "geometry": {"type": "LineString", "coordinates": [[-54.99168267861662, -10.231602566638054], [-54.9915698613918, -10.231694376003258]]}}, {"type": "Feature", "properties": {"layer": "COTAS", "dxf_type": "LINE"}, "geometry": {"type": "LineString", "coordinates": [[-54.9915698613918, -10.231694376003258], [-54.991338143474074, -10.231415008699745]]}}, {"type": "Feature", "properties": {"layer": "COTAS", "dxf_type": "LINE"}, "geometry": {"type": "LineString", "coordinates": [[-54.991338143474074, -10.231415008699745], [-54.99099969436382, -10.231690434474213]]}}, {"type": "Feature", "properties": {"layer": "COTAS", "dxf_type": "LINE"}, "geometry": {"type": "LineString", "coordinates": [[-54.99099969436382, -10.231690434474213], [-54.99123141209166, -10.231969801996089]]}}, {"type": "Feature", "properties": {"layer": "COTAS", "dxf_type": "LINE"}, "geometry": {"type": "LineString", "coordinates": [[-54.99123141209166, -10.231969801996089], [-54.991118595535276, -10.232061610255117]]}}, {"type": "Feature", "properties": {"layer": "COTAS", "dxf_type": "LINE"}, "geometry": {"type": "LineString", "coordinates": [[-54.991118595535276, -10.232061610255117], [-54.99190064724002, -10.233004476119916]]}}, {"type": "Feature", "properties": {"layer": "COTAS", "dxf_type": "LINE"}, "geometry": {"type": "LineString", "coordinates": [[-54.99190064724002, -10.233004476119916], [-54.992182689050765, -10.232774954308736]]}}, {"type": "Feature", "properties": {"layer": "COTAS", "dxf_type": "LINE"}, "geometry": {"type": "LineString", "coordinates": [[-54.992182689050765, -10.232774954308736], [-54.992443374120285, -10.233089242190504]]}}, {"type": "Feature", "properties": {"layer": "COTAS", "dxf_type": "LINE"}, "geometry": {"type": "LineString", "coordinates": [[-54.992443374120285, -10.233089242190504], [-54.99272541571865, -10.23285971984973]]}}, {"type": "Feature", "properties": {"layer": "COTAS", "dxf_type": "LINE"}, "geometry": {"type": "LineString", "coordinates": [[-54.99101282995091, -10.232147681411133], [-54.99073078813753, -10.23237720216141]]}}, {"type": "Feature", "properties": {"layer": "COTAS", "dxf_type": "LINE"}, "geometry": {"type": "LineString", "coordinates": [[-54.99073078813753, -10.23237720216141], [-54.991425943727094, -10.233215306051664]]}}, {"type": "Feature", "properties": {"layer": "COTAS", "dxf_type": "LINE"}, "geometry": {"type": "LineString", "coordinates": [[-54.991425943727094, -10.233215306051664], [-54.99170798601522, -10.23298578475542]]}}, {"type": "Feature", "properties": {"layer": "COTAS", "dxf_type": "LINE"}, "geometry": {"type": "LineString", "coordinates": [[-54.99170798601522, -10.23298578475542], [-54.99101282995091, -10.232147681411133]]}}, {"type": "Feature", "properties": {"layer": "COTAS", "dxf_type": "LINE"}, "geometry": {"type": "LineString", "coordinates": [[-54.99646957129276, -10.237943233568956], [-54.99675161563875, -10.23771370806475]]}}, {"type": "Feature", "properties": {"layer": "COTAS", "dxf_type": "LINE"}, "geometry": {"type": "LineString", "coordinates": [[-54.997186105174436, -10.238237517587343], [-54.99701230901287, -10.238027993816265]]}}, {"type": "Feature", "properties": {"layer": "COTAS", "dxf_type": "LINE"}, "geometry": {"type": "LineString", "coordinates": [[-54.99701230901287, -10.238027993816265], [-54.99673026448904, -10.238257519525375]]}}, {"type": "Feature", "properties": {"layer": "COTAS", "dxf_type": "LINE"}, "geometry": {"type": "LineString", "coordinates": [[-54.99673026448904, -10.238257519525375], [-54.996904059613826, -10.238467044331328]]}}, {"type": "Feature", "properties": {"layer": "COTAS", "dxf_type": "LINE"}, "geometry": {"type": "LineString", "coordinates": [[-54.996904059613826, -10.238467044331328], [-54.997186105174436, -10.238237517587343]]}}, {"type": "Feature", "properties": {"layer": "COTAS", "dxf_type": "LINE"}, "geometry": {"type": "LineString", "coordinates": [[-54.99104191842185, -10.232182751369184], [-54.99097742431263, -10.232176494092295]]}}, {"type": "Feature", "properties": {"layer": "COTAS", "dxf_type": "LINE"}, "geometry": {"type": "LineString", "coordinates": [[-54.99114432452412, -10.23230621534483], [-54.99085277759979, -10.232277929180471]]}}, {"type": "Feature", "properties": {"layer": "COTAS", "dxf_type": "LINE"}, "geometry": {"type": "LineString", "coordinates": [[-54.991246730696936, -10.232429680206343], [-54.99073296997036, -10.232379833382973]]}}, {"type": "Feature", "properties": {"layer": "COTAS", "dxf_type": "LINE"}, "geometry": {"type": "LineString", "coordinates": [[-54.99134913695167, -10.232553144145925], [-54.99083537598265, -10.23250329744378]]}}, {"type": "Feature", "properties": {"layer": "COTAS", "dxf_type": "LINE"}, "geometry": {"type": "LineString", "coordinates": [[-54.99145154327695, -10.23267660897135], [-54.9909377820655, -10.232626762390439]]}}, {"type": "Feature", "properties": {"layer": "COTAS", "dxf_type": "LINE"}, "geometry": {"type": "LineString", "coordinates": [[-54.99155394968416, -10.232800072874861], [-54.991040188230265, -10.232750226415185]]}}, {"type": "Feature", "properties": {"layer": "COTAS", "dxf_type": "LINE"}, "geometry": {"type": "LineString", "coordinates": [[-54.99165635525507, -10.232923536754702], [-54.99114259447127, -10.232873690421897]]}}, {"type": "Feature", "properties": {"layer": "COTAS", "dxf_type": "LINE"}, "geometry": {"type": "LineString", "coordinates": [[-54.99164618312386, -10.233036078998676], [-54.99124500078282, -10.232997155314457]]}}, {"type": "Feature", "properties": {"layer": "COTAS", "dxf_type": "LINE"}, "geometry": {"type": "LineString", "coordinates": [[-54.991521537097604, -10.233137514320333], [-54.9913474071763, -10.233120619285101]]}}, {"type": "Feature", "properties": {"layer": "COTAS", "dxf_type": "LINE"}, "geometry": {"type": "LineString", "coordinates": [[-54.99707529144562, -10.238103924267328], [-54.9969356503273, -10.23809037792308]]}}, {"type": "Feature", "properties": {"layer": "COTAS", "dxf_type": "LINE"}, "geometry": {"type": "LineString", "coordinates": [[-54.99717770170802, -10.238227387105768], [-54.99681100330392, -10.238191815187397]]}}, {"type": "Feature", "properties": {"layer": "COTAS", "dxf_type": "LINE"}, "geometry": {"type": "LineString", "coordinates": [[-54.99707168487885, -10.23833063222167], [-54.99676633916753, -10.23830101156537]]}}, {"type": "Feature", "properties": {"layer": "COTAS", "dxf_type": "LINE"}, "geometry": {"type": "LineString", "coordinates": [[-54.99694703777996, -10.238432069527127], [-54.996868749340024, -10.238424474489062]]}}, {"type": "Feature", "properties": {"layer": "COTAS", "dxf_type": "LINE"}, "geometry": {"type": "LineString", "coordinates": [[-54.99648230402453, -10.237932871675156], [-54.996459110026024, -10.237930621787465]]}}, {"type": "Feature", "properties": {"layer": "COTAS", "dxf_type": "LINE"}, "geometry": {"type": "LineString", "coordinates": [[-54.99297894723064, -10.233165382367085], [-54.99280214848856, -10.233148230290174]]}}, {"type": "Feature", "properties": {"layer": "COTAS", "dxf_type": "LINE"}, "geometry": {"type": "LineString", "coordinates": [[-54.993081354442346, -10.233288845928472], [-54.992677501786275, -10.233249665206303]]}}, {"type": "Feature", "properties": {"layer": "COTAS", "dxf_type": "LINE"}, "geometry": {"type": "LineString", "coordinates": [[-54.993183761724616, -10.233412310375698], [-54.992669998549424, -10.2333624662565]]}}, {"type": "Feature", "properties": {"layer": "COTAS", "dxf_type": "LINE"}, "geometry": {"type": "LineString", "coordinates": [[-54.993286169088805, -10.23353577390098], [-54.99277240567119, -10.23348592990307]]}}, {"type": "Feature", "properties": {"layer": "COTAS", "dxf_type": "LINE"}, "geometry": {"type": "LineString", "coordinates": [[-54.993388576523564, -10.2336592383121], [-54.99287481286351, -10.233609394435472]]}}, {"type": "Feature", "properties": {"layer": "COTAS", "dxf_type": "LINE"}, "geometry": {"type": "LineString", "coordinates": [[-54.99349098404026, -10.233782701801275], [-54.99297722013777, -10.233732858045943]]}}, {"type": "Feature", "properties": {"layer": "COTAS", "dxf_type": "LINE"}, "geometry": {"type": "LineString", "coordinates": [[-54.9935933916332, -10.233906165272401], [-54.99307962748259, -10.233856322542248]]}}, {"type": "Feature", "properties": {"layer": "COTAS", "dxf_type": "LINE"}, "geometry": {"type": "LineString", "coordinates": [[-54.9936957992967, -10.234029629629354], [-54.99318203490934, -10.233979786116619]]}}, {"type": "Feature", "properties": {"layer": "COTAS", "dxf_type": "LINE"}, "geometry": {"type": "LineString", "coordinates": [[-54.99379820704214, -10.234153093064364], [-54.99328444241234, -10.234103249672932]]}}, {"type": "Feature", "properties": {"layer": "COTAS", "dxf_type": "LINE"}, "geometry": {"type": "LineString", "coordinates": [[-54.99390061395129, -10.23427655647569], [-54.99338684998591, -10.234226714115076]]}}, {"type": "Feature", "properties": {"layer": "COTAS", "dxf_type": "LINE"}, "geometry": {"type": "LineString", "coordinates": [[-54.994003021843554, -10.234400020778468], [-54.993489257641414, -10.23435017763528]]}}, {"type": "Feature", "properties": {"layer": "COTAS", "dxf_type": "LINE"}, "geometry": {"type": "LineString", "coordinates": [[-54.99410542981776, -10.2345234841593], [-54.99359166446063, -10.234473641131801]]}}, {"type": "Feature", "properties": {"layer": "COTAS", "dxf_type": "LINE"}, "geometry": {"type": "LineString", "coordinates": [[-54.99413209507609, -10.234639600003865], [-54.99361832952315, -10.23458975698249]]}}, {"type": "Feature", "properties": {"layer": "COTAS", "dxf_type": "LINE"}, "geometry": {"type": "LineString", "coordinates": [[-54.99400744801759, -10.234741036294588], [-54.993493683274544, -10.23469119305483]]}}, {"type": "Feature", "properties": {"layer": "COTAS", "dxf_type": "LINE"}, "geometry": {"type": "LineString", "coordinates": [[-54.99388280179538, -10.234842472527497], [-54.993385122333926, -10.234794189892735]]}}, {"type": "Feature", "properties": {"layer": "COTAS", "dxf_type": "LINE"}, "geometry": {"type": "LineString", "coordinates": [[-54.99375815549691, -10.23494390869696], [-54.993487530128256, -10.23491765344396]]}}, {"type": "Feature", "properties": {"layer": "COTAS", "dxf_type": "LINE"}, "geometry": {"type": "LineString", "coordinates": [[-54.99363350821532, -10.235045343893454], [-54.99358993799884, -10.235041116977131]]}}, {"type": "Feature", "properties": {"layer": "COTAS", "dxf_type": "LINE"}, "geometry": {"type": "LineString", "coordinates": [[-54.99133975200484, -10.231416947591939], [-54.991336185115564, -10.231416601978301]]}}, {"type": "Feature", "properties": {"layer": "COTAS", "dxf_type": "LINE"}, "geometry": {"type": "LineString", "coordinates": [[-54.991442158046596, -10.231540412358273], [-54.99121153974631, -10.23151803729225]]}}, {"type": "Feature", "properties": {"layer": "COTAS", "dxf_type": "LINE"}, "geometry": {"type": "LineString", "coordinates": [[-54.991750067572085, -10.231683814613055], [-54.99160065308321, -10.231669317677143]]}}, {"type": "Feature", "properties": {"layer": "COTAS", "dxf_type": "LINE"}, "geometry": {"type": "LineString", "coordinates": [[-54.99154456417026, -10.23166387620269], [-54.99108689430084, -10.231619472542768]]}}, {"type": "Feature", "properties": {"layer": "COTAS", "dxf_type": "LINE"}, "geometry": {"type": "LineString", "coordinates": [[-54.99185247386895, -10.23180727839095], [-54.991030458346856, -10.231727525086235]]}}, {"type": "Feature", "properties": {"layer": "COTAS", "dxf_type": "LINE"}, "geometry": {"type": "LineString", "coordinates": [[-54.99195488024204, -10.231930742150807], [-54.99113286433208, -10.231850989040057]]}}, {"type": "Feature", "properties": {"layer": "COTAS", "dxf_type": "LINE"}, "geometry": {"type": "LineString", "coordinates": [[-54.992057286685686, -10.232054206796516], [-54.99122671568453, -10.231973623714337]]}}, {"type": "Feature", "properties": {"layer": "COTAS", "dxf_type": "LINE"}, "geometry": {"type": "LineString", "coordinates": [[-54.99215969321124, -10.2321776705203], [-54.99113217293271, -10.232077979985053]]}}, {"type": "Feature", "properties": {"layer": "COTAS", "dxf_type": "LINE"}, "geometry": {"type": "LineString", "coordinates": [[-54.992262099807355, -10.23230113512993], [-54.99123457813712, -10.232201443927643]]}}, {"type": "Feature", "properties": {"layer": "COTAS", "dxf_type": "LINE"}, "geometry": {"type": "LineString", "coordinates": [[-54.99236450648538, -10.232424598817637], [-54.991336984330296, -10.232324907857826]]}}, {"type": "Feature", "properties": {"layer": "COTAS", "dxf_type": "LINE"}, "geometry": {"type": "LineString", "coordinates": [[-54.992466913239646, -10.232548062487297], [-54.991439390594024, -10.232448372673877]]}}, {"type": "Feature", "properties": {"layer": "COTAS", "dxf_type": "LINE"}, "geometry": {"type": "LineString", "coordinates": [[-54.99256932006447, -10.232671527042802], [-54.991541796939664, -10.232571836567992]]}}, {"type": "Feature", "properties": {"layer": "COTAS", "dxf_type": "LINE"}, "geometry": {"type": "LineString", "coordinates": [[-54.9926717269712, -10.23279499067638], [-54.99164420336155, -10.232695300444075]]}}, {"type": "Feature", "properties": {"layer": "COTAS", "dxf_type": "LINE"}, "geometry": {"type": "LineString", "coordinates": [[-54.9926661189528, -10.232907975164471], [-54.992260371743036, -10.23286861059151]]}}, {"type": "Feature", "properties": {"layer": "COTAS", "dxf_type": "LINE"}, "geometry": {"type": "LineString", "coordinates": [[-54.99208813610891, -10.232851900307049], [-54.99174660985398, -10.232818765206003]]}}, {"type": "Feature", "properties": {"layer": "COTAS", "dxf_type": "LINE"}, "geometry": {"type": "LineString", "coordinates": [[-54.99254147232036, -10.233009410943387], [-54.99236277855982, -10.232992074310259]]}}, {"type": "Feature", "properties": {"layer": "COTAS", "dxf_type": "LINE"}, "geometry": {"type": "LineString", "coordinates": [[-54.991963490273605, -10.232953335839603], [-54.99184901642835, -10.232942229046007]]}}, {"type": "Feature", "properties": {"layer": "COTAS", "dxf_type": "LINE"}, "geometry": {"type": "LineString", "coordinates": [[-54.99911521167109, -10.244231172635988], [-54.999163194786234, -10.244137940715126]]}}, {"type": "Feature", "properties": {"layer": "COTAS", "dxf_type": "LINE"}, "geometry": {"type": "LineString", "coordinates": [[-54.999163194786234, -10.244137940715126], [-54.99923454766172, -10.24392473012155]]}}, {"type": "Feature", "properties": {"layer": "COTAS", "dxf_type": "LINE"}, "geometry": {"type": "LineString", "coordinates": [[-54.99923454766172, -10.24392473012155], [-54.99926896391652, -10.243570598231134]]}}, {"type": "Feature", "properties": {"layer": "COTAS", "dxf_type": "LINE"}, "geometry": {"type": "LineString", "coordinates": [[-54.99926896391652, -10.243570598231134], [-54.999236978160006, -10.243453568319236]]}}, {"type": "Feature", "properties": {"layer": "COTAS", "dxf_type": "LINE"}, "geometry": {"type": "LineString", "coordinates": [[-54.999236978160006, -10.243453568319236], [-54.99917719540461, -10.243456117415649]]}}, {"type": "Feature", "properties": {"layer": "COTAS", "dxf_type": "LINE"}, "geometry": {"type": "LineString", "coordinates": [[-54.99917719540461, -10.243456117415649], [-54.998854298243394, -10.243537969254927]]}}, {"type": "Feature", "properties": {"layer": "COTAS", "dxf_type": "LINE"}, "geometry": {"type": "LineString", "coordinates": [[-54.998854298243394, -10.243537969254927], [-54.99908740926747, -10.243816205277248]]}}, {"type": "Feature", "properties": {"layer": "COTAS", "dxf_type": "LINE"}, "geometry": {"type": "LineString", "coordinates": [[-54.99908740926747, -10.243816205277248], [-54.99901238355179, -10.243875859930064]]}}, {"type": "Feature", "properties": {"layer": "COTAS", "dxf_type": "LINE"}, "geometry": {"type": "LineString", "coordinates": [[-54.99901238355179, -10.243875859930064], [-54.99893734873705, -10.243941324927135]]}}, {"type": "Feature", "properties": {"layer": "COTAS", "dxf_type": "LINE"}, "geometry": {"type": "LineString", "coordinates": [[-54.99893734873705, -10.243941324927135], [-54.99892088178652, -10.243956132901868]]}}, {"type": "Feature", "properties": {"layer": "COTAS", "dxf_type": "LINE"}, "geometry": {"type": "LineString", "coordinates": [[-54.99892088178652, -10.243956132901868], [-54.99911521167109, -10.244231172635988]]}}, {"type": "Feature", "properties": {"layer": "COTAS", "dxf_type": "CIRCLE", "radius_m": 3.06}, "geometry": {"type": "Polygon", "coordinates": [[[-54.99907460556409, -10.24385094202012], [-54.99907517599085, -10.243845551816056], [-54.99907679639973, -10.24384037597609], [-54.99907940623158, -10.243835612086919], [-54.99908290303392, -10.243831443918491], [-54.999087154386714, -10.243828031554326], [-54.99909199611128, -10.243825505956968], [-54.999097242331274, -10.243823965414158], [-54.999102690999166, -10.243823467437561], [-54.999108132999304, -10.243824032434494], [-54.999113359488156, -10.243825637425573], [-54.999118169155295, -10.24382822241691], [-54.99912237737171, -10.243831686840718], [-54.99912582252687, -10.243835897729564], [-54.99912837148149, -10.243840693365701], [-54.99912992774666, -10.243845888754873], [-54.99913042959634, -10.243851285557835], [-54.99912986008304, -10.243856675767788], [-54.999128238756605, -10.24386185250641], [-54.999125629837685, -10.243866616401702], [-54.999122132122764, -10.243870784564999], [-54.99911788076959, -10.243874196929573], [-54.999113039050016, -10.243876721623323], [-54.999107792823466, -10.24387826307012], [-54.9991023441546, -10.24387876104661], [-54.99909690215359, -10.243878196049424], [-54.999091675669725, -10.243876590154049], [-54.99908686599656, -10.243874006066115], [-54.99908265778014, -10.243870541641824], [-54.99907921353793, -10.24386633075818], [-54.99907666367142, -10.243861535116134], [-54.999075108325385, -10.243856338828607], [-54.99907460556409, -10.24385094202012]]]}}, {"type": "Feature", "properties": {"layer": "COTAS", "dxf_type": "LINE"}, "geometry": {"type": "LineString", "coordinates": [[-54.99908142993096, -10.240197168280073], [-54.99925769673084, -10.240193093913037]]}}, {"type": "Feature", "properties": {"layer": "COTAS", "dxf_type": "LINE"}, "geometry": {"type": "LineString", "coordinates": [[-54.99925769673084, -10.240193093913037], [-54.99926690694251, -10.240284022075299]]}}, {"type": "Feature", "properties": {"layer": "COTAS", "dxf_type": "LINE"}, "geometry": {"type": "LineString", "coordinates": [[-54.99926690694251, -10.240284022075299], [-54.999061460953904, -10.240288043477907]]}}, {"type": "Feature", "properties": {"layer": "COTAS", "dxf_type": "LINE"}, "geometry": {"type": "LineString", "coordinates": [[-54.999061460953904, -10.240288043477907], [-54.99906012367391, -10.240214308484347]]}}, {"type": "Feature", "properties": {"layer": "COTAS", "dxf_type": "LINE"}, "geometry": {"type": "LineString", "coordinates": [[-54.99906012367391, -10.240214308484347], [-54.99908142993096, -10.240197168280073]]}}, {"type": "Feature", "properties": {"layer": "COTAS", "dxf_type": "CIRCLE", "radius_m": 3.06}, "geometry": {"type": "Polygon", "coordinates": [[[-54.99773632999049, -10.239636591511745], [-54.99773690041811, -10.239631201311564], [-54.99773852081846, -10.239626024573209], [-54.9977411306159, -10.239621261594763], [-54.997744627376086, -10.239617093434266], [-54.997748878674905, -10.239613681078847], [-54.99775372033576, -10.239611155490692], [-54.99775896648477, -10.239609614957212], [-54.99776441507711, -10.239609116989682], [-54.997769857000044, -10.239609681995079], [-54.99777508341302, -10.23961128699368], [-54.99777989300849, -10.239613871991352], [-54.99778410116023, -10.23961733642003], [-54.997787546260184, -10.239621547312117], [-54.99779009517687, -10.239626342045828], [-54.99779165140601, -10.239631538338504], [-54.997792153239786, -10.23963693513931], [-54.99779158372561, -10.239642325345361], [-54.99778996241338, -10.239647502078508], [-54.997787353523194, -10.239652265966942], [-54.99778385585044, -10.239656434122306], [-54.99777960455124, -10.239659846478135], [-54.997774762895375, -10.239662371162682], [-54.99776951673981, -10.239663912600149], [-54.9977640681465, -10.239664410567588], [-54.997758626222684, -10.23966384556192], [-54.997753399814705, -10.23966223965902], [-54.9977485902132, -10.239659655564756], [-54.99774438206146, -10.239656191135595], [-54.99774093787444, -10.23965198024871], [-54.99773838805155, -10.23964718460522], [-54.99773683273586, -10.239641988318057], [-54.99773632999049, -10.239636591511745]]]}}, {"type": "Feature", "properties": {"layer": "COTAS", "dxf_type": "LINE"}, "geometry": {"type": "LineString", "coordinates": [[-54.99773880815536, -10.2396481534855], [-54.99775974062514, -10.239632263910586]]}}, {"type": "Feature", "properties": {"layer": "COTAS", "dxf_type": "LINE"}, "geometry": {"type": "LineString", "coordinates": [[-54.99775974062514, -10.239632263910586], [-54.99778266039944, -10.239615990648428]]}}, {"type": "Feature", "properties": {"layer": "COTAS", "dxf_type": "LINE"}, "geometry": {"type": "LineString", "coordinates": [[-54.99775974062514, -10.239632263910586], [-54.99774605096624, -10.23961579422011]]}}, {"type": "Feature", "properties": {"layer": "COTAS", "dxf_type": "CIRCLE", "radius_m": 3.06}, "geometry": {"type": "Polygon", "coordinates": [[[-54.99828421868516, -10.241124114304464], [-54.99828478819867, -10.241118724096914], [-54.99828640951544, -10.241113547361632], [-54.998289018415115, -10.241108783470446], [-54.99829251610191, -10.241104615311764], [-54.99829676741917, -10.241101202952121], [-54.998301609096465, -10.241098678263366], [-54.998306855276056, -10.241097136821423], [-54.99831230388953, -10.241096639753295], [-54.99831774584575, -10.24109720385058], [-54.998322972280455, -10.24109880974927], [-54.99832778190772, -10.24110139383982], [-54.99833199008329, -10.241104858265954], [-54.99833543429131, -10.241109069150678], [-54.99833798413153, -10.241113864793], [-54.99833953946012, -10.241119061080061], [-54.998340042213364, -10.24112445788738], [-54.998339471788185, -10.241129848089564], [-54.99833785138466, -10.24113502483087], [-54.99833524157278, -10.241139788716922], [-54.99833174480421, -10.241143955977822], [-54.998327493486585, -10.241147368337877], [-54.99832265180294, -10.241149893930794], [-54.998317405628114, -10.24115143446895], [-54.99831195700802, -10.241151932440873], [-54.998306515056576, -10.241151367439432], [-54.99830128861553, -10.241149762444223], [-54.99829647899357, -10.241147177449305], [-54.998292270818006, -10.241143713022682], [-54.998288825692114, -10.241139503035816], [-54.99828627676515, -10.241134707398835], [-54.99828472052489, -10.241129511106056], [-54.99828421868516, -10.241124114304464]]]}}, {"type": "Feature", "properties": {"layer": "COTAS", "dxf_type": "LINE"}, "geometry": {"type": "LineString", "coordinates": [[-54.99751121194672, -10.241718573602256], [-54.99773006738702, -10.241564801571666]]}}, {"type": "Feature", "properties": {"layer": "COTAS", "dxf_type": "LINE"}, "geometry": {"type": "LineString", "coordinates": [[-54.99773006738702, -10.241564801571666], [-54.99771993966911, -10.24155136747777]]}}, {"type": "Feature", "properties": {"layer": "COTAS", "dxf_type": "LINE"}, "geometry": {"type": "LineString", "coordinates": [[-54.99767774388589, -10.24149476342472], [-54.997595831712644, -10.24155128037578]]}}, {"type": "Feature", "properties": {"layer": "COTAS", "dxf_type": "LINE"}, "geometry": {"type": "LineString", "coordinates": [[-54.99928512622122, -10.240463900280867], [-54.99906473898439, -10.240468800568419]]}}, {"type": "Feature", "properties": {"layer": "COTAS", "dxf_type": "LINE"}, "geometry": {"type": "LineString", "coordinates": [[-54.99906473901273, -10.24046879604898], [-54.99906309998533, -10.240378419763585]]}}, {"type": "Feature", "properties": {"layer": "COTAS", "dxf_type": "LINE"}, "geometry": {"type": "LineString", "coordinates": [[-54.99928512622122, -10.240463900280867], [-54.99927601657888, -10.240373961629892]]}}, {"type": "Feature", "properties": {"layer": "COTAS", "dxf_type": "LINE"}, "geometry": {"type": "LineString", "coordinates": [[-54.99927601657888, -10.240373961629892], [-54.99906309998533, -10.240378419763585]]}}, {"type": "Feature", "properties": {"layer": "COTAS", "dxf_type": "LINE"}, "geometry": {"type": "LineString", "coordinates": [[-54.99926690694251, -10.240284022075299], [-54.99926690694251, -10.240284022075299]]}}, {"type": "Feature", "properties": {"layer": "COTAS", "dxf_type": "LINE"}, "geometry": {"type": "LineString", "coordinates": [[-54.99928512622122, -10.240463900280867], [-54.99929423677073, -10.240553839841592]]}}, {"type": "Feature", "properties": {"layer": "COTAS", "dxf_type": "LINE"}, "geometry": {"type": "LineString", "coordinates": [[-54.99929423677073, -10.240553839841592], [-54.99929423677073, -10.240553839841592]]}}, {"type": "Feature", "properties": {"layer": "COTAS", "dxf_type": "LINE"}, "geometry": {"type": "LineString", "coordinates": [[-54.99929423677073, -10.240553839841592], [-54.999066378002105, -10.2405591777574]]}}, {"type": "Feature", "properties": {"layer": "COTAS", "dxf_type": "LINE"}, "geometry": {"type": "LineString", "coordinates": [[-54.999066378002105, -10.2405591777574], [-54.99906473898439, -10.240468800568419]]}}, {"type": "Feature", "properties": {"layer": "COTAS", "dxf_type": "LINE"}, "geometry": {"type": "LineString", "coordinates": [[-54.99906473898439, -10.240468800568419], [-54.99928512622122, -10.240463900280867]]}}, {"type": "Feature", "properties": {"layer": "COTAS", "dxf_type": "LINE"}, "geometry": {"type": "LineString", "coordinates": [[-54.99928512622122, -10.240463900280867], [-54.99929423677073, -10.240553839841592]]}}, {"type": "Feature", "properties": {"layer": "COTAS", "dxf_type": "LINE"}, "geometry": {"type": "LineString", "coordinates": [[-54.99929423677073, -10.240553839841592], [-54.999066378002105, -10.2405591777574]]}}, {"type": "Feature", "properties": {"layer": "COTAS", "dxf_type": "LINE"}, "geometry": {"type": "LineString", "coordinates": [[-54.999066378002105, -10.2405591777574], [-54.99906473898439, -10.240468800568419]]}}, {"type": "Feature", "properties": {"layer": "COTAS", "dxf_type": "LINE"}, "geometry": {"type": "LineString", "coordinates": [[-54.99906473898439, -10.240468800568419], [-54.99928512622122, -10.240463900280867]]}}, {"type": "Feature", "properties": {"layer": "COTAS", "dxf_type": "LINE"}, "geometry": {"type": "LineString", "coordinates": [[-54.99927601657888, -10.240373961629892], [-54.99928512622122, -10.240463900280867]]}}, {"type": "Feature", "properties": {"layer": "COTAS", "dxf_type": "LINE"}, "geometry": {"type": "LineString", "coordinates": [[-54.99928512622122, -10.240463900280867], [-54.99906473898439, -10.240468800568419]]}}, {"type": "Feature", "properties": {"layer": "COTAS", "dxf_type": "LINE"}, "geometry": {"type": "LineString", "coordinates": [[-54.99906473898439, -10.240468800568419], [-54.99906309998533, -10.240378419763585]]}}, {"type": "Feature", "properties": {"layer": "COTAS", "dxf_type": "LINE"}, "geometry": {"type": "LineString", "coordinates": [[-54.99906309998533, -10.240378419763585], [-54.99927601657888, -10.240373961629892]]}}, {"type": "Feature", "properties": {"layer": "COTAS", "dxf_type": "LINE"}, "geometry": {"type": "LineString", "coordinates": [[-54.99908142993096, -10.240197168280073], [-54.99925769673084, -10.240193093913037]]}}, {"type": "Feature", "properties": {"layer": "COTAS", "dxf_type": "LINE"}, "geometry": {"type": "LineString", "coordinates": [[-54.99908142993096, -10.240197168280073], [-54.999180296831746, -10.240117634562475]]}}, {"type": "Feature", "properties": {"layer": "COTAS", "dxf_type": "LINE"}, "geometry": {"type": "LineString", "coordinates": [[-54.999180296831746, -10.240117634562475], [-54.999224674944756, -10.240107846876864]]}}, {"type": "Feature", "properties": {"layer": "COTAS", "dxf_type": "LINE"}, "geometry": {"type": "LineString", "coordinates": [[-54.999224674944756, -10.240107846876864], [-54.99925389306988, -10.240155533252242]]}}, {"type": "Feature", "properties": {"layer": "COTAS", "dxf_type": "LINE"}, "geometry": {"type": "LineString", "coordinates": [[-54.99925389306988, -10.240155533252242], [-54.99925769673084, -10.240193093913037]]}}, {"type": "Feature", "properties": {"layer": "COTAS", "dxf_type": "LINE"}, "geometry": {"type": "LineString", "coordinates": [[-54.99925769673084, -10.240193093913037], [-54.99908142993096, -10.240197168280073]]}}, {"type": "Feature", "properties": {"layer": "COTAS", "dxf_type": "LINE"}, "geometry": {"type": "LineString", "coordinates": [[-54.99828878953536, -10.241139447673937], [-54.9983139451814, -10.241120136505488]]}}, {"type": "Feature", "properties": {"layer": "COTAS", "dxf_type": "LINE"}, "geometry": {"type": "LineString", "coordinates": [[-54.9983139451814, -10.241120136505488], [-54.998333466657186, -10.241106460971434]]}}, {"type": "Feature", "properties": {"layer": "COTAS", "dxf_type": "LINE"}, "geometry": {"type": "LineString", "coordinates": [[-54.99833189631904, -10.241143806859016], [-54.9983139451814, -10.241120136505488]]}}, {"type": "Feature", "properties": {"layer": "COTAS", "dxf_type": "LINE"}, "geometry": {"type": "LineString", "coordinates": [[-54.9983139451814, -10.241120136505488], [-54.998297610331775, -10.241100673921189]]}}, {"type": "Feature", "properties": {"layer": "COTAS", "dxf_type": "CIRCLE", "radius_m": 3.55}, "geometry": {"type": "Polygon", "coordinates": [[[-54.99899059388083, -10.238570515857472], [-54.99899125456255, -10.238564262958095], [-54.998993134741625, -10.238558258003978], [-54.99899616178756, -10.238552731952918], [-54.999000219386, -10.238547896511582], [-54.99900515122868, -10.238543937830743], [-54.9990107674467, -10.238541009313515], [-54.99901685289152, -10.238539220819133], [-54.999023173488894, -10.238538644125622], [-54.99902948636768, -10.238539298529298], [-54.99903554891742, -10.238541161747612], [-54.999041128894476, -10.238544159134179], [-54.99904601071927, -10.238548178180308], [-54.99905000646101, -10.238553063158994], [-54.999052963982734, -10.238558626022158], [-54.99905476872104, -10.238564653642953], [-54.99905535185953, -10.238570914193488], [-54.999054690266455, -10.238577167087598], [-54.99905281008828, -10.238583172042263], [-54.99904978303717, -10.238588698997878], [-54.999045726351284, -10.238593534445481], [-54.99904079451377, -10.238597492222969], [-54.999035177376605, -10.238600421638845], [-54.999029091936244, -10.238602209229489], [-54.999022771331916, -10.238602786826764], [-54.9990164584576, -10.238602131518835], [-54.99901039590129, -10.238600269203845], [-54.999004816841975, -10.238597270918353], [-54.99899993501152, -10.238593252775482], [-54.99899593835771, -10.238588367790628], [-54.99899298084258, -10.238582804023183], [-54.99899117610547, -10.238576776402255], [-54.99899059388083, -10.238570515857472]]]}}, {"type": "Feature", "properties": {"layer": "COTAS", "dxf_type": "LINE"}, "geometry": {"type": "LineString", "coordinates": [[-54.99917176034399, -10.239863806224774], [-54.99916204283891, -10.239947083742745]]}}, {"type": "Feature", "properties": {"layer": "COTAS", "dxf_type": "LINE"}, "geometry": {"type": "LineString", "coordinates": [[-54.99916204283891, -10.239947083742745], [-54.999139104531885, -10.23999455232523]]}}, {"type": "Feature", "properties": {"layer": "COTAS", "dxf_type": "LINE"}, "geometry": {"type": "LineString", "coordinates": [[-54.999139104531885, -10.23999455232523], [-54.99909131808202, -10.240049279319699]]}}, {"type": "Feature", "properties": {"layer": "COTAS", "dxf_type": "LINE"}, "geometry": {"type": "LineString", "coordinates": [[-54.99909131808202, -10.240049279319699], [-54.999023034548735, -10.239915405691841]]}}, {"type": "Feature", "properties": {"layer": "COTAS", "dxf_type": "LINE"}, "geometry": {"type": "LineString", "coordinates": [[-54.999023034548735, -10.239915405691841], [-54.99917025752682, -10.239854890614744]]}}, {"type": "Feature", "properties": {"layer": "COTAS", "dxf_type": "LINE"}, "geometry": {"type": "LineString", "coordinates": [[-54.99917025752682, -10.239854890614744], [-54.99917176034399, -10.239863806224774]]}}, {"type": "Feature", "properties": {"layer": "COTAS", "dxf_type": "LINE"}, "geometry": {"type": "LineString", "coordinates": [[-54.99917025752682, -10.239854890614744], [-54.999023034548735, -10.239915405691841]]}}, {"type": "Feature", "properties": {"layer": "COTAS", "dxf_type": "LINE"}, "geometry": {"type": "LineString", "coordinates": [[-54.999023034548735, -10.239915405691841], [-54.99897806245295, -10.239827234152326]]}}, {"type": "Feature", "properties": {"layer": "COTAS", "dxf_type": "LINE"}, "geometry": {"type": "LineString", "coordinates": [[-54.99897806245295, -10.239827234152326], [-54.999156641631814, -10.239774681205114]]}}, {"type": "Feature", "properties": {"layer": "COTAS", "dxf_type": "LINE"}, "geometry": {"type": "LineString", "coordinates": [[-54.999156641631814, -10.239774681205114], [-54.99917025752682, -10.239854890614744]]}}, {"type": "Feature", "properties": {"layer": "COTAS", "dxf_type": "LINE"}, "geometry": {"type": "LineString", "coordinates": [[-54.99911793725984, -10.239552746660753], [-54.999116564969654, -10.239544991588595]]}}, {"type": "Feature", "properties": {"layer": "COTAS", "dxf_type": "LINE"}, "geometry": {"type": "LineString", "coordinates": [[-54.999116564969654, -10.239544991588595], [-54.99909129334137, -10.239513548602309]]}}, {"type": "Feature", "properties": {"layer": "COTAS", "dxf_type": "LINE"}, "geometry": {"type": "LineString", "coordinates": [[-54.99909129334137, -10.239513548602309], [-54.99903038011818, -10.239500460196394]]}}, {"type": "Feature", "properties": {"layer": "COTAS", "dxf_type": "LINE"}, "geometry": {"type": "LineString", "coordinates": [[-54.99903038011818, -10.239500460196394], [-54.99887646284009, -10.239564265916187]]}}, {"type": "Feature", "properties": {"layer": "COTAS", "dxf_type": "LINE"}, "geometry": {"type": "LineString", "coordinates": [[-54.99887646284009, -10.239564265916187], [-54.99889919857204, -10.23962492350882]]}}, {"type": "Feature", "properties": {"layer": "COTAS", "dxf_type": "LINE"}, "geometry": {"type": "LineString", "coordinates": [[-54.99889919857204, -10.23962492350882], [-54.99911793725984, -10.239552746660753]]}}, {"type": "Feature", "properties": {"layer": "COTAS", "dxf_type": "LINE"}, "geometry": {"type": "LineString", "coordinates": [[-54.99714777965453, -10.240994576418641], [-54.997073222330116, -10.240896535148757]]}}, {"type": "Feature", "properties": {"layer": "COTAS", "dxf_type": "CIRCLE", "radius_m": 3.06}, "geometry": {"type": "Polygon", "coordinates": [[[-54.998154184183704, -10.240356752309896], [-54.99815475369549, -10.240351362102496], [-54.99815637500793, -10.240346185367294], [-54.99815898390086, -10.240341421476122], [-54.99816248157873, -10.24033725331738], [-54.99816673288523, -10.240333840957609], [-54.99817157455035, -10.240331316268668], [-54.99817682071683, -10.240329774826485], [-54.9981822693224, -10.240329276854176], [-54.99818771125947, -10.240329841855026], [-54.998192937681274, -10.240331447753366], [-54.99819774638417, -10.240334031837945], [-54.99820195454949, -10.24033749626373], [-54.99820539966177, -10.24034170715374], [-54.99820794949592, -10.240346502795758], [-54.99820950482095, -10.240351699082563], [-54.99821000757326, -10.24035709588967], [-54.9982094371498, -10.24036248609171], [-54.99820781675059, -10.240367662832934], [-54.99820520695114, -10.240372425815087], [-54.99820170927326, -10.240376593974313], [-54.99819745796639, -10.240380006334496], [-54.99819261720748, -10.240382531933216], [-54.99818737104578, -10.240384072471615], [-54.99818192243925, -10.240384570443831], [-54.99817648050129, -10.240384005442714], [-54.998171254073135, -10.24038240044785], [-54.99816644446298, -10.240379815453288], [-54.99816223629767, -10.240376351027015], [-54.998158791185766, -10.240372140136595], [-54.998156242259185, -10.240367345403802], [-54.998154686022495, -10.240362149111284], [-54.998154184183704, -10.240356752309896]]]}}, {"type": "Feature", "properties": {"layer": "COTAS", "dxf_type": "LINE"}, "geometry": {"type": "LineString", "coordinates": [[-54.999116564969654, -10.239544991588595], [-54.99909129334137, -10.239513548602309]]}}, {"type": "Feature", "properties": {"layer": "COTAS", "dxf_type": "LINE"}, "geometry": {"type": "LineString", "coordinates": [[-54.99909129334137, -10.239513548602309], [-54.99903038011818, -10.239500460196394]]}}, {"type": "Feature", "properties": {"layer": "COTAS", "dxf_type": "LINE"}, "geometry": {"type": "LineString", "coordinates": [[-54.998907526336595, -10.239647140769405], [-54.99893858892744, -10.239730016520575]]}}, {"type": "Feature", "properties": {"layer": "COTAS", "dxf_type": "LINE"}, "geometry": {"type": "LineString", "coordinates": [[-54.999156641631814, -10.239774681205114], [-54.99897806245295, -10.239827234152326]]}}, {"type": "Feature", "properties": {"layer": "COTAS", "dxf_type": "LINE"}, "geometry": {"type": "LineString", "coordinates": [[-54.99897806245295, -10.239827234152326], [-54.99896661952427, -10.239804798864139]]}}, {"type": "Feature", "properties": {"layer": "COTAS", "dxf_type": "LINE"}, "geometry": {"type": "LineString", "coordinates": [[-54.99896661952427, -10.239804798864139], [-54.99894846143923, -10.239756354331336]]}}, {"type": "Feature", "properties": {"layer": "COTAS", "dxf_type": "LINE"}, "geometry": {"type": "LineString", "coordinates": [[-54.99894846143923, -10.239756354331336], [-54.99914306773499, -10.239694760406]]}}, {"type": "Feature", "properties": {"layer": "COTAS", "dxf_type": "LINE"}, "geometry": {"type": "LineString", "coordinates": [[-54.99914306773499, -10.239694760406], [-54.99915664071925, -10.239774681199501]]}}, {"type": "Feature", "properties": {"layer": "COTAS", "dxf_type": "LINE"}, "geometry": {"type": "LineString", "coordinates": [[-54.99914306773499, -10.239694760406], [-54.99894846143923, -10.239756354331336]]}}, {"type": "Feature", "properties": {"layer": "COTAS", "dxf_type": "LINE"}, "geometry": {"type": "LineString", "coordinates": [[-54.99894846143923, -10.239756354331336], [-54.998922219738894, -10.239686343057468]]}}, {"type": "Feature", "properties": {"layer": "COTAS", "dxf_type": "LINE"}, "geometry": {"type": "LineString", "coordinates": [[-54.998922219738894, -10.239686343057468], [-54.99913056111008, -10.239624084278104]]}}, {"type": "Feature", "properties": {"layer": "COTAS", "dxf_type": "LINE"}, "geometry": {"type": "LineString", "coordinates": [[-54.99913056111008, -10.239624084278104], [-54.99914306773499, -10.239694760406]]}}, {"type": "Feature", "properties": {"layer": "COTAS", "dxf_type": "LINE"}, "geometry": {"type": "LineString", "coordinates": [[-54.99913056111008, -10.239624084278104], [-54.99911793725984, -10.239552746660753]]}}, {"type": "Feature", "properties": {"layer": "COTAS", "dxf_type": "LINE"}, "geometry": {"type": "LineString", "coordinates": [[-54.99911793725984, -10.239552746660753], [-54.99889919857204, -10.23962492350882]]}}, {"type": "Feature", "properties": {"layer": "COTAS", "dxf_type": "LINE"}, "geometry": {"type": "LineString", "coordinates": [[-54.99889919857204, -10.23962492350882], [-54.998922219738894, -10.239686343057468]]}}, {"type": "Feature", "properties": {"layer": "COTAS", "dxf_type": "LINE"}, "geometry": {"type": "LineString", "coordinates": [[-54.998922219738894, -10.239686343057468], [-54.99913056111008, -10.239624084278104]]}}, {"type": "Feature", "properties": {"layer": "COTAS", "dxf_type": "LINE"}, "geometry": {"type": "LineString", "coordinates": [[-54.99818760575148, -10.240358297627829], [-54.9982001186979, -10.24037803498232]]}}, {"type": "Feature", "properties": {"layer": "COTAS", "dxf_type": "LINE"}, "geometry": {"type": "LineString", "coordinates": [[-54.998162229042514, -10.240376343750967], [-54.99818760575148, -10.240358297627829]]}}, {"type": "Feature", "properties": {"layer": "COTAS", "dxf_type": "LINE"}, "geometry": {"type": "LineString", "coordinates": [[-54.99818760575148, -10.240358297627829], [-54.9981700106116, -10.240332002664225]]}}, {"type": "Feature", "properties": {"layer": "COTAS", "dxf_type": "LINE"}, "geometry": {"type": "LineString", "coordinates": [[-54.99818760575148, -10.240358297627829], [-54.99820703661929, -10.240344510352974]]}}, {"type": "Feature", "properties": {"layer": "COTAS", "dxf_type": "CIRCLE", "radius_m": 3.06}, "geometry": {"type": "Polygon", "coordinates": [[[-54.99857790626781, -10.24157825161363], [-54.998578475778736, -10.241572861404936], [-54.99858009709475, -10.241567684667844], [-54.99858270599553, -10.241562920774296], [-54.99858620368523, -10.241558752612779], [-54.998590455007076, -10.241555340249933], [-54.99859529669049, -10.241552815557752], [-54.998600542877476, -10.24155127411224], [-54.998605991505, -10.241550776136696], [-54.998611433464625, -10.241551341134503], [-54.99861665990872, -10.241552947030133], [-54.99862146954534, -10.241555531118], [-54.99862567772988, -10.241558995541984], [-54.99862912194614, -10.241563206425154], [-54.99863167179353, -10.241568002066568], [-54.99863322712796, -10.241573198353436], [-54.998633729885505, -10.241578595161219], [-54.99863315946289, -10.241583985364565], [-54.998631539065784, -10.241589161203779], [-54.9986289292528, -10.24159392509219], [-54.99862543247567, -10.241598093259809], [-54.998621181153446, -10.241601505623066], [-54.998616339463695, -10.24160403121943], [-54.99861109328148, -10.241605571761154], [-54.99860564465299, -10.241606069736589], [-54.99860020269248, -10.241605504738528], [-54.99859497624204, -10.24160389974638], [-54.998590166610725, -10.241601314754124], [-54.99858595842619, -10.241597850329654], [-54.99858251329774, -10.24159363944046], [-54.9985799643636, -10.241588843804381], [-54.99857840811182, -10.241583648415705], [-54.99857790626781, -10.24157825161363]]]}}, {"type": "Feature", "properties": {"layer": "COTAS", "dxf_type": "LINE"}, "geometry": {"type": "LineString", "coordinates": [[-54.99862573644086, -10.241597791412017], [-54.998607692556554, -10.241574350996453]]}}, {"type": "Feature", "properties": {"layer": "COTAS", "dxf_type": "LINE"}, "geometry": {"type": "LineString", "coordinates": [[-54.998607692556554, -10.241574350996453], [-54.998592831932434, -10.241553950180325]]}}, {"type": "Feature", "properties": {"layer": "COTAS", "dxf_type": "LINE"}, "geometry": {"type": "LineString", "coordinates": [[-54.99858277824207, -10.241594029758259], [-54.998607692556554, -10.241574350996453]]}}, {"type": "Feature", "properties": {"layer": "COTAS", "dxf_type": "CIRCLE", "radius_m": 3.06}, "geometry": {"type": "Polygon", "coordinates": [[[-54.9985217305642, -10.24201750211622], [-54.99852230099085, -10.24201211191371], [-54.998523921398764, -10.242006935172018], [-54.99852653121773, -10.242002171285485], [-54.998530028001404, -10.241998003120129], [-54.99853427933048, -10.241994590759328], [-54.99853912102151, -10.241992066069379], [-54.99854436721623, -10.241990524626239], [-54.998549815845635, -10.24199002755699], [-54.998555257818, -10.241990591653224], [-54.99856048426841, -10.241992197551028], [-54.99856529391035, -10.24199478164085], [-54.998569502099016, -10.241998246066455], [-54.99857294723061, -10.24200245695647], [-54.99857549616674, -10.242007252593114], [-54.99857705241353, -10.242012448885948], [-54.9985775542568, -10.242017845688016], [-54.99857698474359, -10.242023235896413], [-54.99857536342379, -10.242028412632909], [-54.99857275451776, -10.242033176525524], [-54.99856925682151, -10.242037344685764], [-54.99856500549774, -10.242040756143075], [-54.99856016380035, -10.242043281737187], [-54.998554917610406, -10.242044822276544], [-54.99854946897437, -10.2420453202496], [-54.998544027006794, -10.242044755249198], [-54.99853880055004, -10.242043150254869], [-54.998533990913394, -10.242040565260682], [-54.99852978271907, -10.242037101738495], [-54.99852633850042, -10.242032890853666], [-54.9985237886524, -10.242028095211147], [-54.99852223331907, -10.242022898923812], [-54.9985217305642, -10.24201750211622]]]}}, {"type": "Feature", "properties": {"layer": "COTAS", "dxf_type": "LINE"}, "geometry": {"type": "LineString", "coordinates": [[-54.998525600251845, -10.242031719344363], [-54.99855116595738, -10.242013826237203]]}}, {"type": "Feature", "properties": {"layer": "COTAS", "dxf_type": "LINE"}, "geometry": {"type": "LineString", "coordinates": [[-54.99855116595738, -10.242013826237203], [-54.99853661139064, -10.241993224820602]]}}, {"type": "Feature", "properties": {"layer": "COTAS", "dxf_type": "LINE"}, "geometry": {"type": "LineString", "coordinates": [[-54.99855116595738, -10.242013826237203], [-54.99857153388085, -10.242000521996331]]}}, {"type": "Feature", "properties": {"layer": "COTAS", "dxf_type": "LINE"}, "geometry": {"type": "LineString", "coordinates": [[-54.99856752405232, -10.242038902329192], [-54.99855116595738, -10.242013826237203]]}}, {"type": "Feature", "properties": {"layer": "COTAS", "dxf_type": "LINE"}, "geometry": {"type": "LineString", "coordinates": [[-54.99888041244526, -10.242791960657591], [-54.99888402334541, -10.24282314023367]]}}, {"type": "Feature", "properties": {"layer": "COTAS", "dxf_type": "LINE"}, "geometry": {"type": "LineString", "coordinates": [[-54.99888402334541, -10.24282314023367], [-54.99890501607015, -10.243004412167277]]}}, {"type": "Feature", "properties": {"layer": "COTAS", "dxf_type": "LINE"}, "geometry": {"type": "LineString", "coordinates": [[-54.99890501607015, -10.243004412167277], [-54.99901483020774, -10.242992908479554]]}}, {"type": "Feature", "properties": {"layer": "COTAS", "dxf_type": "LINE"}, "geometry": {"type": "LineString", "coordinates": [[-54.99901483020774, -10.242992908479554], [-54.99910824274993, -10.242992496215336]]}}, {"type": "Feature", "properties": {"layer": "COTAS", "dxf_type": "LINE"}, "geometry": {"type": "LineString", "coordinates": [[-54.99910824274993, -10.242992496215336], [-54.99912511807864, -10.243349938409747]]}}, {"type": "Feature", "properties": {"layer": "COTAS", "dxf_type": "LINE"}, "geometry": {"type": "LineString", "coordinates": [[-54.99912511807864, -10.243349938409747], [-54.999262235573795, -10.243292486270262]]}}, {"type": "Feature", "properties": {"layer": "COTAS", "dxf_type": "LINE"}, "geometry": {"type": "LineString", "coordinates": [[-54.999262235573795, -10.243292486270262], [-54.99912511807864, -10.243349938409747]]}}, {"type": "Feature", "properties": {"layer": "COTAS", "dxf_type": "LINE"}, "geometry": {"type": "LineString", "coordinates": [[-54.99912511807864, -10.243349938409747], [-54.999262235573795, -10.243292486270262]]}}, {"type": "Feature", "properties": {"layer": "COTAS", "dxf_type": "LINE"}, "geometry": {"type": "LineString", "coordinates": [[-54.999262235573795, -10.243292486270262], [-54.99930185992481, -10.243268946029477]]}}, {"type": "Feature", "properties": {"layer": "COTAS", "dxf_type": "LINE"}, "geometry": {"type": "LineString", "coordinates": [[-54.99930185992481, -10.243268946029477], [-54.99933039598327, -10.243182704652844]]}}, {"type": "Feature", "properties": {"layer": "COTAS", "dxf_type": "LINE"}, "geometry": {"type": "LineString", "coordinates": [[-54.99933039598327, -10.243182704652844], [-54.999326573705126, -10.242799605303494]]}}, {"type": "Feature", "properties": {"layer": "COTAS", "dxf_type": "LINE"}, "geometry": {"type": "LineString", "coordinates": [[-54.999326573705126, -10.242799605303494], [-54.999324555359316, -10.242597278382702]]}}, {"type": "Feature", "properties": {"layer": "COTAS", "dxf_type": "LINE"}, "geometry": {"type": "LineString", "coordinates": [[-54.999324555359316, -10.242597278382702], [-54.99910352021582, -10.24265329767319]]}}, {"type": "Feature", "properties": {"layer": "COTAS", "dxf_type": "LINE"}, "geometry": {"type": "LineString", "coordinates": [[-54.99910352021582, -10.24265329767319], [-54.99910261873401, -10.242562911470051]]}}, {"type": "Feature", "properties": {"layer": "COTAS", "dxf_type": "LINE"}, "geometry": {"type": "LineString", "coordinates": [[-54.99910261873401, -10.242562911470051], [-54.99910172182762, -10.242472522582933]]}}, {"type": "Feature", "properties": {"layer": "COTAS", "dxf_type": "LINE"}, "geometry": {"type": "LineString", "coordinates": [[-54.99910172182762, -10.242472522582933], [-54.998976786381256, -10.242504187509894]]}}, {"type": "Feature", "properties": {"layer": "COTAS", "dxf_type": "LINE"}, "geometry": {"type": "LineString", "coordinates": [[-54.998976786381256, -10.242504187509894], [-54.998614958783364, -10.242696249265114]]}}, {"type": "Feature", "properties": {"layer": "COTAS", "dxf_type": "LINE"}, "geometry": {"type": "LineString", "coordinates": [[-54.998614958783364, -10.242696249265114], [-54.9986537442032, -10.242782715984452]]}}, {"type": "Feature", "properties": {"layer": "COTAS", "dxf_type": "LINE"}, "geometry": {"type": "LineString", "coordinates": [[-54.9986537442032, -10.242782715984452], [-54.99867958194829, -10.242840319367296]]}}, {"type": "Feature", "properties": {"layer": "COTAS", "dxf_type": "LINE"}, "geometry": {"type": "LineString", "coordinates": [[-54.99867958194829, -10.242840319367296], [-54.998850797419486, -10.242799092053476]]}}, {"type": "Feature", "properties": {"layer": "COTAS", "dxf_type": "LINE"}, "geometry": {"type": "LineString", "coordinates": [[-54.998850797419486, -10.242799092053476], [-54.99888041244526, -10.242791960657591]]}}, {"type": "Feature", "properties": {"layer": "COTAS", "dxf_type": "CIRCLE", "radius_m": 3.06}, "geometry": {"type": "Polygon", "coordinates": [[[-54.998850626044046, -10.242795860374684], [-54.99885119646918, -10.242790470171043], [-54.99885281778538, -10.24278529433719], [-54.99885542669598, -10.242780530442888], [-54.99885892439911, -10.242776362280596], [-54.99886317573749, -10.242772949916944], [-54.998868017445545, -10.242770424320069], [-54.998873262734996, -10.242768883772081], [-54.99887871229673, -10.242768385801492], [-54.99888415427809, -10.242768950798707], [-54.998889379836285, -10.24277055578438], [-54.99889418948669, -10.242773140775833], [-54.9988983976884, -10.24277660519965], [-54.99890184283143, -10.242780816088407], [-54.99890439177697, -10.242785611724372], [-54.998905948036445, -10.242790807113249], [-54.998906450796625, -10.242796203921467], [-54.99890588037238, -10.242801594125376], [-54.99890425905119, -10.242806770863545], [-54.99890165014095, -10.242811534758308], [-54.99889815243781, -10.242815702921103], [-54.99889390109906, -10.242819115285164], [-54.99888905939599, -10.242821639978414], [-54.998883814099976, -10.242823181430392], [-54.998878365449855, -10.242823679406518], [-54.99887292255504, -10.242823114403404], [-54.99886769700184, -10.242821508513435], [-54.998862887345396, -10.242818924425404], [-54.998858679143694, -10.242815460001102], [-54.998855234001034, -10.242811249111913], [-54.99885268505618, -10.24280645347569], [-54.99885112880327, -10.24280125718281], [-54.998850626044046, -10.242795860374684]]]}}, {"type": "Feature", "properties": {"layer": "COTAS", "dxf_type": "LINE"}, "geometry": {"type": "LineString", "coordinates": [[-54.99932511978357, -10.24265381688963], [-54.99932511978357, -10.24265381688963]]}}, {"type": "Feature", "properties": {"layer": "COTAS", "dxf_type": "LINE"}, "geometry": {"type": "LineString", "coordinates": [[-54.99932454622227, -10.242597280134328], [-54.999324555359316, -10.242597278382702]]}}, {"type": "Feature", "properties": {"layer": "COTAS", "dxf_type": "LINE"}, "geometry": {"type": "LineString", "coordinates": [[-54.999322751347286, -10.242416505947372], [-54.99910172547791, -10.24247252260539]]}}, {"type": "Feature", "properties": {"layer": "COTAS", "dxf_type": "LINE"}, "geometry": {"type": "LineString", "coordinates": [[-54.99888402334541, -10.24282314023367], [-54.99888041244526, -10.242791960657591]]}}, {"type": "Feature", "properties": {"layer": "COTAS", "dxf_type": "LINE"}, "geometry": {"type": "LineString", "coordinates": [[-54.99885253216827, -10.242798674269366], [-54.998850797419486, -10.242799092053476]]}}, {"type": "Feature", "properties": {"layer": "COTAS", "dxf_type": "LINE"}, "geometry": {"type": "LineString", "coordinates": [[-54.998850797419486, -10.242799092053476], [-54.99888041244526, -10.242791960657591]]}}, {"type": "Feature", "properties": {"layer": "COTAS", "dxf_type": "LINE"}, "geometry": {"type": "LineString", "coordinates": [[-54.99526841813405, -10.250912721433748], [-54.99526841813405, -10.250912721433748]]}}]}