{"type": "FeatureCollection", "name": "defpoints", "crs": {"type": "name", "properties": {"name": "urn:ogc:def:crs:OGC:1.3:CRS84"}}, "properties": {"source": "8be78050_MAPA TRIBUTAÇÃO 2021 (1).dxf", "assumed_crs": "EPSG:4326", "local_crs": false, "note": "Coordenadas locais do desenho (sem CRS). Use base 'Só CAD' no mapa.", "extent": [4300.4554, 2373.7696, 8215.3349, 6186.7838], "georef": true, "transform": {"scale": 1, "rotation_deg": 0, "tx": 713717.6034368816, "ty": 8862616.121289995, "rmse_m": 0, "epsg": 31981}, "layer": "Defpoints", "source_file": "8be78050_MAPA TRIBUTAÇÃO 2021 (1)_georef.geojson", "n_features": 6}, "features": [{"type": "Feature", "properties": {"layer": "Defpoints", "dxf_type": "LWPOLYLINE"}, "geometry": {"type": "LineString", "coordinates": [[-54.98475071006471, -10.247361385953813], [-54.98535754392435, -10.24686041252228]]}}, {"type": "Feature", "properties": {"layer": "Defpoints", "dxf_type": "LWPOLYLINE"}, "geometry": {"type": "LineString", "coordinates": [[-54.98647449543869, -10.245599667166742], [-54.987002941156554, -10.246222433437525]]}}, {"type": "Feature", "properties": {"layer": "Defpoints", "dxf_type": "LWPOLYLINE"}, "geometry": {"type": "LineString", "coordinates": [[-54.98617982436669, -10.246376305301805], [-54.98629410522963, -10.246510983745052]]}}, {"type": "Feature", "properties": {"layer": "Defpoints", "dxf_type": "LWPOLYLINE"}, "geometry": {"type": "LineString", "coordinates": [[-54.98603412537884, -10.245080695051046], [-54.987002941156554, -10.246222433437525]]}}, {"type": "Feature", "properties": {"layer": "Defpoints", "dxf_type": "LWPOLYLINE"}, "geometry": {"type": "LineString", "coordinates": [[-54.98414785596675, -10.246650922649735], [-54.98603412537884, -10.245080695051046]]}}, {"type": "Feature", "properties": {"layer": "Defpoints", "dxf_type": "LWPOLYLINE"}, "geometry": {"type": "LineString", "coordinates": [[-54.98475105684678, -10.24736109885068], [-54.9847363946664, -10.247344515988926]]}}]}