{"type": "FeatureCollection", "name": "destaque_lote_01a", "crs": {"type": "name", "properties": {"name": "urn:ogc:def:crs:OGC:1.3:CRS84"}}, "properties": {"source": "8be78050_MAPA TRIBUTAÇÃO 2021 (1).dxf", "assumed_crs": "EPSG:4326", "local_crs": false, "note": "Coordenadas locais do desenho (sem CRS). Use base 'Só CAD' no mapa.", "extent": [4300.4554, 2373.7696, 8215.3349, 6186.7838], "georef": true, "transform": {"scale": 1, "rotation_deg": 0, "tx": 713717.6034368816, "ty": 8862616.121289995, "rmse_m": 0, "epsg": 31981}, "layer": "Destaque_Lote_01A", "source_file": "8be78050_MAPA TRIBUTAÇÃO 2021 (1)_georef.geojson", "n_features": 6}, "features": [{"type": "Feature", "properties": {"layer": "Destaque_Lote_01A", "dxf_type": "LINE"}, "geometry": {"type": "LineString", "coordinates": [[-54.97825236143554, -10.232357703558318], [-54.977797695106396, -10.231789655698092]]}}, {"type": "Feature", "properties": {"layer": "Destaque_Lote_01A", "dxf_type": "LINE"}, "geometry": {"type": "LineString", "coordinates": [[-54.97782865400451, -10.23270130554856], [-54.977375356033704, -10.232135430530004]]}}, {"type": "Feature", "properties": {"layer": "Destaque_Lote_01A", "dxf_type": "LINE"}, "geometry": {"type": "LineString", "coordinates": [[-54.97791136109183, -10.231931667014647], [-54.977488680382486, -10.232276899316714]]}}, {"type": "Feature", "properties": {"layer": "Destaque_Lote_01A", "dxf_type": "LINE"}, "geometry": {"type": "LineString", "coordinates": [[-54.97802502808065, -10.232073679219253], [-54.97760200482722, -10.232418368082033]]}}, {"type": "Feature", "properties": {"layer": "Destaque_Lote_01A", "dxf_type": "LINE"}, "geometry": {"type": "LineString", "coordinates": [[-54.978138695166066, -10.232215691402367], [-54.97771532936789, -10.232559836825992]]}}, {"type": "Feature", "properties": {"layer": "Destaque_Lote_01A", "dxf_type": "LINE"}, "geometry": {"type": "LineString", "coordinates": [[-54.977813516560964, -10.232246024194108], [-54.97769734275756, -10.232106471262915]]}}]}