{"type": "FeatureCollection", "name": "eixo_lotes", "crs": {"type": "name", "properties": {"name": "urn:ogc:def:crs:OGC:1.3:CRS84"}}, "properties": {"source": "8be78050_MAPA TRIBUTAÇÃO 2021 (1).dxf", "assumed_crs": "EPSG:4326", "local_crs": false, "note": "Coordenadas locais do desenho (sem CRS). Use base 'Só CAD' no mapa.", "extent": [4300.4554, 2373.7696, 8215.3349, 6186.7838], "georef": true, "transform": {"scale": 1, "rotation_deg": 0, "tx": 713717.6034368816, "ty": 8862616.121289995, "rmse_m": 0, "epsg": 31981}, "layer": "EIXO_LOTES", "source_file": "8be78050_MAPA TRIBUTAÇÃO 2021 (1)_georef.geojson", "n_features": 107}, "features": [{"type": "Feature", "properties": {"layer": "EIXO_LOTES", "dxf_type": "LINE"}, "geometry": {"type": "LineString", "coordinates": [[-54.97886832929448, -10.244783118279758], [-54.97872878136888, -10.244899635608574]]}}, {"type": "Feature", "properties": {"layer": "EIXO_LOTES", "dxf_type": "LINE"}, "geometry": {"type": "LineString", "coordinates": [[-54.97863305475184, -10.244506677897444], [-54.97849350598812, -10.244623195128069]]}}, {"type": "Feature", "properties": {"layer": "EIXO_LOTES", "dxf_type": "LINE"}, "geometry": {"type": "LineString", "coordinates": [[-54.978826640394956, -10.245154857420882], [-54.97831491752535, -10.244553600573854]]}}, {"type": "Feature", "properties": {"layer": "EIXO_LOTES", "dxf_type": "LINE"}, "geometry": {"type": "LineString", "coordinates": [[-54.97812963953892, -10.24433590338074], [-54.97673414782, -10.245501070624455]]}}, {"type": "Feature", "properties": {"layer": "EIXO_LOTES", "dxf_type": "LINE"}, "geometry": {"type": "LineString", "coordinates": [[-54.97829562815266, -10.244551972898435], [-54.978037463006075, -10.244767529801567]]}}, {"type": "Feature", "properties": {"layer": "EIXO_LOTES", "dxf_type": "LINE"}, "geometry": {"type": "LineString", "coordinates": [[-54.97823845343624, -10.24446375700731], [-54.97812963953892, -10.24433590338074]]}}, {"type": "Feature", "properties": {"layer": "EIXO_LOTES", "dxf_type": "LINE"}, "geometry": {"type": "LineString", "coordinates": [[-54.97823681011358, -10.244482862742073], [-54.97685178527969, -10.245639291425757]]}}, {"type": "Feature", "properties": {"layer": "EIXO_LOTES", "dxf_type": "LINE"}, "geometry": {"type": "LineString", "coordinates": [[-54.978927148448086, -10.244852228363065], [-54.9787875995913, -10.244968745709318]]}}, {"type": "Feature", "properties": {"layer": "EIXO_LOTES", "dxf_type": "LINE"}, "geometry": {"type": "LineString", "coordinates": [[-54.97898596671379, -10.24492133843465], [-54.97884641875096, -10.245037855809707]]}}, {"type": "Feature", "properties": {"layer": "EIXO_LOTES", "dxf_type": "LINE"}, "geometry": {"type": "LineString", "coordinates": [[-54.978177502039976, -10.244532382696201], [-54.97805986513908, -10.244394162340015]]}}, {"type": "Feature", "properties": {"layer": "EIXO_LOTES", "dxf_type": "LINE"}, "geometry": {"type": "LineString", "coordinates": [[-54.97810772760258, -10.244590640754643], [-54.9779900907203, -10.244452420375332]]}}, {"type": "Feature", "properties": {"layer": "EIXO_LOTES", "dxf_type": "LINE"}, "geometry": {"type": "LineString", "coordinates": [[-54.978037953134795, -10.244648899696916], [-54.977920316271124, -10.244510679294475]]}}, {"type": "Feature", "properties": {"layer": "EIXO_LOTES", "dxf_type": "LINE"}, "geometry": {"type": "LineString", "coordinates": [[-54.97796817864807, -10.244707157715247], [-54.97785054179729, -10.244568938193558]]}}, {"type": "Feature", "properties": {"layer": "EIXO_LOTES", "dxf_type": "LINE"}, "geometry": {"type": "LineString", "coordinates": [[-54.977898404130954, -10.244765416617389], [-54.97778076730452, -10.244627196168697]]}}, {"type": "Feature", "properties": {"layer": "EIXO_LOTES", "dxf_type": "LINE"}, "geometry": {"type": "LineString", "coordinates": [[-54.977828629589176, -10.244823675499454], [-54.977710992781354, -10.24468545502763]]}}, {"type": "Feature", "properties": {"layer": "EIXO_LOTES", "dxf_type": "LINE"}, "geometry": {"type": "LineString", "coordinates": [[-54.977758855028455, -10.244881933457592], [-54.977641218239256, -10.244743712962642]]}}, {"type": "Feature", "properties": {"layer": "EIXO_LOTES", "dxf_type": "LINE"}, "geometry": {"type": "LineString", "coordinates": [[-54.977689080437344, -10.244940192299541], [-54.97757144366677, -10.244801971781458]]}}, {"type": "Feature", "properties": {"layer": "EIXO_LOTES", "dxf_type": "LINE"}, "geometry": {"type": "LineString", "coordinates": [[-54.97761930673987, -10.24499845022322], [-54.977501669075345, -10.244860229676338]]}}, {"type": "Feature", "properties": {"layer": "EIXO_LOTES", "dxf_type": "LINE"}, "geometry": {"type": "LineString", "coordinates": [[-54.97754953209943, -10.24505670902502], [-54.977431894453524, -10.244918488455008]]}}, {"type": "Feature", "properties": {"layer": "EIXO_LOTES", "dxf_type": "LINE"}, "geometry": {"type": "LineString", "coordinates": [[-54.97747975744006, -10.245114966902893], [-54.97736212072534, -10.24497674631543]]}}, {"type": "Feature", "properties": {"layer": "EIXO_LOTES", "dxf_type": "LINE"}, "geometry": {"type": "LineString", "coordinates": [[-54.97740998275029, -10.245173225664576], [-54.977292346054185, -10.245035005053985]]}}, {"type": "Feature", "properties": {"layer": "EIXO_LOTES", "dxf_type": "LINE"}, "geometry": {"type": "LineString", "coordinates": [[-54.97734020804159, -10.245231483502318], [-54.97722257135837, -10.245093263772471]]}}, {"type": "Feature", "properties": {"layer": "EIXO_LOTES", "dxf_type": "LINE"}, "geometry": {"type": "LineString", "coordinates": [[-54.977270433302486, -10.245289742223848], [-54.97715279664363, -10.245151521567001]]}}, {"type": "Feature", "properties": {"layer": "EIXO_LOTES", "dxf_type": "LINE"}, "geometry": {"type": "LineString", "coordinates": [[-54.97720065853873, -10.24534800092533], [-54.97708302189848, -10.245209780245354]]}}, {"type": "Feature", "properties": {"layer": "EIXO_LOTES", "dxf_type": "LINE"}, "geometry": {"type": "LineString", "coordinates": [[-54.97713088375603, -10.24540625870287], [-54.97701324713441, -10.245268037999766]]}}, {"type": "Feature", "properties": {"layer": "EIXO_LOTES", "dxf_type": "LINE"}, "geometry": {"type": "LineString", "coordinates": [[-54.977061108942934, -10.245464517364216], [-54.97694347233994, -10.24532629663798]]}}, {"type": "Feature", "properties": {"layer": "EIXO_LOTES", "dxf_type": "LINE"}, "geometry": {"type": "LineString", "coordinates": [[-54.976991334110906, -10.245522775101604], [-54.976873697526536, -10.24538455435224]]}}, {"type": "Feature", "properties": {"layer": "EIXO_LOTES", "dxf_type": "LINE"}, "geometry": {"type": "LineString", "coordinates": [[-54.978695913499585, -10.245281741384765], [-54.97816654562443, -10.244659750932396]]}}, {"type": "Feature", "properties": {"layer": "EIXO_LOTES", "dxf_type": "LINE"}, "geometry": {"type": "LineString", "coordinates": [[-54.97877664427913, -10.245096114012377], [-54.97863709525574, -10.2452126312614]]}}, {"type": "Feature", "properties": {"layer": "EIXO_LOTES", "dxf_type": "LINE"}, "geometry": {"type": "LineString", "coordinates": [[-54.97871782512878, -10.245027003900422], [-54.97857827611828, -10.245143522030189]]}}, {"type": "Feature", "properties": {"layer": "EIXO_LOTES", "dxf_type": "LINE"}, "geometry": {"type": "LineString", "coordinates": [[-54.97865900690993, -10.244957894691971], [-54.978519457923774, -10.245074411894734]]}}, {"type": "Feature", "properties": {"layer": "EIXO_LOTES", "dxf_type": "LINE"}, "geometry": {"type": "LineString", "coordinates": [[-54.97860018780891, -10.244888784567928], [-54.97846063884137, -10.245005301747561]]}}, {"type": "Feature", "properties": {"layer": "EIXO_LOTES", "dxf_type": "LINE"}, "geometry": {"type": "LineString", "coordinates": [[-54.97854136873255, -10.244819674437837], [-54.97840182069619, -10.244936191600017]]}}, {"type": "Feature", "properties": {"layer": "EIXO_LOTES", "dxf_type": "LINE"}, "geometry": {"type": "LineString", "coordinates": [[-54.97848255059343, -10.244750564307399], [-54.97834300166311, -10.24486708144076]]}}, {"type": "Feature", "properties": {"layer": "EIXO_LOTES", "dxf_type": "LINE"}, "geometry": {"type": "LineString", "coordinates": [[-54.9784237315664, -10.244681454165228], [-54.97828418356726, -10.244797971281132]]}}, {"type": "Feature", "properties": {"layer": "EIXO_LOTES", "dxf_type": "LINE"}, "geometry": {"type": "LineString", "coordinates": [[-54.978364913476604, -10.244612344022684], [-54.978225364583515, -10.244728861109788]]}}, {"type": "Feature", "properties": {"layer": "EIXO_LOTES", "dxf_type": "LINE"}, "geometry": {"type": "LineString", "coordinates": [[-54.978085815591776, -10.244845378116647], [-54.978364913476604, -10.244612344022684]]}}, {"type": "Feature", "properties": {"layer": "EIXO_LOTES", "dxf_type": "LINE"}, "geometry": {"type": "LineString", "coordinates": [[-54.97814463455691, -10.244914488311123], [-54.97828418356726, -10.244797971281132]]}}, {"type": "Feature", "properties": {"layer": "EIXO_LOTES", "dxf_type": "LINE"}, "geometry": {"type": "LineString", "coordinates": [[-54.97820345263414, -10.244983598493876], [-54.97834300166311, -10.24486708144076]]}}, {"type": "Feature", "properties": {"layer": "EIXO_LOTES", "dxf_type": "LINE"}, "geometry": {"type": "LineString", "coordinates": [[-54.978262271648596, -10.245052708676251], [-54.97840182069619, -10.244936191600017]]}}, {"type": "Feature", "properties": {"layer": "EIXO_LOTES", "dxf_type": "LINE"}, "geometry": {"type": "LineString", "coordinates": [[-54.978321089775164, -10.245121818846918], [-54.97846063884137, -10.245005301747561]]}}, {"type": "Feature", "properties": {"layer": "EIXO_LOTES", "dxf_type": "LINE"}, "geometry": {"type": "LineString", "coordinates": [[-54.97837990883896, -10.245190929017221], [-54.978519457923774, -10.245074411894734]]}}, {"type": "Feature", "properties": {"layer": "EIXO_LOTES", "dxf_type": "LINE"}, "geometry": {"type": "LineString", "coordinates": [[-54.97843872792741, -10.245260039181483], [-54.97857827611828, -10.245143522030189]]}}, {"type": "Feature", "properties": {"layer": "EIXO_LOTES", "dxf_type": "LINE"}, "geometry": {"type": "LineString", "coordinates": [[-54.97849754612797, -10.245329149334024], [-54.97863709525574, -10.2452126312614]]}}, {"type": "Feature", "properties": {"layer": "EIXO_LOTES", "dxf_type": "LINE"}, "geometry": {"type": "LineString", "coordinates": [[-54.978547542212155, -10.245387892781848], [-54.97803581967217, -10.244786634628497]]}}, {"type": "Feature", "properties": {"layer": "EIXO_LOTES", "dxf_type": "LINE"}, "geometry": {"type": "LineString", "coordinates": [[-54.978347041372636, -10.2455730346716], [-54.977817673916334, -10.244951043698842]]}}, {"type": "Feature", "properties": {"layer": "EIXO_LOTES", "dxf_type": "LINE"}, "geometry": {"type": "LineString", "coordinates": [[-54.978074860011866, -10.244972747247942], [-54.97793531085352, -10.245089264157542]]}}, {"type": "Feature", "properties": {"layer": "EIXO_LOTES", "dxf_type": "LINE"}, "geometry": {"type": "LineString", "coordinates": [[-54.978016041056044, -10.244903637041903], [-54.97787649191631, -10.245020153928373]]}}, {"type": "Feature", "properties": {"layer": "EIXO_LOTES", "dxf_type": "LINE"}, "geometry": {"type": "LineString", "coordinates": [[-54.977736943590486, -10.245136670740246], [-54.97787649191631, -10.245020153928373]]}}, {"type": "Feature", "properties": {"layer": "EIXO_LOTES", "dxf_type": "LINE"}, "geometry": {"type": "LineString", "coordinates": [[-54.97779576159651, -10.245205780986865], [-54.97793531085352, -10.245089264157542]]}}, {"type": "Feature", "properties": {"layer": "EIXO_LOTES", "dxf_type": "LINE"}, "geometry": {"type": "LineString", "coordinates": [[-54.978192497090674, -10.245110966732339], [-54.97805294788937, -10.245227484592075]]}}, {"type": "Feature", "properties": {"layer": "EIXO_LOTES", "dxf_type": "LINE"}, "geometry": {"type": "LineString", "coordinates": [[-54.97813367807979, -10.245041857442262], [-54.97799412981539, -10.245158374380665]]}}, {"type": "Feature", "properties": {"layer": "EIXO_LOTES", "dxf_type": "LINE"}, "geometry": {"type": "LineString", "coordinates": [[-54.97785458053977, -10.24527489123312], [-54.97799412981539, -10.245158374380665]]}}, {"type": "Feature", "properties": {"layer": "EIXO_LOTES", "dxf_type": "LINE"}, "geometry": {"type": "LineString", "coordinates": [[-54.97825131520793, -10.245180076914572], [-54.97811176690057, -10.245296594803111]]}}, {"type": "Feature", "properties": {"layer": "EIXO_LOTES", "dxf_type": "LINE"}, "geometry": {"type": "LineString", "coordinates": [[-54.97791339859512, -10.24534400146766], [-54.97805294788937, -10.245227484592075]]}}, {"type": "Feature", "properties": {"layer": "EIXO_LOTES", "dxf_type": "LINE"}, "geometry": {"type": "LineString", "coordinates": [[-54.97797221758771, -10.245413111701826], [-54.97811176690057, -10.245296594803111]]}}, {"type": "Feature", "properties": {"layer": "EIXO_LOTES", "dxf_type": "LINE"}, "geometry": {"type": "LineString", "coordinates": [[-54.978427771532814, -10.245387407436372], [-54.978288222262776, -10.245503924484732]]}}, {"type": "Feature", "properties": {"layer": "EIXO_LOTES", "dxf_type": "LINE"}, "geometry": {"type": "LineString", "coordinates": [[-54.978368953341565, -10.245318297272263], [-54.978229404090136, -10.245434814297516]]}}, {"type": "Feature", "properties": {"layer": "EIXO_LOTES", "dxf_type": "LINE"}, "geometry": {"type": "LineString", "coordinates": [[-54.978310134262415, -10.245249187096439], [-54.9781705850296, -10.245365704098559]]}}, {"type": "Feature", "properties": {"layer": "EIXO_LOTES", "dxf_type": "LINE"}, "geometry": {"type": "LineString", "coordinates": [[-54.978031035692396, -10.245482221924277], [-54.9781705850296, -10.245365704098559]]}}, {"type": "Feature", "properties": {"layer": "EIXO_LOTES", "dxf_type": "LINE"}, "geometry": {"type": "LineString", "coordinates": [[-54.97808985474005, -10.245551331242485], [-54.978229404090136, -10.245434814297516]]}}, {"type": "Feature", "properties": {"layer": "EIXO_LOTES", "dxf_type": "LINE"}, "geometry": {"type": "LineString", "coordinates": [[-54.97814867380663, -10.245620441458525], [-54.978288222262776, -10.245503924484732]]}}, {"type": "Feature", "properties": {"layer": "EIXO_LOTES", "dxf_type": "LINE"}, "geometry": {"type": "LineString", "coordinates": [[-54.977998167716464, -10.245864327451152], [-54.97746880067906, -10.245242335957972]]}}, {"type": "Feature", "properties": {"layer": "EIXO_LOTES", "dxf_type": "LINE"}, "geometry": {"type": "LineString", "coordinates": [[-54.977725986933876, -10.245264038919496], [-54.97758643752315, -10.245380556532314]]}}, {"type": "Feature", "properties": {"layer": "EIXO_LOTES", "dxf_type": "LINE"}, "geometry": {"type": "LineString", "coordinates": [[-54.97738807006001, -10.245427962856535], [-54.97752761954506, -10.245311446251005]]}}, {"type": "Feature", "properties": {"layer": "EIXO_LOTES", "dxf_type": "LINE"}, "geometry": {"type": "LineString", "coordinates": [[-54.97744688893206, -10.245497073166653], [-54.97758643752315, -10.245380556532314]]}}, {"type": "Feature", "properties": {"layer": "EIXO_LOTES", "dxf_type": "LINE"}, "geometry": {"type": "LineString", "coordinates": [[-54.97784362391387, -10.245402259423418], [-54.9777040753842, -10.24551877618428]]}}, {"type": "Feature", "properties": {"layer": "EIXO_LOTES", "dxf_type": "LINE"}, "geometry": {"type": "LineString", "coordinates": [[-54.97778480586783, -10.245333149177318], [-54.97764525644421, -10.245449665909392]]}}, {"type": "Feature", "properties": {"layer": "EIXO_LOTES", "dxf_type": "LINE"}, "geometry": {"type": "LineString", "coordinates": [[-54.9775057069162, -10.245566183465058], [-54.97764525644421, -10.245449665909392]]}}, {"type": "Feature", "properties": {"layer": "EIXO_LOTES", "dxf_type": "LINE"}, "geometry": {"type": "LineString", "coordinates": [[-54.977902442897154, -10.245471369669152], [-54.9777628934363, -10.24558788644747]]}}, {"type": "Feature", "properties": {"layer": "EIXO_LOTES", "dxf_type": "LINE"}, "geometry": {"type": "LineString", "coordinates": [[-54.97756452583757, -10.245635293763092], [-54.9777040753842, -10.24551877618428]]}}, {"type": "Feature", "properties": {"layer": "EIXO_LOTES", "dxf_type": "LINE"}, "geometry": {"type": "LineString", "coordinates": [[-54.97762334387678, -10.245704403145536], [-54.9777628934363, -10.24558788644747]]}}, {"type": "Feature", "properties": {"layer": "EIXO_LOTES", "dxf_type": "LINE"}, "geometry": {"type": "LineString", "coordinates": [[-54.97802008002513, -10.245609590136821], [-54.977880530527045, -10.245726106961394]]}}, {"type": "Feature", "properties": {"layer": "EIXO_LOTES", "dxf_type": "LINE"}, "geometry": {"type": "LineString", "coordinates": [[-54.977961261905094, -10.245540479908847], [-54.97782171242562, -10.245656996710292]]}}, {"type": "Feature", "properties": {"layer": "EIXO_LOTES", "dxf_type": "LINE"}, "geometry": {"type": "LineString", "coordinates": [[-54.977682162847486, -10.245773513431486], [-54.97782171242562, -10.245656996710292]]}}, {"type": "Feature", "properties": {"layer": "EIXO_LOTES", "dxf_type": "LINE"}, "geometry": {"type": "LineString", "coordinates": [[-54.97774098093029, -10.245842623705721], [-54.977880530527045, -10.245726106961394]]}}, {"type": "Feature", "properties": {"layer": "EIXO_LOTES", "dxf_type": "LINE"}, "geometry": {"type": "LineString", "coordinates": [[-54.97766716893143, -10.24519492956519], [-54.97752761954506, -10.245311446251005]]}}, {"type": "Feature", "properties": {"layer": "EIXO_LOTES", "dxf_type": "LINE"}, "geometry": {"type": "LineString", "coordinates": [[-54.97779979995033, -10.24591173397959], [-54.97793934956571, -10.24579521721213]]}}, {"type": "Feature", "properties": {"layer": "EIXO_LOTES", "dxf_type": "LINE"}, "geometry": {"type": "LineString", "coordinates": [[-54.97764929435618, -10.246155619734717], [-54.97711992773772, -10.245533627721112]]}}, {"type": "Feature", "properties": {"layer": "EIXO_LOTES", "dxf_type": "LINE"}, "geometry": {"type": "LineString", "coordinates": [[-54.977377114146094, -10.245555330998956], [-54.97723756449444, -10.245671847507213]]}}, {"type": "Feature", "properties": {"layer": "EIXO_LOTES", "dxf_type": "LINE"}, "geometry": {"type": "LineString", "coordinates": [[-54.977039196825466, -10.245719254476825], [-54.97717874565033, -10.245602737162397]]}}, {"type": "Feature", "properties": {"layer": "EIXO_LOTES", "dxf_type": "LINE"}, "geometry": {"type": "LineString", "coordinates": [[-54.97709801474412, -10.24578836393521], [-54.97723756449444, -10.245671847507213]]}}, {"type": "Feature", "properties": {"layer": "EIXO_LOTES", "dxf_type": "LINE"}, "geometry": {"type": "LineString", "coordinates": [[-54.977494751032985, -10.245693551618523], [-54.977355201344096, -10.24581006817304]]}}, {"type": "Feature", "properties": {"layer": "EIXO_LOTES", "dxf_type": "LINE"}, "geometry": {"type": "LineString", "coordinates": [[-54.977435932120926, -10.245624441308921], [-54.977296382450646, -10.245740957840306]]}}, {"type": "Feature", "properties": {"layer": "EIXO_LOTES", "dxf_type": "LINE"}, "geometry": {"type": "LineString", "coordinates": [[-54.97715683359428, -10.245857474297116], [-54.977296382450646, -10.245740957840306]]}}, {"type": "Feature", "properties": {"layer": "EIXO_LOTES", "dxf_type": "LINE"}, "geometry": {"type": "LineString", "coordinates": [[-54.97755356905716, -10.245762661916405], [-54.97741402026221, -10.24587917849973]]}}, {"type": "Feature", "properties": {"layer": "EIXO_LOTES", "dxf_type": "LINE"}, "geometry": {"type": "LineString", "coordinates": [[-54.977215651556534, -10.245926584647302], [-54.977355201344096, -10.24581006817304]]}}, {"type": "Feature", "properties": {"layer": "EIXO_LOTES", "dxf_type": "LINE"}, "geometry": {"type": "LineString", "coordinates": [[-54.97727447045602, -10.245995694997118], [-54.97741402026221, -10.24587917849973]]}}, {"type": "Feature", "properties": {"layer": "EIXO_LOTES", "dxf_type": "LINE"}, "geometry": {"type": "LineString", "coordinates": [[-54.97767120700462, -10.2459008825054], [-54.97753165725986, -10.246017399129306]]}}, {"type": "Feature", "properties": {"layer": "EIXO_LOTES", "dxf_type": "LINE"}, "geometry": {"type": "LineString", "coordinates": [[-54.97761238801855, -10.245831772213922], [-54.977472838292414, -10.245948288814699]]}}, {"type": "Feature", "properties": {"layer": "EIXO_LOTES", "dxf_type": "LINE"}, "geometry": {"type": "LineString", "coordinates": [[-54.97733328846761, -10.246064805335221], [-54.977472838292414, -10.245948288814699]]}}, {"type": "Feature", "properties": {"layer": "EIXO_LOTES", "dxf_type": "LINE"}, "geometry": {"type": "LineString", "coordinates": [[-54.977392107416435, -10.24613391567296], [-54.97753165725986, -10.246017399129306]]}}, {"type": "Feature", "properties": {"layer": "EIXO_LOTES", "dxf_type": "LINE"}, "geometry": {"type": "LineString", "coordinates": [[-54.97731829528336, -10.245486220677272], [-54.97717874565033, -10.245602737162397]]}}, {"type": "Feature", "properties": {"layer": "EIXO_LOTES", "dxf_type": "LINE"}, "geometry": {"type": "LineString", "coordinates": [[-54.977450925477356, -10.246203025998977], [-54.977590475339404, -10.246086509432192]]}}, {"type": "Feature", "properties": {"layer": "EIXO_LOTES", "dxf_type": "LINE"}, "geometry": {"type": "LineString", "coordinates": [[-54.97692155924848, -10.24558103372281], [-54.976803922682734, -10.245442812950321]]}}, {"type": "Feature", "properties": {"layer": "EIXO_LOTES", "dxf_type": "LINE"}, "geometry": {"type": "LineString", "coordinates": [[-54.97807889908241, -10.245678700364424], [-54.97793934956571, -10.24579521721213]]}}, {"type": "Feature", "properties": {"layer": "EIXO_LOTES", "dxf_type": "LINE"}, "geometry": {"type": "LineString", "coordinates": [[-54.97773002510278, -10.245969992785156], [-54.977590475339404, -10.246086509432192]]}}, {"type": "Feature", "properties": {"layer": "EIXO_LOTES", "dxf_type": "LINE"}, "geometry": {"type": "LineString", "coordinates": [[-54.97882499618276, -10.245173963158235], [-54.97856683072625, -10.245389520446484]]}}, {"type": "Feature", "properties": {"layer": "EIXO_LOTES", "dxf_type": "LINE"}, "geometry": {"type": "LineString", "coordinates": [[-54.978574236634124, -10.244437567789593], [-54.97843468788902, -10.244554084997091]]}}, {"type": "Feature", "properties": {"layer": "EIXO_LOTES", "dxf_type": "LINE"}, "geometry": {"type": "LineString", "coordinates": [[-54.9785154176285, -10.244368457670026], [-54.97837586889628, -10.244484975758272]]}}, {"type": "Feature", "properties": {"layer": "EIXO_LOTES", "dxf_type": "LINE"}, "geometry": {"type": "LineString", "coordinates": [[-54.97845659864182, -10.244299348448308], [-54.978317050846506, -10.244415865615208]]}}, {"type": "Feature", "properties": {"layer": "EIXO_LOTES", "dxf_type": "LINE"}, "geometry": {"type": "LineString", "coordinates": [[-54.97839778059809, -10.244230238322332], [-54.978258231908825, -10.244346755460429]]}}, {"type": "Feature", "properties": {"layer": "EIXO_LOTES", "dxf_type": "LINE"}, "geometry": {"type": "LineString", "coordinates": [[-54.97699883041792, -10.24581206738205], [-54.97717528606489, -10.246019398487714]]}}, {"type": "Feature", "properties": {"layer": "EIXO_LOTES", "dxf_type": "LINE"}, "geometry": {"type": "LineString", "coordinates": [[-54.97673414782, -10.245501070624455], [-54.97685178527969, -10.245639291425757]]}}, {"type": "Feature", "properties": {"layer": "EIXO_LOTES", "dxf_type": "LINE"}, "geometry": {"type": "LineString", "coordinates": [[-54.97699883041792, -10.24581206738205], [-54.97671973145381, -10.246045099899483]]}}, {"type": "Feature", "properties": {"layer": "EIXO_LOTES", "dxf_type": "LINE"}, "geometry": {"type": "LineString", "coordinates": [[-54.97671973145381, -10.246045099899483], [-54.97689618607647, -10.246252431138252]]}}, {"type": "Feature", "properties": {"layer": "EIXO_LOTES", "dxf_type": "LINE"}, "geometry": {"type": "LineString", "coordinates": [[-54.97689618607647, -10.246252431138252], [-54.97717528606489, -10.246019398487714]]}}]}