{"type": "FeatureCollection", "name": "el", "crs": {"type": "name", "properties": {"name": "urn:ogc:def:crs:OGC:1.3:CRS84"}}, "properties": {"source": "8be78050_MAPA TRIBUTAÇÃO 2021 (1).dxf", "assumed_crs": "EPSG:4326", "local_crs": false, "note": "Coordenadas locais do desenho (sem CRS). Use base 'Só CAD' no mapa.", "extent": [4300.4554, 2373.7696, 8215.3349, 6186.7838], "georef": true, "transform": {"scale": 1, "rotation_deg": 0, "tx": 713717.6034368816, "ty": 8862616.121289995, "rmse_m": 0, "epsg": 31981}, "layer": "EL", "source_file": "8be78050_MAPA TRIBUTAÇÃO 2021 (1)_georef.geojson", "n_features": 122}, "features": [{"type": "Feature", "properties": {"layer": "EL", "dxf_type": "LINE"}, "geometry": {"type": "LineString", "coordinates": [[-54.99387136566717, -10.257167457354894], [-54.992318632863864, -10.255341450586219]]}}, {"type": "Feature", "properties": {"layer": "EL", "dxf_type": "LINE"}, "geometry": {"type": "LineString", "coordinates": [[-54.998776056048456, -10.257006759997362], [-54.99737782170817, -10.25814274390991]]}}, {"type": "Feature", "properties": {"layer": "EL", "dxf_type": "LINE"}, "geometry": {"type": "LineString", "coordinates": [[-54.998652444678335, -10.256861575706358], [-54.99724718567559, -10.257982235900423]]}}, {"type": "Feature", "properties": {"layer": "EL", "dxf_type": "LINE"}, "geometry": {"type": "LineString", "coordinates": [[-54.99683173023216, -10.257171833442488], [-54.99677296048992, -10.257107222835788]]}}, {"type": "Feature", "properties": {"layer": "EL", "dxf_type": "LINE"}, "geometry": {"type": "LineString", "coordinates": [[-54.99677296048992, -10.257107222835788], [-54.99663320565202, -10.257224383992897]]}}, {"type": "Feature", "properties": {"layer": "EL", "dxf_type": "LINE"}, "geometry": {"type": "LineString", "coordinates": [[-54.99683173023216, -10.257171833442488], [-54.99711490161361, -10.256923942048916]]}}, {"type": "Feature", "properties": {"layer": "EL", "dxf_type": "LINE"}, "geometry": {"type": "LineString", "coordinates": [[-54.99711490161361, -10.256923942048916], [-54.99768888271555, -10.257629994909435]]}}, {"type": "Feature", "properties": {"layer": "EL", "dxf_type": "LINE"}, "geometry": {"type": "LineString", "coordinates": [[-54.99746228476697, -10.257351257887292], [-54.997018938218396, -10.257702288920125]]}}, {"type": "Feature", "properties": {"layer": "EL", "dxf_type": "LINE"}, "geometry": {"type": "LineString", "coordinates": [[-54.998039347787866, -10.25611663966067], [-54.99711490161361, -10.256923942048916]]}}, {"type": "Feature", "properties": {"layer": "EL", "dxf_type": "LINE"}, "geometry": {"type": "LineString", "coordinates": [[-54.997312693247075, -10.255259228226299], [-54.99598666403924, -10.25641391568962]]}}, {"type": "Feature", "properties": {"layer": "EL", "dxf_type": "LINE"}, "geometry": {"type": "LineString", "coordinates": [[-54.996128110221925, -10.256591225898713], [-54.99663320565202, -10.257224383992897]]}}, {"type": "Feature", "properties": {"layer": "EL", "dxf_type": "LINE"}, "geometry": {"type": "LineString", "coordinates": [[-54.997312693247075, -10.255259228226299], [-54.998039347787866, -10.25611663966067]]}}, {"type": "Feature", "properties": {"layer": "EL", "dxf_type": "LINE"}, "geometry": {"type": "LineString", "coordinates": [[-54.998654344538465, -10.256842297694917], [-54.998039347787866, -10.25611663966067]]}}, {"type": "Feature", "properties": {"layer": "EL", "dxf_type": "LINE"}, "geometry": {"type": "LineString", "coordinates": [[-54.99569295010857, -10.256026927647099], [-54.99615902040293, -10.255647808957553]]}}, {"type": "Feature", "properties": {"layer": "EL", "dxf_type": "LINE"}, "geometry": {"type": "LineString", "coordinates": [[-54.99615902040293, -10.255647808957553], [-54.996212027891175, -10.255605533253561]]}}, {"type": "Feature", "properties": {"layer": "EL", "dxf_type": "LINE"}, "geometry": {"type": "LineString", "coordinates": [[-54.9962004531475, -10.255591555002926], [-54.99701803800241, -10.254927448843647]]}}, {"type": "Feature", "properties": {"layer": "EL", "dxf_type": "LINE"}, "geometry": {"type": "LineString", "coordinates": [[-54.9972114613908, -10.255137961096857], [-54.99703726944112, -10.25492929302597]]}}, {"type": "Feature", "properties": {"layer": "EL", "dxf_type": "LINE"}, "geometry": {"type": "LineString", "coordinates": [[-54.997312693247075, -10.255259228226299], [-54.9972114613908, -10.255137961096857]]}}, {"type": "Feature", "properties": {"layer": "EL", "dxf_type": "LINE"}, "geometry": {"type": "LineString", "coordinates": [[-54.996212027891175, -10.255605533253561], [-54.99650999556581, -10.25595820802427]]}}, {"type": "Feature", "properties": {"layer": "EL", "dxf_type": "LINE"}, "geometry": {"type": "LineString", "coordinates": [[-54.996212027891175, -10.255605533253561], [-54.99620045406579, -10.25559155410467]]}}, {"type": "Feature", "properties": {"layer": "EL", "dxf_type": "LINE"}, "geometry": {"type": "LineString", "coordinates": [[-54.99598666403924, -10.25641391568962], [-54.99569092730001, -10.256045848706169]]}}, {"type": "Feature", "properties": {"layer": "EL", "dxf_type": "LINE"}, "geometry": {"type": "LineString", "coordinates": [[-54.9955247259807, -10.255838392584142], [-54.99459394161365, -10.254683543203585]]}}, {"type": "Feature", "properties": {"layer": "EL", "dxf_type": "LINE"}, "geometry": {"type": "LineString", "coordinates": [[-54.995426254484784, -10.255919056400838], [-54.99391839707529, -10.25404821256768]]}}, {"type": "Feature", "properties": {"layer": "EL", "dxf_type": "LINE"}, "geometry": {"type": "LineString", "coordinates": [[-54.99434670317366, -10.255043262345684], [-54.99423283177804, -10.254901976863527]]}}, {"type": "Feature", "properties": {"layer": "EL", "dxf_type": "LINE"}, "geometry": {"type": "LineString", "coordinates": [[-54.99459394161365, -10.254683543203585], [-54.994009170057836, -10.253960018062314]]}}, {"type": "Feature", "properties": {"layer": "EL", "dxf_type": "LINE"}, "geometry": {"type": "LineString", "coordinates": [[-54.993942086296876, -10.253877016152536], [-54.99441035924676, -10.253511567068822]]}}, {"type": "Feature", "properties": {"layer": "EL", "dxf_type": "LINE"}, "geometry": {"type": "LineString", "coordinates": [[-54.99441035924676, -10.253511567068822], [-54.994202454111964, -10.253258612819213]]}}, {"type": "Feature", "properties": {"layer": "EL", "dxf_type": "LINE"}, "geometry": {"type": "LineString", "coordinates": [[-54.99441035924676, -10.253511567068822], [-54.99525089869541, -10.252850270564911]]}}, {"type": "Feature", "properties": {"layer": "EL", "dxf_type": "LINE"}, "geometry": {"type": "LineString", "coordinates": [[-54.99401134183817, -10.253940928010342], [-54.99530880106609, -10.252920152099648]]}}, {"type": "Feature", "properties": {"layer": "EL", "dxf_type": "LINE"}, "geometry": {"type": "LineString", "coordinates": [[-54.994202454111964, -10.253258612819213], [-54.99505094767998, -10.25260064531764]]}}, {"type": "Feature", "properties": {"layer": "EL", "dxf_type": "LINE"}, "geometry": {"type": "LineString", "coordinates": [[-54.994015085297, -10.252973483689257], [-54.994202454111964, -10.253258612819213]]}}, {"type": "Feature", "properties": {"layer": "EL", "dxf_type": "LINE"}, "geometry": {"type": "LineString", "coordinates": [[-54.994015085297, -10.252973483689257], [-54.99480287883397, -10.252337755362358]]}}, {"type": "Feature", "properties": {"layer": "EL", "dxf_type": "LINE"}, "geometry": {"type": "LineString", "coordinates": [[-54.99398049830635, -10.252931437562333], [-54.99442468864969, -10.252572988583973]]}}, {"type": "Feature", "properties": {"layer": "EL", "dxf_type": "LINE"}, "geometry": {"type": "LineString", "coordinates": [[-54.9947697410311, -10.252276998045152], [-54.99437001619803, -10.25179409474724]]}}, {"type": "Feature", "properties": {"layer": "EL", "dxf_type": "LINE"}, "geometry": {"type": "LineString", "coordinates": [[-54.99442468864969, -10.252572988583973], [-54.99402250322352, -10.25208711297826]]}}, {"type": "Feature", "properties": {"layer": "EL", "dxf_type": "LINE"}, "geometry": {"type": "LineString", "coordinates": [[-54.99437001619803, -10.25179409474724], [-54.99424214105808, -10.251640676453006]]}}, {"type": "Feature", "properties": {"layer": "EL", "dxf_type": "LINE"}, "geometry": {"type": "LineString", "coordinates": [[-54.99424214105808, -10.251640676453006], [-54.994127018191016, -10.251512784043456]]}}, {"type": "Feature", "properties": {"layer": "EL", "dxf_type": "LINE"}, "geometry": {"type": "LineString", "coordinates": [[-54.99437001619803, -10.25179409474724], [-54.993641759541404, -10.25240815042038]]}}, {"type": "Feature", "properties": {"layer": "EL", "dxf_type": "LINE"}, "geometry": {"type": "LineString", "coordinates": [[-54.99424214105808, -10.251640676453006], [-54.99348756543558, -10.252228753341944]]}}, {"type": "Feature", "properties": {"layer": "EL", "dxf_type": "LINE"}, "geometry": {"type": "LineString", "coordinates": [[-54.99398412229916, -10.252928404687584], [-54.993641759541404, -10.25240815042038]]}}, {"type": "Feature", "properties": {"layer": "EL", "dxf_type": "LINE"}, "geometry": {"type": "LineString", "coordinates": [[-54.993357450102216, -10.252077371005017], [-54.993641759541404, -10.25240815042038]]}}, {"type": "Feature", "properties": {"layer": "EL", "dxf_type": "LINE"}, "geometry": {"type": "LineString", "coordinates": [[-54.99459394161365, -10.254683543203585], [-54.99589825202035, -10.253621733272992]]}}, {"type": "Feature", "properties": {"layer": "EL", "dxf_type": "LINE"}, "geometry": {"type": "LineString", "coordinates": [[-54.99542091626733, -10.254478341545981], [-54.99612602038572, -10.253904330442811]]}}, {"type": "Feature", "properties": {"layer": "EL", "dxf_type": "LINE"}, "geometry": {"type": "LineString", "coordinates": [[-54.99556327108839, -10.254654965912227], [-54.996268375462535, -10.254080954531128]]}}, {"type": "Feature", "properties": {"layer": "EL", "dxf_type": "LINE"}, "geometry": {"type": "LineString", "coordinates": [[-54.996268375462535, -10.254080954531128], [-54.99589825202035, -10.253621733272992]]}}, {"type": "Feature", "properties": {"layer": "EL", "dxf_type": "LINE"}, "geometry": {"type": "LineString", "coordinates": [[-54.99556327108839, -10.254654965912227], [-54.99519314831121, -10.254195743931495]]}}, {"type": "Feature", "properties": {"layer": "EL", "dxf_type": "LINE"}, "geometry": {"type": "LineString", "coordinates": [[-54.99682727761932, -10.254795815643547], [-54.99554411699176, -10.255840408689492]]}}, {"type": "Feature", "properties": {"layer": "EL", "dxf_type": "LINE"}, "geometry": {"type": "LineString", "coordinates": [[-54.99589825202035, -10.253621733272992], [-54.99532796596415, -10.252922249950892]]}}, {"type": "Feature", "properties": {"layer": "EL", "dxf_type": "LINE"}, "geometry": {"type": "LineString", "coordinates": [[-54.995252719816705, -10.252830763424525], [-54.994821861428434, -10.252339375744791]]}}, {"type": "Feature", "properties": {"layer": "EL", "dxf_type": "LINE"}, "geometry": {"type": "LineString", "coordinates": [[-54.995548373810685, -10.256143686185908], [-54.9950361897746, -10.256559069086142]]}}, {"type": "Feature", "properties": {"layer": "EL", "dxf_type": "LINE"}, "geometry": {"type": "LineString", "coordinates": [[-54.9950361897746, -10.256559069086142], [-54.99485734512497, -10.256736421529348]]}}, {"type": "Feature", "properties": {"layer": "EL", "dxf_type": "LINE"}, "geometry": {"type": "LineString", "coordinates": [[-54.99485734512497, -10.256736421529348], [-54.99468139022452, -10.256886435412632]]}}, {"type": "Feature", "properties": {"layer": "EL", "dxf_type": "LINE"}, "geometry": {"type": "LineString", "coordinates": [[-54.99468139022452, -10.256886435412632], [-54.99395966917507, -10.257437376642686]]}}, {"type": "Feature", "properties": {"layer": "EL", "dxf_type": "LINE"}, "geometry": {"type": "LineString", "coordinates": [[-54.993958887817385, -10.257443774285896], [-54.994615588781826, -10.258259103168063]]}}, {"type": "Feature", "properties": {"layer": "EL", "dxf_type": "LINE"}, "geometry": {"type": "LineString", "coordinates": [[-54.99468139022452, -10.256886435412632], [-54.995331436483085, -10.257693500735957]]}}, {"type": "Feature", "properties": {"layer": "EL", "dxf_type": "LINE"}, "geometry": {"type": "LineString", "coordinates": [[-54.99625951039167, -10.2569870152855], [-54.995875550119756, -10.256521184480066]]}}, {"type": "Feature", "properties": {"layer": "EL", "dxf_type": "LINE"}, "geometry": {"type": "LineString", "coordinates": [[-54.995875550119756, -10.256521184480066], [-54.99556767402884, -10.2561456303231]]}}, {"type": "Feature", "properties": {"layer": "EL", "dxf_type": "LINE"}, "geometry": {"type": "LineString", "coordinates": [[-54.994974205008155, -10.257249980045213], [-54.995875550119756, -10.256521184480066]]}}, {"type": "Feature", "properties": {"layer": "EL", "dxf_type": "LINE"}, "geometry": {"type": "LineString", "coordinates": [[-54.99625951039167, -10.2569870152855], [-54.99713738452854, -10.25805194798612]]}}, {"type": "Feature", "properties": {"layer": "EL", "dxf_type": "LINE"}, "geometry": {"type": "LineString", "coordinates": [[-54.99560022808975, -10.257488936646858], [-54.996508624163965, -10.258590898626402]]}}, {"type": "Feature", "properties": {"layer": "EL", "dxf_type": "LINE"}, "geometry": {"type": "LineString", "coordinates": [[-54.993878150201795, -10.257502376553397], [-54.99240612586505, -10.258678457323073]]}}, {"type": "Feature", "properties": {"layer": "EL", "dxf_type": "LINE"}, "geometry": {"type": "LineString", "coordinates": [[-54.99542424800995, -10.255937990211287], [-54.99390969128892, -10.257170938288606]]}}, {"type": "Feature", "properties": {"layer": "EL", "dxf_type": "LINE"}, "geometry": {"type": "LineString", "coordinates": [[-54.993942086296876, -10.253877016152536], [-54.99214292453776, -10.25533126103052]]}}, {"type": "Feature", "properties": {"layer": "EL", "dxf_type": "LINE"}, "geometry": {"type": "LineString", "coordinates": [[-54.99387968962198, -10.254044121006539], [-54.992322263949845, -10.255302973274214]]}}, {"type": "Feature", "properties": {"layer": "EL", "dxf_type": "LINE"}, "geometry": {"type": "LineString", "coordinates": [[-54.99398412229916, -10.252928404687584], [-54.994015085297, -10.252973483689257]]}}, {"type": "Feature", "properties": {"layer": "EL", "dxf_type": "LINE"}, "geometry": {"type": "LineString", "coordinates": [[-54.99488124887198, -10.25273223850599], [-54.99465354772719, -10.252458261912377]]}}, {"type": "Feature", "properties": {"layer": "EL", "dxf_type": "LINE"}, "geometry": {"type": "LineString", "coordinates": [[-54.99449393276482, -10.25258706706338], [-54.99471226802099, -10.252863275579355]]}}, {"type": "Feature", "properties": {"layer": "EL", "dxf_type": "LINE"}, "geometry": {"type": "LineString", "coordinates": [[-54.99454185175636, -10.25299542634718], [-54.99433431676014, -10.252715873008691]]}}, {"type": "Feature", "properties": {"layer": "EL", "dxf_type": "LINE"}, "geometry": {"type": "LineString", "coordinates": [[-54.994174701549724, -10.252844677951817], [-54.99437215346011, -10.253127019192222]]}}, {"type": "Feature", "properties": {"layer": "EL", "dxf_type": "LINE"}, "geometry": {"type": "LineString", "coordinates": [[-54.9972114613908, -10.255137961096857], [-54.996742529315966, -10.255526619387101]]}}, {"type": "Feature", "properties": {"layer": "EL", "dxf_type": "LINE"}, "geometry": {"type": "LineString", "coordinates": [[-54.996742529315966, -10.255526619387101], [-54.99685723278171, -10.255655838381996]]}}, {"type": "Feature", "properties": {"layer": "EL", "dxf_type": "LINE"}, "geometry": {"type": "LineString", "coordinates": [[-54.99485734512497, -10.256736421529348], [-54.99515809168693, -10.257101295842526]]}}, {"type": "Feature", "properties": {"layer": "EL", "dxf_type": "LINE"}, "geometry": {"type": "LineString", "coordinates": [[-54.9950361897746, -10.256559069086142], [-54.995353132722634, -10.256943593237066]]}}, {"type": "Feature", "properties": {"layer": "EL", "dxf_type": "LINE"}, "geometry": {"type": "LineString", "coordinates": [[-54.99317956911848, -10.251870414340441], [-54.99394407029368, -10.251309544133479]]}}, {"type": "Feature", "properties": {"layer": "EL", "dxf_type": "LINE"}, "geometry": {"type": "LineString", "coordinates": [[-54.99317956911848, -10.251870414340441], [-54.992191109213465, -10.25259558312835]]}}, {"type": "Feature", "properties": {"layer": "EL", "dxf_type": "LINE"}, "geometry": {"type": "LineString", "coordinates": [[-54.992191109213465, -10.25259558312835], [-54.99140070788121, -10.253047158585774]]}}, {"type": "Feature", "properties": {"layer": "EL", "dxf_type": "LINE"}, "geometry": {"type": "LineString", "coordinates": [[-54.99140070788121, -10.253047158585774], [-54.990619120567786, -10.253637682425495]]}}, {"type": "Feature", "properties": {"layer": "EL", "dxf_type": "LINE"}, "geometry": {"type": "LineString", "coordinates": [[-54.990619120567786, -10.253637682425495], [-54.989702727596, -10.253604316534034]]}}, {"type": "Feature", "properties": {"layer": "EL", "dxf_type": "LINE"}, "geometry": {"type": "LineString", "coordinates": [[-54.989702727596, -10.253604316534034], [-54.990571599786925, -10.254451033146488]]}}, {"type": "Feature", "properties": {"layer": "EL", "dxf_type": "LINE"}, "geometry": {"type": "LineString", "coordinates": [[-54.990571599786925, -10.254451033146488], [-54.9910331863465, -10.255317664555442]]}}, {"type": "Feature", "properties": {"layer": "EL", "dxf_type": "LINE"}, "geometry": {"type": "LineString", "coordinates": [[-54.99210400994644, -10.253937956145089], [-54.99263449395763, -10.25493393253192]]}}, {"type": "Feature", "properties": {"layer": "EL", "dxf_type": "LINE"}, "geometry": {"type": "LineString", "coordinates": [[-54.9910331863465, -10.255317664555442], [-54.99133406161023, -10.255874098074518]]}}, {"type": "Feature", "properties": {"layer": "EL", "dxf_type": "LINE"}, "geometry": {"type": "LineString", "coordinates": [[-54.99133406161023, -10.255874098074518], [-54.99214292453776, -10.25533126103052]]}}, {"type": "Feature", "properties": {"layer": "EL", "dxf_type": "LINE"}, "geometry": {"type": "LineString", "coordinates": [[-54.9907738043, -10.254830674482992], [-54.99210400994644, -10.253937956145089]]}}, {"type": "Feature", "properties": {"layer": "EL", "dxf_type": "LINE"}, "geometry": {"type": "LineString", "coordinates": [[-54.99451997014705, -10.256674133502802], [-54.99422403952802, -10.256334676966533]]}}, {"type": "Feature", "properties": {"layer": "EL", "dxf_type": "LINE"}, "geometry": {"type": "LineString", "coordinates": [[-54.99422403952802, -10.256334676966533], [-54.99516293026889, -10.255592344717979]]}}, {"type": "Feature", "properties": {"layer": "EL", "dxf_type": "LINE"}, "geometry": {"type": "LineString", "coordinates": [[-54.996268375462535, -10.254080954531128], [-54.99682928399208, -10.254776881805988]]}}, {"type": "Feature", "properties": {"layer": "EL", "dxf_type": "LINE"}, "geometry": {"type": "LineString", "coordinates": [[-54.99556327108839, -10.254654965912227], [-54.996132597739816, -10.255361340423848]]}}, {"type": "Feature", "properties": {"layer": "EL", "dxf_type": "LINE"}, "geometry": {"type": "LineString", "coordinates": [[-54.9949070899078, -10.25507207635265], [-54.99551320568772, -10.254592847695728]]}}, {"type": "Feature", "properties": {"layer": "EL", "dxf_type": "LINE"}, "geometry": {"type": "LineString", "coordinates": [[-54.99522023893302, -10.255460609335788], [-54.99582635520727, -10.254981380155616]]}}, {"type": "Feature", "properties": {"layer": "EL", "dxf_type": "LINE"}, "geometry": {"type": "LineString", "coordinates": [[-54.9950917498514, -10.252975480380796], [-54.99488124887198, -10.25273223850599]]}}, {"type": "Feature", "properties": {"layer": "EL", "dxf_type": "LINE"}, "geometry": {"type": "LineString", "coordinates": [[-54.99492140309164, -10.253109502007492], [-54.99471226802099, -10.252863275579355]]}}, {"type": "Feature", "properties": {"layer": "EL", "dxf_type": "LINE"}, "geometry": {"type": "LineString", "coordinates": [[-54.994751055276566, -10.25324352441482], [-54.99454185175636, -10.25299542634718]]}}, {"type": "Feature", "properties": {"layer": "EL", "dxf_type": "LINE"}, "geometry": {"type": "LineString", "coordinates": [[-54.99458070733017, -10.253377545800639], [-54.99437215346011, -10.253127019192222]]}}, {"type": "Feature", "properties": {"layer": "EL", "dxf_type": "LINE"}, "geometry": {"type": "LineString", "coordinates": [[-54.993357450102216, -10.252077371005017], [-54.994127018191016, -10.251512784043456]]}}, {"type": "Feature", "properties": {"layer": "EL", "dxf_type": "LINE"}, "geometry": {"type": "LineString", "coordinates": [[-54.993357450102216, -10.252077371005017], [-54.99234147908983, -10.252822722932441]]}}, {"type": "Feature", "properties": {"layer": "EL", "dxf_type": "LINE"}, "geometry": {"type": "LineString", "coordinates": [[-54.99234147908983, -10.252822722932441], [-54.99155275983951, -10.253273337372592]]}}, {"type": "Feature", "properties": {"layer": "EL", "dxf_type": "LINE"}, "geometry": {"type": "LineString", "coordinates": [[-54.99155275983951, -10.253273337372592], [-54.99070714052742, -10.253912240027459]]}}, {"type": "Feature", "properties": {"layer": "EL", "dxf_type": "LINE"}, "geometry": {"type": "LineString", "coordinates": [[-54.99070714052742, -10.253912240027459], [-54.98999198832112, -10.253886202002116]]}}, {"type": "Feature", "properties": {"layer": "EL", "dxf_type": "LINE"}, "geometry": {"type": "LineString", "coordinates": [[-54.996553039000446, -10.254434140847806], [-54.995847934114884, -10.255008152784685]]}}, {"type": "Feature", "properties": {"layer": "EL", "dxf_type": "LINE"}, "geometry": {"type": "LineString", "coordinates": [[-54.99556327108839, -10.254654965912227], [-54.996132597739816, -10.255361340423848]]}}, {"type": "Feature", "properties": {"layer": "EL", "dxf_type": "LINE"}, "geometry": {"type": "LineString", "coordinates": [[-54.99480723847914, -10.255151027589058], [-54.99516293026889, -10.255592344717979]]}}, {"type": "Feature", "properties": {"layer": "EL", "dxf_type": "LINE"}, "geometry": {"type": "LineString", "coordinates": [[-54.99436503096022, -10.255500659205204], [-54.99472072234594, -10.255941975863859]]}}, {"type": "Feature", "properties": {"layer": "EL", "dxf_type": "LINE"}, "geometry": {"type": "LineString", "coordinates": [[-54.99436503096022, -10.255500659205204], [-54.99480723847914, -10.255151027589058]]}}, {"type": "Feature", "properties": {"layer": "EL", "dxf_type": "LINE"}, "geometry": {"type": "LineString", "coordinates": [[-54.994132732072885, -10.255212438553848], [-54.99457493932421, -10.25486280722088]]}}, {"type": "Feature", "properties": {"layer": "EL", "dxf_type": "LINE"}, "geometry": {"type": "LineString", "coordinates": [[-54.99423283177804, -10.254901976863527], [-54.99446106694259, -10.254721522708616]]}}, {"type": "Feature", "properties": {"layer": "EL", "dxf_type": "LINE"}, "geometry": {"type": "LineString", "coordinates": [[-54.9963063136822, -10.25643604908883], [-54.996128110221925, -10.256591225898713]]}}, {"type": "Feature", "properties": {"layer": "EL", "dxf_type": "LINE"}, "geometry": {"type": "LineString", "coordinates": [[-54.996128110221925, -10.256591225898713], [-54.99598666403924, -10.25641391568962]]}}, {"type": "Feature", "properties": {"layer": "EL", "dxf_type": "LINE"}, "geometry": {"type": "LineString", "coordinates": [[-54.9963063136822, -10.25643604908883], [-54.99616486743183, -10.256258739853976]]}}, {"type": "Feature", "properties": {"layer": "EL", "dxf_type": "LINE"}, "geometry": {"type": "LineString", "coordinates": [[-54.994132732072885, -10.255212438553848], [-54.99436503096022, -10.255500659205204]]}}, {"type": "Feature", "properties": {"layer": "EL", "dxf_type": "LINE"}, "geometry": {"type": "LineString", "coordinates": [[-54.996268375462535, -10.254080954531128], [-54.99612602038572, -10.253904330442811]]}}, {"type": "Feature", "properties": {"layer": "EL", "dxf_type": "LINE"}, "geometry": {"type": "LineString", "coordinates": [[-54.99619719836154, -10.253992642494072], [-54.99549209411528, -10.254566653736207]]}}, {"type": "Feature", "properties": {"layer": "EL", "dxf_type": "LINE"}, "geometry": {"type": "LineString", "coordinates": [[-54.99556327108839, -10.254654965912227], [-54.99542091626733, -10.254478341545981]]}}, {"type": "Feature", "properties": {"layer": "EL", "dxf_type": "LINE"}, "geometry": {"type": "LineString", "coordinates": [[-54.99434425201418, -10.252475814030868], [-54.99469712455278, -10.252189270812726]]}}, {"type": "Feature", "properties": {"layer": "EL", "dxf_type": "LINE"}, "geometry": {"type": "LineString", "coordinates": [[-54.99426381451897, -10.252378638557083], [-54.99461668698846, -10.252092095418082]]}}, {"type": "Feature", "properties": {"layer": "EL", "dxf_type": "LINE"}, "geometry": {"type": "LineString", "coordinates": [[-54.99418337707098, -10.25228146307212], [-54.99453625037825, -10.251994920921769]]}}, {"type": "Feature", "properties": {"layer": "EL", "dxf_type": "LINE"}, "geometry": {"type": "LineString", "coordinates": [[-54.994102940582785, -10.252184287581644], [-54.994455812908356, -10.251897745504793]]}}, {"type": "Feature", "properties": {"layer": "EL", "dxf_type": "LINE"}, "geometry": {"type": "LineString", "coordinates": [[-54.99442468864969, -10.252572988583973], [-54.99476780193566, -10.252296105821083]]}}, {"type": "Feature", "properties": {"layer": "EL", "dxf_type": "LINE"}, "geometry": {"type": "LineString", "coordinates": [[-54.993936705930736, -10.252159455523586], [-54.9943358508381, -10.252644678806726]]}}, {"type": "Feature", "properties": {"layer": "EL", "dxf_type": "LINE"}, "geometry": {"type": "LineString", "coordinates": [[-54.99384943049969, -10.252233045361379], [-54.99424701299379, -10.252716368093386]]}}, {"type": "Feature", "properties": {"layer": "EL", "dxf_type": "LINE"}, "geometry": {"type": "LineString", "coordinates": [[-54.99376215594782, -10.252306634269491], [-54.99415817510536, -10.252788058251735]]}}, {"type": "Feature", "properties": {"layer": "EL", "dxf_type": "LINE"}, "geometry": {"type": "LineString", "coordinates": [[-54.9936748804386, -10.25238022404444], [-54.994069336271615, -10.252859747468381]]}}]}