{"type": "FeatureCollection", "name": "hachura", "crs": {"type": "name", "properties": {"name": "urn:ogc:def:crs:OGC:1.3:CRS84"}}, "properties": {"source": "8be78050_MAPA TRIBUTAÇÃO 2021 (1).dxf", "assumed_crs": "EPSG:4326", "local_crs": false, "note": "Coordenadas locais do desenho (sem CRS). Use base 'Só CAD' no mapa.", "extent": [4300.4554, 2373.7696, 8215.3349, 6186.7838], "georef": true, "transform": {"scale": 1, "rotation_deg": 0, "tx": 713717.6034368816, "ty": 8862616.121289995, "rmse_m": 0, "epsg": 31981}, "layer": "HACHURA", "source_file": "8be78050_MAPA TRIBUTAÇÃO 2021 (1)_georef.geojson", "n_features": 2}, "features": [{"type": "Feature", "properties": {"layer": "HACHURA", "dxf_type": "LINE"}, "geometry": {"type": "LineString", "coordinates": [[-54.99383159870067, -10.234156083894375], [-54.99417440291738, -10.234567895042048]]}}, {"type": "Feature", "properties": {"layer": "HACHURA", "dxf_type": "LINE"}, "geometry": {"type": "LineString", "coordinates": [[-54.99384027002751, -10.234912617689975], [-54.99417585129225, -10.234634406407343]]}}]}