{"type": "FeatureCollection", "name": "ident_das_quadras", "crs": {"type": "name", "properties": {"name": "urn:ogc:def:crs:OGC:1.3:CRS84"}}, "properties": {"source": "8be78050_MAPA TRIBUTAÇÃO 2021 (1).dxf", "assumed_crs": "EPSG:4326", "local_crs": false, "note": "Coordenadas locais do desenho (sem CRS). Use base 'Só CAD' no mapa.", "extent": [4300.4554, 2373.7696, 8215.3349, 6186.7838], "georef": true, "transform": {"scale": 1, "rotation_deg": 0, "tx": 713717.6034368816, "ty": 8862616.121289995, "rmse_m": 0, "epsg": 31981}, "layer": "IDENT_DAS_QUADRAS", "source_file": "8be78050_MAPA TRIBUTAÇÃO 2021 (1)_georef.geojson", "n_features": 7}, "features": [{"type": "Feature", "properties": {"layer": "IDENT_DAS_QUADRAS", "dxf_type": "CIRCLE", "radius_m": 1.63}, "geometry": {"type": "Polygon", "coordinates": [[[-54.976989346702375, -10.2459736179496], [-54.976989652452104, -10.245970736371955], [-54.976990518726204, -10.245967969463813], [-54.976991913826495, -10.245965422785623], [-54.97699378328071, -10.245963195428756], [-54.976996056287845, -10.245961371016437], [-54.97699864478262, -10.245960021313625], [-54.97700144896253, -10.245959198126103], [-54.977004360943845, -10.245958932419432], [-54.97700727023696, -10.245959234352979], [-54.97701006375222, -10.245960092376007], [-54.97701263491979, -10.245961474188379], [-54.97701488460227, -10.245963326746267], [-54.97701672565177, -10.245965577194333], [-54.97701808833375, -10.245968141034767], [-54.97701891943735, -10.245970918506066], [-54.97701918769349, -10.245973803655913], [-54.977018882856584, -10.245976685239317], [-54.977018016582676, -10.245979452147589], [-54.97701662148822, -10.245981997922044], [-54.97701475202827, -10.245984226182925], [-54.97701247902676, -10.245986049691469], [-54.9770098905318, -10.245987399394378], [-54.97700708634589, -10.245988223485805], [-54.97700417345174, -10.245988489186754], [-54.97700126507094, -10.245988187258824], [-54.976998471561224, -10.2459873283318], [-54.97699590039355, -10.245985946519276], [-54.97699365070533, -10.245984094865142], [-54.97699180966167, -10.245981843513084], [-54.976990446974156, -10.245979280576444], [-54.976989615870814, -10.245976503105103], [-54.976989346702375, -10.2459736179496]]]}}, {"type": "Feature", "properties": {"layer": "IDENT_DAS_QUADRAS", "dxf_type": "CIRCLE", "radius_m": 1.19}, "geometry": {"type": "Polygon", "coordinates": [[[-54.97750367089279, -10.24501615802633], [-54.977503893213914, -10.245014055100713], [-54.9775045256739, -10.245012036078762], [-54.97750554405884, -10.245010177642397], [-54.977506908669845, -10.245008551857657], [-54.97750856709516, -10.245007220768462], [-54.97751045604102, -10.24500623550406], [-54.977512502255685, -10.245005634477002], [-54.977514628022014, -10.245005440705544], [-54.977516751163236, -10.245005660909715], [-54.97751878959426, -10.245006287347609], [-54.97752066589598, -10.24500729603586], [-54.977522307309606, -10.245008647653568], [-54.97752365119478, -10.245010290288052], [-54.97752464593071, -10.245012161248196], [-54.977525252735575, -10.24501418797972], [-54.97752544836986, -10.245016293505495], [-54.97752522604887, -10.245018396431142], [-54.97752459358898, -10.245020415453157], [-54.9775235752041, -10.245022273889594], [-54.977522210593094, -10.24502389967441], [-54.977520552167725, -10.24502523076368], [-54.97751866322176, -10.24502621602811], [-54.97751661700696, -10.245026817055182], [-54.977514491240484, -10.245027010826643], [-54.97751236809912, -10.245026790622411], [-54.977510329668, -10.245026164184456], [-54.97750845336622, -10.245025155496151], [-54.977506811952594, -10.24502380387835], [-54.977505468067484, -10.245022161243803], [-54.97750447333166, -10.24502029028362], [-54.97750386652693, -10.245018263552078], [-54.97750367089279, -10.24501615802633]]]}}, {"type": "Feature", "properties": {"layer": "IDENT_DAS_QUADRAS", "dxf_type": "CIRCLE", "radius_m": 1.32}, "geometry": {"type": "Polygon", "coordinates": [[[-54.97734315726816, -10.245809993234339], [-54.97734340382207, -10.245807667193606], [-54.977344103349125, -10.245805434362563], [-54.9773452288517, -10.245803378637067], [-54.97734673875403, -10.245801580206642], [-54.97734857330348, -10.245800107396873], [-54.97735066185969, -10.245799018522538], [-54.977352925683824, -10.24579835376979], [-54.977355277003106, -10.245798138805949], [-54.97735762541023, -10.245798383011547], [-54.97735988062399, -10.245799075881811], [-54.97736195520412, -10.24580019065924], [-54.977363770927695, -10.245801686181077], [-54.97736525789959, -10.24580350325812], [-54.977366357238544, -10.24580557282664], [-54.977367028389175, -10.245807814186094], [-54.97736724542012, -10.245810143111292], [-54.97736699886638, -10.24581246915208], [-54.97736629933371, -10.245814702887088], [-54.9773651738312, -10.245816758612671], [-54.97736366392888, -10.24581855704317], [-54.97736182938509, -10.245820028949144], [-54.97735974082302, -10.245821118727406], [-54.97735747699872, -10.245821783480192], [-54.97735512568499, -10.245821997540133], [-54.97735277727197, -10.245821754238367], [-54.977350522058074, -10.245821061368009], [-54.97734844748362, -10.245819945686609], [-54.97734663175431, -10.245818451068562], [-54.97734514478248, -10.245816633991456], [-54.97734404544365, -10.245814564422885], [-54.977343374298925, -10.245812322159523], [-54.97734315726816, -10.245809993234339]]]}}, {"type": "Feature", "properties": {"layer": "IDENT_DAS_QUADRAS", "dxf_type": "CIRCLE", "radius_m": 1.46}, "geometry": {"type": "Polygon", "coordinates": [[[-54.97769072269469, -10.245518693119912], [-54.97769099548389, -10.245516115049924], [-54.97769177047309, -10.245513638630515], [-54.97769301967773, -10.245511359502336], [-54.9776946923449, -10.245509365933122], [-54.97769672593856, -10.245507733462498], [-54.977699042483515, -10.245506525783208], [-54.97770155225013, -10.245505789340505], [-54.97770415924688, -10.24550555065464], [-54.97770676209852, -10.245505821749767], [-54.97770926232802, -10.245506589358499], [-54.977711563375145, -10.245507825762774], [-54.977713576106325, -10.24550948340467], [-54.977715224272806, -10.245511497632057], [-54.97771644356373, -10.245513792116222], [-54.97771718708724, -10.245516277981988], [-54.977717428073824, -10.2455188592481], [-54.97771715436654, -10.245521438216368], [-54.97771637937749, -10.245523914635868], [-54.97771513109123, -10.245526192865961], [-54.977713457505764, -10.245528187333486], [-54.977711423917754, -10.245529818900334], [-54.977709107366906, -10.245531027483558], [-54.977706597600076, -10.245531763926282], [-54.97770399152141, -10.245532001713926], [-54.97770138775127, -10.24553173151694], [-54.97769888752162, -10.245530963908111], [-54.977696586480135, -10.24552972659985], [-54.97769457374323, -10.245528069861717], [-54.97769292649513, -10.245526054736036], [-54.97769170628607, -10.245523761150011], [-54.977690962762765, -10.245521275284217], [-54.97769072269469, -10.245518693119912]]]}}, {"type": "Feature", "properties": {"layer": "IDENT_DAS_QUADRAS", "dxf_type": "CIRCLE", "radius_m": 1.56}, "geometry": {"type": "Polygon", "coordinates": [[[-54.97803867990447, -10.245227395851554], [-54.978038972070415, -10.245224639830333], [-54.978039800149546, -10.245221993803975], [-54.97804113429792, -10.245219558825132], [-54.97804292281582, -10.245217428579158], [-54.978045095826694, -10.245215684887562], [-54.97804757077548, -10.245214394126416], [-54.978050252434336, -10.245213606322576], [-54.97805303748263, -10.24521335247039], [-54.97805581909276, -10.245213640944545], [-54.978058490551696, -10.24521446204224], [-54.97806094893994, -10.245215783486412], [-54.97806310058401, -10.245217554075335], [-54.9780648610392, -10.245219706394273], [-54.97806616420958, -10.245222157776032], [-54.97806695958733, -10.245224813899576], [-54.97806721587439, -10.245227573331965], [-54.97806692462698, -10.24523032845506], [-54.97806609563545, -10.245232974475831], [-54.978064761487175, -10.24523540945482], [-54.97806297388184, -10.24523753970658], [-54.97806079995257, -10.245239284296481], [-54.978058325009336, -10.245240574153824], [-54.97805564335025, -10.245241361957689], [-54.97805285829597, -10.245241616713747], [-54.97805007669134, -10.245241327335624], [-54.978047405232225, -10.245240506237824], [-54.97804494683815, -10.245239185697399], [-54.97804279611238, -10.245237414210152], [-54.97804103474473, -10.245235261885446], [-54.978039731574526, -10.2452328105036], [-54.978038937109574, -10.245230154385721], [-54.97803867990447, -10.245227395851554]]]}}, {"type": "Feature", "properties": {"layer": "IDENT_DAS_QUADRAS", "dxf_type": "CIRCLE", "radius_m": 1.34}, "geometry": {"type": "Polygon", "coordinates": [[[-54.978389630634815, -10.244936115798453], [-54.97838987918205, -10.244933761746362], [-54.978390587089805, -10.244931500942048], [-54.9783917273379, -10.244929420897034], [-54.97839325471215, -10.244927599970614], [-54.97839511126255, -10.2449261101155], [-54.97839722636055, -10.244925007838994], [-54.978399517605915, -10.244924335112648], [-54.97840189722614, -10.244924117604137], [-54.9784042739016, -10.24492436468864], [-54.97840655643868, -10.244925065856064], [-54.978408656484596, -10.244926194343538], [-54.97841049400279, -10.244927707169435], [-54.97841199817401, -10.244929546946887], [-54.97841311196492, -10.244931641008188], [-54.97841379115819, -10.24493391043793], [-54.97841401075766, -10.244936267401126], [-54.97841376129803, -10.244938621447595], [-54.978413053390405, -10.244940882251989], [-54.978411913142374, -10.244942962297094], [-54.97841038577385, -10.244944782319715], [-54.97840852921765, -10.244946273078797], [-54.97840641503209, -10.244947375361013], [-54.978404123786554, -10.244948048087398], [-54.978401744166135, -10.244948265595891], [-54.97839936749051, -10.244948018511336], [-54.97839708495331, -10.244947317343817], [-54.97839498399476, -10.244946188850594], [-54.9783931464823, -10.244944675120712], [-54.97839164230541, -10.244942836247072], [-54.97839052851464, -10.244940742185715], [-54.978389849321545, -10.24493847275596], [-54.978389630634815, -10.244936115798453]]]}}, {"type": "Feature", "properties": {"layer": "IDENT_DAS_QUADRAS", "dxf_type": "CIRCLE", "radius_m": 1.65}, "geometry": {"type": "Polygon", "coordinates": [[[-54.97858870191233, -10.244625398703155], [-54.97858901059387, -10.24462248369432], [-54.97858988709341, -10.244619684301144], [-54.978591298789475, -10.244617107886478], [-54.978593190297985, -10.244614853536438], [-54.9785954898889, -10.244613007580673], [-54.97859810857937, -10.244611642682928], [-54.97860094657897, -10.244610808841877], [-54.978603893249606, -10.244610539718334], [-54.97860683718955, -10.244610845466623], [-54.978609663484306, -10.24461171452531], [-54.97861226466883, -10.244613111877534], [-54.9786145406817, -10.244614986282052], [-54.97861640346806, -10.244617263974387], [-54.97861778239771, -10.244619857739762], [-54.978618623346826, -10.244622667811194], [-54.97861889505727, -10.244625586428665], [-54.97861858637026, -10.244628502341472], [-54.97861770987092, -10.244631301734765], [-54.97861629817496, -10.244633878149573], [-54.978614406666445, -10.244636132499753], [-54.97861210708115, -10.244637977551761], [-54.978609488384755, -10.244639343353466], [-54.97860665129746, -10.244640177200218], [-54.978603703719706, -10.244640445414186], [-54.978600760686334, -10.244640140575369], [-54.97859793347882, -10.244639271510882], [-54.97859533229992, -10.244637873254641], [-54.97859305628132, -10.24463599975386], [-54.97859119349507, -10.244633722061407], [-54.97858981456562, -10.24463112829595], [-54.978588973616766, -10.244628318224487], [-54.97858870191233, -10.244625398703155]]]}}]}