{"type": "FeatureCollection", "name": "lotes_q_49", "crs": {"type": "name", "properties": {"name": "urn:ogc:def:crs:OGC:1.3:CRS84"}}, "properties": {"source": "8be78050_MAPA TRIBUTAÇÃO 2021 (1).dxf", "assumed_crs": "EPSG:4326", "local_crs": false, "note": "Coordenadas locais do desenho (sem CRS). Use base 'Só CAD' no mapa.", "extent": [4300.4554, 2373.7696, 8215.3349, 6186.7838], "georef": true, "transform": {"scale": 1, "rotation_deg": 0, "tx": 713717.6034368816, "ty": 8862616.121289995, "rmse_m": 0, "epsg": 31981}, "layer": "LOTES_Q-49", "source_file": "8be78050_MAPA TRIBUTAÇÃO 2021 (1)_georef.geojson", "n_features": 237}, "features": [{"type": "Feature", "properties": {"layer": "LOTES_Q-49", "dxf_type": "LINE"}, "geometry": {"type": "LineString", "coordinates": [[-54.998854297336486, -10.243537968345423], [-54.998779549562364, -10.243597403198558]]}}, {"type": "Feature", "properties": {"layer": "LOTES_Q-49", "dxf_type": "LINE"}, "geometry": {"type": "LineString", "coordinates": [[-54.998779549562364, -10.243597403198558], [-54.99901238355179, -10.243875859930064]]}}, {"type": "Feature", "properties": {"layer": "LOTES_Q-49", "dxf_type": "LINE"}, "geometry": {"type": "LineString", "coordinates": [[-54.99901238355179, -10.243875859930064], [-54.99908740926747, -10.243816205277248]]}}, {"type": "Feature", "properties": {"layer": "LOTES_Q-49", "dxf_type": "LINE"}, "geometry": {"type": "LineString", "coordinates": [[-54.99908740926747, -10.243816205277248], [-54.998854297336486, -10.243537968345423]]}}, {"type": "Feature", "properties": {"layer": "LOTES_Q-49", "dxf_type": "LINE"}, "geometry": {"type": "LineString", "coordinates": [[-54.998854297336486, -10.243537968345423], [-54.998854297336486, -10.243537968345423]]}}, {"type": "Feature", "properties": {"layer": "LOTES_Q-49", "dxf_type": "LINE"}, "geometry": {"type": "LineString", "coordinates": [[-54.998779549562364, -10.243597403198558], [-54.99870965415064, -10.243658721843431]]}}, {"type": "Feature", "properties": {"layer": "LOTES_Q-49", "dxf_type": "LINE"}, "geometry": {"type": "LineString", "coordinates": [[-54.99870965415064, -10.243658721843431], [-54.99893734873705, -10.243941324927135]]}}, {"type": "Feature", "properties": {"layer": "LOTES_Q-49", "dxf_type": "LINE"}, "geometry": {"type": "LineString", "coordinates": [[-54.99893734873705, -10.243941324927135], [-54.99901238355179, -10.243875859930064]]}}, {"type": "Feature", "properties": {"layer": "LOTES_Q-49", "dxf_type": "LINE"}, "geometry": {"type": "LineString", "coordinates": [[-54.99901238355179, -10.243875859930064], [-54.998779549562364, -10.243597403198558]]}}, {"type": "Feature", "properties": {"layer": "LOTES_Q-49", "dxf_type": "LINE"}, "geometry": {"type": "LineString", "coordinates": [[-54.998779549562364, -10.243597403198558], [-54.998779549562364, -10.243597403198558]]}}, {"type": "Feature", "properties": {"layer": "LOTES_Q-49", "dxf_type": "LINE"}, "geometry": {"type": "LineString", "coordinates": [[-54.9988795640243, -10.24342432073217], [-54.99884111896884, -10.243297691157409]]}}, {"type": "Feature", "properties": {"layer": "LOTES_Q-49", "dxf_type": "LINE"}, "geometry": {"type": "LineString", "coordinates": [[-54.99884111896884, -10.243297691157409], [-54.99880142044455, -10.243082397917249]]}}, {"type": "Feature", "properties": {"layer": "LOTES_Q-49", "dxf_type": "LINE"}, "geometry": {"type": "LineString", "coordinates": [[-54.99880142044455, -10.243082397917249], [-54.99875194074102, -10.243090388703703]]}}, {"type": "Feature", "properties": {"layer": "LOTES_Q-49", "dxf_type": "LINE"}, "geometry": {"type": "LineString", "coordinates": [[-54.99875194074102, -10.243090388703703], [-54.99872585191328, -10.243094624822463]]}}, {"type": "Feature", "properties": {"layer": "LOTES_Q-49", "dxf_type": "LINE"}, "geometry": {"type": "LineString", "coordinates": [[-54.99872585191328, -10.243094624822463], [-54.998731514291464, -10.243115628898027]]}}, {"type": "Feature", "properties": {"layer": "LOTES_Q-49", "dxf_type": "LINE"}, "geometry": {"type": "LineString", "coordinates": [[-54.998731514291464, -10.243115628898027], [-54.99872489913122, -10.24311804866462]]}}, {"type": "Feature", "properties": {"layer": "LOTES_Q-49", "dxf_type": "LINE"}, "geometry": {"type": "LineString", "coordinates": [[-54.99872489913122, -10.24311804866462], [-54.998757875828545, -10.24323157836672]]}}, {"type": "Feature", "properties": {"layer": "LOTES_Q-49", "dxf_type": "LINE"}, "geometry": {"type": "LineString", "coordinates": [[-54.998757875828545, -10.24323157836672], [-54.998748685469145, -10.243236441860745]]}}, {"type": "Feature", "properties": {"layer": "LOTES_Q-49", "dxf_type": "LINE"}, "geometry": {"type": "LineString", "coordinates": [[-54.998748685469145, -10.243236441860745], [-54.99881008838228, -10.243452922660584]]}}, {"type": "Feature", "properties": {"layer": "LOTES_Q-49", "dxf_type": "LINE"}, "geometry": {"type": "LineString", "coordinates": [[-54.99881008838228, -10.243452922660584], [-54.9988795640243, -10.24342432073217]]}}, {"type": "Feature", "properties": {"layer": "LOTES_Q-49", "dxf_type": "LINE"}, "geometry": {"type": "LineString", "coordinates": [[-54.9988795640243, -10.24342432073217], [-54.9988795640243, -10.24342432073217]]}}, {"type": "Feature", "properties": {"layer": "LOTES_Q-49", "dxf_type": "LINE"}, "geometry": {"type": "LineString", "coordinates": [[-54.99905104573639, -10.24198434577009], [-54.9989845409983, -10.242021673578767]]}}, {"type": "Feature", "properties": {"layer": "LOTES_Q-49", "dxf_type": "LINE"}, "geometry": {"type": "LineString", "coordinates": [[-54.9989845409983, -10.242021673578767], [-54.998977891857855, -10.24201176362225]]}}, {"type": "Feature", "properties": {"layer": "LOTES_Q-49", "dxf_type": "LINE"}, "geometry": {"type": "LineString", "coordinates": [[-54.998977891857855, -10.24201176362225], [-54.998950494544324, -10.242031261713052]]}}, {"type": "Feature", "properties": {"layer": "LOTES_Q-49", "dxf_type": "LINE"}, "geometry": {"type": "LineString", "coordinates": [[-54.998950494544324, -10.242031261713052], [-54.998935199499975, -10.2420210427439]]}}, {"type": "Feature", "properties": {"layer": "LOTES_Q-49", "dxf_type": "LINE"}, "geometry": {"type": "LineString", "coordinates": [[-54.998935199499975, -10.2420210427439], [-54.99886268199375, -10.242068636449915]]}}, {"type": "Feature", "properties": {"layer": "LOTES_Q-49", "dxf_type": "LINE"}, "geometry": {"type": "LineString", "coordinates": [[-54.99886268199375, -10.242068636449915], [-54.99879145867202, -10.242122901827154]]}}, {"type": "Feature", "properties": {"layer": "LOTES_Q-49", "dxf_type": "LINE"}, "geometry": {"type": "LineString", "coordinates": [[-54.99879145867202, -10.242122901827154], [-54.99871010254223, -10.242185043988645]]}}, {"type": "Feature", "properties": {"layer": "LOTES_Q-49", "dxf_type": "LINE"}, "geometry": {"type": "LineString", "coordinates": [[-54.99871010254223, -10.242185043988645], [-54.998649983241954, -10.24223546276716]]}}, {"type": "Feature", "properties": {"layer": "LOTES_Q-49", "dxf_type": "LINE"}, "geometry": {"type": "LineString", "coordinates": [[-54.998649983241954, -10.24223546276716], [-54.99856966507969, -10.242291869546822]]}}, {"type": "Feature", "properties": {"layer": "LOTES_Q-49", "dxf_type": "LINE"}, "geometry": {"type": "LineString", "coordinates": [[-54.99856966507969, -10.242291869546822], [-54.998497264728684, -10.24234302804168]]}}, {"type": "Feature", "properties": {"layer": "LOTES_Q-49", "dxf_type": "LINE"}, "geometry": {"type": "LineString", "coordinates": [[-54.998497264728684, -10.24234302804168], [-54.99841762603954, -10.242398038777734]]}}, {"type": "Feature", "properties": {"layer": "LOTES_Q-49", "dxf_type": "LINE"}, "geometry": {"type": "LineString", "coordinates": [[-54.99841762603954, -10.242398038777734], [-54.99834498785969, -10.242452332380719]]}}, {"type": "Feature", "properties": {"layer": "LOTES_Q-49", "dxf_type": "LINE"}, "geometry": {"type": "LineString", "coordinates": [[-54.99834498785969, -10.242452332380719], [-54.998156439831135, -10.242613338327457]]}}, {"type": "Feature", "properties": {"layer": "LOTES_Q-49", "dxf_type": "LINE"}, "geometry": {"type": "LineString", "coordinates": [[-54.998156439831135, -10.242613338327457], [-54.99819447866868, -10.24266997913797]]}}, {"type": "Feature", "properties": {"layer": "LOTES_Q-49", "dxf_type": "LINE"}, "geometry": {"type": "LineString", "coordinates": [[-54.99819447866868, -10.24266997913797], [-54.99818825583092, -10.242673870185625]]}}, {"type": "Feature", "properties": {"layer": "LOTES_Q-49", "dxf_type": "LINE"}, "geometry": {"type": "LineString", "coordinates": [[-54.99818825583092, -10.242673870185625], [-54.99823947448314, -10.242744482723378]]}}, {"type": "Feature", "properties": {"layer": "LOTES_Q-49", "dxf_type": "LINE"}, "geometry": {"type": "LineString", "coordinates": [[-54.99823947448314, -10.242744482723378], [-54.99828568828426, -10.242822825536162]]}}, {"type": "Feature", "properties": {"layer": "LOTES_Q-49", "dxf_type": "LINE"}, "geometry": {"type": "LineString", "coordinates": [[-54.99828568828426, -10.242822825536162], [-54.99833152564932, -10.242902841903389]]}}, {"type": "Feature", "properties": {"layer": "LOTES_Q-49", "dxf_type": "LINE"}, "geometry": {"type": "LineString", "coordinates": [[-54.99833152564932, -10.242902841903389], [-54.99837546657974, -10.24297821308143]]}}, {"type": "Feature", "properties": {"layer": "LOTES_Q-49", "dxf_type": "LINE"}, "geometry": {"type": "LineString", "coordinates": [[-54.99837546657974, -10.24297821308143], [-54.99842713364415, -10.243059696239893]]}}, {"type": "Feature", "properties": {"layer": "LOTES_Q-49", "dxf_type": "LINE"}, "geometry": {"type": "LineString", "coordinates": [[-54.99842713364415, -10.243059696239893], [-54.99852361842053, -10.243217183284152]]}}, {"type": "Feature", "properties": {"layer": "LOTES_Q-49", "dxf_type": "LINE"}, "geometry": {"type": "LineString", "coordinates": [[-54.99852361842053, -10.243217183284152], [-54.998579284663315, -10.243314948116835]]}}, {"type": "Feature", "properties": {"layer": "LOTES_Q-49", "dxf_type": "LINE"}, "geometry": {"type": "LineString", "coordinates": [[-54.998579284663315, -10.243314948116835], [-54.9986853475497, -10.243494086123183]]}}, {"type": "Feature", "properties": {"layer": "LOTES_Q-49", "dxf_type": "LINE"}, "geometry": {"type": "LineString", "coordinates": [[-54.9986853475497, -10.243494086123183], [-54.99881008838228, -10.243452922660584]]}}, {"type": "Feature", "properties": {"layer": "LOTES_Q-49", "dxf_type": "LINE"}, "geometry": {"type": "LineString", "coordinates": [[-54.99881008838228, -10.243452922660584], [-54.9988795640243, -10.24342432073217]]}}, {"type": "Feature", "properties": {"layer": "LOTES_Q-49", "dxf_type": "LINE"}, "geometry": {"type": "LineString", "coordinates": [[-54.9988795640243, -10.24342432073217], [-54.99887947550535, -10.243424029123881]]}}, {"type": "Feature", "properties": {"layer": "LOTES_Q-49", "dxf_type": "LINE"}, "geometry": {"type": "LineString", "coordinates": [[-54.99887947550535, -10.243424029123881], [-54.998948682706285, -10.243399956897035]]}}, {"type": "Feature", "properties": {"layer": "LOTES_Q-49", "dxf_type": "LINE"}, "geometry": {"type": "LineString", "coordinates": [[-54.998948682706285, -10.243399956897035], [-54.99894436488928, -10.243365665279276]]}}, {"type": "Feature", "properties": {"layer": "LOTES_Q-49", "dxf_type": "LINE"}, "geometry": {"type": "LineString", "coordinates": [[-54.99894436488928, -10.243365665279276], [-54.999021659089586, -10.243351133099926]]}}, {"type": "Feature", "properties": {"layer": "LOTES_Q-49", "dxf_type": "LINE"}, "geometry": {"type": "LineString", "coordinates": [[-54.999021659089586, -10.243351133099926], [-54.99912511807864, -10.243349938409747]]}}, {"type": "Feature", "properties": {"layer": "LOTES_Q-49", "dxf_type": "LINE"}, "geometry": {"type": "LineString", "coordinates": [[-54.99912511807864, -10.243349938409747], [-54.999262235573795, -10.243292486270262]]}}, {"type": "Feature", "properties": {"layer": "LOTES_Q-49", "dxf_type": "LINE"}, "geometry": {"type": "LineString", "coordinates": [[-54.999262235573795, -10.243292486270262], [-54.99930185992481, -10.243268946029477]]}}, {"type": "Feature", "properties": {"layer": "LOTES_Q-49", "dxf_type": "LINE"}, "geometry": {"type": "LineString", "coordinates": [[-54.99930185992481, -10.243268946029477], [-54.99933039598327, -10.243182704652844]]}}, {"type": "Feature", "properties": {"layer": "LOTES_Q-49", "dxf_type": "LINE"}, "geometry": {"type": "LineString", "coordinates": [[-54.99933039598327, -10.243182704652844], [-54.999326573705126, -10.242799605303494]]}}, {"type": "Feature", "properties": {"layer": "LOTES_Q-49", "dxf_type": "LINE"}, "geometry": {"type": "LineString", "coordinates": [[-54.999326573705126, -10.242799605303494], [-54.999324555359316, -10.242597278382702]]}}, {"type": "Feature", "properties": {"layer": "LOTES_Q-49", "dxf_type": "LINE"}, "geometry": {"type": "LineString", "coordinates": [[-54.999324555359316, -10.242597278382702], [-54.99932365381181, -10.242506892168024]]}}, {"type": "Feature", "properties": {"layer": "LOTES_Q-49", "dxf_type": "LINE"}, "geometry": {"type": "LineString", "coordinates": [[-54.99932365381181, -10.242506892168024], [-54.999322751347286, -10.242416505947372]]}}, {"type": "Feature", "properties": {"layer": "LOTES_Q-49", "dxf_type": "LINE"}, "geometry": {"type": "LineString", "coordinates": [[-54.999322751347286, -10.242416505947372], [-54.99931658322583, -10.242310244250545]]}}, {"type": "Feature", "properties": {"layer": "LOTES_Q-49", "dxf_type": "LINE"}, "geometry": {"type": "LineString", "coordinates": [[-54.99931658322583, -10.242310244250545], [-54.999337315068175, -10.242308324412052]]}}, {"type": "Feature", "properties": {"layer": "LOTES_Q-49", "dxf_type": "LINE"}, "geometry": {"type": "LineString", "coordinates": [[-54.999337315068175, -10.242308324412052], [-54.99932948702996, -10.24212927937174]]}}, {"type": "Feature", "properties": {"layer": "LOTES_Q-49", "dxf_type": "LINE"}, "geometry": {"type": "LineString", "coordinates": [[-54.99932948702996, -10.24212927937174], [-54.99932180233938, -10.241953277821954]]}}, {"type": "Feature", "properties": {"layer": "LOTES_Q-49", "dxf_type": "LINE"}, "geometry": {"type": "LineString", "coordinates": [[-54.99932180233938, -10.241953277821954], [-54.999204648588154, -10.241958652211185]]}}, {"type": "Feature", "properties": {"layer": "LOTES_Q-49", "dxf_type": "LINE"}, "geometry": {"type": "LineString", "coordinates": [[-54.999204648588154, -10.241958652211185], [-54.99905104573639, -10.24198434577009]]}}, {"type": "Feature", "properties": {"layer": "LOTES_Q-49", "dxf_type": "LINE"}, "geometry": {"type": "LineString", "coordinates": [[-54.99905104573639, -10.24198434577009], [-54.99905104573639, -10.24198434577009]]}}, {"type": "Feature", "properties": {"layer": "LOTES_Q-49", "dxf_type": "LINE"}, "geometry": {"type": "LineString", "coordinates": [[-54.99819447866868, -10.24266997913797], [-54.99839774610169, -10.242527597827213]]}}, {"type": "Feature", "properties": {"layer": "LOTES_Q-49", "dxf_type": "LINE"}, "geometry": {"type": "LineString", "coordinates": [[-54.99839774610169, -10.242527597827213], [-54.99834498785969, -10.242452332380719]]}}, {"type": "Feature", "properties": {"layer": "LOTES_Q-49", "dxf_type": "LINE"}, "geometry": {"type": "LineString", "coordinates": [[-54.99834498785969, -10.242452332380719], [-54.998156439831135, -10.242613338327457]]}}, {"type": "Feature", "properties": {"layer": "LOTES_Q-49", "dxf_type": "LINE"}, "geometry": {"type": "LineString", "coordinates": [[-54.998156439831135, -10.242613338327457], [-54.99819447866868, -10.24266997913797]]}}, {"type": "Feature", "properties": {"layer": "LOTES_Q-49", "dxf_type": "LINE"}, "geometry": {"type": "LineString", "coordinates": [[-54.99819447866868, -10.24266997913797], [-54.99819447866868, -10.24266997913797]]}}, {"type": "Feature", "properties": {"layer": "LOTES_Q-49", "dxf_type": "LINE"}, "geometry": {"type": "LineString", "coordinates": [[-54.99912511807864, -10.243349938409747], [-54.99910824274993, -10.242992496215336]]}}, {"type": "Feature", "properties": {"layer": "LOTES_Q-49", "dxf_type": "LINE"}, "geometry": {"type": "LineString", "coordinates": [[-54.99910824274993, -10.242992496215336], [-54.99901483020774, -10.242992908479554]]}}, {"type": "Feature", "properties": {"layer": "LOTES_Q-49", "dxf_type": "LINE"}, "geometry": {"type": "LineString", "coordinates": [[-54.99901483020774, -10.242992908479554], [-54.999021659089586, -10.243351133099926]]}}, {"type": "Feature", "properties": {"layer": "LOTES_Q-49", "dxf_type": "LINE"}, "geometry": {"type": "LineString", "coordinates": [[-54.999021659089586, -10.243351133099926], [-54.99912511807864, -10.243349938409747]]}}, {"type": "Feature", "properties": {"layer": "LOTES_Q-49", "dxf_type": "LINE"}, "geometry": {"type": "LineString", "coordinates": [[-54.99912511807864, -10.243349938409747], [-54.99912511807864, -10.243349938409747]]}}, {"type": "Feature", "properties": {"layer": "LOTES_Q-49", "dxf_type": "LINE"}, "geometry": {"type": "LineString", "coordinates": [[-54.9986853475497, -10.243494086123183], [-54.99881008838228, -10.243452922660584]]}}, {"type": "Feature", "properties": {"layer": "LOTES_Q-49", "dxf_type": "LINE"}, "geometry": {"type": "LineString", "coordinates": [[-54.99881008838228, -10.243452922660584], [-54.998748685469145, -10.243236441860745]]}}, {"type": "Feature", "properties": {"layer": "LOTES_Q-49", "dxf_type": "LINE"}, "geometry": {"type": "LineString", "coordinates": [[-54.998748685469145, -10.243236441860745], [-54.998579284663315, -10.243314948116835]]}}, {"type": "Feature", "properties": {"layer": "LOTES_Q-49", "dxf_type": "LINE"}, "geometry": {"type": "LineString", "coordinates": [[-54.998579284663315, -10.243314948116835], [-54.9986853475497, -10.243494086123183]]}}, {"type": "Feature", "properties": {"layer": "LOTES_Q-49", "dxf_type": "LINE"}, "geometry": {"type": "LineString", "coordinates": [[-54.9986853475497, -10.243494086123183], [-54.9986853475497, -10.243494086123183]]}}, {"type": "Feature", "properties": {"layer": "LOTES_Q-49", "dxf_type": "LINE"}, "geometry": {"type": "LineString", "coordinates": [[-54.99880142044455, -10.243082397917249], [-54.99884111896884, -10.243297691157409]]}}, {"type": "Feature", "properties": {"layer": "LOTES_Q-49", "dxf_type": "LINE"}, "geometry": {"type": "LineString", "coordinates": [[-54.99884111896884, -10.243297691157409], [-54.99887947550535, -10.243424029123881]]}}, {"type": "Feature", "properties": {"layer": "LOTES_Q-49", "dxf_type": "LINE"}, "geometry": {"type": "LineString", "coordinates": [[-54.99887947550535, -10.243424029123881], [-54.998948682706285, -10.243399956897035]]}}, {"type": "Feature", "properties": {"layer": "LOTES_Q-49", "dxf_type": "LINE"}, "geometry": {"type": "LineString", "coordinates": [[-54.998948682706285, -10.243399956897035], [-54.99894436488928, -10.243365665279276]]}}, {"type": "Feature", "properties": {"layer": "LOTES_Q-49", "dxf_type": "LINE"}, "geometry": {"type": "LineString", "coordinates": [[-54.99894436488928, -10.243365665279276], [-54.9989100120893, -10.243064723793447]]}}, {"type": "Feature", "properties": {"layer": "LOTES_Q-49", "dxf_type": "LINE"}, "geometry": {"type": "LineString", "coordinates": [[-54.9989100120893, -10.243064723793447], [-54.99880142044455, -10.243082397917249]]}}, {"type": "Feature", "properties": {"layer": "LOTES_Q-49", "dxf_type": "LINE"}, "geometry": {"type": "LineString", "coordinates": [[-54.99880142044455, -10.243082397917249], [-54.99880142044455, -10.243082397917249]]}}, {"type": "Feature", "properties": {"layer": "LOTES_Q-49", "dxf_type": "LINE"}, "geometry": {"type": "LineString", "coordinates": [[-54.99894436488928, -10.243365665279276], [-54.999021659089586, -10.243351133099926]]}}, {"type": "Feature", "properties": {"layer": "LOTES_Q-49", "dxf_type": "LINE"}, "geometry": {"type": "LineString", "coordinates": [[-54.999021659089586, -10.243351133099926], [-54.99901483020774, -10.242992908479554]]}}, {"type": "Feature", "properties": {"layer": "LOTES_Q-49", "dxf_type": "LINE"}, "geometry": {"type": "LineString", "coordinates": [[-54.99901483020774, -10.242992908479554], [-54.99890501607015, -10.243004412167277]]}}, {"type": "Feature", "properties": {"layer": "LOTES_Q-49", "dxf_type": "LINE"}, "geometry": {"type": "LineString", "coordinates": [[-54.99890501607015, -10.243004412167277], [-54.9989100120893, -10.243064723793447]]}}, {"type": "Feature", "properties": {"layer": "LOTES_Q-49", "dxf_type": "LINE"}, "geometry": {"type": "LineString", "coordinates": [[-54.9989100120893, -10.243064723793447], [-54.99894436488928, -10.243365665279276]]}}, {"type": "Feature", "properties": {"layer": "LOTES_Q-49", "dxf_type": "LINE"}, "geometry": {"type": "LineString", "coordinates": [[-54.99894436488928, -10.243365665279276], [-54.99894436488928, -10.243365665279276]]}}, {"type": "Feature", "properties": {"layer": "LOTES_Q-49", "dxf_type": "LINE"}, "geometry": {"type": "LineString", "coordinates": [[-54.99835357630652, -10.242660341025417], [-54.99823947448314, -10.242744482723378]]}}, {"type": "Feature", "properties": {"layer": "LOTES_Q-49", "dxf_type": "LINE"}, "geometry": {"type": "LineString", "coordinates": [[-54.99823947448314, -10.242744482723378], [-54.99828568828426, -10.242822825536162]]}}, {"type": "Feature", "properties": {"layer": "LOTES_Q-49", "dxf_type": "LINE"}, "geometry": {"type": "LineString", "coordinates": [[-54.99828568828426, -10.242822825536162], [-54.998475670731565, -10.242686448526985]]}}, {"type": "Feature", "properties": {"layer": "LOTES_Q-49", "dxf_type": "LINE"}, "geometry": {"type": "LineString", "coordinates": [[-54.998475670731565, -10.242686448526985], [-54.99849951868026, -10.24266932946736]]}}, {"type": "Feature", "properties": {"layer": "LOTES_Q-49", "dxf_type": "LINE"}, "geometry": {"type": "LineString", "coordinates": [[-54.99849951868026, -10.24266932946736], [-54.998447702803496, -10.242597168480314]]}}, {"type": "Feature", "properties": {"layer": "LOTES_Q-49", "dxf_type": "LINE"}, "geometry": {"type": "LineString", "coordinates": [[-54.998447702803496, -10.242597168480314], [-54.99840432466552, -10.2426262817071]]}}, {"type": "Feature", "properties": {"layer": "LOTES_Q-49", "dxf_type": "LINE"}, "geometry": {"type": "LineString", "coordinates": [[-54.99840432466552, -10.2426262817071], [-54.99835357630652, -10.242660341025417]]}}, {"type": "Feature", "properties": {"layer": "LOTES_Q-49", "dxf_type": "LINE"}, "geometry": {"type": "LineString", "coordinates": [[-54.99835357630652, -10.242660341025417], [-54.99835357630652, -10.242660341025417]]}}, {"type": "Feature", "properties": {"layer": "LOTES_Q-49", "dxf_type": "LINE"}, "geometry": {"type": "LineString", "coordinates": [[-54.99819447866868, -10.24266997913797], [-54.99818825583092, -10.242673870185625]]}}, {"type": "Feature", "properties": {"layer": "LOTES_Q-49", "dxf_type": "LINE"}, "geometry": {"type": "LineString", "coordinates": [[-54.99818825583092, -10.242673870185625], [-54.99823947448314, -10.242744482723378]]}}, {"type": "Feature", "properties": {"layer": "LOTES_Q-49", "dxf_type": "LINE"}, "geometry": {"type": "LineString", "coordinates": [[-54.99823947448314, -10.242744482723378], [-54.99835357630652, -10.242660341025417]]}}, {"type": "Feature", "properties": {"layer": "LOTES_Q-49", "dxf_type": "LINE"}, "geometry": {"type": "LineString", "coordinates": [[-54.99835357630652, -10.242660341025417], [-54.99840432466552, -10.2426262817071]]}}, {"type": "Feature", "properties": {"layer": "LOTES_Q-49", "dxf_type": "LINE"}, "geometry": {"type": "LineString", "coordinates": [[-54.99840432466552, -10.2426262817071], [-54.998447702803496, -10.242597168480314]]}}, {"type": "Feature", "properties": {"layer": "LOTES_Q-49", "dxf_type": "LINE"}, "geometry": {"type": "LineString", "coordinates": [[-54.998447702803496, -10.242597168480314], [-54.99839774610169, -10.242527597827213]]}}, {"type": "Feature", "properties": {"layer": "LOTES_Q-49", "dxf_type": "LINE"}, "geometry": {"type": "LineString", "coordinates": [[-54.99839774610169, -10.242527597827213], [-54.99819447866868, -10.24266997913797]]}}, {"type": "Feature", "properties": {"layer": "LOTES_Q-49", "dxf_type": "LINE"}, "geometry": {"type": "LineString", "coordinates": [[-54.99819447866868, -10.24266997913797], [-54.99819447866868, -10.24266997913797]]}}, {"type": "Feature", "properties": {"layer": "LOTES_Q-49", "dxf_type": "LINE"}, "geometry": {"type": "LineString", "coordinates": [[-54.99842713364415, -10.243059696239893], [-54.99852361842053, -10.243217183284152]]}}, {"type": "Feature", "properties": {"layer": "LOTES_Q-49", "dxf_type": "LINE"}, "geometry": {"type": "LineString", "coordinates": [[-54.99852361842053, -10.243217183284152], [-54.99872489913122, -10.24311804866462]]}}, {"type": "Feature", "properties": {"layer": "LOTES_Q-49", "dxf_type": "LINE"}, "geometry": {"type": "LineString", "coordinates": [[-54.99872489913122, -10.24311804866462], [-54.998731514291464, -10.243115628898027]]}}, {"type": "Feature", "properties": {"layer": "LOTES_Q-49", "dxf_type": "LINE"}, "geometry": {"type": "LineString", "coordinates": [[-54.998731514291464, -10.243115628898027], [-54.99872585191328, -10.243094624822463]]}}, {"type": "Feature", "properties": {"layer": "LOTES_Q-49", "dxf_type": "LINE"}, "geometry": {"type": "LineString", "coordinates": [[-54.99872585191328, -10.243094624822463], [-54.998671738885676, -10.242893871067439]]}}, {"type": "Feature", "properties": {"layer": "LOTES_Q-49", "dxf_type": "LINE"}, "geometry": {"type": "LineString", "coordinates": [[-54.998671738885676, -10.242893871067439], [-54.99842713364415, -10.243059696239893]]}}, {"type": "Feature", "properties": {"layer": "LOTES_Q-49", "dxf_type": "LINE"}, "geometry": {"type": "LineString", "coordinates": [[-54.99842713364415, -10.243059696239893], [-54.99842713364415, -10.243059696239893]]}}, {"type": "Feature", "properties": {"layer": "LOTES_Q-49", "dxf_type": "LINE"}, "geometry": {"type": "LineString", "coordinates": [[-54.998475670731565, -10.242686448526985], [-54.99828568828426, -10.242822825536162]]}}, {"type": "Feature", "properties": {"layer": "LOTES_Q-49", "dxf_type": "LINE"}, "geometry": {"type": "LineString", "coordinates": [[-54.99828568828426, -10.242822825536162], [-54.99833152564932, -10.242902841903389]]}}, {"type": "Feature", "properties": {"layer": "LOTES_Q-49", "dxf_type": "LINE"}, "geometry": {"type": "LineString", "coordinates": [[-54.99833152564932, -10.242902841903389], [-54.99852897275428, -10.24276145426925]]}}, {"type": "Feature", "properties": {"layer": "LOTES_Q-49", "dxf_type": "LINE"}, "geometry": {"type": "LineString", "coordinates": [[-54.99852897275428, -10.24276145426925], [-54.99855351970165, -10.242744781527334]]}}, {"type": "Feature", "properties": {"layer": "LOTES_Q-49", "dxf_type": "LINE"}, "geometry": {"type": "LineString", "coordinates": [[-54.99855351970165, -10.242744781527334], [-54.998602411022944, -10.24281718483548]]}}, {"type": "Feature", "properties": {"layer": "LOTES_Q-49", "dxf_type": "LINE"}, "geometry": {"type": "LineString", "coordinates": [[-54.998602411022944, -10.24281718483548], [-54.9986537442032, -10.242782715984452]]}}, {"type": "Feature", "properties": {"layer": "LOTES_Q-49", "dxf_type": "LINE"}, "geometry": {"type": "LineString", "coordinates": [[-54.9986537442032, -10.242782715984452], [-54.998614958783364, -10.242696249265114]]}}, {"type": "Feature", "properties": {"layer": "LOTES_Q-49", "dxf_type": "LINE"}, "geometry": {"type": "LineString", "coordinates": [[-54.998614958783364, -10.242696249265114], [-54.99857953774798, -10.24261755801413]]}}, {"type": "Feature", "properties": {"layer": "LOTES_Q-49", "dxf_type": "LINE"}, "geometry": {"type": "LineString", "coordinates": [[-54.99857953774798, -10.24261755801413], [-54.99849951958716, -10.242669330376861]]}}, {"type": "Feature", "properties": {"layer": "LOTES_Q-49", "dxf_type": "LINE"}, "geometry": {"type": "LineString", "coordinates": [[-54.99849951958716, -10.242669330376861], [-54.998475670731565, -10.242686448526985]]}}, {"type": "Feature", "properties": {"layer": "LOTES_Q-49", "dxf_type": "LINE"}, "geometry": {"type": "LineString", "coordinates": [[-54.998475670731565, -10.242686448526985], [-54.998475670731565, -10.242686448526985]]}}, {"type": "Feature", "properties": {"layer": "LOTES_Q-49", "dxf_type": "LINE"}, "geometry": {"type": "LineString", "coordinates": [[-54.99833152564932, -10.242902841903389], [-54.99837546657974, -10.24297821308143]]}}, {"type": "Feature", "properties": {"layer": "LOTES_Q-49", "dxf_type": "LINE"}, "geometry": {"type": "LineString", "coordinates": [[-54.99837546657974, -10.24297821308143], [-54.998602411022944, -10.24281718483548]]}}, {"type": "Feature", "properties": {"layer": "LOTES_Q-49", "dxf_type": "LINE"}, "geometry": {"type": "LineString", "coordinates": [[-54.998602411022944, -10.24281718483548], [-54.99855351970165, -10.242744781527334]]}}, {"type": "Feature", "properties": {"layer": "LOTES_Q-49", "dxf_type": "LINE"}, "geometry": {"type": "LineString", "coordinates": [[-54.99855351970165, -10.242744781527334], [-54.99852897275428, -10.24276145426925]]}}, {"type": "Feature", "properties": {"layer": "LOTES_Q-49", "dxf_type": "LINE"}, "geometry": {"type": "LineString", "coordinates": [[-54.99852897275428, -10.24276145426925], [-54.99833152564932, -10.242902841903389]]}}, {"type": "Feature", "properties": {"layer": "LOTES_Q-49", "dxf_type": "LINE"}, "geometry": {"type": "LineString", "coordinates": [[-54.99833152564932, -10.242902841903389], [-54.99833152564932, -10.242902841903389]]}}, {"type": "Feature", "properties": {"layer": "LOTES_Q-49", "dxf_type": "LINE"}, "geometry": {"type": "LineString", "coordinates": [[-54.99852361842053, -10.243217183284152], [-54.998579284663315, -10.243314948116835]]}}, {"type": "Feature", "properties": {"layer": "LOTES_Q-49", "dxf_type": "LINE"}, "geometry": {"type": "LineString", "coordinates": [[-54.998579284663315, -10.243314948116835], [-54.998748685469145, -10.243236441860745]]}}, {"type": "Feature", "properties": {"layer": "LOTES_Q-49", "dxf_type": "LINE"}, "geometry": {"type": "LineString", "coordinates": [[-54.998748685469145, -10.243236441860745], [-54.998757875828545, -10.24323157836672]]}}, {"type": "Feature", "properties": {"layer": "LOTES_Q-49", "dxf_type": "LINE"}, "geometry": {"type": "LineString", "coordinates": [[-54.998757875828545, -10.24323157836672], [-54.99872489913122, -10.24311804866462]]}}, {"type": "Feature", "properties": {"layer": "LOTES_Q-49", "dxf_type": "LINE"}, "geometry": {"type": "LineString", "coordinates": [[-54.99872489913122, -10.24311804866462], [-54.99852361842053, -10.243217183284152]]}}, {"type": "Feature", "properties": {"layer": "LOTES_Q-49", "dxf_type": "LINE"}, "geometry": {"type": "LineString", "coordinates": [[-54.99852361842053, -10.243217183284152], [-54.99852361842053, -10.243217183284152]]}}, {"type": "Feature", "properties": {"layer": "LOTES_Q-49", "dxf_type": "LINE"}, "geometry": {"type": "LineString", "coordinates": [[-54.99841762603954, -10.242398038777734], [-54.99834498785969, -10.242452332380719]]}}, {"type": "Feature", "properties": {"layer": "LOTES_Q-49", "dxf_type": "LINE"}, "geometry": {"type": "LineString", "coordinates": [[-54.99834498785969, -10.242452332380719], [-54.99839774610169, -10.242527597827213]]}}, {"type": "Feature", "properties": {"layer": "LOTES_Q-49", "dxf_type": "LINE"}, "geometry": {"type": "LineString", "coordinates": [[-54.99839774610169, -10.242527597827213], [-54.998447702803496, -10.242597168480314]]}}, {"type": "Feature", "properties": {"layer": "LOTES_Q-49", "dxf_type": "LINE"}, "geometry": {"type": "LineString", "coordinates": [[-54.998447702803496, -10.242597168480314], [-54.99849951868026, -10.24266932946736]]}}, {"type": "Feature", "properties": {"layer": "LOTES_Q-49", "dxf_type": "LINE"}, "geometry": {"type": "LineString", "coordinates": [[-54.99849951868026, -10.24266932946736], [-54.99857954046868, -10.242617560742643]]}}, {"type": "Feature", "properties": {"layer": "LOTES_Q-49", "dxf_type": "LINE"}, "geometry": {"type": "LineString", "coordinates": [[-54.99857954046868, -10.242617560742643], [-54.998541332625486, -10.242564718117135]]}}, {"type": "Feature", "properties": {"layer": "LOTES_Q-49", "dxf_type": "LINE"}, "geometry": {"type": "LineString", "coordinates": [[-54.998541332625486, -10.242564718117135], [-54.99841762603954, -10.242398038777734]]}}, {"type": "Feature", "properties": {"layer": "LOTES_Q-49", "dxf_type": "LINE"}, "geometry": {"type": "LineString", "coordinates": [[-54.99841762603954, -10.242398038777734], [-54.99841762603954, -10.242398038777734]]}}, {"type": "Feature", "properties": {"layer": "LOTES_Q-49", "dxf_type": "LINE"}, "geometry": {"type": "LineString", "coordinates": [[-54.998497264728684, -10.24234302804168], [-54.99841762603954, -10.242398038777734]]}}, {"type": "Feature", "properties": {"layer": "LOTES_Q-49", "dxf_type": "LINE"}, "geometry": {"type": "LineString", "coordinates": [[-54.99841762603954, -10.242398038777734], [-54.998541332625486, -10.242564718117135]]}}, {"type": "Feature", "properties": {"layer": "LOTES_Q-49", "dxf_type": "LINE"}, "geometry": {"type": "LineString", "coordinates": [[-54.998541332625486, -10.242564718117135], [-54.99861354645603, -10.242517842168022]]}}, {"type": "Feature", "properties": {"layer": "LOTES_Q-49", "dxf_type": "LINE"}, "geometry": {"type": "LineString", "coordinates": [[-54.99861354645603, -10.242517842168022], [-54.998497264728684, -10.24234302804168]]}}, {"type": "Feature", "properties": {"layer": "LOTES_Q-49", "dxf_type": "LINE"}, "geometry": {"type": "LineString", "coordinates": [[-54.998497264728684, -10.24234302804168], [-54.998497264728684, -10.24234302804168]]}}, {"type": "Feature", "properties": {"layer": "LOTES_Q-49", "dxf_type": "LINE"}, "geometry": {"type": "LineString", "coordinates": [[-54.99856966507969, -10.242291869546822], [-54.998497264728684, -10.24234302804168]]}}, {"type": "Feature", "properties": {"layer": "LOTES_Q-49", "dxf_type": "LINE"}, "geometry": {"type": "LineString", "coordinates": [[-54.998497264728684, -10.24234302804168], [-54.99861354645603, -10.242517842168022]]}}, {"type": "Feature", "properties": {"layer": "LOTES_Q-49", "dxf_type": "LINE"}, "geometry": {"type": "LineString", "coordinates": [[-54.99861354645603, -10.242517842168022], [-54.9986462994767, -10.242565622685781]]}}, {"type": "Feature", "properties": {"layer": "LOTES_Q-49", "dxf_type": "LINE"}, "geometry": {"type": "LineString", "coordinates": [[-54.9986462994767, -10.242565622685781], [-54.99871985631041, -10.242514436931474]]}}, {"type": "Feature", "properties": {"layer": "LOTES_Q-49", "dxf_type": "LINE"}, "geometry": {"type": "LineString", "coordinates": [[-54.99871985631041, -10.242514436931474], [-54.99870266095598, -10.24248651013598]]}}, {"type": "Feature", "properties": {"layer": "LOTES_Q-49", "dxf_type": "LINE"}, "geometry": {"type": "LineString", "coordinates": [[-54.99870266095598, -10.24248651013598], [-54.99856966507969, -10.242291869546822]]}}, {"type": "Feature", "properties": {"layer": "LOTES_Q-49", "dxf_type": "LINE"}, "geometry": {"type": "LineString", "coordinates": [[-54.99856966507969, -10.242291869546822], [-54.99856966507969, -10.242291869546822]]}}, {"type": "Feature", "properties": {"layer": "LOTES_Q-49", "dxf_type": "LINE"}, "geometry": {"type": "LineString", "coordinates": [[-54.99856966507969, -10.242291869546822], [-54.99870266095598, -10.24248651013598]]}}, {"type": "Feature", "properties": {"layer": "LOTES_Q-49", "dxf_type": "LINE"}, "geometry": {"type": "LineString", "coordinates": [[-54.99870266095598, -10.24248651013598], [-54.99877102929596, -10.242417914495828]]}}, {"type": "Feature", "properties": {"layer": "LOTES_Q-49", "dxf_type": "LINE"}, "geometry": {"type": "LineString", "coordinates": [[-54.99877102929596, -10.242417914495828], [-54.998649983241954, -10.24223546276716]]}}, {"type": "Feature", "properties": {"layer": "LOTES_Q-49", "dxf_type": "LINE"}, "geometry": {"type": "LineString", "coordinates": [[-54.998649983241954, -10.24223546276716], [-54.99856966507969, -10.242291869546822]]}}, {"type": "Feature", "properties": {"layer": "LOTES_Q-49", "dxf_type": "LINE"}, "geometry": {"type": "LineString", "coordinates": [[-54.99856966507969, -10.242291869546822], [-54.99856966507969, -10.242291869546822]]}}, {"type": "Feature", "properties": {"layer": "LOTES_Q-49", "dxf_type": "LINE"}, "geometry": {"type": "LineString", "coordinates": [[-54.99871010254223, -10.242185043988645], [-54.99887280128966, -10.242408746782491]]}}, {"type": "Feature", "properties": {"layer": "LOTES_Q-49", "dxf_type": "LINE"}, "geometry": {"type": "LineString", "coordinates": [[-54.99887280128966, -10.242408746782491], [-54.99894450259103, -10.242341869175316]]}}, {"type": "Feature", "properties": {"layer": "LOTES_Q-49", "dxf_type": "LINE"}, "geometry": {"type": "LineString", "coordinates": [[-54.99894450259103, -10.242341869175316], [-54.998928294099485, -10.242307338970061]]}}, {"type": "Feature", "properties": {"layer": "LOTES_Q-49", "dxf_type": "LINE"}, "geometry": {"type": "LineString", "coordinates": [[-54.998928294099485, -10.242307338970061], [-54.99879145867202, -10.242122901827154]]}}, {"type": "Feature", "properties": {"layer": "LOTES_Q-49", "dxf_type": "LINE"}, "geometry": {"type": "LineString", "coordinates": [[-54.99879145867202, -10.242122901827154], [-54.99871010254223, -10.242185043988645]]}}, {"type": "Feature", "properties": {"layer": "LOTES_Q-49", "dxf_type": "LINE"}, "geometry": {"type": "LineString", "coordinates": [[-54.99871010254223, -10.242185043988645], [-54.99871010254223, -10.242185043988645]]}}, {"type": "Feature", "properties": {"layer": "LOTES_Q-49", "dxf_type": "LINE"}, "geometry": {"type": "LineString", "coordinates": [[-54.99886268199375, -10.242068636449915], [-54.99879145867202, -10.242122901827154]]}}, {"type": "Feature", "properties": {"layer": "LOTES_Q-49", "dxf_type": "LINE"}, "geometry": {"type": "LineString", "coordinates": [[-54.99879145867202, -10.242122901827154], [-54.998928294099485, -10.242307338970061]]}}, {"type": "Feature", "properties": {"layer": "LOTES_Q-49", "dxf_type": "LINE"}, "geometry": {"type": "LineString", "coordinates": [[-54.998928294099485, -10.242307338970061], [-54.99907673853273, -10.242236331683198]]}}, {"type": "Feature", "properties": {"layer": "LOTES_Q-49", "dxf_type": "LINE"}, "geometry": {"type": "LineString", "coordinates": [[-54.99907673853273, -10.242236331683198], [-54.99911757075321, -10.242217492951985]]}}, {"type": "Feature", "properties": {"layer": "LOTES_Q-49", "dxf_type": "LINE"}, "geometry": {"type": "LineString", "coordinates": [[-54.99911757075321, -10.242217492951985], [-54.99909627385558, -10.242145955525144]]}}, {"type": "Feature", "properties": {"layer": "LOTES_Q-49", "dxf_type": "LINE"}, "geometry": {"type": "LineString", "coordinates": [[-54.99909627385558, -10.242145955525144], [-54.99905104573639, -10.24198434577009]]}}, {"type": "Feature", "properties": {"layer": "LOTES_Q-49", "dxf_type": "LINE"}, "geometry": {"type": "LineString", "coordinates": [[-54.99905104573639, -10.24198434577009], [-54.9989845409983, -10.242021673578767]]}}, {"type": "Feature", "properties": {"layer": "LOTES_Q-49", "dxf_type": "LINE"}, "geometry": {"type": "LineString", "coordinates": [[-54.9989845409983, -10.242021673578767], [-54.998977891857855, -10.24201176362225]]}}, {"type": "Feature", "properties": {"layer": "LOTES_Q-49", "dxf_type": "LINE"}, "geometry": {"type": "LineString", "coordinates": [[-54.998977891857855, -10.24201176362225], [-54.998950494544324, -10.242031261713052]]}}, {"type": "Feature", "properties": {"layer": "LOTES_Q-49", "dxf_type": "LINE"}, "geometry": {"type": "LineString", "coordinates": [[-54.998950494544324, -10.242031261713052], [-54.998935199499975, -10.2420210427439]]}}, {"type": "Feature", "properties": {"layer": "LOTES_Q-49", "dxf_type": "LINE"}, "geometry": {"type": "LineString", "coordinates": [[-54.998935199499975, -10.2420210427439], [-54.99886268199375, -10.242068636449915]]}}, {"type": "Feature", "properties": {"layer": "LOTES_Q-49", "dxf_type": "LINE"}, "geometry": {"type": "LineString", "coordinates": [[-54.99886268199375, -10.242068636449915], [-54.99886268199375, -10.242068636449915]]}}, {"type": "Feature", "properties": {"layer": "LOTES_Q-49", "dxf_type": "LINE"}, "geometry": {"type": "LineString", "coordinates": [[-54.99932948702996, -10.24212927937174], [-54.99932180233938, -10.241953277821954]]}}, {"type": "Feature", "properties": {"layer": "LOTES_Q-49", "dxf_type": "LINE"}, "geometry": {"type": "LineString", "coordinates": [[-54.99932180233938, -10.241953277821954], [-54.999204648588154, -10.241958652211185]]}}, {"type": "Feature", "properties": {"layer": "LOTES_Q-49", "dxf_type": "LINE"}, "geometry": {"type": "LineString", "coordinates": [[-54.999204648588154, -10.241958652211185], [-54.999212815740336, -10.242137020481925]]}}, {"type": "Feature", "properties": {"layer": "LOTES_Q-49", "dxf_type": "LINE"}, "geometry": {"type": "LineString", "coordinates": [[-54.999212815740336, -10.242137020481925], [-54.99932948702996, -10.24212927937174]]}}, {"type": "Feature", "properties": {"layer": "LOTES_Q-49", "dxf_type": "LINE"}, "geometry": {"type": "LineString", "coordinates": [[-54.99932948702996, -10.24212927937174], [-54.99932948702996, -10.24212927937174]]}}, {"type": "Feature", "properties": {"layer": "LOTES_Q-49", "dxf_type": "LINE"}, "geometry": {"type": "LineString", "coordinates": [[-54.999204648588154, -10.241958652211185], [-54.99905104573639, -10.24198434577009]]}}, {"type": "Feature", "properties": {"layer": "LOTES_Q-49", "dxf_type": "LINE"}, "geometry": {"type": "LineString", "coordinates": [[-54.99905104573639, -10.24198434577009], [-54.99909627385558, -10.242145955525144]]}}, {"type": "Feature", "properties": {"layer": "LOTES_Q-49", "dxf_type": "LINE"}, "geometry": {"type": "LineString", "coordinates": [[-54.99909627385558, -10.242145955525144], [-54.999212815740336, -10.242137020481925]]}}, {"type": "Feature", "properties": {"layer": "LOTES_Q-49", "dxf_type": "LINE"}, "geometry": {"type": "LineString", "coordinates": [[-54.999212815740336, -10.242137020481925], [-54.999204648588154, -10.241958652211185]]}}, {"type": "Feature", "properties": {"layer": "LOTES_Q-49", "dxf_type": "LINE"}, "geometry": {"type": "LineString", "coordinates": [[-54.999204648588154, -10.241958652211185], [-54.999204648588154, -10.241958652211185]]}}, {"type": "Feature", "properties": {"layer": "LOTES_Q-49", "dxf_type": "LINE"}, "geometry": {"type": "LineString", "coordinates": [[-54.99932948702996, -10.24212927937174], [-54.999212815740336, -10.242137020481925]]}}, {"type": "Feature", "properties": {"layer": "LOTES_Q-49", "dxf_type": "LINE"}, "geometry": {"type": "LineString", "coordinates": [[-54.999212815740336, -10.242137020481925], [-54.99909627385558, -10.242145955525144]]}}, {"type": "Feature", "properties": {"layer": "LOTES_Q-49", "dxf_type": "LINE"}, "geometry": {"type": "LineString", "coordinates": [[-54.99909627385558, -10.242145955525144], [-54.99911757075321, -10.242217492951985]]}}, {"type": "Feature", "properties": {"layer": "LOTES_Q-49", "dxf_type": "LINE"}, "geometry": {"type": "LineString", "coordinates": [[-54.99911757075321, -10.242217492951985], [-54.99907673853273, -10.242236331683198]]}}, {"type": "Feature", "properties": {"layer": "LOTES_Q-49", "dxf_type": "LINE"}, "geometry": {"type": "LineString", "coordinates": [[-54.99907673853273, -10.242236331683198], [-54.99910339891365, -10.242333753438036]]}}, {"type": "Feature", "properties": {"layer": "LOTES_Q-49", "dxf_type": "LINE"}, "geometry": {"type": "LineString", "coordinates": [[-54.99910339891365, -10.242333753438036], [-54.99931658322583, -10.242310244250545]]}}, {"type": "Feature", "properties": {"layer": "LOTES_Q-49", "dxf_type": "LINE"}, "geometry": {"type": "LineString", "coordinates": [[-54.99931658322583, -10.242310244250545], [-54.999337315068175, -10.242308324412052]]}}, {"type": "Feature", "properties": {"layer": "LOTES_Q-49", "dxf_type": "LINE"}, "geometry": {"type": "LineString", "coordinates": [[-54.999337315068175, -10.242308324412052], [-54.99932948702996, -10.24212927937174]]}}, {"type": "Feature", "properties": {"layer": "LOTES_Q-49", "dxf_type": "LINE"}, "geometry": {"type": "LineString", "coordinates": [[-54.99932948702996, -10.24212927937174], [-54.99932948702996, -10.24212927937174]]}}, {"type": "Feature", "properties": {"layer": "LOTES_Q-49", "dxf_type": "LINE"}, "geometry": {"type": "LineString", "coordinates": [[-54.998976786381256, -10.242504187509894], [-54.999322751347286, -10.242416505947372]]}}, {"type": "Feature", "properties": {"layer": "LOTES_Q-49", "dxf_type": "LINE"}, "geometry": {"type": "LineString", "coordinates": [[-54.999322751347286, -10.242416505947372], [-54.99931658322583, -10.242310244250545]]}}, {"type": "Feature", "properties": {"layer": "LOTES_Q-49", "dxf_type": "LINE"}, "geometry": {"type": "LineString", "coordinates": [[-54.99931658322583, -10.242310244250545], [-54.99910339891365, -10.242333753438036]]}}, {"type": "Feature", "properties": {"layer": "LOTES_Q-49", "dxf_type": "LINE"}, "geometry": {"type": "LineString", "coordinates": [[-54.99910339891365, -10.242333753438036], [-54.99907673853273, -10.242236331683198]]}}, {"type": "Feature", "properties": {"layer": "LOTES_Q-49", "dxf_type": "LINE"}, "geometry": {"type": "LineString", "coordinates": [[-54.99907673853273, -10.242236331683198], [-54.998928294099485, -10.242307338970061]]}}, {"type": "Feature", "properties": {"layer": "LOTES_Q-49", "dxf_type": "LINE"}, "geometry": {"type": "LineString", "coordinates": [[-54.998928294099485, -10.242307338970061], [-54.99894450259103, -10.242341869175316]]}}, {"type": "Feature", "properties": {"layer": "LOTES_Q-49", "dxf_type": "LINE"}, "geometry": {"type": "LineString", "coordinates": [[-54.99894450259103, -10.242341869175316], [-54.998976786381256, -10.242504187509894]]}}, {"type": "Feature", "properties": {"layer": "LOTES_Q-49", "dxf_type": "LINE"}, "geometry": {"type": "LineString", "coordinates": [[-54.998976786381256, -10.242504187509894], [-54.998976786381256, -10.242504187509894]]}}, {"type": "Feature", "properties": {"layer": "LOTES_Q-49", "dxf_type": "LINE"}, "geometry": {"type": "LineString", "coordinates": [[-54.9986537442032, -10.242782715984452], [-54.99861754648372, -10.2428070220726]]}}, {"type": "Feature", "properties": {"layer": "LOTES_Q-49", "dxf_type": "LINE"}, "geometry": {"type": "LineString", "coordinates": [[-54.99861754648372, -10.2428070220726], [-54.998602411022944, -10.24281718483548]]}}, {"type": "Feature", "properties": {"layer": "LOTES_Q-49", "dxf_type": "LINE"}, "geometry": {"type": "LineString", "coordinates": [[-54.998602411022944, -10.24281718483548], [-54.99837546657974, -10.24297821308143]]}}, {"type": "Feature", "properties": {"layer": "LOTES_Q-49", "dxf_type": "LINE"}, "geometry": {"type": "LineString", "coordinates": [[-54.99837546657974, -10.24297821308143], [-54.99842713364415, -10.243059696239893]]}}, {"type": "Feature", "properties": {"layer": "LOTES_Q-49", "dxf_type": "LINE"}, "geometry": {"type": "LineString", "coordinates": [[-54.99842713364415, -10.243059696239893], [-54.998671738885676, -10.242893871067439]]}}, {"type": "Feature", "properties": {"layer": "LOTES_Q-49", "dxf_type": "LINE"}, "geometry": {"type": "LineString", "coordinates": [[-54.998671738885676, -10.242893871067439], [-54.99872585191328, -10.243094624822463]]}}, {"type": "Feature", "properties": {"layer": "LOTES_Q-49", "dxf_type": "LINE"}, "geometry": {"type": "LineString", "coordinates": [[-54.99872585191328, -10.243094624822463], [-54.99875194074102, -10.243090388703703]]}}, {"type": "Feature", "properties": {"layer": "LOTES_Q-49", "dxf_type": "LINE"}, "geometry": {"type": "LineString", "coordinates": [[-54.99875194074102, -10.243090388703703], [-54.99880142044455, -10.243082397917249]]}}, {"type": "Feature", "properties": {"layer": "LOTES_Q-49", "dxf_type": "LINE"}, "geometry": {"type": "LineString", "coordinates": [[-54.99880142044455, -10.243082397917249], [-54.9989100120893, -10.243064723793447]]}}, {"type": "Feature", "properties": {"layer": "LOTES_Q-49", "dxf_type": "LINE"}, "geometry": {"type": "LineString", "coordinates": [[-54.9989100120893, -10.243064723793447], [-54.99890501607015, -10.243004412167277]]}}, {"type": "Feature", "properties": {"layer": "LOTES_Q-49", "dxf_type": "LINE"}, "geometry": {"type": "LineString", "coordinates": [[-54.99890501607015, -10.243004412167277], [-54.99888041244526, -10.242791960657591]]}}, {"type": "Feature", "properties": {"layer": "LOTES_Q-49", "dxf_type": "LINE"}, "geometry": {"type": "LineString", "coordinates": [[-54.99888041244526, -10.242791960657591], [-54.99867958194829, -10.242840319367296]]}}, {"type": "Feature", "properties": {"layer": "LOTES_Q-49", "dxf_type": "LINE"}, "geometry": {"type": "LineString", "coordinates": [[-54.99867958194829, -10.242840319367296], [-54.9986537442032, -10.242782715984452]]}}, {"type": "Feature", "properties": {"layer": "LOTES_Q-49", "dxf_type": "LINE"}, "geometry": {"type": "LineString", "coordinates": [[-54.9986537442032, -10.242782715984452], [-54.9986537442032, -10.242782715984452]]}}, {"type": "Feature", "properties": {"layer": "LOTES_Q-49", "dxf_type": "LINE"}, "geometry": {"type": "LineString", "coordinates": [[-54.998872800382756, -10.242408745872988], [-54.998710103454805, -10.24218504399426]]}}, {"type": "Feature", "properties": {"layer": "LOTES_Q-49", "dxf_type": "LINE"}, "geometry": {"type": "LineString", "coordinates": [[-54.998710103454805, -10.24218504399426], [-54.998649983241954, -10.24223546276716]]}}, {"type": "Feature", "properties": {"layer": "LOTES_Q-49", "dxf_type": "LINE"}, "geometry": {"type": "LineString", "coordinates": [[-54.998649983241954, -10.24223546276716], [-54.99877103020853, -10.242417914501445]]}}, {"type": "Feature", "properties": {"layer": "LOTES_Q-49", "dxf_type": "LINE"}, "geometry": {"type": "LineString", "coordinates": [[-54.99877103020853, -10.242417914501445], [-54.998702660037736, -10.242486511034251]]}}, {"type": "Feature", "properties": {"layer": "LOTES_Q-49", "dxf_type": "LINE"}, "geometry": {"type": "LineString", "coordinates": [[-54.998702660037736, -10.242486511034251], [-54.99871985631041, -10.242514436931474]]}}, {"type": "Feature", "properties": {"layer": "LOTES_Q-49", "dxf_type": "LINE"}, "geometry": {"type": "LineString", "coordinates": [[-54.99871985631041, -10.242514436931474], [-54.99864629948803, -10.242565620877992]]}}, {"type": "Feature", "properties": {"layer": "LOTES_Q-49", "dxf_type": "LINE"}, "geometry": {"type": "LineString", "coordinates": [[-54.99864629948803, -10.242565620877992], [-54.9986135464617, -10.242517841264137]]}}, {"type": "Feature", "properties": {"layer": "LOTES_Q-49", "dxf_type": "LINE"}, "geometry": {"type": "LineString", "coordinates": [[-54.9986135464617, -10.242517841264137], [-54.99854133263116, -10.24256471721325]]}}, {"type": "Feature", "properties": {"layer": "LOTES_Q-49", "dxf_type": "LINE"}, "geometry": {"type": "LineString", "coordinates": [[-54.99854133263116, -10.24256471721325], [-54.99857954046868, -10.242617560742643]]}}, {"type": "Feature", "properties": {"layer": "LOTES_Q-49", "dxf_type": "LINE"}, "geometry": {"type": "LineString", "coordinates": [[-54.99857954046868, -10.242617560742643], [-54.998614958783364, -10.242696249265114]]}}, {"type": "Feature", "properties": {"layer": "LOTES_Q-49", "dxf_type": "LINE"}, "geometry": {"type": "LineString", "coordinates": [[-54.998614958783364, -10.242696249265114], [-54.998976786381256, -10.242504187509894]]}}, {"type": "Feature", "properties": {"layer": "LOTES_Q-49", "dxf_type": "LINE"}, "geometry": {"type": "LineString", "coordinates": [[-54.998976786381256, -10.242504187509894], [-54.99894450259103, -10.242341869175316]]}}, {"type": "Feature", "properties": {"layer": "LOTES_Q-49", "dxf_type": "LINE"}, "geometry": {"type": "LineString", "coordinates": [[-54.99894450259103, -10.242341869175316], [-54.998872800382756, -10.242408745872988]]}}, {"type": "Feature", "properties": {"layer": "LOTES_Q-49", "dxf_type": "LINE"}, "geometry": {"type": "LineString", "coordinates": [[-54.998872800382756, -10.242408745872988], [-54.998872800382756, -10.242408745872988]]}}]}