{"type": "FeatureCollection", "name": "lotes_q_53", "crs": {"type": "name", "properties": {"name": "urn:ogc:def:crs:OGC:1.3:CRS84"}}, "properties": {"source": "8be78050_MAPA TRIBUTAÇÃO 2021 (1).dxf", "assumed_crs": "EPSG:4326", "local_crs": false, "note": "Coordenadas locais do desenho (sem CRS). Use base 'Só CAD' no mapa.", "extent": [4300.4554, 2373.7696, 8215.3349, 6186.7838], "georef": true, "transform": {"scale": 1, "rotation_deg": 0, "tx": 713717.6034368816, "ty": 8862616.121289995, "rmse_m": 0, "epsg": 31981}, "layer": "LOTES_Q-53", "source_file": "8be78050_MAPA TRIBUTAÇÃO 2021 (1)_georef.geojson", "n_features": 301}, "features": [{"type": "Feature", "properties": {"layer": "LOTES_Q-53", "dxf_type": "LINE"}, "geometry": {"type": "LineString", "coordinates": [[-54.998962054831125, -10.240134699472456], [-54.99909131808202, -10.240049279319699]]}}, {"type": "Feature", "properties": {"layer": "LOTES_Q-53", "dxf_type": "LINE"}, "geometry": {"type": "LineString", "coordinates": [[-54.99909131808202, -10.240049279319699], [-54.999023034548735, -10.239915405691841]]}}, {"type": "Feature", "properties": {"layer": "LOTES_Q-53", "dxf_type": "LINE"}, "geometry": {"type": "LineString", "coordinates": [[-54.999023034548735, -10.239915405691841], [-54.99897806245295, -10.239827234152326]]}}, {"type": "Feature", "properties": {"layer": "LOTES_Q-53", "dxf_type": "LINE"}, "geometry": {"type": "LineString", "coordinates": [[-54.99897806245295, -10.239827234152326], [-54.99896661952427, -10.239804798864139]]}}, {"type": "Feature", "properties": {"layer": "LOTES_Q-53", "dxf_type": "LINE"}, "geometry": {"type": "LineString", "coordinates": [[-54.99896661952427, -10.239804798864139], [-54.998884857995584, -10.23984205547545]]}}, {"type": "Feature", "properties": {"layer": "LOTES_Q-53", "dxf_type": "LINE"}, "geometry": {"type": "LineString", "coordinates": [[-54.998884857995584, -10.23984205547545], [-54.998813894126904, -10.239894767802893]]}}, {"type": "Feature", "properties": {"layer": "LOTES_Q-53", "dxf_type": "LINE"}, "geometry": {"type": "LineString", "coordinates": [[-54.998813894126904, -10.239894767802893], [-54.998962054831125, -10.240134699472456]]}}, {"type": "Feature", "properties": {"layer": "LOTES_Q-53", "dxf_type": "LINE"}, "geometry": {"type": "LineString", "coordinates": [[-54.998962054831125, -10.240134699472456], [-54.998962054831125, -10.240134699472456]]}}, {"type": "Feature", "properties": {"layer": "LOTES_Q-53", "dxf_type": "LINE"}, "geometry": {"type": "LineString", "coordinates": [[-54.99713107461976, -10.240850916087881], [-54.997073222330116, -10.240896535148757]]}}, {"type": "Feature", "properties": {"layer": "LOTES_Q-53", "dxf_type": "LINE"}, "geometry": {"type": "LineString", "coordinates": [[-54.997073222330116, -10.240896535148757], [-54.99701164138885, -10.240948220058293]]}}, {"type": "Feature", "properties": {"layer": "LOTES_Q-53", "dxf_type": "LINE"}, "geometry": {"type": "LineString", "coordinates": [[-54.99701164138885, -10.240948220058293], [-54.99697436741003, -10.240978703089969]]}}, {"type": "Feature", "properties": {"layer": "LOTES_Q-53", "dxf_type": "LINE"}, "geometry": {"type": "LineString", "coordinates": [[-54.99697436741003, -10.240978703089969], [-54.997020875389126, -10.241047899192784]]}}, {"type": "Feature", "properties": {"layer": "LOTES_Q-53", "dxf_type": "LINE"}, "geometry": {"type": "LineString", "coordinates": [[-54.997020875389126, -10.241047899192784], [-54.99703959880215, -10.241075733305816]]}}, {"type": "Feature", "properties": {"layer": "LOTES_Q-53", "dxf_type": "LINE"}, "geometry": {"type": "LineString", "coordinates": [[-54.99703959880215, -10.241075733305816], [-54.99714777965453, -10.240994576418641]]}}, {"type": "Feature", "properties": {"layer": "LOTES_Q-53", "dxf_type": "LINE"}, "geometry": {"type": "LineString", "coordinates": [[-54.99714777965453, -10.240994576418641], [-54.99722319021361, -10.240939245249928]]}}, {"type": "Feature", "properties": {"layer": "LOTES_Q-53", "dxf_type": "LINE"}, "geometry": {"type": "LineString", "coordinates": [[-54.99722319021361, -10.240939245249928], [-54.99725973641726, -10.240913625329213]]}}, {"type": "Feature", "properties": {"layer": "LOTES_Q-53", "dxf_type": "LINE"}, "geometry": {"type": "LineString", "coordinates": [[-54.99725973641726, -10.240913625329213], [-54.997185038627, -10.240808444031627]]}}, {"type": "Feature", "properties": {"layer": "LOTES_Q-53", "dxf_type": "LINE"}, "geometry": {"type": "LineString", "coordinates": [[-54.997185038627, -10.240808444031627], [-54.99713107461976, -10.240850916087881]]}}, {"type": "Feature", "properties": {"layer": "LOTES_Q-53", "dxf_type": "LINE"}, "geometry": {"type": "LineString", "coordinates": [[-54.99713107461976, -10.240850916087881], [-54.99713107461976, -10.240850916087881]]}}, {"type": "Feature", "properties": {"layer": "LOTES_Q-53", "dxf_type": "LINE"}, "geometry": {"type": "LineString", "coordinates": [[-54.99703959880215, -10.241075733305816], [-54.99709993399442, -10.241165224472633]]}}, {"type": "Feature", "properties": {"layer": "LOTES_Q-53", "dxf_type": "LINE"}, "geometry": {"type": "LineString", "coordinates": [[-54.99709993399442, -10.241165224472633], [-54.99732531408735, -10.241004062610003]]}}, {"type": "Feature", "properties": {"layer": "LOTES_Q-53", "dxf_type": "LINE"}, "geometry": {"type": "LineString", "coordinates": [[-54.99732531408735, -10.241004062610003], [-54.99725973641726, -10.240913625329213]]}}, {"type": "Feature", "properties": {"layer": "LOTES_Q-53", "dxf_type": "LINE"}, "geometry": {"type": "LineString", "coordinates": [[-54.99725973641726, -10.240913625329213], [-54.99722319021361, -10.240939245249928]]}}, {"type": "Feature", "properties": {"layer": "LOTES_Q-53", "dxf_type": "LINE"}, "geometry": {"type": "LineString", "coordinates": [[-54.99722319021361, -10.240939245249928], [-54.99714777965453, -10.240994576418641]]}}, {"type": "Feature", "properties": {"layer": "LOTES_Q-53", "dxf_type": "LINE"}, "geometry": {"type": "LineString", "coordinates": [[-54.99714777965453, -10.240994576418641], [-54.99703959880215, -10.241075733305816]]}}, {"type": "Feature", "properties": {"layer": "LOTES_Q-53", "dxf_type": "LINE"}, "geometry": {"type": "LineString", "coordinates": [[-54.99703959880215, -10.241075733305816], [-54.99703959880215, -10.241075733305816]]}}, {"type": "Feature", "properties": {"layer": "LOTES_Q-53", "dxf_type": "LINE"}, "geometry": {"type": "LineString", "coordinates": [[-54.99714777965453, -10.240994576418641], [-54.99722319021361, -10.240939245249928]]}}, {"type": "Feature", "properties": {"layer": "LOTES_Q-53", "dxf_type": "LINE"}, "geometry": {"type": "LineString", "coordinates": [[-54.99722319021361, -10.240939245249928], [-54.99713107461976, -10.240850916087881]]}}, {"type": "Feature", "properties": {"layer": "LOTES_Q-53", "dxf_type": "LINE"}, "geometry": {"type": "LineString", "coordinates": [[-54.99713107461976, -10.240850916087881], [-54.997073222330116, -10.240896535148757]]}}, {"type": "Feature", "properties": {"layer": "LOTES_Q-53", "dxf_type": "LINE"}, "geometry": {"type": "LineString", "coordinates": [[-54.997073222330116, -10.240896535148757], [-54.99714777965453, -10.240994576418641]]}}, {"type": "Feature", "properties": {"layer": "LOTES_Q-53", "dxf_type": "LINE"}, "geometry": {"type": "LineString", "coordinates": [[-54.99714777965453, -10.240994576418641], [-54.99703959880215, -10.241075733305816]]}}, {"type": "Feature", "properties": {"layer": "LOTES_Q-53", "dxf_type": "LINE"}, "geometry": {"type": "LineString", "coordinates": [[-54.99703959880215, -10.241075733305816], [-54.997020875389126, -10.241047899192784]]}}, {"type": "Feature", "properties": {"layer": "LOTES_Q-53", "dxf_type": "LINE"}, "geometry": {"type": "LineString", "coordinates": [[-54.997020875389126, -10.241047899192784], [-54.99697436741003, -10.240978703089969]]}}, {"type": "Feature", "properties": {"layer": "LOTES_Q-53", "dxf_type": "LINE"}, "geometry": {"type": "LineString", "coordinates": [[-54.99697436741003, -10.240978703089969], [-54.99701164138885, -10.240948220058293]]}}, {"type": "Feature", "properties": {"layer": "LOTES_Q-53", "dxf_type": "LINE"}, "geometry": {"type": "LineString", "coordinates": [[-54.99701164138885, -10.240948220058293], [-54.997073222330116, -10.240896535148757]]}}, {"type": "Feature", "properties": {"layer": "LOTES_Q-53", "dxf_type": "LINE"}, "geometry": {"type": "LineString", "coordinates": [[-54.997073222330116, -10.240896535148757], [-54.99714777965453, -10.240994576418641]]}}, {"type": "Feature", "properties": {"layer": "LOTES_Q-53", "dxf_type": "LINE"}, "geometry": {"type": "LineString", "coordinates": [[-54.99879868706463, -10.239606119084655], [-54.998884857995584, -10.23984205547545]]}}, {"type": "Feature", "properties": {"layer": "LOTES_Q-53", "dxf_type": "LINE"}, "geometry": {"type": "LineString", "coordinates": [[-54.998884857995584, -10.23984205547545], [-54.99896661952427, -10.239804798864139]]}}, {"type": "Feature", "properties": {"layer": "LOTES_Q-53", "dxf_type": "LINE"}, "geometry": {"type": "LineString", "coordinates": [[-54.99896661952427, -10.239804798864139], [-54.99894846143923, -10.239756354331336]]}}, {"type": "Feature", "properties": {"layer": "LOTES_Q-53", "dxf_type": "LINE"}, "geometry": {"type": "LineString", "coordinates": [[-54.99894846143923, -10.239756354331336], [-54.998922219738894, -10.239686343057468]]}}, {"type": "Feature", "properties": {"layer": "LOTES_Q-53", "dxf_type": "LINE"}, "geometry": {"type": "LineString", "coordinates": [[-54.998922219738894, -10.239686343057468], [-54.99889919857204, -10.23962492350882]]}}, {"type": "Feature", "properties": {"layer": "LOTES_Q-53", "dxf_type": "LINE"}, "geometry": {"type": "LineString", "coordinates": [[-54.99889919857204, -10.23962492350882], [-54.99887646284009, -10.239564265916187]]}}, {"type": "Feature", "properties": {"layer": "LOTES_Q-53", "dxf_type": "LINE"}, "geometry": {"type": "LineString", "coordinates": [[-54.99887646284009, -10.239564265916187], [-54.99879868706463, -10.239606119084655]]}}, {"type": "Feature", "properties": {"layer": "LOTES_Q-53", "dxf_type": "LINE"}, "geometry": {"type": "LineString", "coordinates": [[-54.99879868706463, -10.239606119084655], [-54.99879868706463, -10.239606119084655]]}}, {"type": "Feature", "properties": {"layer": "LOTES_Q-53", "dxf_type": "LINE"}, "geometry": {"type": "LineString", "coordinates": [[-54.99746759400865, -10.24057656312242], [-54.99762233934249, -10.2407958106545]]}}, {"type": "Feature", "properties": {"layer": "LOTES_Q-53", "dxf_type": "LINE"}, "geometry": {"type": "LineString", "coordinates": [[-54.99762233934249, -10.2407958106545], [-54.99768472935305, -10.240747663118896]]}}, {"type": "Feature", "properties": {"layer": "LOTES_Q-53", "dxf_type": "LINE"}, "geometry": {"type": "LineString", "coordinates": [[-54.99768472935305, -10.240747663118896], [-54.99769465959765, -10.240735263670002]]}}, {"type": "Feature", "properties": {"layer": "LOTES_Q-53", "dxf_type": "LINE"}, "geometry": {"type": "LineString", "coordinates": [[-54.99769465959765, -10.240735263670002], [-54.99753805434499, -10.240515580776698]]}}, {"type": "Feature", "properties": {"layer": "LOTES_Q-53", "dxf_type": "LINE"}, "geometry": {"type": "LineString", "coordinates": [[-54.99753805434499, -10.240515580776698], [-54.99746759400865, -10.24057656312242]]}}, {"type": "Feature", "properties": {"layer": "LOTES_Q-53", "dxf_type": "LINE"}, "geometry": {"type": "LineString", "coordinates": [[-54.99746759400865, -10.24057656312242], [-54.99746759400865, -10.24057656312242]]}}, {"type": "Feature", "properties": {"layer": "LOTES_Q-53", "dxf_type": "LINE"}, "geometry": {"type": "LineString", "coordinates": [[-54.997185038627, -10.240808444031627], [-54.99725973641726, -10.240913625329213]]}}, {"type": "Feature", "properties": {"layer": "LOTES_Q-53", "dxf_type": "LINE"}, "geometry": {"type": "LineString", "coordinates": [[-54.99725973641726, -10.240913625329213], [-54.99732531408735, -10.241004062610003]]}}, {"type": "Feature", "properties": {"layer": "LOTES_Q-53", "dxf_type": "LINE"}, "geometry": {"type": "LineString", "coordinates": [[-54.99732531408735, -10.241004062610003], [-54.99736824087057, -10.240971952025461]]}}, {"type": "Feature", "properties": {"layer": "LOTES_Q-53", "dxf_type": "LINE"}, "geometry": {"type": "LineString", "coordinates": [[-54.99736824087057, -10.240971952025461], [-54.99723068987606, -10.240781653557505]]}}, {"type": "Feature", "properties": {"layer": "LOTES_Q-53", "dxf_type": "LINE"}, "geometry": {"type": "LineString", "coordinates": [[-54.99723068987606, -10.240781653557505], [-54.997185038627, -10.240808444031627]]}}, {"type": "Feature", "properties": {"layer": "LOTES_Q-53", "dxf_type": "LINE"}, "geometry": {"type": "LineString", "coordinates": [[-54.997185038627, -10.240808444031627], [-54.997185038627, -10.240808444031627]]}}, {"type": "Feature", "properties": {"layer": "LOTES_Q-53", "dxf_type": "LINE"}, "geometry": {"type": "LineString", "coordinates": [[-54.99723068987606, -10.240781653557505], [-54.99736824087057, -10.240971952025461]]}}, {"type": "Feature", "properties": {"layer": "LOTES_Q-53", "dxf_type": "LINE"}, "geometry": {"type": "LineString", "coordinates": [[-54.99736824087057, -10.240971952025461], [-54.997410823808636, -10.240940534433399]]}}, {"type": "Feature", "properties": {"layer": "LOTES_Q-53", "dxf_type": "LINE"}, "geometry": {"type": "LineString", "coordinates": [[-54.997410823808636, -10.240940534433399], [-54.99726898585958, -10.240743328919335]]}}, {"type": "Feature", "properties": {"layer": "LOTES_Q-53", "dxf_type": "LINE"}, "geometry": {"type": "LineString", "coordinates": [[-54.99726898585958, -10.240743328919335], [-54.99723068987606, -10.240781653557505]]}}, {"type": "Feature", "properties": {"layer": "LOTES_Q-53", "dxf_type": "LINE"}, "geometry": {"type": "LineString", "coordinates": [[-54.99723068987606, -10.240781653557505], [-54.99723068987606, -10.240781653557505]]}}, {"type": "Feature", "properties": {"layer": "LOTES_Q-53", "dxf_type": "LINE"}, "geometry": {"type": "LineString", "coordinates": [[-54.99726898585958, -10.240743328919335], [-54.997410823808636, -10.240940534433399]]}}, {"type": "Feature", "properties": {"layer": "LOTES_Q-53", "dxf_type": "LINE"}, "geometry": {"type": "LineString", "coordinates": [[-54.997410823808636, -10.240940534433399], [-54.997471611339115, -10.240896314572938]]}}, {"type": "Feature", "properties": {"layer": "LOTES_Q-53", "dxf_type": "LINE"}, "geometry": {"type": "LineString", "coordinates": [[-54.997471611339115, -10.240896314572938], [-54.99732688093459, -10.240698881560938]]}}, {"type": "Feature", "properties": {"layer": "LOTES_Q-53", "dxf_type": "LINE"}, "geometry": {"type": "LineString", "coordinates": [[-54.99732688093459, -10.240698881560938], [-54.99726898585958, -10.240743328919335]]}}, {"type": "Feature", "properties": {"layer": "LOTES_Q-53", "dxf_type": "LINE"}, "geometry": {"type": "LineString", "coordinates": [[-54.99726898585958, -10.240743328919335], [-54.99726898585958, -10.240743328919335]]}}, {"type": "Feature", "properties": {"layer": "LOTES_Q-53", "dxf_type": "LINE"}, "geometry": {"type": "LineString", "coordinates": [[-54.99732688093459, -10.240698881560938], [-54.997471611339115, -10.240896314572938]]}}, {"type": "Feature", "properties": {"layer": "LOTES_Q-53", "dxf_type": "LINE"}, "geometry": {"type": "LineString", "coordinates": [[-54.997471611339115, -10.240896314572938], [-54.99754661491394, -10.240846056337903]]}}, {"type": "Feature", "properties": {"layer": "LOTES_Q-53", "dxf_type": "LINE"}, "geometry": {"type": "LineString", "coordinates": [[-54.99754661491394, -10.240846056337903], [-54.99739398135134, -10.240636700755841]]}}, {"type": "Feature", "properties": {"layer": "LOTES_Q-53", "dxf_type": "LINE"}, "geometry": {"type": "LineString", "coordinates": [[-54.99739398135134, -10.240636700755841], [-54.99732688093459, -10.240698881560938]]}}, {"type": "Feature", "properties": {"layer": "LOTES_Q-53", "dxf_type": "LINE"}, "geometry": {"type": "LineString", "coordinates": [[-54.99732688093459, -10.240698881560938], [-54.99732688093459, -10.240698881560938]]}}, {"type": "Feature", "properties": {"layer": "LOTES_Q-53", "dxf_type": "LINE"}, "geometry": {"type": "LineString", "coordinates": [[-54.99739398135134, -10.240636700755841], [-54.99754661491394, -10.240846056337903]]}}, {"type": "Feature", "properties": {"layer": "LOTES_Q-53", "dxf_type": "LINE"}, "geometry": {"type": "LineString", "coordinates": [[-54.99754661491394, -10.240846056337903], [-54.99761943706262, -10.240799188826085]]}}, {"type": "Feature", "properties": {"layer": "LOTES_Q-53", "dxf_type": "LINE"}, "geometry": {"type": "LineString", "coordinates": [[-54.99761943706262, -10.240799188826085], [-54.99762233934249, -10.2407958106545]]}}, {"type": "Feature", "properties": {"layer": "LOTES_Q-53", "dxf_type": "LINE"}, "geometry": {"type": "LineString", "coordinates": [[-54.99762233934249, -10.2407958106545], [-54.99746759400865, -10.24057656312242]]}}, {"type": "Feature", "properties": {"layer": "LOTES_Q-53", "dxf_type": "LINE"}, "geometry": {"type": "LineString", "coordinates": [[-54.99746759400865, -10.24057656312242], [-54.99739398135134, -10.240636700755841]]}}, {"type": "Feature", "properties": {"layer": "LOTES_Q-53", "dxf_type": "LINE"}, "geometry": {"type": "LineString", "coordinates": [[-54.99739398135134, -10.240636700755841], [-54.99739398135134, -10.240636700755841]]}}, {"type": "Feature", "properties": {"layer": "LOTES_Q-53", "dxf_type": "LINE"}, "geometry": {"type": "LineString", "coordinates": [[-54.99753805434499, -10.240515580776698], [-54.99769465959765, -10.240735263670002]]}}, {"type": "Feature", "properties": {"layer": "LOTES_Q-53", "dxf_type": "LINE"}, "geometry": {"type": "LineString", "coordinates": [[-54.99769465959765, -10.240735263670002], [-54.997749018673574, -10.240692356435627]]}}, {"type": "Feature", "properties": {"layer": "LOTES_Q-53", "dxf_type": "LINE"}, "geometry": {"type": "LineString", "coordinates": [[-54.997749018673574, -10.240692356435627], [-54.997767379510485, -10.240676612844226]]}}, {"type": "Feature", "properties": {"layer": "LOTES_Q-53", "dxf_type": "LINE"}, "geometry": {"type": "LineString", "coordinates": [[-54.997767379510485, -10.240676612844226], [-54.99760279823193, -10.240458508842302]]}}, {"type": "Feature", "properties": {"layer": "LOTES_Q-53", "dxf_type": "LINE"}, "geometry": {"type": "LineString", "coordinates": [[-54.99760279823193, -10.240458508842302], [-54.99753805434499, -10.240515580776698]]}}, {"type": "Feature", "properties": {"layer": "LOTES_Q-53", "dxf_type": "LINE"}, "geometry": {"type": "LineString", "coordinates": [[-54.99753805434499, -10.240515580776698], [-54.99753805434499, -10.240515580776698]]}}, {"type": "Feature", "properties": {"layer": "LOTES_Q-53", "dxf_type": "LINE"}, "geometry": {"type": "LineString", "coordinates": [[-54.99760279823193, -10.240458508842302], [-54.997767379510485, -10.240676612844226]]}}, {"type": "Feature", "properties": {"layer": "LOTES_Q-53", "dxf_type": "LINE"}, "geometry": {"type": "LineString", "coordinates": [[-54.997767379510485, -10.240676612844226], [-54.99782928174074, -10.240631875484507]]}}, {"type": "Feature", "properties": {"layer": "LOTES_Q-53", "dxf_type": "LINE"}, "geometry": {"type": "LineString", "coordinates": [[-54.99782928174074, -10.240631875484507], [-54.99784000318349, -10.240621805791292]]}}, {"type": "Feature", "properties": {"layer": "LOTES_Q-53", "dxf_type": "LINE"}, "geometry": {"type": "LineString", "coordinates": [[-54.99784000318349, -10.240621805791292], [-54.99766958599682, -10.240400033929316]]}}, {"type": "Feature", "properties": {"layer": "LOTES_Q-53", "dxf_type": "LINE"}, "geometry": {"type": "LineString", "coordinates": [[-54.99766958599682, -10.240400033929316], [-54.99760279823193, -10.240458508842302]]}}, {"type": "Feature", "properties": {"layer": "LOTES_Q-53", "dxf_type": "LINE"}, "geometry": {"type": "LineString", "coordinates": [[-54.99760279823193, -10.240458508842302], [-54.99760279823193, -10.240458508842302]]}}, {"type": "Feature", "properties": {"layer": "LOTES_Q-53", "dxf_type": "LINE"}, "geometry": {"type": "LineString", "coordinates": [[-54.99766958599682, -10.240400033929316], [-54.99784000318349, -10.240621805791292]]}}, {"type": "Feature", "properties": {"layer": "LOTES_Q-53", "dxf_type": "LINE"}, "geometry": {"type": "LineString", "coordinates": [[-54.99784000318349, -10.240621805791292], [-54.99788838590627, -10.240585540827054]]}}, {"type": "Feature", "properties": {"layer": "LOTES_Q-53", "dxf_type": "LINE"}, "geometry": {"type": "LineString", "coordinates": [[-54.99788838590627, -10.240585540827054], [-54.99770723407007, -10.240369832407605]]}}, {"type": "Feature", "properties": {"layer": "LOTES_Q-53", "dxf_type": "LINE"}, "geometry": {"type": "LineString", "coordinates": [[-54.99770723407007, -10.240369832407605], [-54.99766958599682, -10.240400033929316]]}}, {"type": "Feature", "properties": {"layer": "LOTES_Q-53", "dxf_type": "LINE"}, "geometry": {"type": "LineString", "coordinates": [[-54.99766958599682, -10.240400033929316], [-54.99766958599682, -10.240400033929316]]}}, {"type": "Feature", "properties": {"layer": "LOTES_Q-53", "dxf_type": "LINE"}, "geometry": {"type": "LineString", "coordinates": [[-54.99770723407007, -10.240369832407605], [-54.99788838590627, -10.240585540827054]]}}, {"type": "Feature", "properties": {"layer": "LOTES_Q-53", "dxf_type": "LINE"}, "geometry": {"type": "LineString", "coordinates": [[-54.99788838590627, -10.240585540827054], [-54.997900133846706, -10.240578116906848]]}}, {"type": "Feature", "properties": {"layer": "LOTES_Q-53", "dxf_type": "LINE"}, "geometry": {"type": "LineString", "coordinates": [[-54.997900133846706, -10.240578116906848], [-54.99795490310413, -10.240533970161609]]}}, {"type": "Feature", "properties": {"layer": "LOTES_Q-53", "dxf_type": "LINE"}, "geometry": {"type": "LineString", "coordinates": [[-54.99795490310413, -10.240533970161609], [-54.99777639218818, -10.240310862244957]]}}, {"type": "Feature", "properties": {"layer": "LOTES_Q-53", "dxf_type": "LINE"}, "geometry": {"type": "LineString", "coordinates": [[-54.99777639218818, -10.240310862244957], [-54.99770723407007, -10.240369832407605]]}}, {"type": "Feature", "properties": {"layer": "LOTES_Q-53", "dxf_type": "LINE"}, "geometry": {"type": "LineString", "coordinates": [[-54.99770723407007, -10.240369832407605], [-54.99770723407007, -10.240369832407605]]}}, {"type": "Feature", "properties": {"layer": "LOTES_Q-53", "dxf_type": "LINE"}, "geometry": {"type": "LineString", "coordinates": [[-54.99777639218818, -10.240310862244957], [-54.99795490310413, -10.240533970161609]]}}, {"type": "Feature", "properties": {"layer": "LOTES_Q-53", "dxf_type": "LINE"}, "geometry": {"type": "LineString", "coordinates": [[-54.99795490310413, -10.240533970161609], [-54.99796810518171, -10.240525032982017]]}}, {"type": "Feature", "properties": {"layer": "LOTES_Q-53", "dxf_type": "LINE"}, "geometry": {"type": "LineString", "coordinates": [[-54.99796810518171, -10.240525032982017], [-54.99803091471157, -10.240479095323694]]}}, {"type": "Feature", "properties": {"layer": "LOTES_Q-53", "dxf_type": "LINE"}, "geometry": {"type": "LineString", "coordinates": [[-54.99803091471157, -10.240479095323694], [-54.99785849065491, -10.240245246528719]]}}, {"type": "Feature", "properties": {"layer": "LOTES_Q-53", "dxf_type": "LINE"}, "geometry": {"type": "LineString", "coordinates": [[-54.99785849065491, -10.240245246528719], [-54.99777639218818, -10.240310862244957]]}}, {"type": "Feature", "properties": {"layer": "LOTES_Q-53", "dxf_type": "LINE"}, "geometry": {"type": "LineString", "coordinates": [[-54.99777639218818, -10.240310862244957], [-54.99777639218818, -10.240310862244957]]}}, {"type": "Feature", "properties": {"layer": "LOTES_Q-53", "dxf_type": "LINE"}, "geometry": {"type": "LineString", "coordinates": [[-54.99785849065491, -10.240245246528719], [-54.99803091471157, -10.240479095323694]]}}, {"type": "Feature", "properties": {"layer": "LOTES_Q-53", "dxf_type": "LINE"}, "geometry": {"type": "LineString", "coordinates": [[-54.99803091471157, -10.240479095323694], [-54.9980390405473, -10.240474724250108]]}}, {"type": "Feature", "properties": {"layer": "LOTES_Q-53", "dxf_type": "LINE"}, "geometry": {"type": "LineString", "coordinates": [[-54.9980390405473, -10.240474724250108], [-54.99811314870707, -10.24042504427161]]}}, {"type": "Feature", "properties": {"layer": "LOTES_Q-53", "dxf_type": "LINE"}, "geometry": {"type": "LineString", "coordinates": [[-54.99811314870707, -10.24042504427161], [-54.9981286921433, -10.240414710470006]]}}, {"type": "Feature", "properties": {"layer": "LOTES_Q-53", "dxf_type": "LINE"}, "geometry": {"type": "LineString", "coordinates": [[-54.9981286921433, -10.240414710470006], [-54.99812241079795, -10.24040466085388]]}}, {"type": "Feature", "properties": {"layer": "LOTES_Q-53", "dxf_type": "LINE"}, "geometry": {"type": "LineString", "coordinates": [[-54.99812241079795, -10.24040466085388], [-54.99795559274077, -10.240173438157553]]}}, {"type": "Feature", "properties": {"layer": "LOTES_Q-53", "dxf_type": "LINE"}, "geometry": {"type": "LineString", "coordinates": [[-54.99795559274077, -10.240173438157553], [-54.99785849065491, -10.240245246528719]]}}, {"type": "Feature", "properties": {"layer": "LOTES_Q-53", "dxf_type": "LINE"}, "geometry": {"type": "LineString", "coordinates": [[-54.99785849065491, -10.240245246528719], [-54.99785849065491, -10.240245246528719]]}}, {"type": "Feature", "properties": {"layer": "LOTES_Q-53", "dxf_type": "LINE"}, "geometry": {"type": "LineString", "coordinates": [[-54.99795559274077, -10.240173438157553], [-54.99812241079795, -10.24040466085388]]}}, {"type": "Feature", "properties": {"layer": "LOTES_Q-53", "dxf_type": "LINE"}, "geometry": {"type": "LineString", "coordinates": [[-54.99812241079795, -10.24040466085388], [-54.99818760575148, -10.240358297627829]]}}, {"type": "Feature", "properties": {"layer": "LOTES_Q-53", "dxf_type": "LINE"}, "geometry": {"type": "LineString", "coordinates": [[-54.99818760575148, -10.240358297627829], [-54.998028366276316, -10.240120320485827]]}}, {"type": "Feature", "properties": {"layer": "LOTES_Q-53", "dxf_type": "LINE"}, "geometry": {"type": "LineString", "coordinates": [[-54.998028366276316, -10.240120320485827], [-54.99795559274077, -10.240173438157553]]}}, {"type": "Feature", "properties": {"layer": "LOTES_Q-53", "dxf_type": "LINE"}, "geometry": {"type": "LineString", "coordinates": [[-54.99795559274077, -10.240173438157553], [-54.99795559274077, -10.240173438157553]]}}, {"type": "Feature", "properties": {"layer": "LOTES_Q-53", "dxf_type": "LINE"}, "geometry": {"type": "LineString", "coordinates": [[-54.998028366276316, -10.240120320485827], [-54.99818760575148, -10.240358297627829]]}}, {"type": "Feature", "properties": {"layer": "LOTES_Q-53", "dxf_type": "LINE"}, "geometry": {"type": "LineString", "coordinates": [[-54.99818760575148, -10.240358297627829], [-54.99823662704293, -10.24032351534602]]}}, {"type": "Feature", "properties": {"layer": "LOTES_Q-53", "dxf_type": "LINE"}, "geometry": {"type": "LineString", "coordinates": [[-54.99823662704293, -10.24032351534602], [-54.99827410018076, -10.240295878909798]]}}, {"type": "Feature", "properties": {"layer": "LOTES_Q-53", "dxf_type": "LINE"}, "geometry": {"type": "LineString", "coordinates": [[-54.99827410018076, -10.240295878909798], [-54.99809396646215, -10.24007103285911]]}}, {"type": "Feature", "properties": {"layer": "LOTES_Q-53", "dxf_type": "LINE"}, "geometry": {"type": "LineString", "coordinates": [[-54.99809396646215, -10.24007103285911], [-54.998028366276316, -10.240120320485827]]}}, {"type": "Feature", "properties": {"layer": "LOTES_Q-53", "dxf_type": "LINE"}, "geometry": {"type": "LineString", "coordinates": [[-54.998028366276316, -10.240120320485827], [-54.998028366276316, -10.240120320485827]]}}, {"type": "Feature", "properties": {"layer": "LOTES_Q-53", "dxf_type": "LINE"}, "geometry": {"type": "LineString", "coordinates": [[-54.99809396646215, -10.24007103285911], [-54.99827410018076, -10.240295878909798]]}}, {"type": "Feature", "properties": {"layer": "LOTES_Q-53", "dxf_type": "LINE"}, "geometry": {"type": "LineString", "coordinates": [[-54.99827410018076, -10.240295878909798], [-54.998323771817546, -10.240258674482305]]}}, {"type": "Feature", "properties": {"layer": "LOTES_Q-53", "dxf_type": "LINE"}, "geometry": {"type": "LineString", "coordinates": [[-54.998323771817546, -10.240258674482305], [-54.99815112631159, -10.240026496718489]]}}, {"type": "Feature", "properties": {"layer": "LOTES_Q-53", "dxf_type": "LINE"}, "geometry": {"type": "LineString", "coordinates": [[-54.99815112631159, -10.240026496718489], [-54.99809396646215, -10.24007103285911]]}}, {"type": "Feature", "properties": {"layer": "LOTES_Q-53", "dxf_type": "LINE"}, "geometry": {"type": "LineString", "coordinates": [[-54.99809396646215, -10.24007103285911], [-54.99809396646215, -10.24007103285911]]}}, {"type": "Feature", "properties": {"layer": "LOTES_Q-53", "dxf_type": "LINE"}, "geometry": {"type": "LineString", "coordinates": [[-54.99815112631159, -10.240026496718489], [-54.998323771817546, -10.240258674482305]]}}, {"type": "Feature", "properties": {"layer": "LOTES_Q-53", "dxf_type": "LINE"}, "geometry": {"type": "LineString", "coordinates": [[-54.998323771817546, -10.240258674482305], [-54.998341404155724, -10.240245725816862]]}}, {"type": "Feature", "properties": {"layer": "LOTES_Q-53", "dxf_type": "LINE"}, "geometry": {"type": "LineString", "coordinates": [[-54.998341404155724, -10.240245725816862], [-54.99837470910379, -10.240220469958889]]}}, {"type": "Feature", "properties": {"layer": "LOTES_Q-53", "dxf_type": "LINE"}, "geometry": {"type": "LineString", "coordinates": [[-54.99837470910379, -10.240220469958889], [-54.99820926068613, -10.239981106027047]]}}, {"type": "Feature", "properties": {"layer": "LOTES_Q-53", "dxf_type": "LINE"}, "geometry": {"type": "LineString", "coordinates": [[-54.99820926068613, -10.239981106027047], [-54.99815112631159, -10.240026496718489]]}}, {"type": "Feature", "properties": {"layer": "LOTES_Q-53", "dxf_type": "LINE"}, "geometry": {"type": "LineString", "coordinates": [[-54.99815112631159, -10.240026496718489], [-54.99815112631159, -10.240026496718489]]}}, {"type": "Feature", "properties": {"layer": "LOTES_Q-53", "dxf_type": "LINE"}, "geometry": {"type": "LineString", "coordinates": [[-54.99820926068613, -10.239981106027047], [-54.99837470910379, -10.240220469958889]]}}, {"type": "Feature", "properties": {"layer": "LOTES_Q-53", "dxf_type": "LINE"}, "geometry": {"type": "LineString", "coordinates": [[-54.99837470910379, -10.240220469958889], [-54.99841794089309, -10.24019076912556]]}}, {"type": "Feature", "properties": {"layer": "LOTES_Q-53", "dxf_type": "LINE"}, "geometry": {"type": "LineString", "coordinates": [[-54.99841794089309, -10.24019076912556], [-54.99844788615553, -10.240168340846601]]}}, {"type": "Feature", "properties": {"layer": "LOTES_Q-53", "dxf_type": "LINE"}, "geometry": {"type": "LineString", "coordinates": [[-54.99844788615553, -10.240168340846601], [-54.99829605542509, -10.239914293349239]]}}, {"type": "Feature", "properties": {"layer": "LOTES_Q-53", "dxf_type": "LINE"}, "geometry": {"type": "LineString", "coordinates": [[-54.99829605542509, -10.239914293349239], [-54.99820926068613, -10.239981106027047]]}}, {"type": "Feature", "properties": {"layer": "LOTES_Q-53", "dxf_type": "LINE"}, "geometry": {"type": "LineString", "coordinates": [[-54.99820926068613, -10.239981106027047], [-54.99820926068613, -10.239981106027047]]}}, {"type": "Feature", "properties": {"layer": "LOTES_Q-53", "dxf_type": "LINE"}, "geometry": {"type": "LineString", "coordinates": [[-54.99829605542509, -10.239914293349239], [-54.99844788615553, -10.240168340846601]]}}, {"type": "Feature", "properties": {"layer": "LOTES_Q-53", "dxf_type": "LINE"}, "geometry": {"type": "LineString", "coordinates": [[-54.99844788615553, -10.240168340846601], [-54.99852363434839, -10.240115861445823]]}}, {"type": "Feature", "properties": {"layer": "LOTES_Q-53", "dxf_type": "LINE"}, "geometry": {"type": "LineString", "coordinates": [[-54.99852363434839, -10.240115861445823], [-54.99837068754835, -10.23986179987713]]}}, {"type": "Feature", "properties": {"layer": "LOTES_Q-53", "dxf_type": "LINE"}, "geometry": {"type": "LineString", "coordinates": [[-54.99837068754835, -10.23986179987713], [-54.99829605542509, -10.239914293349239]]}}, {"type": "Feature", "properties": {"layer": "LOTES_Q-53", "dxf_type": "LINE"}, "geometry": {"type": "LineString", "coordinates": [[-54.99829605542509, -10.239914293349239], [-54.99829605542509, -10.239914293349239]]}}, {"type": "Feature", "properties": {"layer": "LOTES_Q-53", "dxf_type": "LINE"}, "geometry": {"type": "LineString", "coordinates": [[-54.99837068754835, -10.23986179987713], [-54.99852363434839, -10.240115861445823]]}}, {"type": "Feature", "properties": {"layer": "LOTES_Q-53", "dxf_type": "LINE"}, "geometry": {"type": "LineString", "coordinates": [[-54.99852363434839, -10.240115861445823], [-54.99859605876124, -10.240064266398225]]}}, {"type": "Feature", "properties": {"layer": "LOTES_Q-53", "dxf_type": "LINE"}, "geometry": {"type": "LineString", "coordinates": [[-54.99859605876124, -10.240064266398225], [-54.99844378522935, -10.239808342397186]]}}, {"type": "Feature", "properties": {"layer": "LOTES_Q-53", "dxf_type": "LINE"}, "geometry": {"type": "LineString", "coordinates": [[-54.99844378522935, -10.239808342397186], [-54.99837068754835, -10.23986179987713]]}}, {"type": "Feature", "properties": {"layer": "LOTES_Q-53", "dxf_type": "LINE"}, "geometry": {"type": "LineString", "coordinates": [[-54.99837068754835, -10.23986179987713], [-54.99837068754835, -10.23986179987713]]}}, {"type": "Feature", "properties": {"layer": "LOTES_Q-53", "dxf_type": "LINE"}, "geometry": {"type": "LineString", "coordinates": [[-54.99844378522935, -10.239808342397186], [-54.99859605876124, -10.240064266398225]]}}, {"type": "Feature", "properties": {"layer": "LOTES_Q-53", "dxf_type": "LINE"}, "geometry": {"type": "LineString", "coordinates": [[-54.99859605876124, -10.240064266398225], [-54.99862196839843, -10.240043307452396]]}}, {"type": "Feature", "properties": {"layer": "LOTES_Q-53", "dxf_type": "LINE"}, "geometry": {"type": "LineString", "coordinates": [[-54.99862196839843, -10.240043307452396], [-54.99865213309919, -10.2400190627084]]}}, {"type": "Feature", "properties": {"layer": "LOTES_Q-53", "dxf_type": "LINE"}, "geometry": {"type": "LineString", "coordinates": [[-54.99865213309919, -10.2400190627084], [-54.99852038356256, -10.239760131117164]]}}, {"type": "Feature", "properties": {"layer": "LOTES_Q-53", "dxf_type": "LINE"}, "geometry": {"type": "LineString", "coordinates": [[-54.99852038356256, -10.239760131117164], [-54.99844378522935, -10.239808342397186]]}}, {"type": "Feature", "properties": {"layer": "LOTES_Q-53", "dxf_type": "LINE"}, "geometry": {"type": "LineString", "coordinates": [[-54.99844378522935, -10.239808342397186], [-54.99844378522935, -10.239808342397186]]}}, {"type": "Feature", "properties": {"layer": "LOTES_Q-53", "dxf_type": "LINE"}, "geometry": {"type": "LineString", "coordinates": [[-54.99709993399442, -10.241165224472633], [-54.99715454457838, -10.241239287472517]]}}, {"type": "Feature", "properties": {"layer": "LOTES_Q-53", "dxf_type": "LINE"}, "geometry": {"type": "LineString", "coordinates": [[-54.99715454457838, -10.241239287472517], [-54.997377355434416, -10.24107919175281]]}}, {"type": "Feature", "properties": {"layer": "LOTES_Q-53", "dxf_type": "LINE"}, "geometry": {"type": "LineString", "coordinates": [[-54.997377355434416, -10.24107919175281], [-54.99732531408735, -10.241004062610003]]}}, {"type": "Feature", "properties": {"layer": "LOTES_Q-53", "dxf_type": "LINE"}, "geometry": {"type": "LineString", "coordinates": [[-54.99732531408735, -10.241004062610003], [-54.99709993399442, -10.241165224472633]]}}, {"type": "Feature", "properties": {"layer": "LOTES_Q-53", "dxf_type": "LINE"}, "geometry": {"type": "LineString", "coordinates": [[-54.99709993399442, -10.241165224472633], [-54.99709993399442, -10.241165224472633]]}}, {"type": "Feature", "properties": {"layer": "LOTES_Q-53", "dxf_type": "LINE"}, "geometry": {"type": "LineString", "coordinates": [[-54.99715454457838, -10.241239287472517], [-54.997208457002785, -10.241313648078412]]}}, {"type": "Feature", "properties": {"layer": "LOTES_Q-53", "dxf_type": "LINE"}, "geometry": {"type": "LineString", "coordinates": [[-54.997208457002785, -10.241313648078412], [-54.9974282492562, -10.241155112893699]]}}, {"type": "Feature", "properties": {"layer": "LOTES_Q-53", "dxf_type": "LINE"}, "geometry": {"type": "LineString", "coordinates": [[-54.9974282492562, -10.241155112893699], [-54.997377355434416, -10.24107919175281]]}}, {"type": "Feature", "properties": {"layer": "LOTES_Q-53", "dxf_type": "LINE"}, "geometry": {"type": "LineString", "coordinates": [[-54.997377355434416, -10.24107919175281], [-54.99715454457838, -10.241239287472517]]}}, {"type": "Feature", "properties": {"layer": "LOTES_Q-53", "dxf_type": "LINE"}, "geometry": {"type": "LineString", "coordinates": [[-54.99715454457838, -10.241239287472517], [-54.99715454457838, -10.241239287472517]]}}, {"type": "Feature", "properties": {"layer": "LOTES_Q-53", "dxf_type": "LINE"}, "geometry": {"type": "LineString", "coordinates": [[-54.997208457002785, -10.241313648078412], [-54.997277223520996, -10.24140856497442]]}}, {"type": "Feature", "properties": {"layer": "LOTES_Q-53", "dxf_type": "LINE"}, "geometry": {"type": "LineString", "coordinates": [[-54.997277223520996, -10.24140856497442], [-54.99749386673223, -10.241244747718364]]}}, {"type": "Feature", "properties": {"layer": "LOTES_Q-53", "dxf_type": "LINE"}, "geometry": {"type": "LineString", "coordinates": [[-54.99749386673223, -10.241244747718364], [-54.9974282492562, -10.241155112893699]]}}, {"type": "Feature", "properties": {"layer": "LOTES_Q-53", "dxf_type": "LINE"}, "geometry": {"type": "LineString", "coordinates": [[-54.9974282492562, -10.241155112893699], [-54.997208457002785, -10.241313648078412]]}}, {"type": "Feature", "properties": {"layer": "LOTES_Q-53", "dxf_type": "LINE"}, "geometry": {"type": "LineString", "coordinates": [[-54.997208457002785, -10.241313648078412], [-54.997208457002785, -10.241313648078412]]}}, {"type": "Feature", "properties": {"layer": "LOTES_Q-53", "dxf_type": "LINE"}, "geometry": {"type": "LineString", "coordinates": [[-54.997377355434416, -10.24107919175281], [-54.9974282492562, -10.241155112893699]]}}, {"type": "Feature", "properties": {"layer": "LOTES_Q-53", "dxf_type": "LINE"}, "geometry": {"type": "LineString", "coordinates": [[-54.9974282492562, -10.241155112893699], [-54.99749386673223, -10.241244747718364]]}}, {"type": "Feature", "properties": {"layer": "LOTES_Q-53", "dxf_type": "LINE"}, "geometry": {"type": "LineString", "coordinates": [[-54.99749386673223, -10.241244747718364], [-54.99763632083695, -10.241132388543557]]}}, {"type": "Feature", "properties": {"layer": "LOTES_Q-53", "dxf_type": "LINE"}, "geometry": {"type": "LineString", "coordinates": [[-54.99763632083695, -10.241132388543557], [-54.997471611339115, -10.240896314572938]]}}, {"type": "Feature", "properties": {"layer": "LOTES_Q-53", "dxf_type": "LINE"}, "geometry": {"type": "LineString", "coordinates": [[-54.997471611339115, -10.240896314572938], [-54.997410823808636, -10.240940534433399]]}}, {"type": "Feature", "properties": {"layer": "LOTES_Q-53", "dxf_type": "LINE"}, "geometry": {"type": "LineString", "coordinates": [[-54.997410823808636, -10.240940534433399], [-54.99736824087057, -10.240971952025461]]}}, {"type": "Feature", "properties": {"layer": "LOTES_Q-53", "dxf_type": "LINE"}, "geometry": {"type": "LineString", "coordinates": [[-54.99736824087057, -10.240971952025461], [-54.99732531408735, -10.241004062610003]]}}, {"type": "Feature", "properties": {"layer": "LOTES_Q-53", "dxf_type": "LINE"}, "geometry": {"type": "LineString", "coordinates": [[-54.99732531408735, -10.241004062610003], [-54.997377355434416, -10.24107919175281]]}}, {"type": "Feature", "properties": {"layer": "LOTES_Q-53", "dxf_type": "LINE"}, "geometry": {"type": "LineString", "coordinates": [[-54.997377355434416, -10.24107919175281], [-54.997377355434416, -10.24107919175281]]}}, {"type": "Feature", "properties": {"layer": "LOTES_Q-53", "dxf_type": "LINE"}, "geometry": {"type": "LineString", "coordinates": [[-54.998962054831125, -10.240134699472456], [-54.998813894126904, -10.239894767802893]]}}, {"type": "Feature", "properties": {"layer": "LOTES_Q-53", "dxf_type": "LINE"}, "geometry": {"type": "LineString", "coordinates": [[-54.998813894126904, -10.239894767802893], [-54.998796158501094, -10.239908330534163]]}}, {"type": "Feature", "properties": {"layer": "LOTES_Q-53", "dxf_type": "LINE"}, "geometry": {"type": "LineString", "coordinates": [[-54.998796158501094, -10.239908330534163], [-54.998748147591286, -10.239943401165101]]}}, {"type": "Feature", "properties": {"layer": "LOTES_Q-53", "dxf_type": "LINE"}, "geometry": {"type": "LineString", "coordinates": [[-54.998748147591286, -10.239943401165101], [-54.99890394342884, -10.240175125199181]]}}, {"type": "Feature", "properties": {"layer": "LOTES_Q-53", "dxf_type": "LINE"}, "geometry": {"type": "LineString", "coordinates": [[-54.99890394342884, -10.240175125199181], [-54.998962054831125, -10.240134699472456]]}}, {"type": "Feature", "properties": {"layer": "LOTES_Q-53", "dxf_type": "LINE"}, "geometry": {"type": "LineString", "coordinates": [[-54.998962054831125, -10.240134699472456], [-54.998962054831125, -10.240134699472456]]}}, {"type": "Feature", "properties": {"layer": "LOTES_Q-53", "dxf_type": "LINE"}, "geometry": {"type": "LineString", "coordinates": [[-54.99870920088734, -10.239972460420573], [-54.99886076955834, -10.240202726646709]]}}, {"type": "Feature", "properties": {"layer": "LOTES_Q-53", "dxf_type": "LINE"}, "geometry": {"type": "LineString", "coordinates": [[-54.99886076955834, -10.240202726646709], [-54.99890394342884, -10.240175125199181]]}}, {"type": "Feature", "properties": {"layer": "LOTES_Q-53", "dxf_type": "LINE"}, "geometry": {"type": "LineString", "coordinates": [[-54.99890394342884, -10.240175125199181], [-54.998748147591286, -10.239943401165101]]}}, {"type": "Feature", "properties": {"layer": "LOTES_Q-53", "dxf_type": "LINE"}, "geometry": {"type": "LineString", "coordinates": [[-54.998748147591286, -10.239943401165101], [-54.99870920088734, -10.239972460420573]]}}, {"type": "Feature", "properties": {"layer": "LOTES_Q-53", "dxf_type": "LINE"}, "geometry": {"type": "LineString", "coordinates": [[-54.99870920088734, -10.239972460420573], [-54.99870920088734, -10.239972460420573]]}}, {"type": "Feature", "properties": {"layer": "LOTES_Q-53", "dxf_type": "LINE"}, "geometry": {"type": "LineString", "coordinates": [[-54.99886076955834, -10.240202726646709], [-54.99870920088734, -10.239972460420573]]}}, {"type": "Feature", "properties": {"layer": "LOTES_Q-53", "dxf_type": "LINE"}, "geometry": {"type": "LineString", "coordinates": [[-54.99870920088734, -10.239972460420573], [-54.99865213309919, -10.2400190627084]]}}, {"type": "Feature", "properties": {"layer": "LOTES_Q-53", "dxf_type": "LINE"}, "geometry": {"type": "LineString", "coordinates": [[-54.99865213309919, -10.2400190627084], [-54.99862196839843, -10.240043307452396]]}}, {"type": "Feature", "properties": {"layer": "LOTES_Q-53", "dxf_type": "LINE"}, "geometry": {"type": "LineString", "coordinates": [[-54.99862196839843, -10.240043307452396], [-54.998776944213745, -10.240267971365466]]}}, {"type": "Feature", "properties": {"layer": "LOTES_Q-53", "dxf_type": "LINE"}, "geometry": {"type": "LineString", "coordinates": [[-54.998776944213745, -10.240267971365466], [-54.99886076955834, -10.240202726646709]]}}, {"type": "Feature", "properties": {"layer": "LOTES_Q-53", "dxf_type": "LINE"}, "geometry": {"type": "LineString", "coordinates": [[-54.99886076955834, -10.240202726646709], [-54.99886076955834, -10.240202726646709]]}}, {"type": "Feature", "properties": {"layer": "LOTES_Q-53", "dxf_type": "LINE"}, "geometry": {"type": "LineString", "coordinates": [[-54.998776944213745, -10.240267971365466], [-54.99862196839843, -10.240043307452396]]}}, {"type": "Feature", "properties": {"layer": "LOTES_Q-53", "dxf_type": "LINE"}, "geometry": {"type": "LineString", "coordinates": [[-54.99862196839843, -10.240043307452396], [-54.99859605876124, -10.240064266398225]]}}, {"type": "Feature", "properties": {"layer": "LOTES_Q-53", "dxf_type": "LINE"}, "geometry": {"type": "LineString", "coordinates": [[-54.99859605876124, -10.240064266398225], [-54.99852363434839, -10.240115861445823]]}}, {"type": "Feature", "properties": {"layer": "LOTES_Q-53", "dxf_type": "LINE"}, "geometry": {"type": "LineString", "coordinates": [[-54.99852363434839, -10.240115861445823], [-54.9986765599959, -10.240341901210785]]}}, {"type": "Feature", "properties": {"layer": "LOTES_Q-53", "dxf_type": "LINE"}, "geometry": {"type": "LineString", "coordinates": [[-54.9986765599959, -10.240341901210785], [-54.998776944213745, -10.240267971365466]]}}, {"type": "Feature", "properties": {"layer": "LOTES_Q-53", "dxf_type": "LINE"}, "geometry": {"type": "LineString", "coordinates": [[-54.998776944213745, -10.240267971365466], [-54.998776944213745, -10.240267971365466]]}}, {"type": "Feature", "properties": {"layer": "LOTES_Q-53", "dxf_type": "LINE"}, "geometry": {"type": "LineString", "coordinates": [[-54.9986765599959, -10.240341901210785], [-54.99852363434839, -10.240115861445823]]}}, {"type": "Feature", "properties": {"layer": "LOTES_Q-53", "dxf_type": "LINE"}, "geometry": {"type": "LineString", "coordinates": [[-54.99852363434839, -10.240115861445823], [-54.99844788615553, -10.240168340846601]]}}, {"type": "Feature", "properties": {"layer": "LOTES_Q-53", "dxf_type": "LINE"}, "geometry": {"type": "LineString", "coordinates": [[-54.99844788615553, -10.240168340846601], [-54.99841794089309, -10.24019076912556]]}}, {"type": "Feature", "properties": {"layer": "LOTES_Q-53", "dxf_type": "LINE"}, "geometry": {"type": "LineString", "coordinates": [[-54.99841794089309, -10.24019076912556], [-54.998576027484646, -10.240419824543409]]}}, {"type": "Feature", "properties": {"layer": "LOTES_Q-53", "dxf_type": "LINE"}, "geometry": {"type": "LineString", "coordinates": [[-54.998576027484646, -10.240419824543409], [-54.9986765599959, -10.240341901210785]]}}, {"type": "Feature", "properties": {"layer": "LOTES_Q-53", "dxf_type": "LINE"}, "geometry": {"type": "LineString", "coordinates": [[-54.9986765599959, -10.240341901210785], [-54.9986765599959, -10.240341901210785]]}}, {"type": "Feature", "properties": {"layer": "LOTES_Q-53", "dxf_type": "LINE"}, "geometry": {"type": "LineString", "coordinates": [[-54.998576027484646, -10.240419824543409], [-54.99841794089309, -10.24019076912556]]}}, {"type": "Feature", "properties": {"layer": "LOTES_Q-53", "dxf_type": "LINE"}, "geometry": {"type": "LineString", "coordinates": [[-54.99841794089309, -10.24019076912556], [-54.99837470910379, -10.240220469958889]]}}, {"type": "Feature", "properties": {"layer": "LOTES_Q-53", "dxf_type": "LINE"}, "geometry": {"type": "LineString", "coordinates": [[-54.99837470910379, -10.240220469958889], [-54.998341404155724, -10.240245725816862]]}}, {"type": "Feature", "properties": {"layer": "LOTES_Q-53", "dxf_type": "LINE"}, "geometry": {"type": "LineString", "coordinates": [[-54.998341404155724, -10.240245725816862], [-54.99849851817209, -10.240474297105418]]}}, {"type": "Feature", "properties": {"layer": "LOTES_Q-53", "dxf_type": "LINE"}, "geometry": {"type": "LineString", "coordinates": [[-54.99849851817209, -10.240474297105418], [-54.998576027484646, -10.240419824543409]]}}, {"type": "Feature", "properties": {"layer": "LOTES_Q-53", "dxf_type": "LINE"}, "geometry": {"type": "LineString", "coordinates": [[-54.998576027484646, -10.240419824543409], [-54.998576027484646, -10.240419824543409]]}}, {"type": "Feature", "properties": {"layer": "LOTES_Q-53", "dxf_type": "LINE"}, "geometry": {"type": "LineString", "coordinates": [[-54.99849851817209, -10.240474297105418], [-54.998341404155724, -10.240245725816862]]}}, {"type": "Feature", "properties": {"layer": "LOTES_Q-53", "dxf_type": "LINE"}, "geometry": {"type": "LineString", "coordinates": [[-54.998341404155724, -10.240245725816862], [-54.998323771817546, -10.240258674482305]]}}, {"type": "Feature", "properties": {"layer": "LOTES_Q-53", "dxf_type": "LINE"}, "geometry": {"type": "LineString", "coordinates": [[-54.998323771817546, -10.240258674482305], [-54.99827410018076, -10.240295878909798]]}}, {"type": "Feature", "properties": {"layer": "LOTES_Q-53", "dxf_type": "LINE"}, "geometry": {"type": "LineString", "coordinates": [[-54.99827410018076, -10.240295878909798], [-54.99823662704293, -10.24032351534602]]}}, {"type": "Feature", "properties": {"layer": "LOTES_Q-53", "dxf_type": "LINE"}, "geometry": {"type": "LineString", "coordinates": [[-54.99823662704293, -10.24032351534602], [-54.99839670505622, -10.240553261941134]]}}, {"type": "Feature", "properties": {"layer": "LOTES_Q-53", "dxf_type": "LINE"}, "geometry": {"type": "LineString", "coordinates": [[-54.99839670505622, -10.240553261941134], [-54.99849851817209, -10.240474297105418]]}}, {"type": "Feature", "properties": {"layer": "LOTES_Q-53", "dxf_type": "LINE"}, "geometry": {"type": "LineString", "coordinates": [[-54.99849851817209, -10.240474297105418], [-54.99849851817209, -10.240474297105418]]}}, {"type": "Feature", "properties": {"layer": "LOTES_Q-53", "dxf_type": "LINE"}, "geometry": {"type": "LineString", "coordinates": [[-54.99839670505622, -10.240553261941134], [-54.99823662704293, -10.24032351534602]]}}, {"type": "Feature", "properties": {"layer": "LOTES_Q-53", "dxf_type": "LINE"}, "geometry": {"type": "LineString", "coordinates": [[-54.99823662704293, -10.24032351534602], [-54.99818760575148, -10.240358297627829]]}}, {"type": "Feature", "properties": {"layer": "LOTES_Q-53", "dxf_type": "LINE"}, "geometry": {"type": "LineString", "coordinates": [[-54.99818760575148, -10.240358297627829], [-54.998341605455984, -10.240601195082952]]}}, {"type": "Feature", "properties": {"layer": "LOTES_Q-53", "dxf_type": "LINE"}, "geometry": {"type": "LineString", "coordinates": [[-54.998341605455984, -10.240601195082952], [-54.99839670505622, -10.240553261941134]]}}, {"type": "Feature", "properties": {"layer": "LOTES_Q-53", "dxf_type": "LINE"}, "geometry": {"type": "LineString", "coordinates": [[-54.99839670505622, -10.240553261941134], [-54.99839670505622, -10.240553261941134]]}}, {"type": "Feature", "properties": {"layer": "LOTES_Q-53", "dxf_type": "LINE"}, "geometry": {"type": "LineString", "coordinates": [[-54.998341605455984, -10.240601195082952], [-54.99818760575148, -10.240358297627829]]}}, {"type": "Feature", "properties": {"layer": "LOTES_Q-53", "dxf_type": "LINE"}, "geometry": {"type": "LineString", "coordinates": [[-54.99818760575148, -10.240358297627829], [-54.99812241079795, -10.24040466085388]]}}, {"type": "Feature", "properties": {"layer": "LOTES_Q-53", "dxf_type": "LINE"}, "geometry": {"type": "LineString", "coordinates": [[-54.99812241079795, -10.24040466085388], [-54.9981286921433, -10.240414710470006]]}}, {"type": "Feature", "properties": {"layer": "LOTES_Q-53", "dxf_type": "LINE"}, "geometry": {"type": "LineString", "coordinates": [[-54.9981286921433, -10.240414710470006], [-54.99811314870707, -10.24042504427161]]}}, {"type": "Feature", "properties": {"layer": "LOTES_Q-53", "dxf_type": "LINE"}, "geometry": {"type": "LineString", "coordinates": [[-54.99811314870707, -10.24042504427161], [-54.99827627242348, -10.240637849343571]]}}, {"type": "Feature", "properties": {"layer": "LOTES_Q-53", "dxf_type": "LINE"}, "geometry": {"type": "LineString", "coordinates": [[-54.99827627242348, -10.240637849343571], [-54.998341605455984, -10.240601195082952]]}}, {"type": "Feature", "properties": {"layer": "LOTES_Q-53", "dxf_type": "LINE"}, "geometry": {"type": "LineString", "coordinates": [[-54.998341605455984, -10.240601195082952], [-54.998341605455984, -10.240601195082952]]}}, {"type": "Feature", "properties": {"layer": "LOTES_Q-53", "dxf_type": "LINE"}, "geometry": {"type": "LineString", "coordinates": [[-54.99827627242348, -10.240637849343571], [-54.99811314870707, -10.24042504427161]]}}, {"type": "Feature", "properties": {"layer": "LOTES_Q-53", "dxf_type": "LINE"}, "geometry": {"type": "LineString", "coordinates": [[-54.99811314870707, -10.24042504427161], [-54.9980390405473, -10.240474724250108]]}}, {"type": "Feature", "properties": {"layer": "LOTES_Q-53", "dxf_type": "LINE"}, "geometry": {"type": "LineString", "coordinates": [[-54.9980390405473, -10.240474724250108], [-54.99820454023513, -10.240689339170615]]}}, {"type": "Feature", "properties": {"layer": "LOTES_Q-53", "dxf_type": "LINE"}, "geometry": {"type": "LineString", "coordinates": [[-54.99820454023513, -10.240689339170615], [-54.99827627242348, -10.240637849343571]]}}, {"type": "Feature", "properties": {"layer": "LOTES_Q-53", "dxf_type": "LINE"}, "geometry": {"type": "LineString", "coordinates": [[-54.99827627242348, -10.240637849343571], [-54.99827627242348, -10.240637849343571]]}}, {"type": "Feature", "properties": {"layer": "LOTES_Q-53", "dxf_type": "LINE"}, "geometry": {"type": "LineString", "coordinates": [[-54.99820454023513, -10.240689339170615], [-54.9980390405473, -10.240474724250108]]}}, {"type": "Feature", "properties": {"layer": "LOTES_Q-53", "dxf_type": "LINE"}, "geometry": {"type": "LineString", "coordinates": [[-54.9980390405473, -10.240474724250108], [-54.99803091471157, -10.240479095323694]]}}, {"type": "Feature", "properties": {"layer": "LOTES_Q-53", "dxf_type": "LINE"}, "geometry": {"type": "LineString", "coordinates": [[-54.99803091471157, -10.240479095323694], [-54.99796810518171, -10.240525032982017]]}}, {"type": "Feature", "properties": {"layer": "LOTES_Q-53", "dxf_type": "LINE"}, "geometry": {"type": "LineString", "coordinates": [[-54.99796810518171, -10.240525032982017], [-54.998130265022354, -10.240744544721606]]}}, {"type": "Feature", "properties": {"layer": "LOTES_Q-53", "dxf_type": "LINE"}, "geometry": {"type": "LineString", "coordinates": [[-54.998130265022354, -10.240744544721606], [-54.99820454023513, -10.240689339170615]]}}, {"type": "Feature", "properties": {"layer": "LOTES_Q-53", "dxf_type": "LINE"}, "geometry": {"type": "LineString", "coordinates": [[-54.99820454023513, -10.240689339170615], [-54.99820454023513, -10.240689339170615]]}}, {"type": "Feature", "properties": {"layer": "LOTES_Q-53", "dxf_type": "LINE"}, "geometry": {"type": "LineString", "coordinates": [[-54.998130265022354, -10.240744544721606], [-54.99796810518171, -10.240525032982017]]}}, {"type": "Feature", "properties": {"layer": "LOTES_Q-53", "dxf_type": "LINE"}, "geometry": {"type": "LineString", "coordinates": [[-54.99796810518171, -10.240525032982017], [-54.99795490310413, -10.240533970161609]]}}, {"type": "Feature", "properties": {"layer": "LOTES_Q-53", "dxf_type": "LINE"}, "geometry": {"type": "LineString", "coordinates": [[-54.99795490310413, -10.240533970161609], [-54.997900133846706, -10.240578116906848]]}}, {"type": "Feature", "properties": {"layer": "LOTES_Q-53", "dxf_type": "LINE"}, "geometry": {"type": "LineString", "coordinates": [[-54.997900133846706, -10.240578116906848], [-54.99805735242072, -10.240798276203423]]}}, {"type": "Feature", "properties": {"layer": "LOTES_Q-53", "dxf_type": "LINE"}, "geometry": {"type": "LineString", "coordinates": [[-54.99805735242072, -10.240798276203423], [-54.998130265022354, -10.240744544721606]]}}, {"type": "Feature", "properties": {"layer": "LOTES_Q-53", "dxf_type": "LINE"}, "geometry": {"type": "LineString", "coordinates": [[-54.998130265022354, -10.240744544721606], [-54.998130265022354, -10.240744544721606]]}}, {"type": "Feature", "properties": {"layer": "LOTES_Q-53", "dxf_type": "LINE"}, "geometry": {"type": "LineString", "coordinates": [[-54.99805735242072, -10.240798276203423], [-54.997900133846706, -10.240578116906848]]}}, {"type": "Feature", "properties": {"layer": "LOTES_Q-53", "dxf_type": "LINE"}, "geometry": {"type": "LineString", "coordinates": [[-54.997900133846706, -10.240578116906848], [-54.99788838590627, -10.240585540827054]]}}, {"type": "Feature", "properties": {"layer": "LOTES_Q-53", "dxf_type": "LINE"}, "geometry": {"type": "LineString", "coordinates": [[-54.99788838590627, -10.240585540827054], [-54.99784000318349, -10.240621805791292]]}}, {"type": "Feature", "properties": {"layer": "LOTES_Q-53", "dxf_type": "LINE"}, "geometry": {"type": "LineString", "coordinates": [[-54.99784000318349, -10.240621805791292], [-54.99782928174074, -10.240631875484507]]}}, {"type": "Feature", "properties": {"layer": "LOTES_Q-53", "dxf_type": "LINE"}, "geometry": {"type": "LineString", "coordinates": [[-54.99782928174074, -10.240631875484507], [-54.99798411960561, -10.240850095702537]]}}, {"type": "Feature", "properties": {"layer": "LOTES_Q-53", "dxf_type": "LINE"}, "geometry": {"type": "LineString", "coordinates": [[-54.99798411960561, -10.240850095702537], [-54.99805735242072, -10.240798276203423]]}}, {"type": "Feature", "properties": {"layer": "LOTES_Q-53", "dxf_type": "LINE"}, "geometry": {"type": "LineString", "coordinates": [[-54.99805735242072, -10.240798276203423], [-54.99805735242072, -10.240798276203423]]}}, {"type": "Feature", "properties": {"layer": "LOTES_Q-53", "dxf_type": "LINE"}, "geometry": {"type": "LineString", "coordinates": [[-54.99798411960561, -10.240850095702537], [-54.99782928174074, -10.240631875484507]]}}, {"type": "Feature", "properties": {"layer": "LOTES_Q-53", "dxf_type": "LINE"}, "geometry": {"type": "LineString", "coordinates": [[-54.99782928174074, -10.240631875484507], [-54.997767379510485, -10.240676612844226]]}}, {"type": "Feature", "properties": {"layer": "LOTES_Q-53", "dxf_type": "LINE"}, "geometry": {"type": "LineString", "coordinates": [[-54.997767379510485, -10.240676612844226], [-54.997749018673574, -10.240692356435627]]}}, {"type": "Feature", "properties": {"layer": "LOTES_Q-53", "dxf_type": "LINE"}, "geometry": {"type": "LineString", "coordinates": [[-54.997749018673574, -10.240692356435627], [-54.99790802381641, -10.240910806626749]]}}, {"type": "Feature", "properties": {"layer": "LOTES_Q-53", "dxf_type": "LINE"}, "geometry": {"type": "LineString", "coordinates": [[-54.99790802381641, -10.240910806626749], [-54.99798411960561, -10.240850095702537]]}}, {"type": "Feature", "properties": {"layer": "LOTES_Q-53", "dxf_type": "LINE"}, "geometry": {"type": "LineString", "coordinates": [[-54.99798411960561, -10.240850095702537], [-54.99798411960561, -10.240850095702537]]}}, {"type": "Feature", "properties": {"layer": "LOTES_Q-53", "dxf_type": "LINE"}, "geometry": {"type": "LineString", "coordinates": [[-54.99790802381641, -10.240910806626749], [-54.997749018673574, -10.240692356435627]]}}, {"type": "Feature", "properties": {"layer": "LOTES_Q-53", "dxf_type": "LINE"}, "geometry": {"type": "LineString", "coordinates": [[-54.997749018673574, -10.240692356435627], [-54.99769465959765, -10.240735263670002]]}}, {"type": "Feature", "properties": {"layer": "LOTES_Q-53", "dxf_type": "LINE"}, "geometry": {"type": "LineString", "coordinates": [[-54.99769465959765, -10.240735263670002], [-54.99768472935305, -10.240747663118896]]}}, {"type": "Feature", "properties": {"layer": "LOTES_Q-53", "dxf_type": "LINE"}, "geometry": {"type": "LineString", "coordinates": [[-54.99768472935305, -10.240747663118896], [-54.99784413551028, -10.240962702591426]]}}, {"type": "Feature", "properties": {"layer": "LOTES_Q-53", "dxf_type": "LINE"}, "geometry": {"type": "LineString", "coordinates": [[-54.99784413551028, -10.240962702591426], [-54.99790802381641, -10.240910806626749]]}}, {"type": "Feature", "properties": {"layer": "LOTES_Q-53", "dxf_type": "LINE"}, "geometry": {"type": "LineString", "coordinates": [[-54.99790802381641, -10.240910806626749], [-54.99790802381641, -10.240910806626749]]}}, {"type": "Feature", "properties": {"layer": "LOTES_Q-53", "dxf_type": "LINE"}, "geometry": {"type": "LineString", "coordinates": [[-54.99777579807978, -10.241018261868527], [-54.99761943706262, -10.240799188826085]]}}, {"type": "Feature", "properties": {"layer": "LOTES_Q-53", "dxf_type": "LINE"}, "geometry": {"type": "LineString", "coordinates": [[-54.99761943706262, -10.240799188826085], [-54.99754661491394, -10.240846056337903]]}}, {"type": "Feature", "properties": {"layer": "LOTES_Q-53", "dxf_type": "LINE"}, "geometry": {"type": "LineString", "coordinates": [[-54.99754661491394, -10.240846056337903], [-54.997471611339115, -10.240896314572938]]}}, {"type": "Feature", "properties": {"layer": "LOTES_Q-53", "dxf_type": "LINE"}, "geometry": {"type": "LineString", "coordinates": [[-54.997471611339115, -10.240896314572938], [-54.99763632083695, -10.241132388543557]]}}, {"type": "Feature", "properties": {"layer": "LOTES_Q-53", "dxf_type": "LINE"}, "geometry": {"type": "LineString", "coordinates": [[-54.99763632083695, -10.241132388543557], [-54.99777579807978, -10.241018261868527]]}}, {"type": "Feature", "properties": {"layer": "LOTES_Q-53", "dxf_type": "LINE"}, "geometry": {"type": "LineString", "coordinates": [[-54.99777579807978, -10.241018261868527], [-54.99777579807978, -10.241018261868527]]}}, {"type": "Feature", "properties": {"layer": "LOTES_Q-53", "dxf_type": "LINE"}, "geometry": {"type": "LineString", "coordinates": [[-54.99852038356256, -10.239760131117164], [-54.99865213309919, -10.2400190627084]]}}, {"type": "Feature", "properties": {"layer": "LOTES_Q-53", "dxf_type": "LINE"}, "geometry": {"type": "LineString", "coordinates": [[-54.99865213309919, -10.2400190627084], [-54.99870920088734, -10.239972460420573]]}}, {"type": "Feature", "properties": {"layer": "LOTES_Q-53", "dxf_type": "LINE"}, "geometry": {"type": "LineString", "coordinates": [[-54.99870920088734, -10.239972460420573], [-54.99860352550359, -10.239707943040168]]}}, {"type": "Feature", "properties": {"layer": "LOTES_Q-53", "dxf_type": "LINE"}, "geometry": {"type": "LineString", "coordinates": [[-54.99860352550359, -10.239707943040168], [-54.99852038356256, -10.239760131117164]]}}, {"type": "Feature", "properties": {"layer": "LOTES_Q-53", "dxf_type": "LINE"}, "geometry": {"type": "LineString", "coordinates": [[-54.99852038356256, -10.239760131117164], [-54.99852038356256, -10.239760131117164]]}}, {"type": "Feature", "properties": {"layer": "LOTES_Q-53", "dxf_type": "LINE"}, "geometry": {"type": "LineString", "coordinates": [[-54.99860352550359, -10.239707943040168], [-54.99870920088734, -10.239972460420573]]}}, {"type": "Feature", "properties": {"layer": "LOTES_Q-53", "dxf_type": "LINE"}, "geometry": {"type": "LineString", "coordinates": [[-54.99870920088734, -10.239972460420573], [-54.998748147591286, -10.239943401165101]]}}, {"type": "Feature", "properties": {"layer": "LOTES_Q-53", "dxf_type": "LINE"}, "geometry": {"type": "LineString", "coordinates": [[-54.998748147591286, -10.239943401165101], [-54.998796158501094, -10.239908330534163]]}}, {"type": "Feature", "properties": {"layer": "LOTES_Q-53", "dxf_type": "LINE"}, "geometry": {"type": "LineString", "coordinates": [[-54.998796158501094, -10.239908330534163], [-54.998698647574734, -10.239659024923233]]}}, {"type": "Feature", "properties": {"layer": "LOTES_Q-53", "dxf_type": "LINE"}, "geometry": {"type": "LineString", "coordinates": [[-54.998698647574734, -10.239659024923233], [-54.99860352550359, -10.239707943040168]]}}, {"type": "Feature", "properties": {"layer": "LOTES_Q-53", "dxf_type": "LINE"}, "geometry": {"type": "LineString", "coordinates": [[-54.99860352550359, -10.239707943040168], [-54.99860352550359, -10.239707943040168]]}}, {"type": "Feature", "properties": {"layer": "LOTES_Q-53", "dxf_type": "LINE"}, "geometry": {"type": "LineString", "coordinates": [[-54.998698647574734, -10.239659024923233], [-54.998796158501094, -10.239908330534163]]}}, {"type": "Feature", "properties": {"layer": "LOTES_Q-53", "dxf_type": "LINE"}, "geometry": {"type": "LineString", "coordinates": [[-54.998796158501094, -10.239908330534163], [-54.998813894126904, -10.239894767802893]]}}, {"type": "Feature", "properties": {"layer": "LOTES_Q-53", "dxf_type": "LINE"}, "geometry": {"type": "LineString", "coordinates": [[-54.998813894126904, -10.239894767802893], [-54.998884857995584, -10.23984205547545]]}}, {"type": "Feature", "properties": {"layer": "LOTES_Q-53", "dxf_type": "LINE"}, "geometry": {"type": "LineString", "coordinates": [[-54.998884857995584, -10.23984205547545], [-54.99879868706463, -10.239606119084655]]}}, {"type": "Feature", "properties": {"layer": "LOTES_Q-53", "dxf_type": "LINE"}, "geometry": {"type": "LineString", "coordinates": [[-54.99879868706463, -10.239606119084655], [-54.998698647574734, -10.239659024923233]]}}, {"type": "Feature", "properties": {"layer": "LOTES_Q-53", "dxf_type": "LINE"}, "geometry": {"type": "LineString", "coordinates": [[-54.998698647574734, -10.239659024923233], [-54.998698647574734, -10.239659024923233]]}}, {"type": "Feature", "properties": {"layer": "LOTES_Q-53", "dxf_type": "LINE"}, "geometry": {"type": "LineString", "coordinates": [[-54.99784413551028, -10.240962702591426], [-54.99768472935305, -10.240747663118896]]}}, {"type": "Feature", "properties": {"layer": "LOTES_Q-53", "dxf_type": "LINE"}, "geometry": {"type": "LineString", "coordinates": [[-54.99768472935305, -10.240747663118896], [-54.99762233934249, -10.2407958106545]]}}, {"type": "Feature", "properties": {"layer": "LOTES_Q-53", "dxf_type": "LINE"}, "geometry": {"type": "LineString", "coordinates": [[-54.99762233934249, -10.2407958106545], [-54.99761943706262, -10.240799188826085]]}}, {"type": "Feature", "properties": {"layer": "LOTES_Q-53", "dxf_type": "LINE"}, "geometry": {"type": "LineString", "coordinates": [[-54.99761943706262, -10.240799188826085], [-54.99777579807978, -10.241018261868527]]}}, {"type": "Feature", "properties": {"layer": "LOTES_Q-53", "dxf_type": "LINE"}, "geometry": {"type": "LineString", "coordinates": [[-54.99777579807978, -10.241018261868527], [-54.99784413551028, -10.240962702591426]]}}, {"type": "Feature", "properties": {"layer": "LOTES_Q-53", "dxf_type": "LINE"}, "geometry": {"type": "LineString", "coordinates": [[-54.99784413551028, -10.240962702591426], [-54.99784413551028, -10.240962702591426]]}}]}