{"type": "FeatureCollection", "name": "lotes_novos", "crs": {"type": "name", "properties": {"name": "urn:ogc:def:crs:OGC:1.3:CRS84"}}, "properties": {"source": "8be78050_MAPA TRIBUTAÇÃO 2021 (1).dxf", "assumed_crs": "EPSG:4326", "local_crs": false, "note": "Coordenadas locais do desenho (sem CRS). Use base 'Só CAD' no mapa.", "extent": [4300.4554, 2373.7696, 8215.3349, 6186.7838], "georef": true, "transform": {"scale": 1, "rotation_deg": 0, "tx": 713717.6034368816, "ty": 8862616.121289995, "rmse_m": 0, "epsg": 31981}, "layer": "Lotes_Novos", "source_file": "8be78050_MAPA TRIBUTAÇÃO 2021 (1)_georef.geojson", "n_features": 29}, "features": [{"type": "Feature", "properties": {"layer": "Lotes_Novos", "dxf_type": "LINE"}, "geometry": {"type": "LineString", "coordinates": [[-54.97678379141182, -10.236993968726603], [-54.97652420071561, -10.23720708506837]]}}, {"type": "Feature", "properties": {"layer": "Lotes_Novos", "dxf_type": "LINE"}, "geometry": {"type": "LineString", "coordinates": [[-54.976444985386806, -10.237272118796913], [-54.97634921728486, -10.23735074200441]]}}, {"type": "Feature", "properties": {"layer": "Lotes_Novos", "dxf_type": "LINE"}, "geometry": {"type": "LineString", "coordinates": [[-54.9762644618006, -10.237419488834785], [-54.97581646743842, -10.237785698598927]]}}, {"type": "Feature", "properties": {"layer": "Lotes_Novos", "dxf_type": "LINE"}, "geometry": {"type": "LineString", "coordinates": [[-54.97547106281701, -10.237352248588357], [-54.97593763986098, -10.237001685881033]]}}, {"type": "Feature", "properties": {"layer": "Lotes_Novos", "dxf_type": "LINE"}, "geometry": {"type": "LineString", "coordinates": [[-54.97879468007254, -10.233035256807819], [-54.97822765078865, -10.23350576172862]]}}, {"type": "Feature", "properties": {"layer": "Lotes_Novos", "dxf_type": "LINE"}, "geometry": {"type": "LineString", "coordinates": [[-54.9763525437834, -10.236641219442676], [-54.97617716558945, -10.236427180383632]]}}, {"type": "Feature", "properties": {"layer": "Lotes_Novos", "dxf_type": "LINE"}, "geometry": {"type": "LineString", "coordinates": [[-54.97626830146625, -10.236711968957847], [-54.97609361606645, -10.236498775709297]]}}, {"type": "Feature", "properties": {"layer": "Lotes_Novos", "dxf_type": "LINE"}, "geometry": {"type": "LineString", "coordinates": [[-54.976184058200374, -10.236782718438057], [-54.97601006650701, -10.236570371005998]]}}, {"type": "Feature", "properties": {"layer": "Lotes_Novos", "dxf_type": "LINE"}, "geometry": {"type": "LineString", "coordinates": [[-54.97609981489832, -10.236853467888999], [-54.97592651691111, -10.236641966273742]]}}, {"type": "Feature", "properties": {"layer": "Lotes_Novos", "dxf_type": "LINE"}, "geometry": {"type": "LineString", "coordinates": [[-54.97669687593019, -10.237065323620373], [-54.976869405858075, -10.237275885535112]]}}, {"type": "Feature", "properties": {"layer": "Lotes_Novos", "dxf_type": "LINE"}, "geometry": {"type": "LineString", "coordinates": [[-54.97660996132936, -10.237136677584957], [-54.976782491214514, -10.237347240445239]]}}, {"type": "Feature", "properties": {"layer": "Lotes_Novos", "dxf_type": "LINE"}, "geometry": {"type": "LineString", "coordinates": [[-54.97622615598567, -10.236747363439328], [-54.976184058200374, -10.236782718438057]]}}, {"type": "Feature", "properties": {"layer": "Lotes_Novos", "dxf_type": "LINE"}, "geometry": {"type": "LineString", "coordinates": [[-54.976184058200374, -10.236782718438057], [-54.97609981489832, -10.236853467888999]]}}, {"type": "Feature", "properties": {"layer": "Lotes_Novos", "dxf_type": "LINE"}, "geometry": {"type": "LineString", "coordinates": [[-54.97609981489832, -10.236853467888999], [-54.97601259150872, -10.236920407763698]]}}, {"type": "Feature", "properties": {"layer": "Lotes_Novos", "dxf_type": "LINE"}, "geometry": {"type": "LineString", "coordinates": [[-54.97649320866773, -10.237080830861792], [-54.9765665044683, -10.237172355010404]]}}, {"type": "Feature", "properties": {"layer": "Lotes_Novos", "dxf_type": "LINE"}, "geometry": {"type": "LineString", "coordinates": [[-54.97634921728486, -10.23735074200441], [-54.97601259150872, -10.236920407763698]]}}, {"type": "Feature", "properties": {"layer": "Lotes_Novos", "dxf_type": "LINE"}, "geometry": {"type": "LineString", "coordinates": [[-54.97607991695764, -10.237006474990473], [-54.97629704233922, -10.236835879780456]]}}, {"type": "Feature", "properties": {"layer": "Lotes_Novos", "dxf_type": "LINE"}, "geometry": {"type": "LineString", "coordinates": [[-54.97614724153425, -10.237092541300283], [-54.97636535012963, -10.236921174801]]}}, {"type": "Feature", "properties": {"layer": "Lotes_Novos", "dxf_type": "LINE"}, "geometry": {"type": "LineString", "coordinates": [[-54.97621456705221, -10.237178608512256], [-54.976433657042385, -10.237006469808108]]}}, {"type": "Feature", "properties": {"layer": "Lotes_Novos", "dxf_type": "LINE"}, "geometry": {"type": "LineString", "coordinates": [[-54.976281891697866, -10.237264674807257], [-54.97650196490256, -10.23709176481312]]}}, {"type": "Feature", "properties": {"layer": "Lotes_Novos", "dxf_type": "LINE"}, "geometry": {"type": "LineString", "coordinates": [[-54.976040465199574, -10.23760259382249], [-54.97570435100399, -10.237176967341028]]}}, {"type": "Feature", "properties": {"layer": "Lotes_Novos", "dxf_type": "LINE"}, "geometry": {"type": "LineString", "coordinates": [[-54.975768494816684, -10.237258194265822], [-54.97553825868775, -10.237436572366539]]}}, {"type": "Feature", "properties": {"layer": "Lotes_Novos", "dxf_type": "LINE"}, "geometry": {"type": "LineString", "coordinates": [[-54.97613290028807, -10.237251302928494], [-54.97590344200697, -10.237429078736906]]}}, {"type": "Feature", "properties": {"layer": "Lotes_Novos", "dxf_type": "LINE"}, "geometry": {"type": "LineString", "coordinates": [[-54.97619868148126, -10.237335396339954], [-54.97596961108998, -10.237512870888366]]}}, {"type": "Feature", "properties": {"layer": "Lotes_Novos", "dxf_type": "LINE"}, "geometry": {"type": "LineString", "coordinates": [[-54.975740505601614, -10.237690373029041], [-54.97596961108998, -10.237512870888366]]}}, {"type": "Feature", "properties": {"layer": "Lotes_Novos", "dxf_type": "LINE"}, "geometry": {"type": "LineString", "coordinates": [[-54.97567624591685, -10.23685772686462], [-54.97584169875738, -10.23707377166658]]}}, {"type": "Feature", "properties": {"layer": "Lotes_Novos", "dxf_type": "LINE"}, "geometry": {"type": "LineString", "coordinates": [[-54.975582538502266, -10.236928134345934], [-54.975747990384654, -10.237144179183867]]}}, {"type": "Feature", "properties": {"layer": "Lotes_Novos", "dxf_type": "LINE"}, "geometry": {"type": "LineString", "coordinates": [[-54.975488831048544, -10.236998541792], [-54.975654282891064, -10.237214585767708]]}}, {"type": "Feature", "properties": {"layer": "Lotes_Novos", "dxf_type": "LINE"}, "geometry": {"type": "LineString", "coordinates": [[-54.97539512264315, -10.237068949197173], [-54.97556057535261, -10.23728499322021]]}}]}