{"type": "FeatureCollection", "name": "lotes_q_54", "crs": {"type": "name", "properties": {"name": "urn:ogc:def:crs:OGC:1.3:CRS84"}}, "properties": {"source": "8be78050_MAPA TRIBUTAÇÃO 2021 (1).dxf", "assumed_crs": "EPSG:4326", "local_crs": false, "note": "Coordenadas locais do desenho (sem CRS). Use base 'Só CAD' no mapa.", "extent": [4300.4554, 2373.7696, 8215.3349, 6186.7838], "georef": true, "transform": {"scale": 1, "rotation_deg": 0, "tx": 713717.6034368816, "ty": 8862616.121289995, "rmse_m": 0, "epsg": 31981}, "layer": "LOTES_Q-54", "source_file": "8be78050_MAPA TRIBUTAÇÃO 2021 (1)_georef.geojson", "n_features": 363}, "features": [{"type": "Feature", "properties": {"layer": "LOTES_Q-54", "dxf_type": "LINE"}, "geometry": {"type": "LineString", "coordinates": [[-54.99836691177081, -10.239706618116584], [-54.99824044288081, -10.239492346589596]]}}, {"type": "Feature", "properties": {"layer": "LOTES_Q-54", "dxf_type": "LINE"}, "geometry": {"type": "LineString", "coordinates": [[-54.99824044288081, -10.239492346589596], [-54.99815656934039, -10.239545071521402]]}}, {"type": "Feature", "properties": {"layer": "LOTES_Q-54", "dxf_type": "LINE"}, "geometry": {"type": "LineString", "coordinates": [[-54.99815656934039, -10.239545071521402], [-54.998290462039485, -10.239756017125078]]}}, {"type": "Feature", "properties": {"layer": "LOTES_Q-54", "dxf_type": "LINE"}, "geometry": {"type": "LineString", "coordinates": [[-54.998290462039485, -10.239756017125078], [-54.99836691177081, -10.239706618116584]]}}, {"type": "Feature", "properties": {"layer": "LOTES_Q-54", "dxf_type": "LINE"}, "geometry": {"type": "LineString", "coordinates": [[-54.99836691177081, -10.239706618116584], [-54.99836691177081, -10.239706618116584]]}}, {"type": "Feature", "properties": {"layer": "LOTES_Q-54", "dxf_type": "LINE"}, "geometry": {"type": "LineString", "coordinates": [[-54.99840756869459, -10.239573525078193], [-54.998454340406745, -10.239653521801808]]}}, {"type": "Feature", "properties": {"layer": "LOTES_Q-54", "dxf_type": "LINE"}, "geometry": {"type": "LineString", "coordinates": [[-54.998454340406745, -10.239653521801808], [-54.99856810333771, -10.2395814451004]]}}, {"type": "Feature", "properties": {"layer": "LOTES_Q-54", "dxf_type": "LINE"}, "geometry": {"type": "LineString", "coordinates": [[-54.99856810333771, -10.2395814451004], [-54.99852157477466, -10.239505309640853]]}}, {"type": "Feature", "properties": {"layer": "LOTES_Q-54", "dxf_type": "LINE"}, "geometry": {"type": "LineString", "coordinates": [[-54.99852157477466, -10.239505309640853], [-54.99840756869459, -10.239573525078193]]}}, {"type": "Feature", "properties": {"layer": "LOTES_Q-54", "dxf_type": "LINE"}, "geometry": {"type": "LineString", "coordinates": [[-54.99840756869459, -10.239573525078193], [-54.99840756869459, -10.239573525078193]]}}, {"type": "Feature", "properties": {"layer": "LOTES_Q-54", "dxf_type": "LINE"}, "geometry": {"type": "LineString", "coordinates": [[-54.998083822713724, -10.238930838816895], [-54.99814979423894, -10.239017258583818]]}}, {"type": "Feature", "properties": {"layer": "LOTES_Q-54", "dxf_type": "LINE"}, "geometry": {"type": "LineString", "coordinates": [[-54.99814979423894, -10.239017258583818], [-54.99824367993221, -10.239150728516284]]}}, {"type": "Feature", "properties": {"layer": "LOTES_Q-54", "dxf_type": "LINE"}, "geometry": {"type": "LineString", "coordinates": [[-54.99824367993221, -10.239150728516284], [-54.998293037901874, -10.239112285561081]]}}, {"type": "Feature", "properties": {"layer": "LOTES_Q-54", "dxf_type": "LINE"}, "geometry": {"type": "LineString", "coordinates": [[-54.998293037901874, -10.239112285561081], [-54.998306371122524, -10.239103088831449]]}}, {"type": "Feature", "properties": {"layer": "LOTES_Q-54", "dxf_type": "LINE"}, "geometry": {"type": "LineString", "coordinates": [[-54.998306371122524, -10.239103088831449], [-54.99814781163651, -10.238879407953537]]}}, {"type": "Feature", "properties": {"layer": "LOTES_Q-54", "dxf_type": "LINE"}, "geometry": {"type": "LineString", "coordinates": [[-54.99814781163651, -10.238879407953537], [-54.998083822713724, -10.238930838816895]]}}, {"type": "Feature", "properties": {"layer": "LOTES_Q-54", "dxf_type": "LINE"}, "geometry": {"type": "LineString", "coordinates": [[-54.998083822713724, -10.238930838816895], [-54.998083822713724, -10.238930838816895]]}}, {"type": "Feature", "properties": {"layer": "LOTES_Q-54", "dxf_type": "LINE"}, "geometry": {"type": "LineString", "coordinates": [[-54.99861076527862, -10.23950173202537], [-54.998653949620895, -10.239566740385419]]}}, {"type": "Feature", "properties": {"layer": "LOTES_Q-54", "dxf_type": "LINE"}, "geometry": {"type": "LineString", "coordinates": [[-54.998653949620895, -10.239566740385419], [-54.99877360909869, -10.239499269214116]]}}, {"type": "Feature", "properties": {"layer": "LOTES_Q-54", "dxf_type": "LINE"}, "geometry": {"type": "LineString", "coordinates": [[-54.99877360909869, -10.239499269214116], [-54.998777226498895, -10.239507149281755]]}}, {"type": "Feature", "properties": {"layer": "LOTES_Q-54", "dxf_type": "LINE"}, "geometry": {"type": "LineString", "coordinates": [[-54.998777226498895, -10.239507149281755], [-54.99886465563322, -10.239456575688582]]}}, {"type": "Feature", "properties": {"layer": "LOTES_Q-54", "dxf_type": "LINE"}, "geometry": {"type": "LineString", "coordinates": [[-54.99886465563322, -10.239456575688582], [-54.99881941648806, -10.239376222349104]]}}, {"type": "Feature", "properties": {"layer": "LOTES_Q-54", "dxf_type": "LINE"}, "geometry": {"type": "LineString", "coordinates": [[-54.99881941648806, -10.239376222349104], [-54.99861076527862, -10.23950173202537]]}}, {"type": "Feature", "properties": {"layer": "LOTES_Q-54", "dxf_type": "LINE"}, "geometry": {"type": "LineString", "coordinates": [[-54.99861076527862, -10.23950173202537], [-54.99861076527862, -10.23950173202537]]}}, {"type": "Feature", "properties": {"layer": "LOTES_Q-54", "dxf_type": "LINE"}, "geometry": {"type": "LineString", "coordinates": [[-54.998290462039485, -10.239756017125078], [-54.99815656934039, -10.239545071521402]]}}, {"type": "Feature", "properties": {"layer": "LOTES_Q-54", "dxf_type": "LINE"}, "geometry": {"type": "LineString", "coordinates": [[-54.99815656934039, -10.239545071521402], [-54.99807151092052, -10.239598862995088]]}}, {"type": "Feature", "properties": {"layer": "LOTES_Q-54", "dxf_type": "LINE"}, "geometry": {"type": "LineString", "coordinates": [[-54.99807151092052, -10.239598862995088], [-54.998216864433985, -10.239806535547082]]}}, {"type": "Feature", "properties": {"layer": "LOTES_Q-54", "dxf_type": "LINE"}, "geometry": {"type": "LineString", "coordinates": [[-54.998216864433985, -10.239806535547082], [-54.998290462039485, -10.239756017125078]]}}, {"type": "Feature", "properties": {"layer": "LOTES_Q-54", "dxf_type": "LINE"}, "geometry": {"type": "LineString", "coordinates": [[-54.998290462039485, -10.239756017125078], [-54.998290462039485, -10.239756017125078]]}}, {"type": "Feature", "properties": {"layer": "LOTES_Q-54", "dxf_type": "LINE"}, "geometry": {"type": "LineString", "coordinates": [[-54.99655238544145, -10.240188298982861], [-54.99647565308759, -10.240250535972667]]}}, {"type": "Feature", "properties": {"layer": "LOTES_Q-54", "dxf_type": "LINE"}, "geometry": {"type": "LineString", "coordinates": [[-54.99647565308759, -10.240250535972667], [-54.99647108805933, -10.240292574612289]]}}, {"type": "Feature", "properties": {"layer": "LOTES_Q-54", "dxf_type": "LINE"}, "geometry": {"type": "LineString", "coordinates": [[-54.99647108805933, -10.240292574612289], [-54.99656941956327, -10.240419334505242]]}}, {"type": "Feature", "properties": {"layer": "LOTES_Q-54", "dxf_type": "LINE"}, "geometry": {"type": "LineString", "coordinates": [[-54.99656941956327, -10.240419334505242], [-54.996672059559614, -10.240329940524212]]}}, {"type": "Feature", "properties": {"layer": "LOTES_Q-54", "dxf_type": "LINE"}, "geometry": {"type": "LineString", "coordinates": [[-54.996672059559614, -10.240329940524212], [-54.99655238544145, -10.240188298982861]]}}, {"type": "Feature", "properties": {"layer": "LOTES_Q-54", "dxf_type": "LINE"}, "geometry": {"type": "LineString", "coordinates": [[-54.99655238544145, -10.240188298982861], [-54.99655238544145, -10.240188298982861]]}}, {"type": "Feature", "properties": {"layer": "LOTES_Q-54", "dxf_type": "LINE"}, "geometry": {"type": "LineString", "coordinates": [[-54.99655238544145, -10.240188298982861], [-54.996672059559614, -10.240329940524212]]}}, {"type": "Feature", "properties": {"layer": "LOTES_Q-54", "dxf_type": "LINE"}, "geometry": {"type": "LineString", "coordinates": [[-54.996672059559614, -10.240329940524212], [-54.996741096093295, -10.240270299155851]]}}, {"type": "Feature", "properties": {"layer": "LOTES_Q-54", "dxf_type": "LINE"}, "geometry": {"type": "LineString", "coordinates": [[-54.996741096093295, -10.240270299155851], [-54.99662159188263, -10.240130663585504]]}}, {"type": "Feature", "properties": {"layer": "LOTES_Q-54", "dxf_type": "LINE"}, "geometry": {"type": "LineString", "coordinates": [[-54.99662159188263, -10.240130663585504], [-54.99655238544145, -10.240188298982861]]}}, {"type": "Feature", "properties": {"layer": "LOTES_Q-54", "dxf_type": "LINE"}, "geometry": {"type": "LineString", "coordinates": [[-54.99655238544145, -10.240188298982861], [-54.99655238544145, -10.240188298982861]]}}, {"type": "Feature", "properties": {"layer": "LOTES_Q-54", "dxf_type": "LINE"}, "geometry": {"type": "LineString", "coordinates": [[-54.99662159188263, -10.240130663585504], [-54.996741096093295, -10.240270299155851]]}}, {"type": "Feature", "properties": {"layer": "LOTES_Q-54", "dxf_type": "LINE"}, "geometry": {"type": "LineString", "coordinates": [[-54.996741096093295, -10.240270299155851], [-54.99680081883563, -10.24033898549088]]}}, {"type": "Feature", "properties": {"layer": "LOTES_Q-54", "dxf_type": "LINE"}, "geometry": {"type": "LineString", "coordinates": [[-54.99680081883563, -10.24033898549088], [-54.9968681366752, -10.240283164331839]]}}, {"type": "Feature", "properties": {"layer": "LOTES_Q-54", "dxf_type": "LINE"}, "geometry": {"type": "LineString", "coordinates": [[-54.9968681366752, -10.240283164331839], [-54.996690915264615, -10.24007169560253]]}}, {"type": "Feature", "properties": {"layer": "LOTES_Q-54", "dxf_type": "LINE"}, "geometry": {"type": "LineString", "coordinates": [[-54.996690915264615, -10.24007169560253], [-54.99662159188263, -10.240130663585504]]}}, {"type": "Feature", "properties": {"layer": "LOTES_Q-54", "dxf_type": "LINE"}, "geometry": {"type": "LineString", "coordinates": [[-54.99662159188263, -10.240130663585504], [-54.99662159188263, -10.240130663585504]]}}, {"type": "Feature", "properties": {"layer": "LOTES_Q-54", "dxf_type": "LINE"}, "geometry": {"type": "LineString", "coordinates": [[-54.996690915264615, -10.24007169560253], [-54.9968681366752, -10.240283164331839]]}}, {"type": "Feature", "properties": {"layer": "LOTES_Q-54", "dxf_type": "LINE"}, "geometry": {"type": "LineString", "coordinates": [[-54.9968681366752, -10.240283164331839], [-54.9969325661268, -10.240359491571736]]}}, {"type": "Feature", "properties": {"layer": "LOTES_Q-54", "dxf_type": "LINE"}, "geometry": {"type": "LineString", "coordinates": [[-54.9969325661268, -10.240359491571736], [-54.99700456869719, -10.240444051370288]]}}, {"type": "Feature", "properties": {"layer": "LOTES_Q-54", "dxf_type": "LINE"}, "geometry": {"type": "LineString", "coordinates": [[-54.99700456869719, -10.240444051370288], [-54.997076037960376, -10.240386047447895]]}}, {"type": "Feature", "properties": {"layer": "LOTES_Q-54", "dxf_type": "LINE"}, "geometry": {"type": "LineString", "coordinates": [[-54.997076037960376, -10.240386047447895], [-54.99676207475698, -10.24001563688544]]}}, {"type": "Feature", "properties": {"layer": "LOTES_Q-54", "dxf_type": "LINE"}, "geometry": {"type": "LineString", "coordinates": [[-54.99676207475698, -10.24001563688544], [-54.996690915264615, -10.24007169560253]]}}, {"type": "Feature", "properties": {"layer": "LOTES_Q-54", "dxf_type": "LINE"}, "geometry": {"type": "LineString", "coordinates": [[-54.996690915264615, -10.24007169560253], [-54.996690915264615, -10.24007169560253]]}}, {"type": "Feature", "properties": {"layer": "LOTES_Q-54", "dxf_type": "LINE"}, "geometry": {"type": "LineString", "coordinates": [[-54.99676207475698, -10.24001563688544], [-54.997076037960376, -10.240386047447895]]}}, {"type": "Feature", "properties": {"layer": "LOTES_Q-54", "dxf_type": "LINE"}, "geometry": {"type": "LineString", "coordinates": [[-54.997076037960376, -10.240386047447895], [-54.99715442925314, -10.240314959357862]]}}, {"type": "Feature", "properties": {"layer": "LOTES_Q-54", "dxf_type": "LINE"}, "geometry": {"type": "LineString", "coordinates": [[-54.99715442925314, -10.240314959357862], [-54.99721204256732, -10.2402668276894]]}}, {"type": "Feature", "properties": {"layer": "LOTES_Q-54", "dxf_type": "LINE"}, "geometry": {"type": "LineString", "coordinates": [[-54.99721204256732, -10.2402668276894], [-54.997189586040044, -10.240238653326436]]}}, {"type": "Feature", "properties": {"layer": "LOTES_Q-54", "dxf_type": "LINE"}, "geometry": {"type": "LineString", "coordinates": [[-54.997189586040044, -10.240238653326436], [-54.99690366597271, -10.239901686271898]]}}, {"type": "Feature", "properties": {"layer": "LOTES_Q-54", "dxf_type": "LINE"}, "geometry": {"type": "LineString", "coordinates": [[-54.99690366597271, -10.239901686271898], [-54.99676207475698, -10.24001563688544]]}}, {"type": "Feature", "properties": {"layer": "LOTES_Q-54", "dxf_type": "LINE"}, "geometry": {"type": "LineString", "coordinates": [[-54.99676207475698, -10.24001563688544], [-54.99676207475698, -10.24001563688544]]}}, {"type": "Feature", "properties": {"layer": "LOTES_Q-54", "dxf_type": "LINE"}, "geometry": {"type": "LineString", "coordinates": [[-54.99690366597271, -10.239901686271898], [-54.997189586040044, -10.240238653326436]]}}, {"type": "Feature", "properties": {"layer": "LOTES_Q-54", "dxf_type": "LINE"}, "geometry": {"type": "LineString", "coordinates": [[-54.997189586040044, -10.240238653326436], [-54.99725169045863, -10.24018583263078]]}}, {"type": "Feature", "properties": {"layer": "LOTES_Q-54", "dxf_type": "LINE"}, "geometry": {"type": "LineString", "coordinates": [[-54.99725169045863, -10.24018583263078], [-54.99696650654095, -10.239849636686793]]}}, {"type": "Feature", "properties": {"layer": "LOTES_Q-54", "dxf_type": "LINE"}, "geometry": {"type": "LineString", "coordinates": [[-54.99696650654095, -10.239849636686793], [-54.99690366597271, -10.239901686271898]]}}, {"type": "Feature", "properties": {"layer": "LOTES_Q-54", "dxf_type": "LINE"}, "geometry": {"type": "LineString", "coordinates": [[-54.99690366597271, -10.239901686271898], [-54.99690366597271, -10.239901686271898]]}}, {"type": "Feature", "properties": {"layer": "LOTES_Q-54", "dxf_type": "LINE"}, "geometry": {"type": "LineString", "coordinates": [[-54.99696650654095, -10.239849636686793], [-54.99725169045863, -10.24018583263078]]}}, {"type": "Feature", "properties": {"layer": "LOTES_Q-54", "dxf_type": "LINE"}, "geometry": {"type": "LineString", "coordinates": [[-54.99725169045863, -10.24018583263078], [-54.99726414523931, -10.240175130940582]]}}, {"type": "Feature", "properties": {"layer": "LOTES_Q-54", "dxf_type": "LINE"}, "geometry": {"type": "LineString", "coordinates": [[-54.99726414523931, -10.240175130940582], [-54.99731693663619, -10.240123462332418]]}}, {"type": "Feature", "properties": {"layer": "LOTES_Q-54", "dxf_type": "LINE"}, "geometry": {"type": "LineString", "coordinates": [[-54.99731693663619, -10.240123462332418], [-54.99703516878174, -10.239792024939376]]}}, {"type": "Feature", "properties": {"layer": "LOTES_Q-54", "dxf_type": "LINE"}, "geometry": {"type": "LineString", "coordinates": [[-54.99703516878174, -10.239792024939376], [-54.99696650654095, -10.239849636686793]]}}, {"type": "Feature", "properties": {"layer": "LOTES_Q-54", "dxf_type": "LINE"}, "geometry": {"type": "LineString", "coordinates": [[-54.99696650654095, -10.239849636686793], [-54.99696650654095, -10.239849636686793]]}}, {"type": "Feature", "properties": {"layer": "LOTES_Q-54", "dxf_type": "LINE"}, "geometry": {"type": "LineString", "coordinates": [[-54.99703516878174, -10.239792024939376], [-54.99731693663619, -10.240123462332418]]}}, {"type": "Feature", "properties": {"layer": "LOTES_Q-54", "dxf_type": "LINE"}, "geometry": {"type": "LineString", "coordinates": [[-54.99731693663619, -10.240123462332418], [-54.997332258150486, -10.240108937520015]]}}, {"type": "Feature", "properties": {"layer": "LOTES_Q-54", "dxf_type": "LINE"}, "geometry": {"type": "LineString", "coordinates": [[-54.997332258150486, -10.240108937520015], [-54.99738180437788, -10.240058278484527]]}}, {"type": "Feature", "properties": {"layer": "LOTES_Q-54", "dxf_type": "LINE"}, "geometry": {"type": "LineString", "coordinates": [[-54.99738180437788, -10.240058278484527], [-54.99710906393445, -10.239728580741943]]}}, {"type": "Feature", "properties": {"layer": "LOTES_Q-54", "dxf_type": "LINE"}, "geometry": {"type": "LineString", "coordinates": [[-54.99710906393445, -10.239728580741943], [-54.99703516878174, -10.239792024939376]]}}, {"type": "Feature", "properties": {"layer": "LOTES_Q-54", "dxf_type": "LINE"}, "geometry": {"type": "LineString", "coordinates": [[-54.99703516878174, -10.239792024939376], [-54.99703516878174, -10.239792024939376]]}}, {"type": "Feature", "properties": {"layer": "LOTES_Q-54", "dxf_type": "LINE"}, "geometry": {"type": "LineString", "coordinates": [[-54.99710906393445, -10.239728580741943], [-54.99738180437788, -10.240058278484527]]}}, {"type": "Feature", "properties": {"layer": "LOTES_Q-54", "dxf_type": "LINE"}, "geometry": {"type": "LineString", "coordinates": [[-54.99738180437788, -10.240058278484527], [-54.99740185180941, -10.240039749459507]]}}, {"type": "Feature", "properties": {"layer": "LOTES_Q-54", "dxf_type": "LINE"}, "geometry": {"type": "LineString", "coordinates": [[-54.99740185180941, -10.240039749459507], [-54.9974540040077, -10.239985080379082]]}}, {"type": "Feature", "properties": {"layer": "LOTES_Q-54", "dxf_type": "LINE"}, "geometry": {"type": "LineString", "coordinates": [[-54.9974540040077, -10.239985080379082], [-54.99718590524568, -10.239663921711593]]}}, {"type": "Feature", "properties": {"layer": "LOTES_Q-54", "dxf_type": "LINE"}, "geometry": {"type": "LineString", "coordinates": [[-54.99718590524568, -10.239663921711593], [-54.99710906393445, -10.239728580741943]]}}, {"type": "Feature", "properties": {"layer": "LOTES_Q-54", "dxf_type": "LINE"}, "geometry": {"type": "LineString", "coordinates": [[-54.99710906393445, -10.239728580741943], [-54.99710906393445, -10.239728580741943]]}}, {"type": "Feature", "properties": {"layer": "LOTES_Q-54", "dxf_type": "LINE"}, "geometry": {"type": "LineString", "coordinates": [[-54.99718590524568, -10.239663921711593], [-54.9974540040077, -10.239985080379082]]}}, {"type": "Feature", "properties": {"layer": "LOTES_Q-54", "dxf_type": "LINE"}, "geometry": {"type": "LineString", "coordinates": [[-54.9974540040077, -10.239985080379082], [-54.99751076958347, -10.239928050620035]]}}, {"type": "Feature", "properties": {"layer": "LOTES_Q-54", "dxf_type": "LINE"}, "geometry": {"type": "LineString", "coordinates": [[-54.99751076958347, -10.239928050620035], [-54.99751754784366, -10.239923334098227]]}}, {"type": "Feature", "properties": {"layer": "LOTES_Q-54", "dxf_type": "LINE"}, "geometry": {"type": "LineString", "coordinates": [[-54.99751754784366, -10.239923334098227], [-54.99725618981599, -10.239608085253696]]}}, {"type": "Feature", "properties": {"layer": "LOTES_Q-54", "dxf_type": "LINE"}, "geometry": {"type": "LineString", "coordinates": [[-54.99725618981599, -10.239608085253696], [-54.99718590524568, -10.239663921711593]]}}, {"type": "Feature", "properties": {"layer": "LOTES_Q-54", "dxf_type": "LINE"}, "geometry": {"type": "LineString", "coordinates": [[-54.99718590524568, -10.239663921711593], [-54.99718590524568, -10.239663921711593]]}}, {"type": "Feature", "properties": {"layer": "LOTES_Q-54", "dxf_type": "LINE"}, "geometry": {"type": "LineString", "coordinates": [[-54.99725618981599, -10.239608085253696], [-54.99751754784366, -10.239923334098227]]}}, {"type": "Feature", "properties": {"layer": "LOTES_Q-54", "dxf_type": "LINE"}, "geometry": {"type": "LineString", "coordinates": [[-54.99751754784366, -10.239923334098227], [-54.99757071230899, -10.23987080900247]]}}, {"type": "Feature", "properties": {"layer": "LOTES_Q-54", "dxf_type": "LINE"}, "geometry": {"type": "LineString", "coordinates": [[-54.99757071230899, -10.23987080900247], [-54.99760191586227, -10.23984332115835]]}}, {"type": "Feature", "properties": {"layer": "LOTES_Q-54", "dxf_type": "LINE"}, "geometry": {"type": "LineString", "coordinates": [[-54.99760191586227, -10.23984332115835], [-54.99734579837112, -10.239535853072987]]}}, {"type": "Feature", "properties": {"layer": "LOTES_Q-54", "dxf_type": "LINE"}, "geometry": {"type": "LineString", "coordinates": [[-54.99734579837112, -10.239535853072987], [-54.99725618981599, -10.239608085253696]]}}, {"type": "Feature", "properties": {"layer": "LOTES_Q-54", "dxf_type": "LINE"}, "geometry": {"type": "LineString", "coordinates": [[-54.99725618981599, -10.239608085253696], [-54.99725618981599, -10.239608085253696]]}}, {"type": "Feature", "properties": {"layer": "LOTES_Q-54", "dxf_type": "LINE"}, "geometry": {"type": "LineString", "coordinates": [[-54.997421700701175, -10.239476256485887], [-54.9976272791227, -10.239730989451274]]}}, {"type": "Feature", "properties": {"layer": "LOTES_Q-54", "dxf_type": "LINE"}, "geometry": {"type": "LineString", "coordinates": [[-54.9976272791227, -10.239730989451274], [-54.997672657340196, -10.239697212580856]]}}, {"type": "Feature", "properties": {"layer": "LOTES_Q-54", "dxf_type": "LINE"}, "geometry": {"type": "LineString", "coordinates": [[-54.997672657340196, -10.239697212580856], [-54.99771502758597, -10.239666205789787]]}}, {"type": "Feature", "properties": {"layer": "LOTES_Q-54", "dxf_type": "LINE"}, "geometry": {"type": "LineString", "coordinates": [[-54.99771502758597, -10.239666205789787], [-54.99749321219117, -10.239413655320519]]}}, {"type": "Feature", "properties": {"layer": "LOTES_Q-54", "dxf_type": "LINE"}, "geometry": {"type": "LineString", "coordinates": [[-54.99749321219117, -10.239413655320519], [-54.997421700701175, -10.239476256485887]]}}, {"type": "Feature", "properties": {"layer": "LOTES_Q-54", "dxf_type": "LINE"}, "geometry": {"type": "LineString", "coordinates": [[-54.997421700701175, -10.239476256485887], [-54.997421700701175, -10.239476256485887]]}}, {"type": "Feature", "properties": {"layer": "LOTES_Q-54", "dxf_type": "LINE"}, "geometry": {"type": "LineString", "coordinates": [[-54.99734579837112, -10.239535853072987], [-54.99760191586227, -10.23984332115835]]}}, {"type": "Feature", "properties": {"layer": "LOTES_Q-54", "dxf_type": "LINE"}, "geometry": {"type": "LineString", "coordinates": [[-54.99760191586227, -10.23984332115835], [-54.99763564006442, -10.239806661349759]]}}, {"type": "Feature", "properties": {"layer": "LOTES_Q-54", "dxf_type": "LINE"}, "geometry": {"type": "LineString", "coordinates": [[-54.99763564006442, -10.239806661349759], [-54.99766255755395, -10.23977372537908]]}}, {"type": "Feature", "properties": {"layer": "LOTES_Q-54", "dxf_type": "LINE"}, "geometry": {"type": "LineString", "coordinates": [[-54.99766255755395, -10.23977372537908], [-54.9976272791227, -10.239730989451274]]}}, {"type": "Feature", "properties": {"layer": "LOTES_Q-54", "dxf_type": "LINE"}, "geometry": {"type": "LineString", "coordinates": [[-54.9976272791227, -10.239730989451274], [-54.997421700701175, -10.239476256485887]]}}, {"type": "Feature", "properties": {"layer": "LOTES_Q-54", "dxf_type": "LINE"}, "geometry": {"type": "LineString", "coordinates": [[-54.997421700701175, -10.239476256485887], [-54.99734579837112, -10.239535853072987]]}}, {"type": "Feature", "properties": {"layer": "LOTES_Q-54", "dxf_type": "LINE"}, "geometry": {"type": "LineString", "coordinates": [[-54.99734579837112, -10.239535853072987], [-54.99734579837112, -10.239535853072987]]}}, {"type": "Feature", "properties": {"layer": "LOTES_Q-54", "dxf_type": "LINE"}, "geometry": {"type": "LineString", "coordinates": [[-54.99749321219117, -10.239413655320519], [-54.99771502758597, -10.239666205789787]]}}, {"type": "Feature", "properties": {"layer": "LOTES_Q-54", "dxf_type": "LINE"}, "geometry": {"type": "LineString", "coordinates": [[-54.99771502758597, -10.239666205789787], [-54.99775974062514, -10.239632263910586]]}}, {"type": "Feature", "properties": {"layer": "LOTES_Q-54", "dxf_type": "LINE"}, "geometry": {"type": "LineString", "coordinates": [[-54.99775974062514, -10.239632263910586], [-54.99754357385074, -10.23937220319437]]}}, {"type": "Feature", "properties": {"layer": "LOTES_Q-54", "dxf_type": "LINE"}, "geometry": {"type": "LineString", "coordinates": [[-54.99754357385074, -10.23937220319437], [-54.99749321219117, -10.239413655320519]]}}, {"type": "Feature", "properties": {"layer": "LOTES_Q-54", "dxf_type": "LINE"}, "geometry": {"type": "LineString", "coordinates": [[-54.99749321219117, -10.239413655320519], [-54.99749321219117, -10.239413655320519]]}}, {"type": "Feature", "properties": {"layer": "LOTES_Q-54", "dxf_type": "LINE"}, "geometry": {"type": "LineString", "coordinates": [[-54.99754357385074, -10.23937220319437], [-54.99775974062514, -10.239632263910586]]}}, {"type": "Feature", "properties": {"layer": "LOTES_Q-54", "dxf_type": "LINE"}, "geometry": {"type": "LineString", "coordinates": [[-54.99775974062514, -10.239632263910586], [-54.997820995081675, -10.239588771747847]]}}, {"type": "Feature", "properties": {"layer": "LOTES_Q-54", "dxf_type": "LINE"}, "geometry": {"type": "LineString", "coordinates": [[-54.997820995081675, -10.239588771747847], [-54.99783449422795, -10.23957626137764]]}}, {"type": "Feature", "properties": {"layer": "LOTES_Q-54", "dxf_type": "LINE"}, "geometry": {"type": "LineString", "coordinates": [[-54.99783449422795, -10.23957626137764], [-54.99760231989312, -10.239319347250051]]}}, {"type": "Feature", "properties": {"layer": "LOTES_Q-54", "dxf_type": "LINE"}, "geometry": {"type": "LineString", "coordinates": [[-54.99760231989312, -10.239319347250051], [-54.99754357385074, -10.23937220319437]]}}, {"type": "Feature", "properties": {"layer": "LOTES_Q-54", "dxf_type": "LINE"}, "geometry": {"type": "LineString", "coordinates": [[-54.99754357385074, -10.23937220319437], [-54.99754357385074, -10.23937220319437]]}}, {"type": "Feature", "properties": {"layer": "LOTES_Q-54", "dxf_type": "LINE"}, "geometry": {"type": "LineString", "coordinates": [[-54.99760231989312, -10.239319347250051], [-54.99783449422795, -10.23957626137764]]}}, {"type": "Feature", "properties": {"layer": "LOTES_Q-54", "dxf_type": "LINE"}, "geometry": {"type": "LineString", "coordinates": [[-54.99783449422795, -10.23957626137764], [-54.99790226269344, -10.239524346758877]]}}, {"type": "Feature", "properties": {"layer": "LOTES_Q-54", "dxf_type": "LINE"}, "geometry": {"type": "LineString", "coordinates": [[-54.99790226269344, -10.239524346758877], [-54.99767118015934, -10.239260101345879]]}}, {"type": "Feature", "properties": {"layer": "LOTES_Q-54", "dxf_type": "LINE"}, "geometry": {"type": "LineString", "coordinates": [[-54.99767118015934, -10.239260101345879], [-54.99760231989312, -10.239319347250051]]}}, {"type": "Feature", "properties": {"layer": "LOTES_Q-54", "dxf_type": "LINE"}, "geometry": {"type": "LineString", "coordinates": [[-54.99760231989312, -10.239319347250051], [-54.99760231989312, -10.239319347250051]]}}, {"type": "Feature", "properties": {"layer": "LOTES_Q-54", "dxf_type": "LINE"}, "geometry": {"type": "LineString", "coordinates": [[-54.99767118015934, -10.239260101345879], [-54.99790226269344, -10.239524346758877]]}}, {"type": "Feature", "properties": {"layer": "LOTES_Q-54", "dxf_type": "LINE"}, "geometry": {"type": "LineString", "coordinates": [[-54.99790226269344, -10.239524346758877], [-54.997972215160836, -10.239465712236917]]}}, {"type": "Feature", "properties": {"layer": "LOTES_Q-54", "dxf_type": "LINE"}, "geometry": {"type": "LineString", "coordinates": [[-54.997972215160836, -10.239465712236917], [-54.99791984238629, -10.239408214003536]]}}, {"type": "Feature", "properties": {"layer": "LOTES_Q-54", "dxf_type": "LINE"}, "geometry": {"type": "LineString", "coordinates": [[-54.99791984238629, -10.239408214003536], [-54.997737357089605, -10.239203227070982]]}}, {"type": "Feature", "properties": {"layer": "LOTES_Q-54", "dxf_type": "LINE"}, "geometry": {"type": "LineString", "coordinates": [[-54.997737357089605, -10.239203227070982], [-54.99767118015934, -10.239260101345879]]}}, {"type": "Feature", "properties": {"layer": "LOTES_Q-54", "dxf_type": "LINE"}, "geometry": {"type": "LineString", "coordinates": [[-54.99767118015934, -10.239260101345879], [-54.99767118015934, -10.239260101345879]]}}, {"type": "Feature", "properties": {"layer": "LOTES_Q-54", "dxf_type": "LINE"}, "geometry": {"type": "LineString", "coordinates": [[-54.997737357089605, -10.239203227070982], [-54.99791984238629, -10.239408214003536]]}}, {"type": "Feature", "properties": {"layer": "LOTES_Q-54", "dxf_type": "LINE"}, "geometry": {"type": "LineString", "coordinates": [[-54.99791984238629, -10.239408214003536], [-54.99796130231119, -10.239372761492437]]}}, {"type": "Feature", "properties": {"layer": "LOTES_Q-54", "dxf_type": "LINE"}, "geometry": {"type": "LineString", "coordinates": [[-54.99796130231119, -10.239372761492437], [-54.9977807941891, -10.239169730187424]]}}, {"type": "Feature", "properties": {"layer": "LOTES_Q-54", "dxf_type": "LINE"}, "geometry": {"type": "LineString", "coordinates": [[-54.9977807941891, -10.239169730187424], [-54.997737357089605, -10.239203227070982]]}}, {"type": "Feature", "properties": {"layer": "LOTES_Q-54", "dxf_type": "LINE"}, "geometry": {"type": "LineString", "coordinates": [[-54.997737357089605, -10.239203227070982], [-54.997737357089605, -10.239203227070982]]}}, {"type": "Feature", "properties": {"layer": "LOTES_Q-54", "dxf_type": "LINE"}, "geometry": {"type": "LineString", "coordinates": [[-54.9977807941891, -10.239169730187424], [-54.99796130231119, -10.239372761492437]]}}, {"type": "Feature", "properties": {"layer": "LOTES_Q-54", "dxf_type": "LINE"}, "geometry": {"type": "LineString", "coordinates": [[-54.99796130231119, -10.239372761492437], [-54.998038409279694, -10.239309941523524]]}}, {"type": "Feature", "properties": {"layer": "LOTES_Q-54", "dxf_type": "LINE"}, "geometry": {"type": "LineString", "coordinates": [[-54.998038409279694, -10.239309941523524], [-54.997861659996104, -10.2391099832322]]}}, {"type": "Feature", "properties": {"layer": "LOTES_Q-54", "dxf_type": "LINE"}, "geometry": {"type": "LineString", "coordinates": [[-54.997861659996104, -10.2391099832322], [-54.9977807941891, -10.239169730187424]]}}, {"type": "Feature", "properties": {"layer": "LOTES_Q-54", "dxf_type": "LINE"}, "geometry": {"type": "LineString", "coordinates": [[-54.9977807941891, -10.239169730187424], [-54.9977807941891, -10.239169730187424]]}}, {"type": "Feature", "properties": {"layer": "LOTES_Q-54", "dxf_type": "LINE"}, "geometry": {"type": "LineString", "coordinates": [[-54.997861659996104, -10.2391099832322], [-54.998038409279694, -10.239309941523524]]}}, {"type": "Feature", "properties": {"layer": "LOTES_Q-54", "dxf_type": "LINE"}, "geometry": {"type": "LineString", "coordinates": [[-54.998038409279694, -10.239309941523524], [-54.99809725332822, -10.239260361895017]]}}, {"type": "Feature", "properties": {"layer": "LOTES_Q-54", "dxf_type": "LINE"}, "geometry": {"type": "LineString", "coordinates": [[-54.99809725332822, -10.239260361895017], [-54.99791920454378, -10.239061994676181]]}}, {"type": "Feature", "properties": {"layer": "LOTES_Q-54", "dxf_type": "LINE"}, "geometry": {"type": "LineString", "coordinates": [[-54.99791920454378, -10.239061994676181], [-54.997861659996104, -10.2391099832322]]}}, {"type": "Feature", "properties": {"layer": "LOTES_Q-54", "dxf_type": "LINE"}, "geometry": {"type": "LineString", "coordinates": [[-54.997861659996104, -10.2391099832322], [-54.997861659996104, -10.2391099832322]]}}, {"type": "Feature", "properties": {"layer": "LOTES_Q-54", "dxf_type": "LINE"}, "geometry": {"type": "LineString", "coordinates": [[-54.99791920454378, -10.239061994676181], [-54.99809725332822, -10.239260361895017]]}}, {"type": "Feature", "properties": {"layer": "LOTES_Q-54", "dxf_type": "LINE"}, "geometry": {"type": "LineString", "coordinates": [[-54.99809725332822, -10.239260361895017], [-54.99813719994687, -10.239229448584815]]}}, {"type": "Feature", "properties": {"layer": "LOTES_Q-54", "dxf_type": "LINE"}, "geometry": {"type": "LineString", "coordinates": [[-54.99813719994687, -10.239229448584815], [-54.997973436318674, -10.23902186702815]]}}, {"type": "Feature", "properties": {"layer": "LOTES_Q-54", "dxf_type": "LINE"}, "geometry": {"type": "LineString", "coordinates": [[-54.997973436318674, -10.23902186702815], [-54.99791920454378, -10.239061994676181]]}}, {"type": "Feature", "properties": {"layer": "LOTES_Q-54", "dxf_type": "LINE"}, "geometry": {"type": "LineString", "coordinates": [[-54.99791920454378, -10.239061994676181], [-54.99791920454378, -10.239061994676181]]}}, {"type": "Feature", "properties": {"layer": "LOTES_Q-54", "dxf_type": "LINE"}, "geometry": {"type": "LineString", "coordinates": [[-54.997973436318674, -10.23902186702815], [-54.99813719994687, -10.239229448584815]]}}, {"type": "Feature", "properties": {"layer": "LOTES_Q-54", "dxf_type": "LINE"}, "geometry": {"type": "LineString", "coordinates": [[-54.99813719994687, -10.239229448584815], [-54.998191787426066, -10.23918775568613]]}}, {"type": "Feature", "properties": {"layer": "LOTES_Q-54", "dxf_type": "LINE"}, "geometry": {"type": "LineString", "coordinates": [[-54.998191787426066, -10.23918775568613], [-54.99802307870099, -10.23898420233693]]}}, {"type": "Feature", "properties": {"layer": "LOTES_Q-54", "dxf_type": "LINE"}, "geometry": {"type": "LineString", "coordinates": [[-54.99802307870099, -10.23898420233693], [-54.997973436318674, -10.23902186702815]]}}, {"type": "Feature", "properties": {"layer": "LOTES_Q-54", "dxf_type": "LINE"}, "geometry": {"type": "LineString", "coordinates": [[-54.997973436318674, -10.23902186702815], [-54.997973436318674, -10.23902186702815]]}}, {"type": "Feature", "properties": {"layer": "LOTES_Q-54", "dxf_type": "LINE"}, "geometry": {"type": "LineString", "coordinates": [[-54.99802307870099, -10.23898420233693], [-54.998191787426066, -10.23918775568613]]}}, {"type": "Feature", "properties": {"layer": "LOTES_Q-54", "dxf_type": "LINE"}, "geometry": {"type": "LineString", "coordinates": [[-54.998191787426066, -10.23918775568613], [-54.99824367993221, -10.239150728516284]]}}, {"type": "Feature", "properties": {"layer": "LOTES_Q-54", "dxf_type": "LINE"}, "geometry": {"type": "LineString", "coordinates": [[-54.99824367993221, -10.239150728516284], [-54.99814979423894, -10.239017258583818]]}}, {"type": "Feature", "properties": {"layer": "LOTES_Q-54", "dxf_type": "LINE"}, "geometry": {"type": "LineString", "coordinates": [[-54.99814979423894, -10.239017258583818], [-54.998083822713724, -10.238930838816895]]}}, {"type": "Feature", "properties": {"layer": "LOTES_Q-54", "dxf_type": "LINE"}, "geometry": {"type": "LineString", "coordinates": [[-54.998083822713724, -10.238930838816895], [-54.99802307870099, -10.23898420233693]]}}, {"type": "Feature", "properties": {"layer": "LOTES_Q-54", "dxf_type": "LINE"}, "geometry": {"type": "LineString", "coordinates": [[-54.99802307870099, -10.23898420233693], [-54.99802307870099, -10.23898420233693]]}}, {"type": "Feature", "properties": {"layer": "LOTES_Q-54", "dxf_type": "LINE"}, "geometry": {"type": "LineString", "coordinates": [[-54.99840756869459, -10.239573525078193], [-54.99852157477466, -10.239505309640853]]}}, {"type": "Feature", "properties": {"layer": "LOTES_Q-54", "dxf_type": "LINE"}, "geometry": {"type": "LineString", "coordinates": [[-54.99852157477466, -10.239505309640853], [-54.998440369010936, -10.239366519542347]]}}, {"type": "Feature", "properties": {"layer": "LOTES_Q-54", "dxf_type": "LINE"}, "geometry": {"type": "LineString", "coordinates": [[-54.998440369010936, -10.239366519542347], [-54.99832717647031, -10.239437585516118]]}}, {"type": "Feature", "properties": {"layer": "LOTES_Q-54", "dxf_type": "LINE"}, "geometry": {"type": "LineString", "coordinates": [[-54.99832717647031, -10.239437585516118], [-54.99840756869459, -10.239573525078193]]}}, {"type": "Feature", "properties": {"layer": "LOTES_Q-54", "dxf_type": "LINE"}, "geometry": {"type": "LineString", "coordinates": [[-54.99840756869459, -10.239573525078193], [-54.99840756869459, -10.239573525078193]]}}, {"type": "Feature", "properties": {"layer": "LOTES_Q-54", "dxf_type": "LINE"}, "geometry": {"type": "LineString", "coordinates": [[-54.998454340406745, -10.239653521801808], [-54.99840756869459, -10.239573525078193]]}}, {"type": "Feature", "properties": {"layer": "LOTES_Q-54", "dxf_type": "LINE"}, "geometry": {"type": "LineString", "coordinates": [[-54.99840756869459, -10.239573525078193], [-54.99832717647031, -10.239437585516118]]}}, {"type": "Feature", "properties": {"layer": "LOTES_Q-54", "dxf_type": "LINE"}, "geometry": {"type": "LineString", "coordinates": [[-54.99832717647031, -10.239437585516118], [-54.99824044288081, -10.239492346589596]]}}, {"type": "Feature", "properties": {"layer": "LOTES_Q-54", "dxf_type": "LINE"}, "geometry": {"type": "LineString", "coordinates": [[-54.99824044288081, -10.239492346589596], [-54.99836691177081, -10.239706618116584]]}}, {"type": "Feature", "properties": {"layer": "LOTES_Q-54", "dxf_type": "LINE"}, "geometry": {"type": "LineString", "coordinates": [[-54.99836691177081, -10.239706618116584], [-54.998454340406745, -10.239653521801808]]}}, {"type": "Feature", "properties": {"layer": "LOTES_Q-54", "dxf_type": "LINE"}, "geometry": {"type": "LineString", "coordinates": [[-54.998454340406745, -10.239653521801808], [-54.998454340406745, -10.239653521801808]]}}, {"type": "Feature", "properties": {"layer": "LOTES_Q-54", "dxf_type": "LINE"}, "geometry": {"type": "LineString", "coordinates": [[-54.9982167495648, -10.239806371229948], [-54.99807151092052, -10.239598862995088]]}}, {"type": "Feature", "properties": {"layer": "LOTES_Q-54", "dxf_type": "LINE"}, "geometry": {"type": "LineString", "coordinates": [[-54.99807151092052, -10.239598862995088], [-54.997972215160836, -10.239465712236917]]}}, {"type": "Feature", "properties": {"layer": "LOTES_Q-54", "dxf_type": "LINE"}, "geometry": {"type": "LineString", "coordinates": [[-54.997972215160836, -10.239465712236917], [-54.99790226269344, -10.239524346758877]]}}, {"type": "Feature", "properties": {"layer": "LOTES_Q-54", "dxf_type": "LINE"}, "geometry": {"type": "LineString", "coordinates": [[-54.99790226269344, -10.239524346758877], [-54.99813594238707, -10.239860239492257]]}}, {"type": "Feature", "properties": {"layer": "LOTES_Q-54", "dxf_type": "LINE"}, "geometry": {"type": "LineString", "coordinates": [[-54.99813594238707, -10.239860239492257], [-54.9982167495648, -10.239806371229948]]}}, {"type": "Feature", "properties": {"layer": "LOTES_Q-54", "dxf_type": "LINE"}, "geometry": {"type": "LineString", "coordinates": [[-54.9982167495648, -10.239806371229948], [-54.9982167495648, -10.239806371229948]]}}, {"type": "Feature", "properties": {"layer": "LOTES_Q-54", "dxf_type": "LINE"}, "geometry": {"type": "LineString", "coordinates": [[-54.99813594238707, -10.239860239492257], [-54.99790226269344, -10.239524346758877]]}}, {"type": "Feature", "properties": {"layer": "LOTES_Q-54", "dxf_type": "LINE"}, "geometry": {"type": "LineString", "coordinates": [[-54.99790226269344, -10.239524346758877], [-54.99783449422795, -10.23957626137764]]}}, {"type": "Feature", "properties": {"layer": "LOTES_Q-54", "dxf_type": "LINE"}, "geometry": {"type": "LineString", "coordinates": [[-54.99783449422795, -10.23957626137764], [-54.997820995081675, -10.239588771747847]]}}, {"type": "Feature", "properties": {"layer": "LOTES_Q-54", "dxf_type": "LINE"}, "geometry": {"type": "LineString", "coordinates": [[-54.997820995081675, -10.239588771747847], [-54.99805483023787, -10.239913111536199]]}}, {"type": "Feature", "properties": {"layer": "LOTES_Q-54", "dxf_type": "LINE"}, "geometry": {"type": "LineString", "coordinates": [[-54.99805483023787, -10.239913111536199], [-54.99813594238707, -10.239860239492257]]}}, {"type": "Feature", "properties": {"layer": "LOTES_Q-54", "dxf_type": "LINE"}, "geometry": {"type": "LineString", "coordinates": [[-54.99813594238707, -10.239860239492257], [-54.99813594238707, -10.239860239492257]]}}, {"type": "Feature", "properties": {"layer": "LOTES_Q-54", "dxf_type": "LINE"}, "geometry": {"type": "LineString", "coordinates": [[-54.99805483023787, -10.239913111536199], [-54.997820995081675, -10.239588771747847]]}}, {"type": "Feature", "properties": {"layer": "LOTES_Q-54", "dxf_type": "LINE"}, "geometry": {"type": "LineString", "coordinates": [[-54.997820995081675, -10.239588771747847], [-54.99775974062514, -10.239632263910586]]}}, {"type": "Feature", "properties": {"layer": "LOTES_Q-54", "dxf_type": "LINE"}, "geometry": {"type": "LineString", "coordinates": [[-54.99775974062514, -10.239632263910586], [-54.99771502758597, -10.239666205789787]]}}, {"type": "Feature", "properties": {"layer": "LOTES_Q-54", "dxf_type": "LINE"}, "geometry": {"type": "LineString", "coordinates": [[-54.99771502758597, -10.239666205789787], [-54.997672657340196, -10.239697212580856]]}}, {"type": "Feature", "properties": {"layer": "LOTES_Q-54", "dxf_type": "LINE"}, "geometry": {"type": "LineString", "coordinates": [[-54.997672657340196, -10.239697212580856], [-54.99796306835783, -10.239997643010408]]}}, {"type": "Feature", "properties": {"layer": "LOTES_Q-54", "dxf_type": "LINE"}, "geometry": {"type": "LineString", "coordinates": [[-54.99796306835783, -10.239997643010408], [-54.99805483023787, -10.239913111536199]]}}, {"type": "Feature", "properties": {"layer": "LOTES_Q-54", "dxf_type": "LINE"}, "geometry": {"type": "LineString", "coordinates": [[-54.99805483023787, -10.239913111536199], [-54.99805483023787, -10.239913111536199]]}}, {"type": "Feature", "properties": {"layer": "LOTES_Q-54", "dxf_type": "LINE"}, "geometry": {"type": "LineString", "coordinates": [[-54.99840005651443, -10.239152544105679], [-54.998708057538906, -10.238978681127481]]}}, {"type": "Feature", "properties": {"layer": "LOTES_Q-54", "dxf_type": "LINE"}, "geometry": {"type": "LineString", "coordinates": [[-54.998708057538906, -10.238978681127481], [-54.99863736826791, -10.238886790799]]}}, {"type": "Feature", "properties": {"layer": "LOTES_Q-54", "dxf_type": "LINE"}, "geometry": {"type": "LineString", "coordinates": [[-54.99863736826791, -10.238886790799], [-54.99855689910866, -10.238939924606184]]}}, {"type": "Feature", "properties": {"layer": "LOTES_Q-54", "dxf_type": "LINE"}, "geometry": {"type": "LineString", "coordinates": [[-54.99855689910866, -10.238939924606184], [-54.99848256520856, -10.238990454873285]]}}, {"type": "Feature", "properties": {"layer": "LOTES_Q-54", "dxf_type": "LINE"}, "geometry": {"type": "LineString", "coordinates": [[-54.99848256520856, -10.238990454873285], [-54.99839909984741, -10.239044914330451]]}}, {"type": "Feature", "properties": {"layer": "LOTES_Q-54", "dxf_type": "LINE"}, "geometry": {"type": "LineString", "coordinates": [[-54.99839909984741, -10.239044914330451], [-54.99835501486082, -10.239072593287009]]}}, {"type": "Feature", "properties": {"layer": "LOTES_Q-54", "dxf_type": "LINE"}, "geometry": {"type": "LineString", "coordinates": [[-54.99835501486082, -10.239072593287009], [-54.99840005651443, -10.239152544105679]]}}, {"type": "Feature", "properties": {"layer": "LOTES_Q-54", "dxf_type": "LINE"}, "geometry": {"type": "LineString", "coordinates": [[-54.99840005651443, -10.239152544105679], [-54.99840005651443, -10.239152544105679]]}}, {"type": "Feature", "properties": {"layer": "LOTES_Q-54", "dxf_type": "LINE"}, "geometry": {"type": "LineString", "coordinates": [[-54.99840005651443, -10.239152544105679], [-54.99845292860163, -10.239249902059406]]}}, {"type": "Feature", "properties": {"layer": "LOTES_Q-54", "dxf_type": "LINE"}, "geometry": {"type": "LineString", "coordinates": [[-54.99845292860163, -10.239249902059406], [-54.99875594462834, -10.239074951687728]]}}, {"type": "Feature", "properties": {"layer": "LOTES_Q-54", "dxf_type": "LINE"}, "geometry": {"type": "LineString", "coordinates": [[-54.99875594462834, -10.239074951687728], [-54.99878378692908, -10.239054447524204]]}}, {"type": "Feature", "properties": {"layer": "LOTES_Q-54", "dxf_type": "LINE"}, "geometry": {"type": "LineString", "coordinates": [[-54.99878378692908, -10.239054447524204], [-54.998708057538906, -10.238978681127481]]}}, {"type": "Feature", "properties": {"layer": "LOTES_Q-54", "dxf_type": "LINE"}, "geometry": {"type": "LineString", "coordinates": [[-54.998708057538906, -10.238978681127481], [-54.99840005651443, -10.239152544105679]]}}, {"type": "Feature", "properties": {"layer": "LOTES_Q-54", "dxf_type": "LINE"}, "geometry": {"type": "LineString", "coordinates": [[-54.99840005651443, -10.239152544105679], [-54.99840005651443, -10.239152544105679]]}}, {"type": "Feature", "properties": {"layer": "LOTES_Q-54", "dxf_type": "LINE"}, "geometry": {"type": "LineString", "coordinates": [[-54.99845292860163, -10.239249902059406], [-54.99852187058922, -10.239357889604408]]}}, {"type": "Feature", "properties": {"layer": "LOTES_Q-54", "dxf_type": "LINE"}, "geometry": {"type": "LineString", "coordinates": [[-54.99852187058922, -10.239357889604408], [-54.998837878811784, -10.239169052579161]]}}, {"type": "Feature", "properties": {"layer": "LOTES_Q-54", "dxf_type": "LINE"}, "geometry": {"type": "LineString", "coordinates": [[-54.998837878811784, -10.239169052579161], [-54.998831047087634, -10.239160324743244]]}}, {"type": "Feature", "properties": {"layer": "LOTES_Q-54", "dxf_type": "LINE"}, "geometry": {"type": "LineString", "coordinates": [[-54.998831047087634, -10.239160324743244], [-54.99882737909816, -10.239121654902688]]}}, {"type": "Feature", "properties": {"layer": "LOTES_Q-54", "dxf_type": "LINE"}, "geometry": {"type": "LineString", "coordinates": [[-54.99882737909816, -10.239121654902688], [-54.99878378692908, -10.239054447524204]]}}, {"type": "Feature", "properties": {"layer": "LOTES_Q-54", "dxf_type": "LINE"}, "geometry": {"type": "LineString", "coordinates": [[-54.99878378692908, -10.239054447524204], [-54.99875594462834, -10.239074951687728]]}}, {"type": "Feature", "properties": {"layer": "LOTES_Q-54", "dxf_type": "LINE"}, "geometry": {"type": "LineString", "coordinates": [[-54.99875594462834, -10.239074951687728], [-54.99845292860163, -10.239249902059406]]}}, {"type": "Feature", "properties": {"layer": "LOTES_Q-54", "dxf_type": "LINE"}, "geometry": {"type": "LineString", "coordinates": [[-54.99845292860163, -10.239249902059406], [-54.99845292860163, -10.239249902059406]]}}, {"type": "Feature", "properties": {"layer": "LOTES_Q-54", "dxf_type": "LINE"}, "geometry": {"type": "LineString", "coordinates": [[-54.99852187058922, -10.239357889604408], [-54.998560682694624, -10.239422162390895]]}}, {"type": "Feature", "properties": {"layer": "LOTES_Q-54", "dxf_type": "LINE"}, "geometry": {"type": "LineString", "coordinates": [[-54.998560682694624, -10.239422162390895], [-54.99888277274737, -10.239231687779847]]}}, {"type": "Feature", "properties": {"layer": "LOTES_Q-54", "dxf_type": "LINE"}, "geometry": {"type": "LineString", "coordinates": [[-54.99888277274737, -10.239231687779847], [-54.998837878811784, -10.239169052579161]]}}, {"type": "Feature", "properties": {"layer": "LOTES_Q-54", "dxf_type": "LINE"}, "geometry": {"type": "LineString", "coordinates": [[-54.998837878811784, -10.239169052579161], [-54.99852187058922, -10.239357889604408]]}}, {"type": "Feature", "properties": {"layer": "LOTES_Q-54", "dxf_type": "LINE"}, "geometry": {"type": "LineString", "coordinates": [[-54.99852187058922, -10.239357889604408], [-54.99852187058922, -10.239357889604408]]}}, {"type": "Feature", "properties": {"layer": "LOTES_Q-54", "dxf_type": "LINE"}, "geometry": {"type": "LineString", "coordinates": [[-54.998560682694624, -10.239422162390895], [-54.99861076527862, -10.23950173202537]]}}, {"type": "Feature", "properties": {"layer": "LOTES_Q-54", "dxf_type": "LINE"}, "geometry": {"type": "LineString", "coordinates": [[-54.99861076527862, -10.23950173202537], [-54.99881941648806, -10.239376222349104]]}}, {"type": "Feature", "properties": {"layer": "LOTES_Q-54", "dxf_type": "LINE"}, "geometry": {"type": "LineString", "coordinates": [[-54.99881941648806, -10.239376222349104], [-54.99893941204893, -10.239308986376539]]}}, {"type": "Feature", "properties": {"layer": "LOTES_Q-54", "dxf_type": "LINE"}, "geometry": {"type": "LineString", "coordinates": [[-54.99893941204893, -10.239308986376539], [-54.99888277274737, -10.239231687779847]]}}, {"type": "Feature", "properties": {"layer": "LOTES_Q-54", "dxf_type": "LINE"}, "geometry": {"type": "LineString", "coordinates": [[-54.99888277274737, -10.239231687779847], [-54.998560682694624, -10.239422162390895]]}}, {"type": "Feature", "properties": {"layer": "LOTES_Q-54", "dxf_type": "LINE"}, "geometry": {"type": "LineString", "coordinates": [[-54.998560682694624, -10.239422162390895], [-54.998560682694624, -10.239422162390895]]}}, {"type": "Feature", "properties": {"layer": "LOTES_Q-54", "dxf_type": "LINE"}, "geometry": {"type": "LineString", "coordinates": [[-54.99814855558301, -10.238855228051673], [-54.998319776393345, -10.23909506312586]]}}, {"type": "Feature", "properties": {"layer": "LOTES_Q-54", "dxf_type": "LINE"}, "geometry": {"type": "LineString", "coordinates": [[-54.998319776393345, -10.23909506312586], [-54.99835501486082, -10.239072593287009]]}}, {"type": "Feature", "properties": {"layer": "LOTES_Q-54", "dxf_type": "LINE"}, "geometry": {"type": "LineString", "coordinates": [[-54.99835501486082, -10.239072593287009], [-54.99839909984741, -10.239044914330451]]}}, {"type": "Feature", "properties": {"layer": "LOTES_Q-54", "dxf_type": "LINE"}, "geometry": {"type": "LineString", "coordinates": [[-54.99839909984741, -10.239044914330451], [-54.99822098537971, -10.238805494255104]]}}, {"type": "Feature", "properties": {"layer": "LOTES_Q-54", "dxf_type": "LINE"}, "geometry": {"type": "LineString", "coordinates": [[-54.99822098537971, -10.238805494255104], [-54.99814855558301, -10.238855228051673]]}}, {"type": "Feature", "properties": {"layer": "LOTES_Q-54", "dxf_type": "LINE"}, "geometry": {"type": "LineString", "coordinates": [[-54.99814855558301, -10.238855228051673], [-54.99814855558301, -10.238855228051673]]}}, {"type": "Feature", "properties": {"layer": "LOTES_Q-54", "dxf_type": "LINE"}, "geometry": {"type": "LineString", "coordinates": [[-54.998296148129434, -10.23875245352736], [-54.99848256520856, -10.238990454873285]]}}, {"type": "Feature", "properties": {"layer": "LOTES_Q-54", "dxf_type": "LINE"}, "geometry": {"type": "LineString", "coordinates": [[-54.99848256520856, -10.238990454873285], [-54.99855689910866, -10.238939924606184]]}}, {"type": "Feature", "properties": {"layer": "LOTES_Q-54", "dxf_type": "LINE"}, "geometry": {"type": "LineString", "coordinates": [[-54.99855689910866, -10.238939924606184], [-54.99837250091341, -10.238693878142712]]}}, {"type": "Feature", "properties": {"layer": "LOTES_Q-54", "dxf_type": "LINE"}, "geometry": {"type": "LineString", "coordinates": [[-54.99837250091341, -10.238693878142712], [-54.998296148129434, -10.23875245352736]]}}, {"type": "Feature", "properties": {"layer": "LOTES_Q-54", "dxf_type": "LINE"}, "geometry": {"type": "LineString", "coordinates": [[-54.998296148129434, -10.23875245352736], [-54.998296148129434, -10.23875245352736]]}}, {"type": "Feature", "properties": {"layer": "LOTES_Q-54", "dxf_type": "LINE"}, "geometry": {"type": "LineString", "coordinates": [[-54.99837250091341, -10.238693878142712], [-54.99855689910866, -10.238939924606184]]}}, {"type": "Feature", "properties": {"layer": "LOTES_Q-54", "dxf_type": "LINE"}, "geometry": {"type": "LineString", "coordinates": [[-54.99855689910866, -10.238939924606184], [-54.99863736826791, -10.238886790799]]}}, {"type": "Feature", "properties": {"layer": "LOTES_Q-54", "dxf_type": "LINE"}, "geometry": {"type": "LineString", "coordinates": [[-54.99863736826791, -10.238886790799], [-54.99843831537346, -10.238644414528402]]}}, {"type": "Feature", "properties": {"layer": "LOTES_Q-54", "dxf_type": "LINE"}, "geometry": {"type": "LineString", "coordinates": [[-54.99843831537346, -10.238644414528402], [-54.99837250091341, -10.238693878142712]]}}, {"type": "Feature", "properties": {"layer": "LOTES_Q-54", "dxf_type": "LINE"}, "geometry": {"type": "LineString", "coordinates": [[-54.99837250091341, -10.238693878142712], [-54.99837250091341, -10.238693878142712]]}}, {"type": "Feature", "properties": {"layer": "LOTES_Q-54", "dxf_type": "LINE"}, "geometry": {"type": "LineString", "coordinates": [[-54.99807151092052, -10.239598862995088], [-54.99815656934039, -10.239545071521402]]}}, {"type": "Feature", "properties": {"layer": "LOTES_Q-54", "dxf_type": "LINE"}, "geometry": {"type": "LineString", "coordinates": [[-54.99815656934039, -10.239545071521402], [-54.99824044288081, -10.239492346589596]]}}, {"type": "Feature", "properties": {"layer": "LOTES_Q-54", "dxf_type": "LINE"}, "geometry": {"type": "LineString", "coordinates": [[-54.99824044288081, -10.239492346589596], [-54.99832717647031, -10.239437585516118]]}}, {"type": "Feature", "properties": {"layer": "LOTES_Q-54", "dxf_type": "LINE"}, "geometry": {"type": "LineString", "coordinates": [[-54.99832717647031, -10.239437585516118], [-54.998440369010936, -10.239366519542347]]}}, {"type": "Feature", "properties": {"layer": "LOTES_Q-54", "dxf_type": "LINE"}, "geometry": {"type": "LineString", "coordinates": [[-54.998440369010936, -10.239366519542347], [-54.998293037901874, -10.239112285561081]]}}, {"type": "Feature", "properties": {"layer": "LOTES_Q-54", "dxf_type": "LINE"}, "geometry": {"type": "LineString", "coordinates": [[-54.998293037901874, -10.239112285561081], [-54.99824367993221, -10.239150728516284]]}}, {"type": "Feature", "properties": {"layer": "LOTES_Q-54", "dxf_type": "LINE"}, "geometry": {"type": "LineString", "coordinates": [[-54.99824367993221, -10.239150728516284], [-54.998191787426066, -10.23918775568613]]}}, {"type": "Feature", "properties": {"layer": "LOTES_Q-54", "dxf_type": "LINE"}, "geometry": {"type": "LineString", "coordinates": [[-54.998191787426066, -10.23918775568613], [-54.99813719994687, -10.239229448584815]]}}, {"type": "Feature", "properties": {"layer": "LOTES_Q-54", "dxf_type": "LINE"}, "geometry": {"type": "LineString", "coordinates": [[-54.99813719994687, -10.239229448584815], [-54.99809725332822, -10.239260361895017]]}}, {"type": "Feature", "properties": {"layer": "LOTES_Q-54", "dxf_type": "LINE"}, "geometry": {"type": "LineString", "coordinates": [[-54.99809725332822, -10.239260361895017], [-54.998038409279694, -10.239309941523524]]}}, {"type": "Feature", "properties": {"layer": "LOTES_Q-54", "dxf_type": "LINE"}, "geometry": {"type": "LineString", "coordinates": [[-54.998038409279694, -10.239309941523524], [-54.99796130231119, -10.239372761492437]]}}, {"type": "Feature", "properties": {"layer": "LOTES_Q-54", "dxf_type": "LINE"}, "geometry": {"type": "LineString", "coordinates": [[-54.99796130231119, -10.239372761492437], [-54.99791984238629, -10.239408214003536]]}}, {"type": "Feature", "properties": {"layer": "LOTES_Q-54", "dxf_type": "LINE"}, "geometry": {"type": "LineString", "coordinates": [[-54.99791984238629, -10.239408214003536], [-54.997972215160836, -10.239465712236917]]}}, {"type": "Feature", "properties": {"layer": "LOTES_Q-54", "dxf_type": "LINE"}, "geometry": {"type": "LineString", "coordinates": [[-54.997972215160836, -10.239465712236917], [-54.99807151092052, -10.239598862995088]]}}, {"type": "Feature", "properties": {"layer": "LOTES_Q-54", "dxf_type": "LINE"}, "geometry": {"type": "LineString", "coordinates": [[-54.99807151092052, -10.239598862995088], [-54.99807151092052, -10.239598862995088]]}}, {"type": "Feature", "properties": {"layer": "LOTES_Q-54", "dxf_type": "LINE"}, "geometry": {"type": "LineString", "coordinates": [[-54.99656941956327, -10.240419334505242], [-54.9966216141442, -10.240489927876311]]}}, {"type": "Feature", "properties": {"layer": "LOTES_Q-54", "dxf_type": "LINE"}, "geometry": {"type": "LineString", "coordinates": [[-54.9966216141442, -10.240489927876311], [-54.99680081883563, -10.24033898549088]]}}, {"type": "Feature", "properties": {"layer": "LOTES_Q-54", "dxf_type": "LINE"}, "geometry": {"type": "LineString", "coordinates": [[-54.99680081883563, -10.24033898549088], [-54.996741096093295, -10.240270299155851]]}}, {"type": "Feature", "properties": {"layer": "LOTES_Q-54", "dxf_type": "LINE"}, "geometry": {"type": "LineString", "coordinates": [[-54.996741096093295, -10.240270299155851], [-54.996672059559614, -10.240329940524212]]}}, {"type": "Feature", "properties": {"layer": "LOTES_Q-54", "dxf_type": "LINE"}, "geometry": {"type": "LineString", "coordinates": [[-54.996672059559614, -10.240329940524212], [-54.99656941956327, -10.240419334505242]]}}, {"type": "Feature", "properties": {"layer": "LOTES_Q-54", "dxf_type": "LINE"}, "geometry": {"type": "LineString", "coordinates": [[-54.99656941956327, -10.240419334505242], [-54.99656941956327, -10.240419334505242]]}}, {"type": "Feature", "properties": {"layer": "LOTES_Q-54", "dxf_type": "LINE"}, "geometry": {"type": "LineString", "coordinates": [[-54.9966216141442, -10.240489927876311], [-54.996680555926176, -10.240569189842692]]}}, {"type": "Feature", "properties": {"layer": "LOTES_Q-54", "dxf_type": "LINE"}, "geometry": {"type": "LineString", "coordinates": [[-54.996680555926176, -10.240569189842692], [-54.9969325661268, -10.240359491571736]]}}, {"type": "Feature", "properties": {"layer": "LOTES_Q-54", "dxf_type": "LINE"}, "geometry": {"type": "LineString", "coordinates": [[-54.9969325661268, -10.240359491571736], [-54.9968681366752, -10.240283164331839]]}}, {"type": "Feature", "properties": {"layer": "LOTES_Q-54", "dxf_type": "LINE"}, "geometry": {"type": "LineString", "coordinates": [[-54.9968681366752, -10.240283164331839], [-54.99680081883563, -10.24033898549088]]}}, {"type": "Feature", "properties": {"layer": "LOTES_Q-54", "dxf_type": "LINE"}, "geometry": {"type": "LineString", "coordinates": [[-54.99680081883563, -10.24033898549088], [-54.9966216141442, -10.240489927876311]]}}, {"type": "Feature", "properties": {"layer": "LOTES_Q-54", "dxf_type": "LINE"}, "geometry": {"type": "LineString", "coordinates": [[-54.9966216141442, -10.240489927876311], [-54.9966216141442, -10.240489927876311]]}}, {"type": "Feature", "properties": {"layer": "LOTES_Q-54", "dxf_type": "LINE"}, "geometry": {"type": "LineString", "coordinates": [[-54.996680555926176, -10.240569189842692], [-54.996745869579904, -10.240652074200582]]}}, {"type": "Feature", "properties": {"layer": "LOTES_Q-54", "dxf_type": "LINE"}, "geometry": {"type": "LineString", "coordinates": [[-54.996745869579904, -10.240652074200582], [-54.99691418497612, -10.240517884889398]]}}, {"type": "Feature", "properties": {"layer": "LOTES_Q-54", "dxf_type": "LINE"}, "geometry": {"type": "LineString", "coordinates": [[-54.99691418497612, -10.240517884889398], [-54.99696289998125, -10.240479433728035]]}}, {"type": "Feature", "properties": {"layer": "LOTES_Q-54", "dxf_type": "LINE"}, "geometry": {"type": "LineString", "coordinates": [[-54.99696289998125, -10.240479433728035], [-54.99700456869719, -10.240444051370288]]}}, {"type": "Feature", "properties": {"layer": "LOTES_Q-54", "dxf_type": "LINE"}, "geometry": {"type": "LineString", "coordinates": [[-54.99700456869719, -10.240444051370288], [-54.9969325661268, -10.240359491571736]]}}, {"type": "Feature", "properties": {"layer": "LOTES_Q-54", "dxf_type": "LINE"}, "geometry": {"type": "LineString", "coordinates": [[-54.9969325661268, -10.240359491571736], [-54.996680555926176, -10.240569189842692]]}}, {"type": "Feature", "properties": {"layer": "LOTES_Q-54", "dxf_type": "LINE"}, "geometry": {"type": "LineString", "coordinates": [[-54.996680555926176, -10.240569189842692], [-54.996680555926176, -10.240569189842692]]}}, {"type": "Feature", "properties": {"layer": "LOTES_Q-54", "dxf_type": "LINE"}, "geometry": {"type": "LineString", "coordinates": [[-54.9969903780976, -10.240834778732438], [-54.99689843085673, -10.240673710968963]]}}, {"type": "Feature", "properties": {"layer": "LOTES_Q-54", "dxf_type": "LINE"}, "geometry": {"type": "LineString", "coordinates": [[-54.99689843085673, -10.240673710968963], [-54.996971658461504, -10.240619245924346]]}}, {"type": "Feature", "properties": {"layer": "LOTES_Q-54", "dxf_type": "LINE"}, "geometry": {"type": "LineString", "coordinates": [[-54.996971658461504, -10.240619245924346], [-54.99691418497612, -10.240517884889398]]}}, {"type": "Feature", "properties": {"layer": "LOTES_Q-54", "dxf_type": "LINE"}, "geometry": {"type": "LineString", "coordinates": [[-54.99691418497612, -10.240517884889398], [-54.996745869579904, -10.240652074200582]]}}, {"type": "Feature", "properties": {"layer": "LOTES_Q-54", "dxf_type": "LINE"}, "geometry": {"type": "LineString", "coordinates": [[-54.996745869579904, -10.240652074200582], [-54.99691966366507, -10.240891000206412]]}}, {"type": "Feature", "properties": {"layer": "LOTES_Q-54", "dxf_type": "LINE"}, "geometry": {"type": "LineString", "coordinates": [[-54.99691966366507, -10.240891000206412], [-54.9969903780976, -10.240834778732438]]}}, {"type": "Feature", "properties": {"layer": "LOTES_Q-54", "dxf_type": "LINE"}, "geometry": {"type": "LineString", "coordinates": [[-54.9969903780976, -10.240834778732438], [-54.9969903780976, -10.240834778732438]]}}, {"type": "Feature", "properties": {"layer": "LOTES_Q-54", "dxf_type": "LINE"}, "geometry": {"type": "LineString", "coordinates": [[-54.99706213900831, -10.24077772484237], [-54.99711192754837, -10.24074417140253]]}}, {"type": "Feature", "properties": {"layer": "LOTES_Q-54", "dxf_type": "LINE"}, "geometry": {"type": "LineString", "coordinates": [[-54.99711192754837, -10.24074417140253], [-54.99696289998125, -10.240479433728035]]}}, {"type": "Feature", "properties": {"layer": "LOTES_Q-54", "dxf_type": "LINE"}, "geometry": {"type": "LineString", "coordinates": [[-54.99696289998125, -10.240479433728035], [-54.99691418497612, -10.240517884889398]]}}, {"type": "Feature", "properties": {"layer": "LOTES_Q-54", "dxf_type": "LINE"}, "geometry": {"type": "LineString", "coordinates": [[-54.99691418497612, -10.240517884889398], [-54.996971658461504, -10.240619245924346]]}}, {"type": "Feature", "properties": {"layer": "LOTES_Q-54", "dxf_type": "LINE"}, "geometry": {"type": "LineString", "coordinates": [[-54.996971658461504, -10.240619245924346], [-54.99706213900831, -10.24077772484237]]}}, {"type": "Feature", "properties": {"layer": "LOTES_Q-54", "dxf_type": "LINE"}, "geometry": {"type": "LineString", "coordinates": [[-54.99706213900831, -10.24077772484237], [-54.99706213900831, -10.24077772484237]]}}, {"type": "Feature", "properties": {"layer": "LOTES_Q-54", "dxf_type": "LINE"}, "geometry": {"type": "LineString", "coordinates": [[-54.99711192754837, -10.24074417140253], [-54.997248362581814, -10.240631136238134]]}}, {"type": "Feature", "properties": {"layer": "LOTES_Q-54", "dxf_type": "LINE"}, "geometry": {"type": "LineString", "coordinates": [[-54.997248362581814, -10.240631136238134], [-54.997076037960376, -10.240386047447895]]}}, {"type": "Feature", "properties": {"layer": "LOTES_Q-54", "dxf_type": "LINE"}, "geometry": {"type": "LineString", "coordinates": [[-54.997076037960376, -10.240386047447895], [-54.99700456869719, -10.240444051370288]]}}, {"type": "Feature", "properties": {"layer": "LOTES_Q-54", "dxf_type": "LINE"}, "geometry": {"type": "LineString", "coordinates": [[-54.99700456869719, -10.240444051370288], [-54.99696289998125, -10.240479433728035]]}}, {"type": "Feature", "properties": {"layer": "LOTES_Q-54", "dxf_type": "LINE"}, "geometry": {"type": "LineString", "coordinates": [[-54.99696289998125, -10.240479433728035], [-54.99711192754837, -10.24074417140253]]}}, {"type": "Feature", "properties": {"layer": "LOTES_Q-54", "dxf_type": "LINE"}, "geometry": {"type": "LineString", "coordinates": [[-54.99711192754837, -10.24074417140253], [-54.99711192754837, -10.24074417140253]]}}, {"type": "Feature", "properties": {"layer": "LOTES_Q-54", "dxf_type": "LINE"}, "geometry": {"type": "LineString", "coordinates": [[-54.997248362581814, -10.240631136238134], [-54.9973261510684, -10.24056391319113]]}}, {"type": "Feature", "properties": {"layer": "LOTES_Q-54", "dxf_type": "LINE"}, "geometry": {"type": "LineString", "coordinates": [[-54.9973261510684, -10.24056391319113], [-54.99715442925314, -10.240314959357862]]}}, {"type": "Feature", "properties": {"layer": "LOTES_Q-54", "dxf_type": "LINE"}, "geometry": {"type": "LineString", "coordinates": [[-54.99715442925314, -10.240314959357862], [-54.997076037960376, -10.240386047447895]]}}, {"type": "Feature", "properties": {"layer": "LOTES_Q-54", "dxf_type": "LINE"}, "geometry": {"type": "LineString", "coordinates": [[-54.997076037960376, -10.240386047447895], [-54.997248362581814, -10.240631136238134]]}}, {"type": "Feature", "properties": {"layer": "LOTES_Q-54", "dxf_type": "LINE"}, "geometry": {"type": "LineString", "coordinates": [[-54.997248362581814, -10.240631136238134], [-54.997248362581814, -10.240631136238134]]}}, {"type": "Feature", "properties": {"layer": "LOTES_Q-54", "dxf_type": "LINE"}, "geometry": {"type": "LineString", "coordinates": [[-54.9973261510684, -10.24056391319113], [-54.997396929741626, -10.240510811435957]]}}, {"type": "Feature", "properties": {"layer": "LOTES_Q-54", "dxf_type": "LINE"}, "geometry": {"type": "LineString", "coordinates": [[-54.997396929741626, -10.240510811435957], [-54.99721204256732, -10.2402668276894]]}}, {"type": "Feature", "properties": {"layer": "LOTES_Q-54", "dxf_type": "LINE"}, "geometry": {"type": "LineString", "coordinates": [[-54.99721204256732, -10.2402668276894], [-54.99715442925314, -10.240314959357862]]}}, {"type": "Feature", "properties": {"layer": "LOTES_Q-54", "dxf_type": "LINE"}, "geometry": {"type": "LineString", "coordinates": [[-54.99715442925314, -10.240314959357862], [-54.9973261510684, -10.24056391319113]]}}, {"type": "Feature", "properties": {"layer": "LOTES_Q-54", "dxf_type": "LINE"}, "geometry": {"type": "LineString", "coordinates": [[-54.9973261510684, -10.24056391319113], [-54.9973261510684, -10.24056391319113]]}}, {"type": "Feature", "properties": {"layer": "LOTES_Q-54", "dxf_type": "LINE"}, "geometry": {"type": "LineString", "coordinates": [[-54.99796306835783, -10.239997643010408], [-54.997672657340196, -10.239697212580856]]}}, {"type": "Feature", "properties": {"layer": "LOTES_Q-54", "dxf_type": "LINE"}, "geometry": {"type": "LineString", "coordinates": [[-54.997672657340196, -10.239697212580856], [-54.9976272791227, -10.239730989451274]]}}, {"type": "Feature", "properties": {"layer": "LOTES_Q-54", "dxf_type": "LINE"}, "geometry": {"type": "LineString", "coordinates": [[-54.9976272791227, -10.239730989451274], [-54.99766255755395, -10.23977372537908]]}}, {"type": "Feature", "properties": {"layer": "LOTES_Q-54", "dxf_type": "LINE"}, "geometry": {"type": "LineString", "coordinates": [[-54.99766255755395, -10.23977372537908], [-54.99763564006442, -10.239806661349759]]}}, {"type": "Feature", "properties": {"layer": "LOTES_Q-54", "dxf_type": "LINE"}, "geometry": {"type": "LineString", "coordinates": [[-54.99763564006442, -10.239806661349759], [-54.997894451684104, -10.240061241038443]]}}, {"type": "Feature", "properties": {"layer": "LOTES_Q-54", "dxf_type": "LINE"}, "geometry": {"type": "LineString", "coordinates": [[-54.997894451684104, -10.240061241038443], [-54.99796306835783, -10.239997643010408]]}}, {"type": "Feature", "properties": {"layer": "LOTES_Q-54", "dxf_type": "LINE"}, "geometry": {"type": "LineString", "coordinates": [[-54.99796306835783, -10.239997643010408], [-54.99796306835783, -10.239997643010408]]}}, {"type": "Feature", "properties": {"layer": "LOTES_Q-54", "dxf_type": "LINE"}, "geometry": {"type": "LineString", "coordinates": [[-54.9978334842146, -10.240114248760914], [-54.997894451684104, -10.240061241038443]]}}, {"type": "Feature", "properties": {"layer": "LOTES_Q-54", "dxf_type": "LINE"}, "geometry": {"type": "LineString", "coordinates": [[-54.997894451684104, -10.240061241038443], [-54.99763564006442, -10.239806661349759]]}}, {"type": "Feature", "properties": {"layer": "LOTES_Q-54", "dxf_type": "LINE"}, "geometry": {"type": "LineString", "coordinates": [[-54.99763564006442, -10.239806661349759], [-54.99760191586227, -10.23984332115835]]}}, {"type": "Feature", "properties": {"layer": "LOTES_Q-54", "dxf_type": "LINE"}, "geometry": {"type": "LineString", "coordinates": [[-54.99760191586227, -10.23984332115835], [-54.99757071230899, -10.23987080900247]]}}, {"type": "Feature", "properties": {"layer": "LOTES_Q-54", "dxf_type": "LINE"}, "geometry": {"type": "LineString", "coordinates": [[-54.99757071230899, -10.23987080900247], [-54.9978334842146, -10.240114248760914]]}}, {"type": "Feature", "properties": {"layer": "LOTES_Q-54", "dxf_type": "LINE"}, "geometry": {"type": "LineString", "coordinates": [[-54.9978334842146, -10.240114248760914], [-54.9978334842146, -10.240114248760914]]}}, {"type": "Feature", "properties": {"layer": "LOTES_Q-54", "dxf_type": "LINE"}, "geometry": {"type": "LineString", "coordinates": [[-54.9978334842146, -10.240114248760914], [-54.99757071230899, -10.23987080900247]]}}, {"type": "Feature", "properties": {"layer": "LOTES_Q-54", "dxf_type": "LINE"}, "geometry": {"type": "LineString", "coordinates": [[-54.99757071230899, -10.23987080900247], [-54.99751754784366, -10.239923334098227]]}}, {"type": "Feature", "properties": {"layer": "LOTES_Q-54", "dxf_type": "LINE"}, "geometry": {"type": "LineString", "coordinates": [[-54.99751754784366, -10.239923334098227], [-54.99751076958347, -10.239928050620035]]}}, {"type": "Feature", "properties": {"layer": "LOTES_Q-54", "dxf_type": "LINE"}, "geometry": {"type": "LineString", "coordinates": [[-54.99751076958347, -10.239928050620035], [-54.99774729266723, -10.240191662598733]]}}, {"type": "Feature", "properties": {"layer": "LOTES_Q-54", "dxf_type": "LINE"}, "geometry": {"type": "LineString", "coordinates": [[-54.99774729266723, -10.240191662598733], [-54.9978334842146, -10.240114248760914]]}}, {"type": "Feature", "properties": {"layer": "LOTES_Q-54", "dxf_type": "LINE"}, "geometry": {"type": "LineString", "coordinates": [[-54.9978334842146, -10.240114248760914], [-54.9978334842146, -10.240114248760914]]}}, {"type": "Feature", "properties": {"layer": "LOTES_Q-54", "dxf_type": "LINE"}, "geometry": {"type": "LineString", "coordinates": [[-54.99774729266723, -10.240191662598733], [-54.99751076958347, -10.239928050620035]]}}, {"type": "Feature", "properties": {"layer": "LOTES_Q-54", "dxf_type": "LINE"}, "geometry": {"type": "LineString", "coordinates": [[-54.99751076958347, -10.239928050620035], [-54.9974540040077, -10.239985080379082]]}}, {"type": "Feature", "properties": {"layer": "LOTES_Q-54", "dxf_type": "LINE"}, "geometry": {"type": "LineString", "coordinates": [[-54.9974540040077, -10.239985080379082], [-54.99740185180941, -10.240039749459507]]}}, {"type": "Feature", "properties": {"layer": "LOTES_Q-54", "dxf_type": "LINE"}, "geometry": {"type": "LineString", "coordinates": [[-54.99740185180941, -10.240039749459507], [-54.99761784336248, -10.240307843315126]]}}, {"type": "Feature", "properties": {"layer": "LOTES_Q-54", "dxf_type": "LINE"}, "geometry": {"type": "LineString", "coordinates": [[-54.99761784336248, -10.240307843315126], [-54.99774729266723, -10.240191662598733]]}}, {"type": "Feature", "properties": {"layer": "LOTES_Q-54", "dxf_type": "LINE"}, "geometry": {"type": "LineString", "coordinates": [[-54.99774729266723, -10.240191662598733], [-54.99774729266723, -10.240191662598733]]}}, {"type": "Feature", "properties": {"layer": "LOTES_Q-54", "dxf_type": "LINE"}, "geometry": {"type": "LineString", "coordinates": [[-54.99822098537971, -10.238805494255104], [-54.99839909984741, -10.239044914330451]]}}, {"type": "Feature", "properties": {"layer": "LOTES_Q-54", "dxf_type": "LINE"}, "geometry": {"type": "LineString", "coordinates": [[-54.99839909984741, -10.239044914330451], [-54.99848256520856, -10.238990454873285]]}}, {"type": "Feature", "properties": {"layer": "LOTES_Q-54", "dxf_type": "LINE"}, "geometry": {"type": "LineString", "coordinates": [[-54.99848256520856, -10.238990454873285], [-54.998296148129434, -10.23875245352736]]}}, {"type": "Feature", "properties": {"layer": "LOTES_Q-54", "dxf_type": "LINE"}, "geometry": {"type": "LineString", "coordinates": [[-54.998296148129434, -10.23875245352736], [-54.99822098537971, -10.238805494255104]]}}, {"type": "Feature", "properties": {"layer": "LOTES_Q-54", "dxf_type": "LINE"}, "geometry": {"type": "LineString", "coordinates": [[-54.99822098537971, -10.238805494255104], [-54.99822098537971, -10.238805494255104]]}}, {"type": "Feature", "properties": {"layer": "LOTES_Q-54", "dxf_type": "LINE"}, "geometry": {"type": "LineString", "coordinates": [[-54.99761784336248, -10.240307843315126], [-54.99740185180941, -10.240039749459507]]}}, {"type": "Feature", "properties": {"layer": "LOTES_Q-54", "dxf_type": "LINE"}, "geometry": {"type": "LineString", "coordinates": [[-54.99740185180941, -10.240039749459507], [-54.99738180437788, -10.240058278484527]]}}, {"type": "Feature", "properties": {"layer": "LOTES_Q-54", "dxf_type": "LINE"}, "geometry": {"type": "LineString", "coordinates": [[-54.99738180437788, -10.240058278484527], [-54.997332258150486, -10.240108937520015]]}}, {"type": "Feature", "properties": {"layer": "LOTES_Q-54", "dxf_type": "LINE"}, "geometry": {"type": "LineString", "coordinates": [[-54.997332258150486, -10.240108937520015], [-54.997548127084336, -10.240371698419903]]}}, {"type": "Feature", "properties": {"layer": "LOTES_Q-54", "dxf_type": "LINE"}, "geometry": {"type": "LineString", "coordinates": [[-54.997548127084336, -10.240371698419903], [-54.99761784336248, -10.240307843315126]]}}, {"type": "Feature", "properties": {"layer": "LOTES_Q-54", "dxf_type": "LINE"}, "geometry": {"type": "LineString", "coordinates": [[-54.99761784336248, -10.240307843315126], [-54.99761784336248, -10.240307843315126]]}}, {"type": "Feature", "properties": {"layer": "LOTES_Q-54", "dxf_type": "LINE"}, "geometry": {"type": "LineString", "coordinates": [[-54.997548127084336, -10.240371698419903], [-54.997332258150486, -10.240108937520015]]}}, {"type": "Feature", "properties": {"layer": "LOTES_Q-54", "dxf_type": "LINE"}, "geometry": {"type": "LineString", "coordinates": [[-54.997332258150486, -10.240108937520015], [-54.99731693663619, -10.240123462332418]]}}, {"type": "Feature", "properties": {"layer": "LOTES_Q-54", "dxf_type": "LINE"}, "geometry": {"type": "LineString", "coordinates": [[-54.99731693663619, -10.240123462332418], [-54.99726414523931, -10.240175130940582]]}}, {"type": "Feature", "properties": {"layer": "LOTES_Q-54", "dxf_type": "LINE"}, "geometry": {"type": "LineString", "coordinates": [[-54.99726414523931, -10.240175130940582], [-54.997481093778696, -10.240432361095504]]}}, {"type": "Feature", "properties": {"layer": "LOTES_Q-54", "dxf_type": "LINE"}, "geometry": {"type": "LineString", "coordinates": [[-54.997481093778696, -10.240432361095504], [-54.997548127084336, -10.240371698419903]]}}, {"type": "Feature", "properties": {"layer": "LOTES_Q-54", "dxf_type": "LINE"}, "geometry": {"type": "LineString", "coordinates": [[-54.997548127084336, -10.240371698419903], [-54.997548127084336, -10.240371698419903]]}}, {"type": "Feature", "properties": {"layer": "LOTES_Q-54", "dxf_type": "LINE"}, "geometry": {"type": "LineString", "coordinates": [[-54.997481093778696, -10.240432361095504], [-54.99726414523931, -10.240175130940582]]}}, {"type": "Feature", "properties": {"layer": "LOTES_Q-54", "dxf_type": "LINE"}, "geometry": {"type": "LineString", "coordinates": [[-54.99726414523931, -10.240175130940582], [-54.99725169045863, -10.24018583263078]]}}, {"type": "Feature", "properties": {"layer": "LOTES_Q-54", "dxf_type": "LINE"}, "geometry": {"type": "LineString", "coordinates": [[-54.99725169045863, -10.24018583263078], [-54.997189586040044, -10.240238653326436]]}}, {"type": "Feature", "properties": {"layer": "LOTES_Q-54", "dxf_type": "LINE"}, "geometry": {"type": "LineString", "coordinates": [[-54.997189586040044, -10.240238653326436], [-54.99721204256732, -10.2402668276894]]}}, {"type": "Feature", "properties": {"layer": "LOTES_Q-54", "dxf_type": "LINE"}, "geometry": {"type": "LineString", "coordinates": [[-54.99721204256732, -10.2402668276894], [-54.997396929741626, -10.240510811435957]]}}, {"type": "Feature", "properties": {"layer": "LOTES_Q-54", "dxf_type": "LINE"}, "geometry": {"type": "LineString", "coordinates": [[-54.997396929741626, -10.240510811435957], [-54.99749067650896, -10.240443779700483]]}}, {"type": "Feature", "properties": {"layer": "LOTES_Q-54", "dxf_type": "LINE"}, "geometry": {"type": "LineString", "coordinates": [[-54.99749067650896, -10.240443779700483], [-54.997481093778696, -10.240432361095504]]}}, {"type": "Feature", "properties": {"layer": "LOTES_Q-54", "dxf_type": "LINE"}, "geometry": {"type": "LineString", "coordinates": [[-54.997481093778696, -10.240432361095504], [-54.997481093778696, -10.240432361095504]]}}, {"type": "Feature", "properties": {"layer": "LOTES_Q-54", "dxf_type": "LINE"}, "geometry": {"type": "LineString", "coordinates": [[-54.9969903780976, -10.240834778732438], [-54.99706213900831, -10.24077772484237]]}}, {"type": "Feature", "properties": {"layer": "LOTES_Q-54", "dxf_type": "LINE"}, "geometry": {"type": "LineString", "coordinates": [[-54.99706213900831, -10.24077772484237], [-54.996971658461504, -10.240619245924346]]}}, {"type": "Feature", "properties": {"layer": "LOTES_Q-54", "dxf_type": "LINE"}, "geometry": {"type": "LineString", "coordinates": [[-54.996971658461504, -10.240619245924346], [-54.99689843085673, -10.240673710968963]]}}, {"type": "Feature", "properties": {"layer": "LOTES_Q-54", "dxf_type": "LINE"}, "geometry": {"type": "LineString", "coordinates": [[-54.99689843085673, -10.240673710968963], [-54.9969903780976, -10.240834778732438]]}}, {"type": "Feature", "properties": {"layer": "LOTES_Q-54", "dxf_type": "LINE"}, "geometry": {"type": "LineString", "coordinates": [[-54.9969903780976, -10.240834778732438], [-54.9969903780976, -10.240834778732438]]}}, {"type": "Feature", "properties": {"layer": "LOTES_Q-54", "dxf_type": "LINE"}, "geometry": {"type": "LineString", "coordinates": [[-54.99893941204893, -10.239308986376539], [-54.99881941648806, -10.239376222349104]]}}, {"type": "Feature", "properties": {"layer": "LOTES_Q-54", "dxf_type": "LINE"}, "geometry": {"type": "LineString", "coordinates": [[-54.99881941648806, -10.239376222349104], [-54.99886465563322, -10.239456575688582]]}}, {"type": "Feature", "properties": {"layer": "LOTES_Q-54", "dxf_type": "LINE"}, "geometry": {"type": "LineString", "coordinates": [[-54.99886465563322, -10.239456575688582], [-54.99899079476772, -10.239382799640785]]}}, {"type": "Feature", "properties": {"layer": "LOTES_Q-54", "dxf_type": "LINE"}, "geometry": {"type": "LineString", "coordinates": [[-54.99899079476772, -10.239382799640785], [-54.99893941204893, -10.239308986376539]]}}, {"type": "Feature", "properties": {"layer": "LOTES_Q-54", "dxf_type": "LINE"}, "geometry": {"type": "LineString", "coordinates": [[-54.99893941204893, -10.239308986376539], [-54.99893941204893, -10.239308986376539]]}}]}