{"type": "FeatureCollection", "name": "lotes_q_52", "crs": {"type": "name", "properties": {"name": "urn:ogc:def:crs:OGC:1.3:CRS84"}}, "properties": {"source": "8be78050_MAPA TRIBUTAÇÃO 2021 (1).dxf", "assumed_crs": "EPSG:4326", "local_crs": false, "note": "Coordenadas locais do desenho (sem CRS). Use base 'Só CAD' no mapa.", "extent": [4300.4554, 2373.7696, 8215.3349, 6186.7838], "georef": true, "transform": {"scale": 1, "rotation_deg": 0, "tx": 713717.6034368816, "ty": 8862616.121289995, "rmse_m": 0, "epsg": 31981}, "layer": "LOTES_Q-52", "source_file": "8be78050_MAPA TRIBUTAÇÃO 2021 (1)_georef.geojson", "n_features": 287}, "features": [{"type": "Feature", "properties": {"layer": "LOTES_Q-52", "dxf_type": "LINE"}, "geometry": {"type": "LineString", "coordinates": [[-54.99892171334861, -10.240317774317107], [-54.999032556289514, -10.240606736645988]]}}, {"type": "Feature", "properties": {"layer": "LOTES_Q-52", "dxf_type": "LINE"}, "geometry": {"type": "LineString", "coordinates": [[-54.999032556289514, -10.240606736645988], [-54.999067126054406, -10.240605064645532]]}}, {"type": "Feature", "properties": {"layer": "LOTES_Q-52", "dxf_type": "LINE"}, "geometry": {"type": "LineString", "coordinates": [[-54.999067126054406, -10.240605064645532], [-54.999066378002105, -10.2405591777574]]}}, {"type": "Feature", "properties": {"layer": "LOTES_Q-52", "dxf_type": "LINE"}, "geometry": {"type": "LineString", "coordinates": [[-54.999066378002105, -10.2405591777574], [-54.99906473901273, -10.24046879604898]]}}, {"type": "Feature", "properties": {"layer": "LOTES_Q-52", "dxf_type": "LINE"}, "geometry": {"type": "LineString", "coordinates": [[-54.99906473901273, -10.24046879604898], [-54.99906309998533, -10.240378419763585]]}}, {"type": "Feature", "properties": {"layer": "LOTES_Q-52", "dxf_type": "LINE"}, "geometry": {"type": "LineString", "coordinates": [[-54.99906309998533, -10.240378419763585], [-54.999061460953904, -10.240288043477907]]}}, {"type": "Feature", "properties": {"layer": "LOTES_Q-52", "dxf_type": "LINE"}, "geometry": {"type": "LineString", "coordinates": [[-54.999061460953904, -10.240288043477907], [-54.99906012367391, -10.240214308484347]]}}, {"type": "Feature", "properties": {"layer": "LOTES_Q-52", "dxf_type": "LINE"}, "geometry": {"type": "LineString", "coordinates": [[-54.99906012367391, -10.240214308484347], [-54.99892171334861, -10.240317774317107]]}}, {"type": "Feature", "properties": {"layer": "LOTES_Q-52", "dxf_type": "LINE"}, "geometry": {"type": "LineString", "coordinates": [[-54.99892171334861, -10.240317774317107], [-54.99892171334861, -10.240317774317107]]}}, {"type": "Feature", "properties": {"layer": "LOTES_Q-52", "dxf_type": "LINE"}, "geometry": {"type": "LineString", "coordinates": [[-54.99918645944312, -10.24092890377957], [-54.99933618100586, -10.240922919754912]]}}, {"type": "Feature", "properties": {"layer": "LOTES_Q-52", "dxf_type": "LINE"}, "geometry": {"type": "LineString", "coordinates": [[-54.99933618100586, -10.240922919754912], [-54.99933109163217, -10.240801792424069]]}}, {"type": "Feature", "properties": {"layer": "LOTES_Q-52", "dxf_type": "LINE"}, "geometry": {"type": "LineString", "coordinates": [[-54.99933109163217, -10.240801792424069], [-54.99930720851448, -10.240803301495834]]}}, {"type": "Feature", "properties": {"layer": "LOTES_Q-52", "dxf_type": "LINE"}, "geometry": {"type": "LineString", "coordinates": [[-54.99930720851448, -10.240803301495834], [-54.99918228347114, -10.24081478929641]]}}, {"type": "Feature", "properties": {"layer": "LOTES_Q-52", "dxf_type": "LINE"}, "geometry": {"type": "LineString", "coordinates": [[-54.99918228347114, -10.24081478929641], [-54.99907462568356, -10.240824688423073]]}}, {"type": "Feature", "properties": {"layer": "LOTES_Q-52", "dxf_type": "LINE"}, "geometry": {"type": "LineString", "coordinates": [[-54.99907462568356, -10.240824688423073], [-54.99907637496944, -10.240895296564641]]}}, {"type": "Feature", "properties": {"layer": "LOTES_Q-52", "dxf_type": "LINE"}, "geometry": {"type": "LineString", "coordinates": [[-54.99907637496944, -10.240895296564641], [-54.99907774581644, -10.240938353481798]]}}, {"type": "Feature", "properties": {"layer": "LOTES_Q-52", "dxf_type": "LINE"}, "geometry": {"type": "LineString", "coordinates": [[-54.99907774581644, -10.240938353481798], [-54.99918645944312, -10.24092890377957]]}}, {"type": "Feature", "properties": {"layer": "LOTES_Q-52", "dxf_type": "LINE"}, "geometry": {"type": "LineString", "coordinates": [[-54.99918645944312, -10.24092890377957], [-54.99918645944312, -10.24092890377957]]}}, {"type": "Feature", "properties": {"layer": "LOTES_Q-52", "dxf_type": "LINE"}, "geometry": {"type": "LineString", "coordinates": [[-54.99907637496944, -10.240895296564641], [-54.99907462568356, -10.240824688423073]]}}, {"type": "Feature", "properties": {"layer": "LOTES_Q-52", "dxf_type": "LINE"}, "geometry": {"type": "LineString", "coordinates": [[-54.99907462568356, -10.240824688423073], [-54.99907258662037, -10.240742369065199]]}}, {"type": "Feature", "properties": {"layer": "LOTES_Q-52", "dxf_type": "LINE"}, "geometry": {"type": "LineString", "coordinates": [[-54.99907258662037, -10.240742369065199], [-54.99906858193359, -10.240650716348387]]}}, {"type": "Feature", "properties": {"layer": "LOTES_Q-52", "dxf_type": "LINE"}, "geometry": {"type": "LineString", "coordinates": [[-54.99906858193359, -10.240650716348387], [-54.999067126054406, -10.240605064645532]]}}, {"type": "Feature", "properties": {"layer": "LOTES_Q-52", "dxf_type": "LINE"}, "geometry": {"type": "LineString", "coordinates": [[-54.999067126054406, -10.240605064645532], [-54.999032556289514, -10.240606736645988]]}}, {"type": "Feature", "properties": {"layer": "LOTES_Q-52", "dxf_type": "LINE"}, "geometry": {"type": "LineString", "coordinates": [[-54.999032556289514, -10.240606736645988], [-54.99898824266306, -10.240634315722309]]}}, {"type": "Feature", "properties": {"layer": "LOTES_Q-52", "dxf_type": "LINE"}, "geometry": {"type": "LineString", "coordinates": [[-54.99898824266306, -10.240634315722309], [-54.99893616581435, -10.240665633565047]]}}, {"type": "Feature", "properties": {"layer": "LOTES_Q-52", "dxf_type": "LINE"}, "geometry": {"type": "LineString", "coordinates": [[-54.99893616581435, -10.240665633565047], [-54.99902977855381, -10.240919144659085]]}}, {"type": "Feature", "properties": {"layer": "LOTES_Q-52", "dxf_type": "LINE"}, "geometry": {"type": "LineString", "coordinates": [[-54.99902977855381, -10.240919144659085], [-54.99907637496944, -10.240895296564641]]}}, {"type": "Feature", "properties": {"layer": "LOTES_Q-52", "dxf_type": "LINE"}, "geometry": {"type": "LineString", "coordinates": [[-54.99907637496944, -10.240895296564641], [-54.99907637496944, -10.240895296564641]]}}, {"type": "Feature", "properties": {"layer": "LOTES_Q-52", "dxf_type": "LINE"}, "geometry": {"type": "LineString", "coordinates": [[-54.99902977855381, -10.240919144659085], [-54.99893616581435, -10.240665633565047]]}}, {"type": "Feature", "properties": {"layer": "LOTES_Q-52", "dxf_type": "LINE"}, "geometry": {"type": "LineString", "coordinates": [[-54.99893616581435, -10.240665633565047], [-54.99887057175479, -10.240712046017157]]}}, {"type": "Feature", "properties": {"layer": "LOTES_Q-52", "dxf_type": "LINE"}, "geometry": {"type": "LineString", "coordinates": [[-54.99887057175479, -10.240712046017157], [-54.99884452871038, -10.240730113405231]]}}, {"type": "Feature", "properties": {"layer": "LOTES_Q-52", "dxf_type": "LINE"}, "geometry": {"type": "LineString", "coordinates": [[-54.99884452871038, -10.240730113405231], [-54.99896708582238, -10.240937146561054]]}}, {"type": "Feature", "properties": {"layer": "LOTES_Q-52", "dxf_type": "LINE"}, "geometry": {"type": "LineString", "coordinates": [[-54.99896708582238, -10.240937146561054], [-54.99897403151463, -10.240955355457956]]}}, {"type": "Feature", "properties": {"layer": "LOTES_Q-52", "dxf_type": "LINE"}, "geometry": {"type": "LineString", "coordinates": [[-54.99897403151463, -10.240955355457956], [-54.99902977855381, -10.240919144659085]]}}, {"type": "Feature", "properties": {"layer": "LOTES_Q-52", "dxf_type": "LINE"}, "geometry": {"type": "LineString", "coordinates": [[-54.99902977855381, -10.240919144659085], [-54.99902977855381, -10.240919144659085]]}}, {"type": "Feature", "properties": {"layer": "LOTES_Q-52", "dxf_type": "LINE"}, "geometry": {"type": "LineString", "coordinates": [[-54.99896708582238, -10.240937146561054], [-54.99884452871038, -10.240730113405231]]}}, {"type": "Feature", "properties": {"layer": "LOTES_Q-52", "dxf_type": "LINE"}, "geometry": {"type": "LineString", "coordinates": [[-54.99884452871038, -10.240730113405231], [-54.998818111988335, -10.240747083839414]]}}, {"type": "Feature", "properties": {"layer": "LOTES_Q-52", "dxf_type": "LINE"}, "geometry": {"type": "LineString", "coordinates": [[-54.998818111988335, -10.240747083839414], [-54.99874176495841, -10.240801460555813]]}}, {"type": "Feature", "properties": {"layer": "LOTES_Q-52", "dxf_type": "LINE"}, "geometry": {"type": "LineString", "coordinates": [[-54.99874176495841, -10.240801460555813], [-54.998908803986204, -10.241004139347226]]}}, {"type": "Feature", "properties": {"layer": "LOTES_Q-52", "dxf_type": "LINE"}, "geometry": {"type": "LineString", "coordinates": [[-54.998908803986204, -10.241004139347226], [-54.99896708582238, -10.240937146561054]]}}, {"type": "Feature", "properties": {"layer": "LOTES_Q-52", "dxf_type": "LINE"}, "geometry": {"type": "LineString", "coordinates": [[-54.99896708582238, -10.240937146561054], [-54.99896708582238, -10.240937146561054]]}}, {"type": "Feature", "properties": {"layer": "LOTES_Q-52", "dxf_type": "LINE"}, "geometry": {"type": "LineString", "coordinates": [[-54.998908803986204, -10.241004139347226], [-54.99874176495841, -10.240801460555813]]}}, {"type": "Feature", "properties": {"layer": "LOTES_Q-52", "dxf_type": "LINE"}, "geometry": {"type": "LineString", "coordinates": [[-54.99874176495841, -10.240801460555813], [-54.998704798662395, -10.240826853005679]]}}, {"type": "Feature", "properties": {"layer": "LOTES_Q-52", "dxf_type": "LINE"}, "geometry": {"type": "LineString", "coordinates": [[-54.998704798662395, -10.240826853005679], [-54.99887124538394, -10.241028951465962]]}}, {"type": "Feature", "properties": {"layer": "LOTES_Q-52", "dxf_type": "LINE"}, "geometry": {"type": "LineString", "coordinates": [[-54.99887124538394, -10.241028951465962], [-54.998908803986204, -10.241004139347226]]}}, {"type": "Feature", "properties": {"layer": "LOTES_Q-52", "dxf_type": "LINE"}, "geometry": {"type": "LineString", "coordinates": [[-54.998908803986204, -10.241004139347226], [-54.998908803986204, -10.241004139347226]]}}, {"type": "Feature", "properties": {"layer": "LOTES_Q-52", "dxf_type": "LINE"}, "geometry": {"type": "LineString", "coordinates": [[-54.99887124538394, -10.241028951465962], [-54.998704798662395, -10.240826853005679]]}}, {"type": "Feature", "properties": {"layer": "LOTES_Q-52", "dxf_type": "LINE"}, "geometry": {"type": "LineString", "coordinates": [[-54.998704798662395, -10.240826853005679], [-54.99867108094039, -10.240850253305807]]}}, {"type": "Feature", "properties": {"layer": "LOTES_Q-52", "dxf_type": "LINE"}, "geometry": {"type": "LineString", "coordinates": [[-54.99867108094039, -10.240850253305807], [-54.998836887047396, -10.24105772799535]]}}, {"type": "Feature", "properties": {"layer": "LOTES_Q-52", "dxf_type": "LINE"}, "geometry": {"type": "LineString", "coordinates": [[-54.998836887047396, -10.24105772799535], [-54.99887124538394, -10.241028951465962]]}}, {"type": "Feature", "properties": {"layer": "LOTES_Q-52", "dxf_type": "LINE"}, "geometry": {"type": "LineString", "coordinates": [[-54.99887124538394, -10.241028951465962], [-54.99887124538394, -10.241028951465962]]}}, {"type": "Feature", "properties": {"layer": "LOTES_Q-52", "dxf_type": "LINE"}, "geometry": {"type": "LineString", "coordinates": [[-54.998836887047396, -10.24105772799535], [-54.99867108094039, -10.240850253305807]]}}, {"type": "Feature", "properties": {"layer": "LOTES_Q-52", "dxf_type": "LINE"}, "geometry": {"type": "LineString", "coordinates": [[-54.99867108094039, -10.240850253305807], [-54.998667812919216, -10.240852289622817]]}}, {"type": "Feature", "properties": {"layer": "LOTES_Q-52", "dxf_type": "LINE"}, "geometry": {"type": "LineString", "coordinates": [[-54.998667812919216, -10.240852289622817], [-54.99860293234835, -10.240897407458027]]}}, {"type": "Feature", "properties": {"layer": "LOTES_Q-52", "dxf_type": "LINE"}, "geometry": {"type": "LineString", "coordinates": [[-54.99860293234835, -10.240897407458027], [-54.9987650282672, -10.241112662019686]]}}, {"type": "Feature", "properties": {"layer": "LOTES_Q-52", "dxf_type": "LINE"}, "geometry": {"type": "LineString", "coordinates": [[-54.9987650282672, -10.241112662019686], [-54.998836887047396, -10.24105772799535]]}}, {"type": "Feature", "properties": {"layer": "LOTES_Q-52", "dxf_type": "LINE"}, "geometry": {"type": "LineString", "coordinates": [[-54.998836887047396, -10.24105772799535], [-54.998836887047396, -10.24105772799535]]}}, {"type": "Feature", "properties": {"layer": "LOTES_Q-52", "dxf_type": "LINE"}, "geometry": {"type": "LineString", "coordinates": [[-54.998695830602045, -10.241173271866712], [-54.9987650282672, -10.241112662019686]]}}, {"type": "Feature", "properties": {"layer": "LOTES_Q-52", "dxf_type": "LINE"}, "geometry": {"type": "LineString", "coordinates": [[-54.9987650282672, -10.241112662019686], [-54.99860293234835, -10.240897407458027]]}}, {"type": "Feature", "properties": {"layer": "LOTES_Q-52", "dxf_type": "LINE"}, "geometry": {"type": "LineString", "coordinates": [[-54.99860293234835, -10.240897407458027], [-54.99858524374829, -10.240910881870034]]}}, {"type": "Feature", "properties": {"layer": "LOTES_Q-52", "dxf_type": "LINE"}, "geometry": {"type": "LineString", "coordinates": [[-54.99858524374829, -10.240910881870034], [-54.998527858280816, -10.240951646412164]]}}, {"type": "Feature", "properties": {"layer": "LOTES_Q-52", "dxf_type": "LINE"}, "geometry": {"type": "LineString", "coordinates": [[-54.998527858280816, -10.240951646412164], [-54.998695830602045, -10.241173271866712]]}}, {"type": "Feature", "properties": {"layer": "LOTES_Q-52", "dxf_type": "LINE"}, "geometry": {"type": "LineString", "coordinates": [[-54.998695830602045, -10.241173271866712], [-54.998695830602045, -10.241173271866712]]}}, {"type": "Feature", "properties": {"layer": "LOTES_Q-52", "dxf_type": "LINE"}, "geometry": {"type": "LineString", "coordinates": [[-54.99862552576186, -10.241228379023257], [-54.998695830602045, -10.241173271866712]]}}, {"type": "Feature", "properties": {"layer": "LOTES_Q-52", "dxf_type": "LINE"}, "geometry": {"type": "LineString", "coordinates": [[-54.998695830602045, -10.241173271866712], [-54.998527858280816, -10.240951646412164]]}}, {"type": "Feature", "properties": {"layer": "LOTES_Q-52", "dxf_type": "LINE"}, "geometry": {"type": "LineString", "coordinates": [[-54.998527858280816, -10.240951646412164], [-54.998453295214794, -10.241016219434204]]}}, {"type": "Feature", "properties": {"layer": "LOTES_Q-52", "dxf_type": "LINE"}, "geometry": {"type": "LineString", "coordinates": [[-54.998453295214794, -10.241016219434204], [-54.99862552576186, -10.241228379023257]]}}, {"type": "Feature", "properties": {"layer": "LOTES_Q-52", "dxf_type": "LINE"}, "geometry": {"type": "LineString", "coordinates": [[-54.99862552576186, -10.241228379023257], [-54.99862552576186, -10.241228379023257]]}}, {"type": "Feature", "properties": {"layer": "LOTES_Q-52", "dxf_type": "LINE"}, "geometry": {"type": "LineString", "coordinates": [[-54.99862552576186, -10.241228379023257], [-54.998453295214794, -10.241016219434204]]}}, {"type": "Feature", "properties": {"layer": "LOTES_Q-52", "dxf_type": "LINE"}, "geometry": {"type": "LineString", "coordinates": [[-54.998453295214794, -10.241016219434204], [-54.99839173041516, -10.241065645835864]]}}, {"type": "Feature", "properties": {"layer": "LOTES_Q-52", "dxf_type": "LINE"}, "geometry": {"type": "LineString", "coordinates": [[-54.99839173041516, -10.241065645835864], [-54.99855691812706, -10.241283083511611]]}}, {"type": "Feature", "properties": {"layer": "LOTES_Q-52", "dxf_type": "LINE"}, "geometry": {"type": "LineString", "coordinates": [[-54.99855691812706, -10.241283083511611], [-54.99862552576186, -10.241228379023257]]}}, {"type": "Feature", "properties": {"layer": "LOTES_Q-52", "dxf_type": "LINE"}, "geometry": {"type": "LineString", "coordinates": [[-54.99862552576186, -10.241228379023257], [-54.99862552576186, -10.241228379023257]]}}, {"type": "Feature", "properties": {"layer": "LOTES_Q-52", "dxf_type": "LINE"}, "geometry": {"type": "LineString", "coordinates": [[-54.99855691812706, -10.241283083511611], [-54.99839173041516, -10.241065645835864]]}}, {"type": "Feature", "properties": {"layer": "LOTES_Q-52", "dxf_type": "LINE"}, "geometry": {"type": "LineString", "coordinates": [[-54.99839173041516, -10.241065645835864], [-54.9983139451814, -10.241120136505488]]}}, {"type": "Feature", "properties": {"layer": "LOTES_Q-52", "dxf_type": "LINE"}, "geometry": {"type": "LineString", "coordinates": [[-54.9983139451814, -10.241120136505488], [-54.998482552748044, -10.241342461084685]]}}, {"type": "Feature", "properties": {"layer": "LOTES_Q-52", "dxf_type": "LINE"}, "geometry": {"type": "LineString", "coordinates": [[-54.998482552748044, -10.241342461084685], [-54.99855691812706, -10.241283083511611]]}}, {"type": "Feature", "properties": {"layer": "LOTES_Q-52", "dxf_type": "LINE"}, "geometry": {"type": "LineString", "coordinates": [[-54.99855691812706, -10.241283083511611], [-54.99855691812706, -10.241283083511611]]}}, {"type": "Feature", "properties": {"layer": "LOTES_Q-52", "dxf_type": "LINE"}, "geometry": {"type": "LineString", "coordinates": [[-54.998482552748044, -10.241342461084685], [-54.9983139451814, -10.241120136505488]]}}, {"type": "Feature", "properties": {"layer": "LOTES_Q-52", "dxf_type": "LINE"}, "geometry": {"type": "LineString", "coordinates": [[-54.9983139451814, -10.241120136505488], [-54.99824645628587, -10.241171947117506]]}}, {"type": "Feature", "properties": {"layer": "LOTES_Q-52", "dxf_type": "LINE"}, "geometry": {"type": "LineString", "coordinates": [[-54.99824645628587, -10.241171947117506], [-54.99841246289852, -10.241392526513417]]}}, {"type": "Feature", "properties": {"layer": "LOTES_Q-52", "dxf_type": "LINE"}, "geometry": {"type": "LineString", "coordinates": [[-54.99841246289852, -10.241392526513417], [-54.998482552748044, -10.241342461084685]]}}, {"type": "Feature", "properties": {"layer": "LOTES_Q-52", "dxf_type": "LINE"}, "geometry": {"type": "LineString", "coordinates": [[-54.998482552748044, -10.241342461084685], [-54.998482552748044, -10.241342461084685]]}}, {"type": "Feature", "properties": {"layer": "LOTES_Q-52", "dxf_type": "LINE"}, "geometry": {"type": "LineString", "coordinates": [[-54.99841246289852, -10.241392526513417], [-54.99824645628587, -10.241171947117506]]}}, {"type": "Feature", "properties": {"layer": "LOTES_Q-52", "dxf_type": "LINE"}, "geometry": {"type": "LineString", "coordinates": [[-54.99824645628587, -10.241171947117506], [-54.998236897332156, -10.241178841262718]]}}, {"type": "Feature", "properties": {"layer": "LOTES_Q-52", "dxf_type": "LINE"}, "geometry": {"type": "LineString", "coordinates": [[-54.998236897332156, -10.241178841262718], [-54.998168128717616, -10.241237233580335]]}}, {"type": "Feature", "properties": {"layer": "LOTES_Q-52", "dxf_type": "LINE"}, "geometry": {"type": "LineString", "coordinates": [[-54.998168128717616, -10.241237233580335], [-54.9983297833499, -10.241447734593827]]}}, {"type": "Feature", "properties": {"layer": "LOTES_Q-52", "dxf_type": "LINE"}, "geometry": {"type": "LineString", "coordinates": [[-54.9983297833499, -10.241447734593827], [-54.99841246289852, -10.241392526513417]]}}, {"type": "Feature", "properties": {"layer": "LOTES_Q-52", "dxf_type": "LINE"}, "geometry": {"type": "LineString", "coordinates": [[-54.99841246289852, -10.241392526513417], [-54.99841246289852, -10.241392526513417]]}}, {"type": "Feature", "properties": {"layer": "LOTES_Q-52", "dxf_type": "LINE"}, "geometry": {"type": "LineString", "coordinates": [[-54.99756311957999, -10.24134100084849], [-54.99767774388589, -10.24149476342472]]}}, {"type": "Feature", "properties": {"layer": "LOTES_Q-52", "dxf_type": "LINE"}, "geometry": {"type": "LineString", "coordinates": [[-54.99767774388589, -10.24149476342472], [-54.997719947814154, -10.241551378374997]]}}, {"type": "Feature", "properties": {"layer": "LOTES_Q-52", "dxf_type": "LINE"}, "geometry": {"type": "LineString", "coordinates": [[-54.997719947814154, -10.241551378374997], [-54.99778421957758, -10.241491191325016]]}}, {"type": "Feature", "properties": {"layer": "LOTES_Q-52", "dxf_type": "LINE"}, "geometry": {"type": "LineString", "coordinates": [[-54.99778421957758, -10.241491191325016], [-54.99763414586422, -10.241289914534095]]}}, {"type": "Feature", "properties": {"layer": "LOTES_Q-52", "dxf_type": "LINE"}, "geometry": {"type": "LineString", "coordinates": [[-54.99763414586422, -10.241289914534095], [-54.99756311957999, -10.24134100084849]]}}, {"type": "Feature", "properties": {"layer": "LOTES_Q-52", "dxf_type": "LINE"}, "geometry": {"type": "LineString", "coordinates": [[-54.99756311957999, -10.24134100084849], [-54.99756311957999, -10.24134100084849]]}}, {"type": "Feature", "properties": {"layer": "LOTES_Q-52", "dxf_type": "LINE"}, "geometry": {"type": "LineString", "coordinates": [[-54.9983297833499, -10.241447734593827], [-54.998168128717616, -10.241237233580335]]}}, {"type": "Feature", "properties": {"layer": "LOTES_Q-52", "dxf_type": "LINE"}, "geometry": {"type": "LineString", "coordinates": [[-54.998168128717616, -10.241237233580335], [-54.99808110958393, -10.241272834092708]]}}, {"type": "Feature", "properties": {"layer": "LOTES_Q-52", "dxf_type": "LINE"}, "geometry": {"type": "LineString", "coordinates": [[-54.99808110958393, -10.241272834092708], [-54.99825660333487, -10.241502316849155]]}}, {"type": "Feature", "properties": {"layer": "LOTES_Q-52", "dxf_type": "LINE"}, "geometry": {"type": "LineString", "coordinates": [[-54.99825660333487, -10.241502316849155], [-54.9983297833499, -10.241447734593827]]}}, {"type": "Feature", "properties": {"layer": "LOTES_Q-52", "dxf_type": "LINE"}, "geometry": {"type": "LineString", "coordinates": [[-54.9983297833499, -10.241447734593827], [-54.9983297833499, -10.241447734593827]]}}, {"type": "Feature", "properties": {"layer": "LOTES_Q-52", "dxf_type": "LINE"}, "geometry": {"type": "LineString", "coordinates": [[-54.99825660333487, -10.241502316849155], [-54.99808110958393, -10.241272834092708]]}}, {"type": "Feature", "properties": {"layer": "LOTES_Q-52", "dxf_type": "LINE"}, "geometry": {"type": "LineString", "coordinates": [[-54.99808110958393, -10.241272834092708], [-54.9980142982065, -10.241320212356833]]}}, {"type": "Feature", "properties": {"layer": "LOTES_Q-52", "dxf_type": "LINE"}, "geometry": {"type": "LineString", "coordinates": [[-54.9980142982065, -10.241320212356833], [-54.99793804454663, -10.241378574805788]]}}, {"type": "Feature", "properties": {"layer": "LOTES_Q-52", "dxf_type": "LINE"}, "geometry": {"type": "LineString", "coordinates": [[-54.99793804454663, -10.241378574805788], [-54.99811198533788, -10.241611344679914]]}}, {"type": "Feature", "properties": {"layer": "LOTES_Q-52", "dxf_type": "LINE"}, "geometry": {"type": "LineString", "coordinates": [[-54.99811198533788, -10.241611344679914], [-54.99825660333487, -10.241502316849155]]}}, {"type": "Feature", "properties": {"layer": "LOTES_Q-52", "dxf_type": "LINE"}, "geometry": {"type": "LineString", "coordinates": [[-54.99825660333487, -10.241502316849155], [-54.99825660333487, -10.241502316849155]]}}, {"type": "Feature", "properties": {"layer": "LOTES_Q-52", "dxf_type": "LINE"}, "geometry": {"type": "LineString", "coordinates": [[-54.99811198533788, -10.241611344679914], [-54.99793804454663, -10.241378574805788]]}}, {"type": "Feature", "properties": {"layer": "LOTES_Q-52", "dxf_type": "LINE"}, "geometry": {"type": "LineString", "coordinates": [[-54.99793804454663, -10.241378574805788], [-54.997856404043546, -10.2414342754586]]}}, {"type": "Feature", "properties": {"layer": "LOTES_Q-52", "dxf_type": "LINE"}, "geometry": {"type": "LineString", "coordinates": [[-54.997856404043546, -10.2414342754586], [-54.998030481082566, -10.241663359104944]]}}, {"type": "Feature", "properties": {"layer": "LOTES_Q-52", "dxf_type": "LINE"}, "geometry": {"type": "LineString", "coordinates": [[-54.998030481082566, -10.241663359104944], [-54.998033573723376, -10.241666586167895]]}}, {"type": "Feature", "properties": {"layer": "LOTES_Q-52", "dxf_type": "LINE"}, "geometry": {"type": "LineString", "coordinates": [[-54.998033573723376, -10.241666586167895], [-54.99811198533788, -10.241611344679914]]}}, {"type": "Feature", "properties": {"layer": "LOTES_Q-52", "dxf_type": "LINE"}, "geometry": {"type": "LineString", "coordinates": [[-54.99811198533788, -10.241611344679914], [-54.99811198533788, -10.241611344679914]]}}, {"type": "Feature", "properties": {"layer": "LOTES_Q-52", "dxf_type": "LINE"}, "geometry": {"type": "LineString", "coordinates": [[-54.998030481082566, -10.241663359104944], [-54.997856404043546, -10.2414342754586]]}}, {"type": "Feature", "properties": {"layer": "LOTES_Q-52", "dxf_type": "LINE"}, "geometry": {"type": "LineString", "coordinates": [[-54.997856404043546, -10.2414342754586], [-54.99778421957758, -10.241491191325016]]}}, {"type": "Feature", "properties": {"layer": "LOTES_Q-52", "dxf_type": "LINE"}, "geometry": {"type": "LineString", "coordinates": [[-54.99778421957758, -10.241491191325016], [-54.9979560794152, -10.241718601752366]]}}, {"type": "Feature", "properties": {"layer": "LOTES_Q-52", "dxf_type": "LINE"}, "geometry": {"type": "LineString", "coordinates": [[-54.9979560794152, -10.241718601752366], [-54.998030481082566, -10.241663359104944]]}}, {"type": "Feature", "properties": {"layer": "LOTES_Q-52", "dxf_type": "LINE"}, "geometry": {"type": "LineString", "coordinates": [[-54.998030481082566, -10.241663359104944], [-54.998030481082566, -10.241663359104944]]}}, {"type": "Feature", "properties": {"layer": "LOTES_Q-52", "dxf_type": "LINE"}, "geometry": {"type": "LineString", "coordinates": [[-54.9979560794152, -10.241718601752366], [-54.99778421957758, -10.241491191325016]]}}, {"type": "Feature", "properties": {"layer": "LOTES_Q-52", "dxf_type": "LINE"}, "geometry": {"type": "LineString", "coordinates": [[-54.99778421957758, -10.241491191325016], [-54.99771993966911, -10.24155136747777]]}}, {"type": "Feature", "properties": {"layer": "LOTES_Q-52", "dxf_type": "LINE"}, "geometry": {"type": "LineString", "coordinates": [[-54.99771993966911, -10.24155136747777], [-54.99773006738702, -10.241564801571666]]}}, {"type": "Feature", "properties": {"layer": "LOTES_Q-52", "dxf_type": "LINE"}, "geometry": {"type": "LineString", "coordinates": [[-54.99773006738702, -10.241564801571666], [-54.99777833167346, -10.241626110843914]]}}, {"type": "Feature", "properties": {"layer": "LOTES_Q-52", "dxf_type": "LINE"}, "geometry": {"type": "LineString", "coordinates": [[-54.99777833167346, -10.241626110843914], [-54.99788752870151, -10.241770455433146]]}}, {"type": "Feature", "properties": {"layer": "LOTES_Q-52", "dxf_type": "LINE"}, "geometry": {"type": "LineString", "coordinates": [[-54.99788752870151, -10.241770455433146], [-54.9979560794152, -10.241718601752366]]}}, {"type": "Feature", "properties": {"layer": "LOTES_Q-52", "dxf_type": "LINE"}, "geometry": {"type": "LineString", "coordinates": [[-54.9979560794152, -10.241718601752366], [-54.9979560794152, -10.241718601752366]]}}, {"type": "Feature", "properties": {"layer": "LOTES_Q-52", "dxf_type": "LINE"}, "geometry": {"type": "LineString", "coordinates": [[-54.99788752870151, -10.241770455433146], [-54.99777833167346, -10.241626110843914]]}}, {"type": "Feature", "properties": {"layer": "LOTES_Q-52", "dxf_type": "LINE"}, "geometry": {"type": "LineString", "coordinates": [[-54.99777833167346, -10.241626110843914], [-54.997708937257805, -10.241681963671706]]}}, {"type": "Feature", "properties": {"layer": "LOTES_Q-52", "dxf_type": "LINE"}, "geometry": {"type": "LineString", "coordinates": [[-54.997708937257805, -10.241681963671706], [-54.99773933355003, -10.241719737762802]]}}, {"type": "Feature", "properties": {"layer": "LOTES_Q-52", "dxf_type": "LINE"}, "geometry": {"type": "LineString", "coordinates": [[-54.99773933355003, -10.241719737762802], [-54.99776619798618, -10.241755780788004]]}}, {"type": "Feature", "properties": {"layer": "LOTES_Q-52", "dxf_type": "LINE"}, "geometry": {"type": "LineString", "coordinates": [[-54.99776619798618, -10.241755780788004], [-54.997818267499476, -10.241823836871133]]}}, {"type": "Feature", "properties": {"layer": "LOTES_Q-52", "dxf_type": "LINE"}, "geometry": {"type": "LineString", "coordinates": [[-54.997818267499476, -10.241823836871133], [-54.99788752870151, -10.241770455433146]]}}, {"type": "Feature", "properties": {"layer": "LOTES_Q-52", "dxf_type": "LINE"}, "geometry": {"type": "LineString", "coordinates": [[-54.99788752870151, -10.241770455433146], [-54.99788752870151, -10.241770455433146]]}}, {"type": "Feature", "properties": {"layer": "LOTES_Q-52", "dxf_type": "LINE"}, "geometry": {"type": "LineString", "coordinates": [[-54.99767378363874, -10.241936894062786], [-54.997818267499476, -10.241823836871133]]}}, {"type": "Feature", "properties": {"layer": "LOTES_Q-52", "dxf_type": "LINE"}, "geometry": {"type": "LineString", "coordinates": [[-54.997818267499476, -10.241823836871133], [-54.99776619798618, -10.241755780788004]]}}, {"type": "Feature", "properties": {"layer": "LOTES_Q-52", "dxf_type": "LINE"}, "geometry": {"type": "LineString", "coordinates": [[-54.99776619798618, -10.241755780788004], [-54.99761553131776, -10.24186083090123]]}}, {"type": "Feature", "properties": {"layer": "LOTES_Q-52", "dxf_type": "LINE"}, "geometry": {"type": "LineString", "coordinates": [[-54.99761553131776, -10.24186083090123], [-54.99767378363874, -10.241936894062786]]}}, {"type": "Feature", "properties": {"layer": "LOTES_Q-52", "dxf_type": "LINE"}, "geometry": {"type": "LineString", "coordinates": [[-54.99767378363874, -10.241936894062786], [-54.99767378363874, -10.241936894062786]]}}, {"type": "Feature", "properties": {"layer": "LOTES_Q-52", "dxf_type": "LINE"}, "geometry": {"type": "LineString", "coordinates": [[-54.99761553131776, -10.24186083090123], [-54.99776619798618, -10.241755780788004]]}}, {"type": "Feature", "properties": {"layer": "LOTES_Q-52", "dxf_type": "LINE"}, "geometry": {"type": "LineString", "coordinates": [[-54.99776619798618, -10.241755780788004], [-54.99773933355003, -10.241719737762802]]}}, {"type": "Feature", "properties": {"layer": "LOTES_Q-52", "dxf_type": "LINE"}, "geometry": {"type": "LineString", "coordinates": [[-54.99773933355003, -10.241719737762802], [-54.99759207546804, -10.241828859333793]]}}, {"type": "Feature", "properties": {"layer": "LOTES_Q-52", "dxf_type": "LINE"}, "geometry": {"type": "LineString", "coordinates": [[-54.99759207546804, -10.241828859333793], [-54.99761553131776, -10.24186083090123]]}}, {"type": "Feature", "properties": {"layer": "LOTES_Q-52", "dxf_type": "LINE"}, "geometry": {"type": "LineString", "coordinates": [[-54.99761553131776, -10.24186083090123], [-54.99761553131776, -10.24186083090123]]}}, {"type": "Feature", "properties": {"layer": "LOTES_Q-52", "dxf_type": "LINE"}, "geometry": {"type": "LineString", "coordinates": [[-54.99759207546804, -10.241828859333793], [-54.99773933355003, -10.241719737762802]]}}, {"type": "Feature", "properties": {"layer": "LOTES_Q-52", "dxf_type": "LINE"}, "geometry": {"type": "LineString", "coordinates": [[-54.99773933355003, -10.241719737762802], [-54.997708937257805, -10.241681963671706]]}}, {"type": "Feature", "properties": {"layer": "LOTES_Q-52", "dxf_type": "LINE"}, "geometry": {"type": "LineString", "coordinates": [[-54.997708937257805, -10.241681963671706], [-54.99755783385212, -10.24178084721945]]}}, {"type": "Feature", "properties": {"layer": "LOTES_Q-52", "dxf_type": "LINE"}, "geometry": {"type": "LineString", "coordinates": [[-54.99755783385212, -10.24178084721945], [-54.99759207546804, -10.241828859333793]]}}, {"type": "Feature", "properties": {"layer": "LOTES_Q-52", "dxf_type": "LINE"}, "geometry": {"type": "LineString", "coordinates": [[-54.99759207546804, -10.241828859333793], [-54.99759207546804, -10.241828859333793]]}}, {"type": "Feature", "properties": {"layer": "LOTES_Q-52", "dxf_type": "LINE"}, "geometry": {"type": "LineString", "coordinates": [[-54.99755783385212, -10.24178084721945], [-54.997708937257805, -10.241681963671706]]}}, {"type": "Feature", "properties": {"layer": "LOTES_Q-52", "dxf_type": "LINE"}, "geometry": {"type": "LineString", "coordinates": [[-54.997708937257805, -10.241681963671706], [-54.99777833167346, -10.241626110843914]]}}, {"type": "Feature", "properties": {"layer": "LOTES_Q-52", "dxf_type": "LINE"}, "geometry": {"type": "LineString", "coordinates": [[-54.99777833167346, -10.241626110843914], [-54.99773006738702, -10.241564801571666]]}}, {"type": "Feature", "properties": {"layer": "LOTES_Q-52", "dxf_type": "LINE"}, "geometry": {"type": "LineString", "coordinates": [[-54.99773006738702, -10.241564801571666], [-54.99751122844103, -10.241718562856747]]}}, {"type": "Feature", "properties": {"layer": "LOTES_Q-52", "dxf_type": "LINE"}, "geometry": {"type": "LineString", "coordinates": [[-54.99751122844103, -10.241718562856747], [-54.99755783385212, -10.24178084721945]]}}, {"type": "Feature", "properties": {"layer": "LOTES_Q-52", "dxf_type": "LINE"}, "geometry": {"type": "LineString", "coordinates": [[-54.99755783385212, -10.24178084721945], [-54.99755783385212, -10.24178084721945]]}}, {"type": "Feature", "properties": {"layer": "LOTES_Q-52", "dxf_type": "LINE"}, "geometry": {"type": "LineString", "coordinates": [[-54.99746153464271, -10.241643944422478], [-54.99751121194672, -10.241718573602256]]}}, {"type": "Feature", "properties": {"layer": "LOTES_Q-52", "dxf_type": "LINE"}, "geometry": {"type": "LineString", "coordinates": [[-54.99751121194672, -10.241718573602256], [-54.99773006738702, -10.241564801571666]]}}, {"type": "Feature", "properties": {"layer": "LOTES_Q-52", "dxf_type": "LINE"}, "geometry": {"type": "LineString", "coordinates": [[-54.99773006738702, -10.241564801571666], [-54.997719947814154, -10.241551378374997]]}}, {"type": "Feature", "properties": {"layer": "LOTES_Q-52", "dxf_type": "LINE"}, "geometry": {"type": "LineString", "coordinates": [[-54.997719947814154, -10.241551378374997], [-54.99767774388589, -10.24149476342472]]}}, {"type": "Feature", "properties": {"layer": "LOTES_Q-52", "dxf_type": "LINE"}, "geometry": {"type": "LineString", "coordinates": [[-54.99767774388589, -10.24149476342472], [-54.997625391149406, -10.24153088546816]]}}, {"type": "Feature", "properties": {"layer": "LOTES_Q-52", "dxf_type": "LINE"}, "geometry": {"type": "LineString", "coordinates": [[-54.997625391149406, -10.24153088546816], [-54.99760990750498, -10.241541568514645]]}}, {"type": "Feature", "properties": {"layer": "LOTES_Q-52", "dxf_type": "LINE"}, "geometry": {"type": "LineString", "coordinates": [[-54.99760990750498, -10.241541568514645], [-54.997595831712644, -10.24155128037578]]}}, {"type": "Feature", "properties": {"layer": "LOTES_Q-52", "dxf_type": "LINE"}, "geometry": {"type": "LineString", "coordinates": [[-54.997595831712644, -10.24155128037578], [-54.99746153464271, -10.241643944422478]]}}, {"type": "Feature", "properties": {"layer": "LOTES_Q-52", "dxf_type": "LINE"}, "geometry": {"type": "LineString", "coordinates": [[-54.99746153464271, -10.241643944422478], [-54.99746153464271, -10.241643944422478]]}}, {"type": "Feature", "properties": {"layer": "LOTES_Q-52", "dxf_type": "LINE"}, "geometry": {"type": "LineString", "coordinates": [[-54.99746156214455, -10.241643924705516], [-54.997595831712644, -10.24155128037578]]}}, {"type": "Feature", "properties": {"layer": "LOTES_Q-52", "dxf_type": "LINE"}, "geometry": {"type": "LineString", "coordinates": [[-54.997595831712644, -10.24155128037578], [-54.99753663580779, -10.241470132259892]]}}, {"type": "Feature", "properties": {"layer": "LOTES_Q-52", "dxf_type": "LINE"}, "geometry": {"type": "LineString", "coordinates": [[-54.99753663580779, -10.241470132259892], [-54.99740527740309, -10.241559588279436]]}}, {"type": "Feature", "properties": {"layer": "LOTES_Q-52", "dxf_type": "LINE"}, "geometry": {"type": "LineString", "coordinates": [[-54.99740527740309, -10.241559588279436], [-54.99746156214455, -10.241643924705516]]}}, {"type": "Feature", "properties": {"layer": "LOTES_Q-52", "dxf_type": "LINE"}, "geometry": {"type": "LineString", "coordinates": [[-54.99746156214455, -10.241643924705516], [-54.99746156214455, -10.241643924705516]]}}, {"type": "Feature", "properties": {"layer": "LOTES_Q-52", "dxf_type": "LINE"}, "geometry": {"type": "LineString", "coordinates": [[-54.99733943083689, -10.241500050855347], [-54.99739054585085, -10.241569962283732]]}}, {"type": "Feature", "properties": {"layer": "LOTES_Q-52", "dxf_type": "LINE"}, "geometry": {"type": "LineString", "coordinates": [[-54.99739054585085, -10.241569962283732], [-54.99740525262761, -10.241559609821028]]}}, {"type": "Feature", "properties": {"layer": "LOTES_Q-52", "dxf_type": "LINE"}, "geometry": {"type": "LineString", "coordinates": [[-54.99740525262761, -10.241559609821028], [-54.997536636720355, -10.241470132265514]]}}, {"type": "Feature", "properties": {"layer": "LOTES_Q-52", "dxf_type": "LINE"}, "geometry": {"type": "LineString", "coordinates": [[-54.997536636720355, -10.241470132265514], [-54.99748082547475, -10.241396287895029]]}}, {"type": "Feature", "properties": {"layer": "LOTES_Q-52", "dxf_type": "LINE"}, "geometry": {"type": "LineString", "coordinates": [[-54.99748082547475, -10.241396287895029], [-54.99733943083689, -10.241500050855347]]}}, {"type": "Feature", "properties": {"layer": "LOTES_Q-52", "dxf_type": "LINE"}, "geometry": {"type": "LineString", "coordinates": [[-54.99733943083689, -10.241500050855347], [-54.99733943083689, -10.241500050855347]]}}, {"type": "Feature", "properties": {"layer": "LOTES_Q-52", "dxf_type": "LINE"}, "geometry": {"type": "LineString", "coordinates": [[-54.99849795811907, -10.240627161645943], [-54.998667812919216, -10.240852289622817]]}}, {"type": "Feature", "properties": {"layer": "LOTES_Q-52", "dxf_type": "LINE"}, "geometry": {"type": "LineString", "coordinates": [[-54.998667812919216, -10.240852289622817], [-54.99867108094039, -10.240850253305807]]}}, {"type": "Feature", "properties": {"layer": "LOTES_Q-52", "dxf_type": "LINE"}, "geometry": {"type": "LineString", "coordinates": [[-54.99867108094039, -10.240850253305807], [-54.998704798662395, -10.240826853005679]]}}, {"type": "Feature", "properties": {"layer": "LOTES_Q-52", "dxf_type": "LINE"}, "geometry": {"type": "LineString", "coordinates": [[-54.998704798662395, -10.240826853005679], [-54.99874176495841, -10.240801460555813]]}}, {"type": "Feature", "properties": {"layer": "LOTES_Q-52", "dxf_type": "LINE"}, "geometry": {"type": "LineString", "coordinates": [[-54.99874176495841, -10.240801460555813], [-54.998570100092614, -10.240573476825316]]}}, {"type": "Feature", "properties": {"layer": "LOTES_Q-52", "dxf_type": "LINE"}, "geometry": {"type": "LineString", "coordinates": [[-54.998570100092614, -10.240573476825316], [-54.99849795811907, -10.240627161645943]]}}, {"type": "Feature", "properties": {"layer": "LOTES_Q-52", "dxf_type": "LINE"}, "geometry": {"type": "LineString", "coordinates": [[-54.99849795811907, -10.240627161645943], [-54.99849795811907, -10.240627161645943]]}}, {"type": "Feature", "properties": {"layer": "LOTES_Q-52", "dxf_type": "LINE"}, "geometry": {"type": "LineString", "coordinates": [[-54.99763414586422, -10.241289914534095], [-54.99778421957758, -10.241491191325016]]}}, {"type": "Feature", "properties": {"layer": "LOTES_Q-52", "dxf_type": "LINE"}, "geometry": {"type": "LineString", "coordinates": [[-54.99778421957758, -10.241491191325016], [-54.997856404043546, -10.2414342754586]]}}, {"type": "Feature", "properties": {"layer": "LOTES_Q-52", "dxf_type": "LINE"}, "geometry": {"type": "LineString", "coordinates": [[-54.997856404043546, -10.2414342754586], [-54.99770982797998, -10.241240030157135]]}}, {"type": "Feature", "properties": {"layer": "LOTES_Q-52", "dxf_type": "LINE"}, "geometry": {"type": "LineString", "coordinates": [[-54.99770982797998, -10.241240030157135], [-54.99763414586422, -10.241289914534095]]}}, {"type": "Feature", "properties": {"layer": "LOTES_Q-52", "dxf_type": "LINE"}, "geometry": {"type": "LineString", "coordinates": [[-54.99763414586422, -10.241289914534095], [-54.99763414586422, -10.241289914534095]]}}, {"type": "Feature", "properties": {"layer": "LOTES_Q-52", "dxf_type": "LINE"}, "geometry": {"type": "LineString", "coordinates": [[-54.99770982797998, -10.241240030157135], [-54.997856404043546, -10.2414342754586]]}}, {"type": "Feature", "properties": {"layer": "LOTES_Q-52", "dxf_type": "LINE"}, "geometry": {"type": "LineString", "coordinates": [[-54.997856404043546, -10.2414342754586], [-54.99793804454663, -10.241378574805788]]}}, {"type": "Feature", "properties": {"layer": "LOTES_Q-52", "dxf_type": "LINE"}, "geometry": {"type": "LineString", "coordinates": [[-54.99793804454663, -10.241378574805788], [-54.99778439052189, -10.241183131650804]]}}, {"type": "Feature", "properties": {"layer": "LOTES_Q-52", "dxf_type": "LINE"}, "geometry": {"type": "LineString", "coordinates": [[-54.99778439052189, -10.241183131650804], [-54.99770982797998, -10.241240030157135]]}}, {"type": "Feature", "properties": {"layer": "LOTES_Q-52", "dxf_type": "LINE"}, "geometry": {"type": "LineString", "coordinates": [[-54.99770982797998, -10.241240030157135], [-54.99770982797998, -10.241240030157135]]}}, {"type": "Feature", "properties": {"layer": "LOTES_Q-52", "dxf_type": "LINE"}, "geometry": {"type": "LineString", "coordinates": [[-54.99778439052189, -10.241183131650804], [-54.99793804454663, -10.241378574805788]]}}, {"type": "Feature", "properties": {"layer": "LOTES_Q-52", "dxf_type": "LINE"}, "geometry": {"type": "LineString", "coordinates": [[-54.99793804454663, -10.241378574805788], [-54.9980142982065, -10.241320212356833]]}}, {"type": "Feature", "properties": {"layer": "LOTES_Q-52", "dxf_type": "LINE"}, "geometry": {"type": "LineString", "coordinates": [[-54.9980142982065, -10.241320212356833], [-54.99786457063316, -10.241120767330624]]}}, {"type": "Feature", "properties": {"layer": "LOTES_Q-52", "dxf_type": "LINE"}, "geometry": {"type": "LineString", "coordinates": [[-54.99786457063316, -10.241120767330624], [-54.99778439052189, -10.241183131650804]]}}, {"type": "Feature", "properties": {"layer": "LOTES_Q-52", "dxf_type": "LINE"}, "geometry": {"type": "LineString", "coordinates": [[-54.99778439052189, -10.241183131650804], [-54.99778439052189, -10.241183131650804]]}}, {"type": "Feature", "properties": {"layer": "LOTES_Q-52", "dxf_type": "LINE"}, "geometry": {"type": "LineString", "coordinates": [[-54.99786457063316, -10.241120767330624], [-54.9980142982065, -10.241320212356833]]}}, {"type": "Feature", "properties": {"layer": "LOTES_Q-52", "dxf_type": "LINE"}, "geometry": {"type": "LineString", "coordinates": [[-54.9980142982065, -10.241320212356833], [-54.99808110958393, -10.241272834092708]]}}, {"type": "Feature", "properties": {"layer": "LOTES_Q-52", "dxf_type": "LINE"}, "geometry": {"type": "LineString", "coordinates": [[-54.99808110958393, -10.241272834092708], [-54.99792847772775, -10.241072136455031]]}}, {"type": "Feature", "properties": {"layer": "LOTES_Q-52", "dxf_type": "LINE"}, "geometry": {"type": "LineString", "coordinates": [[-54.99792847772775, -10.241072136455031], [-54.99786457063316, -10.241120767330624]]}}, {"type": "Feature", "properties": {"layer": "LOTES_Q-52", "dxf_type": "LINE"}, "geometry": {"type": "LineString", "coordinates": [[-54.99786457063316, -10.241120767330624], [-54.99786457063316, -10.241120767330624]]}}, {"type": "Feature", "properties": {"layer": "LOTES_Q-52", "dxf_type": "LINE"}, "geometry": {"type": "LineString", "coordinates": [[-54.99792847772775, -10.241072136455031], [-54.99808110958393, -10.241272834092708]]}}, {"type": "Feature", "properties": {"layer": "LOTES_Q-52", "dxf_type": "LINE"}, "geometry": {"type": "LineString", "coordinates": [[-54.99808110958393, -10.241272834092708], [-54.998168128717616, -10.241237233580335]]}}, {"type": "Feature", "properties": {"layer": "LOTES_Q-52", "dxf_type": "LINE"}, "geometry": {"type": "LineString", "coordinates": [[-54.998168128717616, -10.241237233580335], [-54.99799553870143, -10.241021768654084]]}}, {"type": "Feature", "properties": {"layer": "LOTES_Q-52", "dxf_type": "LINE"}, "geometry": {"type": "LineString", "coordinates": [[-54.99799553870143, -10.241021768654084], [-54.99792847772775, -10.241072136455031]]}}, {"type": "Feature", "properties": {"layer": "LOTES_Q-52", "dxf_type": "LINE"}, "geometry": {"type": "LineString", "coordinates": [[-54.99792847772775, -10.241072136455031], [-54.99792847772775, -10.241072136455031]]}}, {"type": "Feature", "properties": {"layer": "LOTES_Q-52", "dxf_type": "LINE"}, "geometry": {"type": "LineString", "coordinates": [[-54.99799553870143, -10.241021768654084], [-54.998168128717616, -10.241237233580335]]}}, {"type": "Feature", "properties": {"layer": "LOTES_Q-52", "dxf_type": "LINE"}, "geometry": {"type": "LineString", "coordinates": [[-54.998168128717616, -10.241237233580335], [-54.998236897332156, -10.241178841262718]]}}, {"type": "Feature", "properties": {"layer": "LOTES_Q-52", "dxf_type": "LINE"}, "geometry": {"type": "LineString", "coordinates": [[-54.998236897332156, -10.241178841262718], [-54.99806827255678, -10.240968173494212]]}}, {"type": "Feature", "properties": {"layer": "LOTES_Q-52", "dxf_type": "LINE"}, "geometry": {"type": "LineString", "coordinates": [[-54.99806827255678, -10.240968173494212], [-54.99799553870143, -10.241021768654084]]}}, {"type": "Feature", "properties": {"layer": "LOTES_Q-52", "dxf_type": "LINE"}, "geometry": {"type": "LineString", "coordinates": [[-54.99799553870143, -10.241021768654084], [-54.99799553870143, -10.241021768654084]]}}, {"type": "Feature", "properties": {"layer": "LOTES_Q-52", "dxf_type": "LINE"}, "geometry": {"type": "LineString", "coordinates": [[-54.99806827255678, -10.240968173494212], [-54.998236897332156, -10.241178841262718]]}}, {"type": "Feature", "properties": {"layer": "LOTES_Q-52", "dxf_type": "LINE"}, "geometry": {"type": "LineString", "coordinates": [[-54.998236897332156, -10.241178841262718], [-54.99824645628587, -10.241171947117506]]}}, {"type": "Feature", "properties": {"layer": "LOTES_Q-52", "dxf_type": "LINE"}, "geometry": {"type": "LineString", "coordinates": [[-54.99824645628587, -10.241171947117506], [-54.9983139451814, -10.241120136505488]]}}, {"type": "Feature", "properties": {"layer": "LOTES_Q-52", "dxf_type": "LINE"}, "geometry": {"type": "LineString", "coordinates": [[-54.9983139451814, -10.241120136505488], [-54.99814020789277, -10.240913118985196]]}}, {"type": "Feature", "properties": {"layer": "LOTES_Q-52", "dxf_type": "LINE"}, "geometry": {"type": "LineString", "coordinates": [[-54.99814020789277, -10.240913118985196], [-54.99806827255678, -10.240968173494212]]}}, {"type": "Feature", "properties": {"layer": "LOTES_Q-52", "dxf_type": "LINE"}, "geometry": {"type": "LineString", "coordinates": [[-54.99806827255678, -10.240968173494212], [-54.99806827255678, -10.240968173494212]]}}, {"type": "Feature", "properties": {"layer": "LOTES_Q-52", "dxf_type": "LINE"}, "geometry": {"type": "LineString", "coordinates": [[-54.99814020789277, -10.240913118985196], [-54.9983139451814, -10.241120136505488]]}}, {"type": "Feature", "properties": {"layer": "LOTES_Q-52", "dxf_type": "LINE"}, "geometry": {"type": "LineString", "coordinates": [[-54.9983139451814, -10.241120136505488], [-54.99839173041516, -10.241065645835864]]}}, {"type": "Feature", "properties": {"layer": "LOTES_Q-52", "dxf_type": "LINE"}, "geometry": {"type": "LineString", "coordinates": [[-54.99839173041516, -10.241065645835864], [-54.99822226673914, -10.240874348579837]]}}, {"type": "Feature", "properties": {"layer": "LOTES_Q-52", "dxf_type": "LINE"}, "geometry": {"type": "LineString", "coordinates": [[-54.99822226673914, -10.240874348579837], [-54.99814020789277, -10.240913118985196]]}}, {"type": "Feature", "properties": {"layer": "LOTES_Q-52", "dxf_type": "LINE"}, "geometry": {"type": "LineString", "coordinates": [[-54.99814020789277, -10.240913118985196], [-54.99814020789277, -10.240913118985196]]}}, {"type": "Feature", "properties": {"layer": "LOTES_Q-52", "dxf_type": "LINE"}, "geometry": {"type": "LineString", "coordinates": [[-54.99822226673914, -10.240874348579837], [-54.99839173041516, -10.241065645835864]]}}, {"type": "Feature", "properties": {"layer": "LOTES_Q-52", "dxf_type": "LINE"}, "geometry": {"type": "LineString", "coordinates": [[-54.99839173041516, -10.241065645835864], [-54.998453295214794, -10.241016219434204]]}}, {"type": "Feature", "properties": {"layer": "LOTES_Q-52", "dxf_type": "LINE"}, "geometry": {"type": "LineString", "coordinates": [[-54.998453295214794, -10.241016219434204], [-54.9982785348133, -10.240801787125248]]}}, {"type": "Feature", "properties": {"layer": "LOTES_Q-52", "dxf_type": "LINE"}, "geometry": {"type": "LineString", "coordinates": [[-54.9982785348133, -10.240801787125248], [-54.99822226673914, -10.240874348579837]]}}, {"type": "Feature", "properties": {"layer": "LOTES_Q-52", "dxf_type": "LINE"}, "geometry": {"type": "LineString", "coordinates": [[-54.99822226673914, -10.240874348579837], [-54.99822226673914, -10.240874348579837]]}}, {"type": "Feature", "properties": {"layer": "LOTES_Q-52", "dxf_type": "LINE"}, "geometry": {"type": "LineString", "coordinates": [[-54.9982785348133, -10.240801787125248], [-54.998453295214794, -10.241016219434204]]}}, {"type": "Feature", "properties": {"layer": "LOTES_Q-52", "dxf_type": "LINE"}, "geometry": {"type": "LineString", "coordinates": [[-54.998453295214794, -10.241016219434204], [-54.998527858280816, -10.240951646412164]]}}, {"type": "Feature", "properties": {"layer": "LOTES_Q-52", "dxf_type": "LINE"}, "geometry": {"type": "LineString", "coordinates": [[-54.998527858280816, -10.240951646412164], [-54.99835405032667, -10.240738131156883]]}}, {"type": "Feature", "properties": {"layer": "LOTES_Q-52", "dxf_type": "LINE"}, "geometry": {"type": "LineString", "coordinates": [[-54.99835405032667, -10.240738131156883], [-54.9982785348133, -10.240801787125248]]}}, {"type": "Feature", "properties": {"layer": "LOTES_Q-52", "dxf_type": "LINE"}, "geometry": {"type": "LineString", "coordinates": [[-54.9982785348133, -10.240801787125248], [-54.9982785348133, -10.240801787125248]]}}, {"type": "Feature", "properties": {"layer": "LOTES_Q-52", "dxf_type": "LINE"}, "geometry": {"type": "LineString", "coordinates": [[-54.99835405032667, -10.240738131156883], [-54.998527858280816, -10.240951646412164]]}}, {"type": "Feature", "properties": {"layer": "LOTES_Q-52", "dxf_type": "LINE"}, "geometry": {"type": "LineString", "coordinates": [[-54.998527858280816, -10.240951646412164], [-54.99858524374829, -10.240910881870034]]}}, {"type": "Feature", "properties": {"layer": "LOTES_Q-52", "dxf_type": "LINE"}, "geometry": {"type": "LineString", "coordinates": [[-54.99858524374829, -10.240910881870034], [-54.99841251001667, -10.240691382950006]]}}, {"type": "Feature", "properties": {"layer": "LOTES_Q-52", "dxf_type": "LINE"}, "geometry": {"type": "LineString", "coordinates": [[-54.99841251001667, -10.240691382950006], [-54.99835405032667, -10.240738131156883]]}}, {"type": "Feature", "properties": {"layer": "LOTES_Q-52", "dxf_type": "LINE"}, "geometry": {"type": "LineString", "coordinates": [[-54.99835405032667, -10.240738131156883], [-54.99835405032667, -10.240738131156883]]}}, {"type": "Feature", "properties": {"layer": "LOTES_Q-52", "dxf_type": "LINE"}, "geometry": {"type": "LineString", "coordinates": [[-54.99841251001667, -10.240691382950006], [-54.99858524374829, -10.240910881870034]]}}, {"type": "Feature", "properties": {"layer": "LOTES_Q-52", "dxf_type": "LINE"}, "geometry": {"type": "LineString", "coordinates": [[-54.99858524374829, -10.240910881870034], [-54.99860293234835, -10.240897407458027]]}}, {"type": "Feature", "properties": {"layer": "LOTES_Q-52", "dxf_type": "LINE"}, "geometry": {"type": "LineString", "coordinates": [[-54.99860293234835, -10.240897407458027], [-54.998667812919216, -10.240852289622817]]}}, {"type": "Feature", "properties": {"layer": "LOTES_Q-52", "dxf_type": "LINE"}, "geometry": {"type": "LineString", "coordinates": [[-54.998667812919216, -10.240852289622817], [-54.99849795811907, -10.240627161645943]]}}, {"type": "Feature", "properties": {"layer": "LOTES_Q-52", "dxf_type": "LINE"}, "geometry": {"type": "LineString", "coordinates": [[-54.99849795811907, -10.240627161645943], [-54.99841251001667, -10.240691382950006]]}}, {"type": "Feature", "properties": {"layer": "LOTES_Q-52", "dxf_type": "LINE"}, "geometry": {"type": "LineString", "coordinates": [[-54.99841251001667, -10.240691382950006], [-54.99841251001667, -10.240691382950006]]}}, {"type": "Feature", "properties": {"layer": "LOTES_Q-52", "dxf_type": "LINE"}, "geometry": {"type": "LineString", "coordinates": [[-54.998570100092614, -10.240573476825316], [-54.99874176495841, -10.240801460555813]]}}, {"type": "Feature", "properties": {"layer": "LOTES_Q-52", "dxf_type": "LINE"}, "geometry": {"type": "LineString", "coordinates": [[-54.99874176495841, -10.240801460555813], [-54.998818111988335, -10.240747083839414]]}}, {"type": "Feature", "properties": {"layer": "LOTES_Q-52", "dxf_type": "LINE"}, "geometry": {"type": "LineString", "coordinates": [[-54.998818111988335, -10.240747083839414], [-54.998651587902984, -10.240513548239207]]}}, {"type": "Feature", "properties": {"layer": "LOTES_Q-52", "dxf_type": "LINE"}, "geometry": {"type": "LineString", "coordinates": [[-54.998651587902984, -10.240513548239207], [-54.998570100092614, -10.240573476825316]]}}, {"type": "Feature", "properties": {"layer": "LOTES_Q-52", "dxf_type": "LINE"}, "geometry": {"type": "LineString", "coordinates": [[-54.998570100092614, -10.240573476825316], [-54.998570100092614, -10.240573476825316]]}}, {"type": "Feature", "properties": {"layer": "LOTES_Q-52", "dxf_type": "LINE"}, "geometry": {"type": "LineString", "coordinates": [[-54.998651587902984, -10.240513548239207], [-54.998818111988335, -10.240747083839414]]}}, {"type": "Feature", "properties": {"layer": "LOTES_Q-52", "dxf_type": "LINE"}, "geometry": {"type": "LineString", "coordinates": [[-54.998818111988335, -10.240747083839414], [-54.99884452871038, -10.240730113405231]]}}, {"type": "Feature", "properties": {"layer": "LOTES_Q-52", "dxf_type": "LINE"}, "geometry": {"type": "LineString", "coordinates": [[-54.99884452871038, -10.240730113405231], [-54.99887057175479, -10.240712046017157]]}}, {"type": "Feature", "properties": {"layer": "LOTES_Q-52", "dxf_type": "LINE"}, "geometry": {"type": "LineString", "coordinates": [[-54.99887057175479, -10.240712046017157], [-54.998700527894144, -10.240477321815888]]}}, {"type": "Feature", "properties": {"layer": "LOTES_Q-52", "dxf_type": "LINE"}, "geometry": {"type": "LineString", "coordinates": [[-54.998700527894144, -10.240477321815888], [-54.998651587902984, -10.240513548239207]]}}, {"type": "Feature", "properties": {"layer": "LOTES_Q-52", "dxf_type": "LINE"}, "geometry": {"type": "LineString", "coordinates": [[-54.998651587902984, -10.240513548239207], [-54.998651587902984, -10.240513548239207]]}}, {"type": "Feature", "properties": {"layer": "LOTES_Q-52", "dxf_type": "LINE"}, "geometry": {"type": "LineString", "coordinates": [[-54.99906858193359, -10.240650716348387], [-54.99929664929793, -10.240645305604424]]}}, {"type": "Feature", "properties": {"layer": "LOTES_Q-52", "dxf_type": "LINE"}, "geometry": {"type": "LineString", "coordinates": [[-54.99929664929793, -10.240645305604424], [-54.99929423677073, -10.240553839841592]]}}, {"type": "Feature", "properties": {"layer": "LOTES_Q-52", "dxf_type": "LINE"}, "geometry": {"type": "LineString", "coordinates": [[-54.99929423677073, -10.240553839841592], [-54.999066378002105, -10.2405591777574]]}}, {"type": "Feature", "properties": {"layer": "LOTES_Q-52", "dxf_type": "LINE"}, "geometry": {"type": "LineString", "coordinates": [[-54.999066378002105, -10.2405591777574], [-54.999067126054406, -10.240605064645532]]}}, {"type": "Feature", "properties": {"layer": "LOTES_Q-52", "dxf_type": "LINE"}, "geometry": {"type": "LineString", "coordinates": [[-54.999067126054406, -10.240605064645532], [-54.99906858193359, -10.240650716348387]]}}, {"type": "Feature", "properties": {"layer": "LOTES_Q-52", "dxf_type": "LINE"}, "geometry": {"type": "LineString", "coordinates": [[-54.99906858193359, -10.240650716348387], [-54.99906858193359, -10.240650716348387]]}}, {"type": "Feature", "properties": {"layer": "LOTES_Q-52", "dxf_type": "LINE"}, "geometry": {"type": "LineString", "coordinates": [[-54.998700527894144, -10.240477321815888], [-54.99887057175479, -10.240712046017157]]}}, {"type": "Feature", "properties": {"layer": "LOTES_Q-52", "dxf_type": "LINE"}, "geometry": {"type": "LineString", "coordinates": [[-54.99887057175479, -10.240712046017157], [-54.99893616581435, -10.240665633565047]]}}, {"type": "Feature", "properties": {"layer": "LOTES_Q-52", "dxf_type": "LINE"}, "geometry": {"type": "LineString", "coordinates": [[-54.99893616581435, -10.240665633565047], [-54.99876682200937, -10.240428560786512]]}}, {"type": "Feature", "properties": {"layer": "LOTES_Q-52", "dxf_type": "LINE"}, "geometry": {"type": "LineString", "coordinates": [[-54.99876682200937, -10.240428560786512], [-54.998700527894144, -10.240477321815888]]}}, {"type": "Feature", "properties": {"layer": "LOTES_Q-52", "dxf_type": "LINE"}, "geometry": {"type": "LineString", "coordinates": [[-54.998700527894144, -10.240477321815888], [-54.998700527894144, -10.240477321815888]]}}, {"type": "Feature", "properties": {"layer": "LOTES_Q-52", "dxf_type": "LINE"}, "geometry": {"type": "LineString", "coordinates": [[-54.99876682200937, -10.240428560786512], [-54.99893616581435, -10.240665633565047]]}}, {"type": "Feature", "properties": {"layer": "LOTES_Q-52", "dxf_type": "LINE"}, "geometry": {"type": "LineString", "coordinates": [[-54.99893616581435, -10.240665633565047], [-54.99898824266306, -10.240634315722309]]}}, {"type": "Feature", "properties": {"layer": "LOTES_Q-52", "dxf_type": "LINE"}, "geometry": {"type": "LineString", "coordinates": [[-54.99898824266306, -10.240634315722309], [-54.99882980216186, -10.240381738153067]]}}, {"type": "Feature", "properties": {"layer": "LOTES_Q-52", "dxf_type": "LINE"}, "geometry": {"type": "LineString", "coordinates": [[-54.99882980216186, -10.240381738153067], [-54.99876682200937, -10.240428560786512]]}}, {"type": "Feature", "properties": {"layer": "LOTES_Q-52", "dxf_type": "LINE"}, "geometry": {"type": "LineString", "coordinates": [[-54.99876682200937, -10.240428560786512], [-54.99876682200937, -10.240428560786512]]}}, {"type": "Feature", "properties": {"layer": "LOTES_Q-52", "dxf_type": "LINE"}, "geometry": {"type": "LineString", "coordinates": [[-54.99882980216186, -10.240381738153067], [-54.99898824266306, -10.240634315722309]]}}, {"type": "Feature", "properties": {"layer": "LOTES_Q-52", "dxf_type": "LINE"}, "geometry": {"type": "LineString", "coordinates": [[-54.99898824266306, -10.240634315722309], [-54.999032556289514, -10.240606736645988]]}}, {"type": "Feature", "properties": {"layer": "LOTES_Q-52", "dxf_type": "LINE"}, "geometry": {"type": "LineString", "coordinates": [[-54.999032556289514, -10.240606736645988], [-54.99892171334861, -10.240317774317107]]}}, {"type": "Feature", "properties": {"layer": "LOTES_Q-52", "dxf_type": "LINE"}, "geometry": {"type": "LineString", "coordinates": [[-54.99892171334861, -10.240317774317107], [-54.99882980216186, -10.240381738153067]]}}, {"type": "Feature", "properties": {"layer": "LOTES_Q-52", "dxf_type": "LINE"}, "geometry": {"type": "LineString", "coordinates": [[-54.99882980216186, -10.240381738153067], [-54.99882980216186, -10.240381738153067]]}}, {"type": "Feature", "properties": {"layer": "LOTES_Q-52", "dxf_type": "LINE"}, "geometry": {"type": "LineString", "coordinates": [[-54.99907258662037, -10.240742369065199], [-54.99907462568356, -10.240824688423073]]}}, {"type": "Feature", "properties": {"layer": "LOTES_Q-52", "dxf_type": "LINE"}, "geometry": {"type": "LineString", "coordinates": [[-54.99907462568356, -10.240824688423073], [-54.99918228347114, -10.24081478929641]]}}, {"type": "Feature", "properties": {"layer": "LOTES_Q-52", "dxf_type": "LINE"}, "geometry": {"type": "LineString", "coordinates": [[-54.99918228347114, -10.24081478929641], [-54.99930720851448, -10.240803301495834]]}}, {"type": "Feature", "properties": {"layer": "LOTES_Q-52", "dxf_type": "LINE"}, "geometry": {"type": "LineString", "coordinates": [[-54.99930720851448, -10.240803301495834], [-54.99930459478287, -10.240735774929583]]}}, {"type": "Feature", "properties": {"layer": "LOTES_Q-52", "dxf_type": "LINE"}, "geometry": {"type": "LineString", "coordinates": [[-54.99930459478287, -10.240735774929583], [-54.99917861446449, -10.24073960271587]]}}, {"type": "Feature", "properties": {"layer": "LOTES_Q-52", "dxf_type": "LINE"}, "geometry": {"type": "LineString", "coordinates": [[-54.99917861446449, -10.24073960271587], [-54.99907258662037, -10.240742369065199]]}}, {"type": "Feature", "properties": {"layer": "LOTES_Q-52", "dxf_type": "LINE"}, "geometry": {"type": "LineString", "coordinates": [[-54.99907258662037, -10.240742369065199], [-54.99907258662037, -10.240742369065199]]}}, {"type": "Feature", "properties": {"layer": "LOTES_Q-52", "dxf_type": "LINE"}, "geometry": {"type": "LineString", "coordinates": [[-54.99906858193359, -10.240650716348387], [-54.99907258662037, -10.240742369065199]]}}, {"type": "Feature", "properties": {"layer": "LOTES_Q-52", "dxf_type": "LINE"}, "geometry": {"type": "LineString", "coordinates": [[-54.99907258662037, -10.240742369065199], [-54.99917825214743, -10.240739605006539]]}}, {"type": "Feature", "properties": {"layer": "LOTES_Q-52", "dxf_type": "LINE"}, "geometry": {"type": "LineString", "coordinates": [[-54.99917825214743, -10.240739605006539], [-54.99930459478287, -10.240735774929583]]}}, {"type": "Feature", "properties": {"layer": "LOTES_Q-52", "dxf_type": "LINE"}, "geometry": {"type": "LineString", "coordinates": [[-54.99930459478287, -10.240735774929583], [-54.999301181201965, -10.240645317211772]]}}, {"type": "Feature", "properties": {"layer": "LOTES_Q-52", "dxf_type": "LINE"}, "geometry": {"type": "LineString", "coordinates": [[-54.999301181201965, -10.240645317211772], [-54.99929664929793, -10.240645305604424]]}}, {"type": "Feature", "properties": {"layer": "LOTES_Q-52", "dxf_type": "LINE"}, "geometry": {"type": "LineString", "coordinates": [[-54.99929664929793, -10.240645305604424], [-54.99906858193359, -10.240650716348387]]}}, {"type": "Feature", "properties": {"layer": "LOTES_Q-52", "dxf_type": "LINE"}, "geometry": {"type": "LineString", "coordinates": [[-54.99906858193359, -10.240650716348387], [-54.99906858193359, -10.240650716348387]]}}]}