{"type": "FeatureCollection", "name": "lotes_q_28", "crs": {"type": "name", "properties": {"name": "urn:ogc:def:crs:OGC:1.3:CRS84"}}, "properties": {"source": "8be78050_MAPA TRIBUTAÇÃO 2021 (1).dxf", "assumed_crs": "EPSG:4326", "local_crs": false, "note": "Coordenadas locais do desenho (sem CRS). Use base 'Só CAD' no mapa.", "extent": [4300.4554, 2373.7696, 8215.3349, 6186.7838], "georef": true, "transform": {"scale": 1, "rotation_deg": 0, "tx": 713717.6034368816, "ty": 8862616.121289995, "rmse_m": 0, "epsg": 31981}, "layer": "LOTES_Q-28", "source_file": "8be78050_MAPA TRIBUTAÇÃO 2021 (1)_georef.geojson", "n_features": 111}, "features": [{"type": "Feature", "properties": {"layer": "LOTES_Q-28", "dxf_type": "LINE"}, "geometry": {"type": "LineString", "coordinates": [[-54.9992756372053, -10.239243087629395], [-54.99926980353257, -10.23910616687156]]}}, {"type": "Feature", "properties": {"layer": "LOTES_Q-28", "dxf_type": "LINE"}, "geometry": {"type": "LineString", "coordinates": [[-54.99926980353257, -10.23910616687156], [-54.99911044643227, -10.239114526924393]]}}, {"type": "Feature", "properties": {"layer": "LOTES_Q-28", "dxf_type": "LINE"}, "geometry": {"type": "LineString", "coordinates": [[-54.99911044643227, -10.239114526924393], [-54.99915498520998, -10.239208927425711]]}}, {"type": "Feature", "properties": {"layer": "LOTES_Q-28", "dxf_type": "LINE"}, "geometry": {"type": "LineString", "coordinates": [[-54.99915498520998, -10.239208927425711], [-54.99918926505794, -10.239244593809016]]}}, {"type": "Feature", "properties": {"layer": "LOTES_Q-28", "dxf_type": "LINE"}, "geometry": {"type": "LineString", "coordinates": [[-54.99918926505794, -10.239244593809016], [-54.9992756372053, -10.239243087629395]]}}, {"type": "Feature", "properties": {"layer": "LOTES_Q-28", "dxf_type": "LINE"}, "geometry": {"type": "LineString", "coordinates": [[-54.9992756372053, -10.239243087629395], [-54.9992756372053, -10.239243087629395]]}}, {"type": "Feature", "properties": {"layer": "LOTES_Q-28", "dxf_type": "LINE"}, "geometry": {"type": "LineString", "coordinates": [[-54.99926980353257, -10.23910616687156], [-54.99926720371523, -10.239017198399376]]}}, {"type": "Feature", "properties": {"layer": "LOTES_Q-28", "dxf_type": "LINE"}, "geometry": {"type": "LineString", "coordinates": [[-54.99926720371523, -10.239017198399376], [-54.99906029568936, -10.239022960955987]]}}, {"type": "Feature", "properties": {"layer": "LOTES_Q-28", "dxf_type": "LINE"}, "geometry": {"type": "LineString", "coordinates": [[-54.99906029568936, -10.239022960955987], [-54.99911044643227, -10.239114526924393]]}}, {"type": "Feature", "properties": {"layer": "LOTES_Q-28", "dxf_type": "LINE"}, "geometry": {"type": "LineString", "coordinates": [[-54.99911044643227, -10.239114526924393], [-54.99926980353257, -10.23910616687156]]}}, {"type": "Feature", "properties": {"layer": "LOTES_Q-28", "dxf_type": "LINE"}, "geometry": {"type": "LineString", "coordinates": [[-54.99926980353257, -10.23910616687156], [-54.99926980353257, -10.23910616687156]]}}, {"type": "Feature", "properties": {"layer": "LOTES_Q-28", "dxf_type": "LINE"}, "geometry": {"type": "LineString", "coordinates": [[-54.99926720371523, -10.239017198399376], [-54.99927381015907, -10.23901702751498]]}}, {"type": "Feature", "properties": {"layer": "LOTES_Q-28", "dxf_type": "LINE"}, "geometry": {"type": "LineString", "coordinates": [[-54.99927381015907, -10.23901702751498], [-54.999265795635395, -10.2389273740092]]}}, {"type": "Feature", "properties": {"layer": "LOTES_Q-28", "dxf_type": "LINE"}, "geometry": {"type": "LineString", "coordinates": [[-54.999265795635395, -10.2389273740092], [-54.99924551699507, -10.238926766587017]]}}, {"type": "Feature", "properties": {"layer": "LOTES_Q-28", "dxf_type": "LINE"}, "geometry": {"type": "LineString", "coordinates": [[-54.99924551699507, -10.238926766587017], [-54.99903871275206, -10.238927630509654]]}}, {"type": "Feature", "properties": {"layer": "LOTES_Q-28", "dxf_type": "LINE"}, "geometry": {"type": "LineString", "coordinates": [[-54.99903871275206, -10.238927630509654], [-54.99906029568936, -10.239022960955987]]}}, {"type": "Feature", "properties": {"layer": "LOTES_Q-28", "dxf_type": "LINE"}, "geometry": {"type": "LineString", "coordinates": [[-54.99906029568936, -10.239022960955987], [-54.99926720371523, -10.239017198399376]]}}, {"type": "Feature", "properties": {"layer": "LOTES_Q-28", "dxf_type": "LINE"}, "geometry": {"type": "LineString", "coordinates": [[-54.99926720371523, -10.239017198399376], [-54.99926720371523, -10.239017198399376]]}}, {"type": "Feature", "properties": {"layer": "LOTES_Q-28", "dxf_type": "LINE"}, "geometry": {"type": "LineString", "coordinates": [[-54.99924551699507, -10.238926766587017], [-54.999245253062, -10.238832178322099]]}}, {"type": "Feature", "properties": {"layer": "LOTES_Q-28", "dxf_type": "LINE"}, "geometry": {"type": "LineString", "coordinates": [[-54.999245253062, -10.238832178322099], [-54.999019081629676, -10.238837722960342]]}}, {"type": "Feature", "properties": {"layer": "LOTES_Q-28", "dxf_type": "LINE"}, "geometry": {"type": "LineString", "coordinates": [[-54.999019081629676, -10.238837722960342], [-54.99903871275206, -10.238927630509654]]}}, {"type": "Feature", "properties": {"layer": "LOTES_Q-28", "dxf_type": "LINE"}, "geometry": {"type": "LineString", "coordinates": [[-54.99903871275206, -10.238927630509654], [-54.99924551699507, -10.238926766587017]]}}, {"type": "Feature", "properties": {"layer": "LOTES_Q-28", "dxf_type": "LINE"}, "geometry": {"type": "LineString", "coordinates": [[-54.99924551699507, -10.238926766587017], [-54.99924551699507, -10.238926766587017]]}}, {"type": "Feature", "properties": {"layer": "LOTES_Q-28", "dxf_type": "LINE"}, "geometry": {"type": "LineString", "coordinates": [[-54.999245253062, -10.238832178322099], [-54.99924493299168, -10.238740429841696]]}}, {"type": "Feature", "properties": {"layer": "LOTES_Q-28", "dxf_type": "LINE"}, "geometry": {"type": "LineString", "coordinates": [[-54.99924493299168, -10.238740429841696], [-54.999015759282265, -10.238749743466316]]}}, {"type": "Feature", "properties": {"layer": "LOTES_Q-28", "dxf_type": "LINE"}, "geometry": {"type": "LineString", "coordinates": [[-54.999015759282265, -10.238749743466316], [-54.999019081629676, -10.238837722960342]]}}, {"type": "Feature", "properties": {"layer": "LOTES_Q-28", "dxf_type": "LINE"}, "geometry": {"type": "LineString", "coordinates": [[-54.999019081629676, -10.238837722960342], [-54.999245253062, -10.238832178322099]]}}, {"type": "Feature", "properties": {"layer": "LOTES_Q-28", "dxf_type": "LINE"}, "geometry": {"type": "LineString", "coordinates": [[-54.999245253062, -10.238832178322099], [-54.999245253062, -10.238832178322099]]}}, {"type": "Feature", "properties": {"layer": "LOTES_Q-28", "dxf_type": "LINE"}, "geometry": {"type": "LineString", "coordinates": [[-54.99924493299168, -10.238740429841696], [-54.9992529068583, -10.238739910316976]]}}, {"type": "Feature", "properties": {"layer": "LOTES_Q-28", "dxf_type": "LINE"}, "geometry": {"type": "LineString", "coordinates": [[-54.9992529068583, -10.238739910316976], [-54.999251517928435, -10.23864775753502]]}}, {"type": "Feature", "properties": {"layer": "LOTES_Q-28", "dxf_type": "LINE"}, "geometry": {"type": "LineString", "coordinates": [[-54.999251517928435, -10.23864775753502], [-54.99902380774963, -10.238658435161467]]}}, {"type": "Feature", "properties": {"layer": "LOTES_Q-28", "dxf_type": "LINE"}, "geometry": {"type": "LineString", "coordinates": [[-54.99902380774963, -10.238658435161467], [-54.99902482002016, -10.238690861534296]]}}, {"type": "Feature", "properties": {"layer": "LOTES_Q-28", "dxf_type": "LINE"}, "geometry": {"type": "LineString", "coordinates": [[-54.99902482002016, -10.238690861534296], [-54.99901161734233, -10.23869481724708]]}}, {"type": "Feature", "properties": {"layer": "LOTES_Q-28", "dxf_type": "LINE"}, "geometry": {"type": "LineString", "coordinates": [[-54.99901161734233, -10.23869481724708], [-54.999015759282265, -10.238749743466316]]}}, {"type": "Feature", "properties": {"layer": "LOTES_Q-28", "dxf_type": "LINE"}, "geometry": {"type": "LineString", "coordinates": [[-54.999015759282265, -10.238749743466316], [-54.99924493299168, -10.238740429841696]]}}, {"type": "Feature", "properties": {"layer": "LOTES_Q-28", "dxf_type": "LINE"}, "geometry": {"type": "LineString", "coordinates": [[-54.99924493299168, -10.238740429841696], [-54.99924493299168, -10.238740429841696]]}}, {"type": "Feature", "properties": {"layer": "LOTES_Q-28", "dxf_type": "LINE"}, "geometry": {"type": "LineString", "coordinates": [[-54.99902380774963, -10.238658435161467], [-54.999251517928435, -10.23864775753502]]}}, {"type": "Feature", "properties": {"layer": "LOTES_Q-28", "dxf_type": "LINE"}, "geometry": {"type": "LineString", "coordinates": [[-54.999251517928435, -10.23864775753502], [-54.99924625421302, -10.238558209533071]]}}, {"type": "Feature", "properties": {"layer": "LOTES_Q-28", "dxf_type": "LINE"}, "geometry": {"type": "LineString", "coordinates": [[-54.99924625421302, -10.238558209533071], [-54.99902212383274, -10.23856851055689]]}}, {"type": "Feature", "properties": {"layer": "LOTES_Q-28", "dxf_type": "LINE"}, "geometry": {"type": "LineString", "coordinates": [[-54.99902212383274, -10.23856851055689], [-54.99902380774963, -10.238658435161467]]}}, {"type": "Feature", "properties": {"layer": "LOTES_Q-28", "dxf_type": "LINE"}, "geometry": {"type": "LineString", "coordinates": [[-54.99902380774963, -10.238658435161467], [-54.99902380774963, -10.238658435161467]]}}, {"type": "Feature", "properties": {"layer": "LOTES_Q-28", "dxf_type": "LINE"}, "geometry": {"type": "LineString", "coordinates": [[-54.99924316863673, -10.238473500979705], [-54.999020281030354, -10.23847874587323]]}}, {"type": "Feature", "properties": {"layer": "LOTES_Q-28", "dxf_type": "LINE"}, "geometry": {"type": "LineString", "coordinates": [[-54.999020281030354, -10.23847874587323], [-54.99902212383274, -10.23856851055689]]}}, {"type": "Feature", "properties": {"layer": "LOTES_Q-28", "dxf_type": "LINE"}, "geometry": {"type": "LineString", "coordinates": [[-54.99902212383274, -10.23856851055689], [-54.99924625421302, -10.238558209533071]]}}, {"type": "Feature", "properties": {"layer": "LOTES_Q-28", "dxf_type": "LINE"}, "geometry": {"type": "LineString", "coordinates": [[-54.99924625421302, -10.238558209533071], [-54.99924316863673, -10.238473500979705]]}}, {"type": "Feature", "properties": {"layer": "LOTES_Q-28", "dxf_type": "LINE"}, "geometry": {"type": "LineString", "coordinates": [[-54.99924316863673, -10.238473500979705], [-54.99924316863673, -10.238473500979705]]}}, {"type": "Feature", "properties": {"layer": "LOTES_Q-28", "dxf_type": "LINE"}, "geometry": {"type": "LineString", "coordinates": [[-54.999020281030354, -10.23847874587323], [-54.99924316863673, -10.238473500979705]]}}, {"type": "Feature", "properties": {"layer": "LOTES_Q-28", "dxf_type": "LINE"}, "geometry": {"type": "LineString", "coordinates": [[-54.99924316863673, -10.238473500979705], [-54.999240216374616, -10.2383847038924]]}}, {"type": "Feature", "properties": {"layer": "LOTES_Q-28", "dxf_type": "LINE"}, "geometry": {"type": "LineString", "coordinates": [[-54.999240216374616, -10.2383847038924], [-54.99912525044881, -10.238386597378785]]}}, {"type": "Feature", "properties": {"layer": "LOTES_Q-28", "dxf_type": "LINE"}, "geometry": {"type": "LineString", "coordinates": [[-54.99912525044881, -10.238386597378785], [-54.99901905584958, -10.238387703223804]]}}, {"type": "Feature", "properties": {"layer": "LOTES_Q-28", "dxf_type": "LINE"}, "geometry": {"type": "LineString", "coordinates": [[-54.99901905584958, -10.238387703223804], [-54.999020281030354, -10.23847874587323]]}}, {"type": "Feature", "properties": {"layer": "LOTES_Q-28", "dxf_type": "LINE"}, "geometry": {"type": "LineString", "coordinates": [[-54.999020281030354, -10.23847874587323], [-54.999020281030354, -10.23847874587323]]}}, {"type": "Feature", "properties": {"layer": "LOTES_Q-28", "dxf_type": "LINE"}, "geometry": {"type": "LineString", "coordinates": [[-54.999240216374616, -10.2383847038924], [-54.999233467030685, -10.2382388051485]]}}, {"type": "Feature", "properties": {"layer": "LOTES_Q-28", "dxf_type": "LINE"}, "geometry": {"type": "LineString", "coordinates": [[-54.999233467030685, -10.2382388051485], [-54.999230413865234, -10.238183135363931]]}}, {"type": "Feature", "properties": {"layer": "LOTES_Q-28", "dxf_type": "LINE"}, "geometry": {"type": "LineString", "coordinates": [[-54.999230413865234, -10.238183135363931], [-54.99912079843988, -10.238184318743379]]}}, {"type": "Feature", "properties": {"layer": "LOTES_Q-28", "dxf_type": "LINE"}, "geometry": {"type": "LineString", "coordinates": [[-54.99912079843988, -10.238184318743379], [-54.99912525044881, -10.238386597378785]]}}, {"type": "Feature", "properties": {"layer": "LOTES_Q-28", "dxf_type": "LINE"}, "geometry": {"type": "LineString", "coordinates": [[-54.99912525044881, -10.238386597378785], [-54.999240216374616, -10.2383847038924]]}}, {"type": "Feature", "properties": {"layer": "LOTES_Q-28", "dxf_type": "LINE"}, "geometry": {"type": "LineString", "coordinates": [[-54.999240216374616, -10.2383847038924], [-54.999240216374616, -10.2383847038924]]}}, {"type": "Feature", "properties": {"layer": "LOTES_Q-28", "dxf_type": "LINE"}, "geometry": {"type": "LineString", "coordinates": [[-54.99912079843988, -10.238184318743379], [-54.99901595188821, -10.238190215554233]]}}, {"type": "Feature", "properties": {"layer": "LOTES_Q-28", "dxf_type": "LINE"}, "geometry": {"type": "LineString", "coordinates": [[-54.99901595188821, -10.238190215554233], [-54.99901905584958, -10.238387703223804]]}}, {"type": "Feature", "properties": {"layer": "LOTES_Q-28", "dxf_type": "LINE"}, "geometry": {"type": "LineString", "coordinates": [[-54.99901905584958, -10.238387703223804], [-54.99912525044881, -10.238386597378785]]}}, {"type": "Feature", "properties": {"layer": "LOTES_Q-28", "dxf_type": "LINE"}, "geometry": {"type": "LineString", "coordinates": [[-54.99912525044881, -10.238386597378785], [-54.99912079843988, -10.238184318743379]]}}, {"type": "Feature", "properties": {"layer": "LOTES_Q-28", "dxf_type": "LINE"}, "geometry": {"type": "LineString", "coordinates": [[-54.99912079843988, -10.238184318743379], [-54.99912079843988, -10.238184318743379]]}}, {"type": "Feature", "properties": {"layer": "LOTES_Q-28", "dxf_type": "LINE"}, "geometry": {"type": "LineString", "coordinates": [[-54.99901595188821, -10.238190215554233], [-54.998923287406804, -10.238225537684121]]}}, {"type": "Feature", "properties": {"layer": "LOTES_Q-28", "dxf_type": "LINE"}, "geometry": {"type": "LineString", "coordinates": [[-54.998923287406804, -10.238225537684121], [-54.99884745768783, -10.238247153190203]]}}, {"type": "Feature", "properties": {"layer": "LOTES_Q-28", "dxf_type": "LINE"}, "geometry": {"type": "LineString", "coordinates": [[-54.99884745768783, -10.238247153190203], [-54.99885415795891, -10.238269275466108]]}}, {"type": "Feature", "properties": {"layer": "LOTES_Q-28", "dxf_type": "LINE"}, "geometry": {"type": "LineString", "coordinates": [[-54.99885415795891, -10.238269275466108], [-54.99889237542135, -10.238446578455989]]}}, {"type": "Feature", "properties": {"layer": "LOTES_Q-28", "dxf_type": "LINE"}, "geometry": {"type": "LineString", "coordinates": [[-54.99889237542135, -10.238446578455989], [-54.998870323255815, -10.238456658048642]]}}, {"type": "Feature", "properties": {"layer": "LOTES_Q-28", "dxf_type": "LINE"}, "geometry": {"type": "LineString", "coordinates": [[-54.998870323255815, -10.238456658048642], [-54.998890234655235, -10.238482208824674]]}}, {"type": "Feature", "properties": {"layer": "LOTES_Q-28", "dxf_type": "LINE"}, "geometry": {"type": "LineString", "coordinates": [[-54.998890234655235, -10.238482208824674], [-54.99889852465393, -10.23856167950153]]}}, {"type": "Feature", "properties": {"layer": "LOTES_Q-28", "dxf_type": "LINE"}, "geometry": {"type": "LineString", "coordinates": [[-54.99889852465393, -10.23856167950153], [-54.99888549035565, -10.238572839617289]]}}, {"type": "Feature", "properties": {"layer": "LOTES_Q-28", "dxf_type": "LINE"}, "geometry": {"type": "LineString", "coordinates": [[-54.99888549035565, -10.238572839617289], [-54.998901552217575, -10.238591439038467]]}}, {"type": "Feature", "properties": {"layer": "LOTES_Q-28", "dxf_type": "LINE"}, "geometry": {"type": "LineString", "coordinates": [[-54.998901552217575, -10.238591439038467], [-54.99891236683137, -10.238731978995608]]}}, {"type": "Feature", "properties": {"layer": "LOTES_Q-28", "dxf_type": "LINE"}, "geometry": {"type": "LineString", "coordinates": [[-54.99891236683137, -10.238731978995608], [-54.99901161734233, -10.23869481724708]]}}, {"type": "Feature", "properties": {"layer": "LOTES_Q-28", "dxf_type": "LINE"}, "geometry": {"type": "LineString", "coordinates": [[-54.99901161734233, -10.23869481724708], [-54.99902482002016, -10.238690861534296]]}}, {"type": "Feature", "properties": {"layer": "LOTES_Q-28", "dxf_type": "LINE"}, "geometry": {"type": "LineString", "coordinates": [[-54.99902482002016, -10.238690861534296], [-54.99902380774963, -10.238658435161467]]}}, {"type": "Feature", "properties": {"layer": "LOTES_Q-28", "dxf_type": "LINE"}, "geometry": {"type": "LineString", "coordinates": [[-54.99902380774963, -10.238658435161467], [-54.99902212383274, -10.23856851055689]]}}, {"type": "Feature", "properties": {"layer": "LOTES_Q-28", "dxf_type": "LINE"}, "geometry": {"type": "LineString", "coordinates": [[-54.99902212383274, -10.23856851055689], [-54.999020281030354, -10.23847874587323]]}}, {"type": "Feature", "properties": {"layer": "LOTES_Q-28", "dxf_type": "LINE"}, "geometry": {"type": "LineString", "coordinates": [[-54.999020281030354, -10.23847874587323], [-54.99901905584958, -10.238387703223804]]}}, {"type": "Feature", "properties": {"layer": "LOTES_Q-28", "dxf_type": "LINE"}, "geometry": {"type": "LineString", "coordinates": [[-54.99901905584958, -10.238387703223804], [-54.99901595188821, -10.238190215554233]]}}, {"type": "Feature", "properties": {"layer": "LOTES_Q-28", "dxf_type": "LINE"}, "geometry": {"type": "LineString", "coordinates": [[-54.99901595188821, -10.238190215554233], [-54.99901595188821, -10.238190215554233]]}}, {"type": "Feature", "properties": {"layer": "LOTES_Q-28", "dxf_type": "LINE"}, "geometry": {"type": "LineString", "coordinates": [[-54.99879076191649, -10.238293720794637], [-54.99875679677745, -10.238326064867984]]}}, {"type": "Feature", "properties": {"layer": "LOTES_Q-28", "dxf_type": "LINE"}, "geometry": {"type": "LineString", "coordinates": [[-54.99875679677745, -10.238326064867984], [-54.99881943079612, -10.238397535673217]]}}, {"type": "Feature", "properties": {"layer": "LOTES_Q-28", "dxf_type": "LINE"}, "geometry": {"type": "LineString", "coordinates": [[-54.99881943079612, -10.238397535673217], [-54.998831004138786, -10.238388977104764]]}}, {"type": "Feature", "properties": {"layer": "LOTES_Q-28", "dxf_type": "LINE"}, "geometry": {"type": "LineString", "coordinates": [[-54.998831004138786, -10.238388977104764], [-54.99879076191649, -10.238293720794637]]}}, {"type": "Feature", "properties": {"layer": "LOTES_Q-28", "dxf_type": "LINE"}, "geometry": {"type": "LineString", "coordinates": [[-54.99879076191649, -10.238293720794637], [-54.99879076191649, -10.238293720794637]]}}, {"type": "Feature", "properties": {"layer": "LOTES_Q-28", "dxf_type": "LINE"}, "geometry": {"type": "LineString", "coordinates": [[-54.99889237542135, -10.238446578455989], [-54.99885415795891, -10.238269275466108]]}}, {"type": "Feature", "properties": {"layer": "LOTES_Q-28", "dxf_type": "LINE"}, "geometry": {"type": "LineString", "coordinates": [[-54.99885415795891, -10.238269275466108], [-54.99879076191649, -10.238293720794637]]}}, {"type": "Feature", "properties": {"layer": "LOTES_Q-28", "dxf_type": "LINE"}, "geometry": {"type": "LineString", "coordinates": [[-54.99879076191649, -10.238293720794637], [-54.998831004138786, -10.238388977104764]]}}, {"type": "Feature", "properties": {"layer": "LOTES_Q-28", "dxf_type": "LINE"}, "geometry": {"type": "LineString", "coordinates": [[-54.998831004138786, -10.238388977104764], [-54.99881943079612, -10.238397535673217]]}}, {"type": "Feature", "properties": {"layer": "LOTES_Q-28", "dxf_type": "LINE"}, "geometry": {"type": "LineString", "coordinates": [[-54.99881943079612, -10.238397535673217], [-54.998870323255815, -10.238456658048642]]}}, {"type": "Feature", "properties": {"layer": "LOTES_Q-28", "dxf_type": "LINE"}, "geometry": {"type": "LineString", "coordinates": [[-54.998870323255815, -10.238456658048642], [-54.99889237542135, -10.238446578455989]]}}, {"type": "Feature", "properties": {"layer": "LOTES_Q-28", "dxf_type": "LINE"}, "geometry": {"type": "LineString", "coordinates": [[-54.99889237542135, -10.238446578455989], [-54.99889237542135, -10.238446578455989]]}}, {"type": "Feature", "properties": {"layer": "LOTES_Q-28", "dxf_type": "LINE"}, "geometry": {"type": "LineString", "coordinates": [[-54.99875679677745, -10.238326064867984], [-54.99870307270869, -10.238375346234951]]}}, {"type": "Feature", "properties": {"layer": "LOTES_Q-28", "dxf_type": "LINE"}, "geometry": {"type": "LineString", "coordinates": [[-54.99870307270869, -10.238375346234951], [-54.998811248803136, -10.238501545989006]]}}, {"type": "Feature", "properties": {"layer": "LOTES_Q-28", "dxf_type": "LINE"}, "geometry": {"type": "LineString", "coordinates": [[-54.998811248803136, -10.238501545989006], [-54.998870323255815, -10.238456658048642]]}}, {"type": "Feature", "properties": {"layer": "LOTES_Q-28", "dxf_type": "LINE"}, "geometry": {"type": "LineString", "coordinates": [[-54.998870323255815, -10.238456658048642], [-54.99881943079612, -10.238397535673217]]}}, {"type": "Feature", "properties": {"layer": "LOTES_Q-28", "dxf_type": "LINE"}, "geometry": {"type": "LineString", "coordinates": [[-54.99881943079612, -10.238397535673217], [-54.99875679677745, -10.238326064867984]]}}, {"type": "Feature", "properties": {"layer": "LOTES_Q-28", "dxf_type": "LINE"}, "geometry": {"type": "LineString", "coordinates": [[-54.99875679677745, -10.238326064867984], [-54.99875679677745, -10.238326064867984]]}}, {"type": "Feature", "properties": {"layer": "LOTES_Q-28", "dxf_type": "LINE"}, "geometry": {"type": "LineString", "coordinates": [[-54.99870307270869, -10.238375346234951], [-54.998622033611056, -10.238449682636734]]}}, {"type": "Feature", "properties": {"layer": "LOTES_Q-28", "dxf_type": "LINE"}, "geometry": {"type": "LineString", "coordinates": [[-54.998622033611056, -10.238449682636734], [-54.99880174240658, -10.2386574026659]]}}, {"type": "Feature", "properties": {"layer": "LOTES_Q-28", "dxf_type": "LINE"}, "geometry": {"type": "LineString", "coordinates": [[-54.99880174240658, -10.2386574026659], [-54.99886668366078, -10.238754467817598]]}}, {"type": "Feature", "properties": {"layer": "LOTES_Q-28", "dxf_type": "LINE"}, "geometry": {"type": "LineString", "coordinates": [[-54.99886668366078, -10.238754467817598], [-54.99891236683137, -10.238731978995608]]}}, {"type": "Feature", "properties": {"layer": "LOTES_Q-28", "dxf_type": "LINE"}, "geometry": {"type": "LineString", "coordinates": [[-54.99891236683137, -10.238731978995608], [-54.998901552217575, -10.238591439038467]]}}, {"type": "Feature", "properties": {"layer": "LOTES_Q-28", "dxf_type": "LINE"}, "geometry": {"type": "LineString", "coordinates": [[-54.998901552217575, -10.238591439038467], [-54.99888549035565, -10.238572839617289]]}}, {"type": "Feature", "properties": {"layer": "LOTES_Q-28", "dxf_type": "LINE"}, "geometry": {"type": "LineString", "coordinates": [[-54.99888549035565, -10.238572839617289], [-54.99889852465393, -10.23856167950153]]}}, {"type": "Feature", "properties": {"layer": "LOTES_Q-28", "dxf_type": "LINE"}, "geometry": {"type": "LineString", "coordinates": [[-54.99889852465393, -10.23856167950153], [-54.998890234655235, -10.238482208824674]]}}, {"type": "Feature", "properties": {"layer": "LOTES_Q-28", "dxf_type": "LINE"}, "geometry": {"type": "LineString", "coordinates": [[-54.998890234655235, -10.238482208824674], [-54.998870323255815, -10.238456658048642]]}}, {"type": "Feature", "properties": {"layer": "LOTES_Q-28", "dxf_type": "LINE"}, "geometry": {"type": "LineString", "coordinates": [[-54.998870323255815, -10.238456658048642], [-54.998811248803136, -10.238501545989006]]}}, {"type": "Feature", "properties": {"layer": "LOTES_Q-28", "dxf_type": "LINE"}, "geometry": {"type": "LineString", "coordinates": [[-54.998811248803136, -10.238501545989006], [-54.99870307270869, -10.238375346234951]]}}, {"type": "Feature", "properties": {"layer": "LOTES_Q-28", "dxf_type": "LINE"}, "geometry": {"type": "LineString", "coordinates": [[-54.99870307270869, -10.238375346234951], [-54.99870307270869, -10.238375346234951]]}}]}