{"type": "FeatureCollection", "name": "lotes_q_50", "crs": {"type": "name", "properties": {"name": "urn:ogc:def:crs:OGC:1.3:CRS84"}}, "properties": {"source": "8be78050_MAPA TRIBUTAÇÃO 2021 (1).dxf", "assumed_crs": "EPSG:4326", "local_crs": false, "note": "Coordenadas locais do desenho (sem CRS). Use base 'Só CAD' no mapa.", "extent": [4300.4554, 2373.7696, 8215.3349, 6186.7838], "georef": true, "transform": {"scale": 1, "rotation_deg": 0, "tx": 713717.6034368816, "ty": 8862616.121289995, "rmse_m": 0, "epsg": 31981}, "layer": "LOTES_Q-50", "source_file": "8be78050_MAPA TRIBUTAÇÃO 2021 (1)_georef.geojson", "n_features": 121}, "features": [{"type": "Feature", "properties": {"layer": "LOTES_Q-50", "dxf_type": "LINE"}, "geometry": {"type": "LineString", "coordinates": [[-54.99869518137138, -10.241733472910438], [-54.998761924530655, -10.241843484416398]]}}, {"type": "Feature", "properties": {"layer": "LOTES_Q-50", "dxf_type": "LINE"}, "geometry": {"type": "LineString", "coordinates": [[-54.998761924530655, -10.241843484416398], [-54.9988485685905, -10.241974932907041]]}}, {"type": "Feature", "properties": {"layer": "LOTES_Q-50", "dxf_type": "LINE"}, "geometry": {"type": "LineString", "coordinates": [[-54.9988485685905, -10.241974932907041], [-54.998995666063635, -10.241900983204747]]}}, {"type": "Feature", "properties": {"layer": "LOTES_Q-50", "dxf_type": "LINE"}, "geometry": {"type": "LineString", "coordinates": [[-54.998995666063635, -10.241900983204747], [-54.99892764094558, -10.24175468575528]]}}, {"type": "Feature", "properties": {"layer": "LOTES_Q-50", "dxf_type": "LINE"}, "geometry": {"type": "LineString", "coordinates": [[-54.99892764094558, -10.24175468575528], [-54.998868624663935, -10.241612823248438]]}}, {"type": "Feature", "properties": {"layer": "LOTES_Q-50", "dxf_type": "LINE"}, "geometry": {"type": "LineString", "coordinates": [[-54.998868624663935, -10.241612823248438], [-54.99869518137138, -10.241733472910438]]}}, {"type": "Feature", "properties": {"layer": "LOTES_Q-50", "dxf_type": "LINE"}, "geometry": {"type": "LineString", "coordinates": [[-54.99869518137138, -10.241733472910438], [-54.99869518137138, -10.241733472910438]]}}, {"type": "Feature", "properties": {"layer": "LOTES_Q-50", "dxf_type": "LINE"}, "geometry": {"type": "LineString", "coordinates": [[-54.99803687508308, -10.242444442643773], [-54.998036995140275, -10.242444362029781]]}}, {"type": "Feature", "properties": {"layer": "LOTES_Q-50", "dxf_type": "LINE"}, "geometry": {"type": "LineString", "coordinates": [[-54.998036995140275, -10.242444362029781], [-54.99818044288179, -10.24234970672404]]}}, {"type": "Feature", "properties": {"layer": "LOTES_Q-50", "dxf_type": "LINE"}, "geometry": {"type": "LineString", "coordinates": [[-54.99818044288179, -10.24234970672404], [-54.99819678471617, -10.242335192685596]]}}, {"type": "Feature", "properties": {"layer": "LOTES_Q-50", "dxf_type": "LINE"}, "geometry": {"type": "LineString", "coordinates": [[-54.99819678471617, -10.242335192685596], [-54.998288475197434, -10.242274377073668]]}}, {"type": "Feature", "properties": {"layer": "LOTES_Q-50", "dxf_type": "LINE"}, "geometry": {"type": "LineString", "coordinates": [[-54.998288475197434, -10.242274377073668], [-54.99823435831966, -10.242201702037965]]}}, {"type": "Feature", "properties": {"layer": "LOTES_Q-50", "dxf_type": "LINE"}, "geometry": {"type": "LineString", "coordinates": [[-54.99823435831966, -10.242201702037965], [-54.99799460347435, -10.242382446232112]]}}, {"type": "Feature", "properties": {"layer": "LOTES_Q-50", "dxf_type": "LINE"}, "geometry": {"type": "LineString", "coordinates": [[-54.99799460347435, -10.242382446232112], [-54.99803687508308, -10.242444442643773]]}}, {"type": "Feature", "properties": {"layer": "LOTES_Q-50", "dxf_type": "LINE"}, "geometry": {"type": "LineString", "coordinates": [[-54.99803687508308, -10.242444442643773], [-54.99803687508308, -10.242444442643773]]}}, {"type": "Feature", "properties": {"layer": "LOTES_Q-50", "dxf_type": "LINE"}, "geometry": {"type": "LineString", "coordinates": [[-54.99810620852324, -10.242540710688624], [-54.998410531667595, -10.242303018940696]]}}, {"type": "Feature", "properties": {"layer": "LOTES_Q-50", "dxf_type": "LINE"}, "geometry": {"type": "LineString", "coordinates": [[-54.998410531667595, -10.242303018940696], [-54.99835152932767, -10.24222805675044]]}}, {"type": "Feature", "properties": {"layer": "LOTES_Q-50", "dxf_type": "LINE"}, "geometry": {"type": "LineString", "coordinates": [[-54.99835152932767, -10.24222805675044], [-54.998288475197434, -10.242274377073668]]}}, {"type": "Feature", "properties": {"layer": "LOTES_Q-50", "dxf_type": "LINE"}, "geometry": {"type": "LineString", "coordinates": [[-54.998288475197434, -10.242274377073668], [-54.998196901151374, -10.242335107529607]]}}, {"type": "Feature", "properties": {"layer": "LOTES_Q-50", "dxf_type": "LINE"}, "geometry": {"type": "LineString", "coordinates": [[-54.998196901151374, -10.242335107529607], [-54.99818044288179, -10.24234970672404]]}}, {"type": "Feature", "properties": {"layer": "LOTES_Q-50", "dxf_type": "LINE"}, "geometry": {"type": "LineString", "coordinates": [[-54.99818044288179, -10.24234970672404], [-54.998036995140275, -10.242444362029781]]}}, {"type": "Feature", "properties": {"layer": "LOTES_Q-50", "dxf_type": "LINE"}, "geometry": {"type": "LineString", "coordinates": [[-54.998036995140275, -10.242444362029781], [-54.99810620852324, -10.242540710688624]]}}, {"type": "Feature", "properties": {"layer": "LOTES_Q-50", "dxf_type": "LINE"}, "geometry": {"type": "LineString", "coordinates": [[-54.99810620852324, -10.242540710688624], [-54.99810620852324, -10.242540710688624]]}}, {"type": "Feature", "properties": {"layer": "LOTES_Q-50", "dxf_type": "LINE"}, "geometry": {"type": "LineString", "coordinates": [[-54.997994718095825, -10.242382359257194], [-54.99823435831966, -10.242201702037965]]}}, {"type": "Feature", "properties": {"layer": "LOTES_Q-50", "dxf_type": "LINE"}, "geometry": {"type": "LineString", "coordinates": [[-54.99823435831966, -10.242201702037965], [-54.99817152289992, -10.242117318136824]]}}, {"type": "Feature", "properties": {"layer": "LOTES_Q-50", "dxf_type": "LINE"}, "geometry": {"type": "LineString", "coordinates": [[-54.99817152289992, -10.242117318136824], [-54.997936483569255, -10.242294566020657]]}}, {"type": "Feature", "properties": {"layer": "LOTES_Q-50", "dxf_type": "LINE"}, "geometry": {"type": "LineString", "coordinates": [[-54.997936483569255, -10.242294566020657], [-54.997994718095825, -10.242382359257194]]}}, {"type": "Feature", "properties": {"layer": "LOTES_Q-50", "dxf_type": "LINE"}, "geometry": {"type": "LineString", "coordinates": [[-54.997994718095825, -10.242382359257194], [-54.997994718095825, -10.242382359257194]]}}, {"type": "Feature", "properties": {"layer": "LOTES_Q-50", "dxf_type": "LINE"}, "geometry": {"type": "LineString", "coordinates": [[-54.99826102668583, -10.242047925287775], [-54.99817152289992, -10.242117318136824]]}}, {"type": "Feature", "properties": {"layer": "LOTES_Q-50", "dxf_type": "LINE"}, "geometry": {"type": "LineString", "coordinates": [[-54.99817152289992, -10.242117318136824], [-54.99823435831966, -10.242201702037965]]}}, {"type": "Feature", "properties": {"layer": "LOTES_Q-50", "dxf_type": "LINE"}, "geometry": {"type": "LineString", "coordinates": [[-54.99823435831966, -10.242201702037965], [-54.998288475197434, -10.242274377073668]]}}, {"type": "Feature", "properties": {"layer": "LOTES_Q-50", "dxf_type": "LINE"}, "geometry": {"type": "LineString", "coordinates": [[-54.998288475197434, -10.242274377073668], [-54.99835152932767, -10.24222805675044]]}}, {"type": "Feature", "properties": {"layer": "LOTES_Q-50", "dxf_type": "LINE"}, "geometry": {"type": "LineString", "coordinates": [[-54.99835152932767, -10.24222805675044], [-54.99831366794394, -10.242179497227648]]}}, {"type": "Feature", "properties": {"layer": "LOTES_Q-50", "dxf_type": "LINE"}, "geometry": {"type": "LineString", "coordinates": [[-54.99831366794394, -10.242179497227648], [-54.998346353566546, -10.242156989144188]]}}, {"type": "Feature", "properties": {"layer": "LOTES_Q-50", "dxf_type": "LINE"}, "geometry": {"type": "LineString", "coordinates": [[-54.998346353566546, -10.242156989144188], [-54.99826102668583, -10.242047925287775]]}}, {"type": "Feature", "properties": {"layer": "LOTES_Q-50", "dxf_type": "LINE"}, "geometry": {"type": "LineString", "coordinates": [[-54.99826102668583, -10.242047925287775], [-54.99826102668583, -10.242047925287775]]}}, {"type": "Feature", "properties": {"layer": "LOTES_Q-50", "dxf_type": "LINE"}, "geometry": {"type": "LineString", "coordinates": [[-54.99826102668583, -10.242047925287775], [-54.998346353566546, -10.242156989144188]]}}, {"type": "Feature", "properties": {"layer": "LOTES_Q-50", "dxf_type": "LINE"}, "geometry": {"type": "LineString", "coordinates": [[-54.998346353566546, -10.242156989144188], [-54.9984372087607, -10.242093583111703]]}}, {"type": "Feature", "properties": {"layer": "LOTES_Q-50", "dxf_type": "LINE"}, "geometry": {"type": "LineString", "coordinates": [[-54.9984372087607, -10.242093583111703], [-54.99835106722192, -10.241979086199944]]}}, {"type": "Feature", "properties": {"layer": "LOTES_Q-50", "dxf_type": "LINE"}, "geometry": {"type": "LineString", "coordinates": [[-54.99835106722192, -10.241979086199944], [-54.99826102668583, -10.242047925287775]]}}, {"type": "Feature", "properties": {"layer": "LOTES_Q-50", "dxf_type": "LINE"}, "geometry": {"type": "LineString", "coordinates": [[-54.99826102668583, -10.242047925287775], [-54.99826102668583, -10.242047925287775]]}}, {"type": "Feature", "properties": {"layer": "LOTES_Q-50", "dxf_type": "LINE"}, "geometry": {"type": "LineString", "coordinates": [[-54.9984649611407, -10.241891809220318], [-54.99835106722192, -10.241979086199944]]}}, {"type": "Feature", "properties": {"layer": "LOTES_Q-50", "dxf_type": "LINE"}, "geometry": {"type": "LineString", "coordinates": [[-54.99835106722192, -10.241979086199944], [-54.9984372087607, -10.242093583111703]]}}, {"type": "Feature", "properties": {"layer": "LOTES_Q-50", "dxf_type": "LINE"}, "geometry": {"type": "LineString", "coordinates": [[-54.9984372087607, -10.242093583111703], [-54.99855116595738, -10.242013826237203]]}}, {"type": "Feature", "properties": {"layer": "LOTES_Q-50", "dxf_type": "LINE"}, "geometry": {"type": "LineString", "coordinates": [[-54.99855116595738, -10.242013826237203], [-54.9984649611407, -10.241891809220318]]}}, {"type": "Feature", "properties": {"layer": "LOTES_Q-50", "dxf_type": "LINE"}, "geometry": {"type": "LineString", "coordinates": [[-54.9984649611407, -10.241891809220318], [-54.9984649611407, -10.241891809220318]]}}, {"type": "Feature", "properties": {"layer": "LOTES_Q-50", "dxf_type": "LINE"}, "geometry": {"type": "LineString", "coordinates": [[-54.9984649611407, -10.241891809220318], [-54.99855116595738, -10.242013826237203]]}}, {"type": "Feature", "properties": {"layer": "LOTES_Q-50", "dxf_type": "LINE"}, "geometry": {"type": "LineString", "coordinates": [[-54.99855116595738, -10.242013826237203], [-54.99864133756826, -10.241954924697207]]}}, {"type": "Feature", "properties": {"layer": "LOTES_Q-50", "dxf_type": "LINE"}, "geometry": {"type": "LineString", "coordinates": [[-54.99864133756826, -10.241954924697207], [-54.998628839978, -10.241932145735763]]}}, {"type": "Feature", "properties": {"layer": "LOTES_Q-50", "dxf_type": "LINE"}, "geometry": {"type": "LineString", "coordinates": [[-54.998628839978, -10.241932145735763], [-54.99864807106022, -10.241918216208093]]}}, {"type": "Feature", "properties": {"layer": "LOTES_Q-50", "dxf_type": "LINE"}, "geometry": {"type": "LineString", "coordinates": [[-54.99864807106022, -10.241918216208093], [-54.99857631231883, -10.241813578376345]]}}, {"type": "Feature", "properties": {"layer": "LOTES_Q-50", "dxf_type": "LINE"}, "geometry": {"type": "LineString", "coordinates": [[-54.99857631231883, -10.241813578376345], [-54.9984649611407, -10.241891809220318]]}}, {"type": "Feature", "properties": {"layer": "LOTES_Q-50", "dxf_type": "LINE"}, "geometry": {"type": "LineString", "coordinates": [[-54.9984649611407, -10.241891809220318], [-54.9984649611407, -10.241891809220318]]}}, {"type": "Feature", "properties": {"layer": "LOTES_Q-50", "dxf_type": "LINE"}, "geometry": {"type": "LineString", "coordinates": [[-54.99857576972201, -10.241812786815398], [-54.99864807106022, -10.241918216208093]]}}, {"type": "Feature", "properties": {"layer": "LOTES_Q-50", "dxf_type": "LINE"}, "geometry": {"type": "LineString", "coordinates": [[-54.99864807106022, -10.241918216208093], [-54.998700620825566, -10.241885162217178]]}}, {"type": "Feature", "properties": {"layer": "LOTES_Q-50", "dxf_type": "LINE"}, "geometry": {"type": "LineString", "coordinates": [[-54.998700620825566, -10.241885162217178], [-54.998761924530655, -10.241843484416398]]}}, {"type": "Feature", "properties": {"layer": "LOTES_Q-50", "dxf_type": "LINE"}, "geometry": {"type": "LineString", "coordinates": [[-54.998761924530655, -10.241843484416398], [-54.99869468277039, -10.241732650886998]]}}, {"type": "Feature", "properties": {"layer": "LOTES_Q-50", "dxf_type": "LINE"}, "geometry": {"type": "LineString", "coordinates": [[-54.99869468277039, -10.241732650886998], [-54.99857576972201, -10.241812786815398]]}}, {"type": "Feature", "properties": {"layer": "LOTES_Q-50", "dxf_type": "LINE"}, "geometry": {"type": "LineString", "coordinates": [[-54.99857576972201, -10.241812786815398], [-54.99857576972201, -10.241812786815398]]}}, {"type": "Feature", "properties": {"layer": "LOTES_Q-50", "dxf_type": "LINE"}, "geometry": {"type": "LineString", "coordinates": [[-54.998868624663935, -10.241612823248438], [-54.99892764094558, -10.24175468575528]]}}, {"type": "Feature", "properties": {"layer": "LOTES_Q-50", "dxf_type": "LINE"}, "geometry": {"type": "LineString", "coordinates": [[-54.99892764094558, -10.24175468575528], [-54.999026448296995, -10.241706276638087]]}}, {"type": "Feature", "properties": {"layer": "LOTES_Q-50", "dxf_type": "LINE"}, "geometry": {"type": "LineString", "coordinates": [[-54.999026448296995, -10.241706276638087], [-54.998977280653214, -10.241558615505632]]}}, {"type": "Feature", "properties": {"layer": "LOTES_Q-50", "dxf_type": "LINE"}, "geometry": {"type": "LineString", "coordinates": [[-54.998977280653214, -10.241558615505632], [-54.998868624663935, -10.241612823248438]]}}, {"type": "Feature", "properties": {"layer": "LOTES_Q-50", "dxf_type": "LINE"}, "geometry": {"type": "LineString", "coordinates": [[-54.998868624663935, -10.241612823248438], [-54.998868624663935, -10.241612823248438]]}}, {"type": "Feature", "properties": {"layer": "LOTES_Q-50", "dxf_type": "LINE"}, "geometry": {"type": "LineString", "coordinates": [[-54.99908678190759, -10.241539005192099], [-54.999091380176104, -10.241680939626365]]}}, {"type": "Feature", "properties": {"layer": "LOTES_Q-50", "dxf_type": "LINE"}, "geometry": {"type": "LineString", "coordinates": [[-54.999091380176104, -10.241680939626365], [-54.999091500124436, -10.24173428092607]]}}, {"type": "Feature", "properties": {"layer": "LOTES_Q-50", "dxf_type": "LINE"}, "geometry": {"type": "LineString", "coordinates": [[-54.999091500124436, -10.24173428092607], [-54.99920899321095, -10.241729498913065]]}}, {"type": "Feature", "properties": {"layer": "LOTES_Q-50", "dxf_type": "LINE"}, "geometry": {"type": "LineString", "coordinates": [[-54.99920899321095, -10.241729498913065], [-54.99930845969294, -10.241727181236296]]}}, {"type": "Feature", "properties": {"layer": "LOTES_Q-50", "dxf_type": "LINE"}, "geometry": {"type": "LineString", "coordinates": [[-54.99930845969294, -10.241727181236296], [-54.99929195123962, -10.241509230322286]]}}, {"type": "Feature", "properties": {"layer": "LOTES_Q-50", "dxf_type": "LINE"}, "geometry": {"type": "LineString", "coordinates": [[-54.99929195123962, -10.241509230322286], [-54.999206896415146, -10.241520755458344]]}}, {"type": "Feature", "properties": {"layer": "LOTES_Q-50", "dxf_type": "LINE"}, "geometry": {"type": "LineString", "coordinates": [[-54.999206896415146, -10.241520755458344], [-54.99908678190759, -10.241539005192099]]}}, {"type": "Feature", "properties": {"layer": "LOTES_Q-50", "dxf_type": "LINE"}, "geometry": {"type": "LineString", "coordinates": [[-54.99908678190759, -10.241539005192099], [-54.99908678190759, -10.241539005192099]]}}, {"type": "Feature", "properties": {"layer": "LOTES_Q-50", "dxf_type": "LINE"}, "geometry": {"type": "LineString", "coordinates": [[-54.998977280653214, -10.241558615505632], [-54.999026448296995, -10.241706276638087]]}}, {"type": "Feature", "properties": {"layer": "LOTES_Q-50", "dxf_type": "LINE"}, "geometry": {"type": "LineString", "coordinates": [[-54.999026448296995, -10.241706276638087], [-54.999091380176104, -10.241680939626365]]}}, {"type": "Feature", "properties": {"layer": "LOTES_Q-50", "dxf_type": "LINE"}, "geometry": {"type": "LineString", "coordinates": [[-54.999091380176104, -10.241680939626365], [-54.99908678190759, -10.241539005192099]]}}, {"type": "Feature", "properties": {"layer": "LOTES_Q-50", "dxf_type": "LINE"}, "geometry": {"type": "LineString", "coordinates": [[-54.99908678190759, -10.241539005192099], [-54.998977280653214, -10.241558615505632]]}}, {"type": "Feature", "properties": {"layer": "LOTES_Q-50", "dxf_type": "LINE"}, "geometry": {"type": "LineString", "coordinates": [[-54.998977280653214, -10.241558615505632], [-54.998977280653214, -10.241558615505632]]}}, {"type": "Feature", "properties": {"layer": "LOTES_Q-50", "dxf_type": "LINE"}, "geometry": {"type": "LineString", "coordinates": [[-54.998410531667595, -10.242303018940696], [-54.99852606371099, -10.242218670812163]]}}, {"type": "Feature", "properties": {"layer": "LOTES_Q-50", "dxf_type": "LINE"}, "geometry": {"type": "LineString", "coordinates": [[-54.99852606371099, -10.242218670812163], [-54.9984372087607, -10.242093583111703]]}}, {"type": "Feature", "properties": {"layer": "LOTES_Q-50", "dxf_type": "LINE"}, "geometry": {"type": "LineString", "coordinates": [[-54.9984372087607, -10.242093583111703], [-54.998346353566546, -10.242156989144188]]}}, {"type": "Feature", "properties": {"layer": "LOTES_Q-50", "dxf_type": "LINE"}, "geometry": {"type": "LineString", "coordinates": [[-54.998346353566546, -10.242156989144188], [-54.99831366794394, -10.242179497227648]]}}, {"type": "Feature", "properties": {"layer": "LOTES_Q-50", "dxf_type": "LINE"}, "geometry": {"type": "LineString", "coordinates": [[-54.99831366794394, -10.242179497227648], [-54.99835152932767, -10.24222805675044]]}}, {"type": "Feature", "properties": {"layer": "LOTES_Q-50", "dxf_type": "LINE"}, "geometry": {"type": "LineString", "coordinates": [[-54.99835152932767, -10.24222805675044], [-54.998410531667595, -10.242303018940696]]}}, {"type": "Feature", "properties": {"layer": "LOTES_Q-50", "dxf_type": "LINE"}, "geometry": {"type": "LineString", "coordinates": [[-54.998410531667595, -10.242303018940696], [-54.998410531667595, -10.242303018940696]]}}, {"type": "Feature", "properties": {"layer": "LOTES_Q-50", "dxf_type": "LINE"}, "geometry": {"type": "LineString", "coordinates": [[-54.99852606371099, -10.242218670812163], [-54.998632717605105, -10.24213960294992]]}}, {"type": "Feature", "properties": {"layer": "LOTES_Q-50", "dxf_type": "LINE"}, "geometry": {"type": "LineString", "coordinates": [[-54.998632717605105, -10.24213960294992], [-54.99855116595738, -10.242013826237203]]}}, {"type": "Feature", "properties": {"layer": "LOTES_Q-50", "dxf_type": "LINE"}, "geometry": {"type": "LineString", "coordinates": [[-54.99855116595738, -10.242013826237203], [-54.9984372087607, -10.242093583111703]]}}, {"type": "Feature", "properties": {"layer": "LOTES_Q-50", "dxf_type": "LINE"}, "geometry": {"type": "LineString", "coordinates": [[-54.9984372087607, -10.242093583111703], [-54.99852606371099, -10.242218670812163]]}}, {"type": "Feature", "properties": {"layer": "LOTES_Q-50", "dxf_type": "LINE"}, "geometry": {"type": "LineString", "coordinates": [[-54.99852606371099, -10.242218670812163], [-54.99852606371099, -10.242218670812163]]}}, {"type": "Feature", "properties": {"layer": "LOTES_Q-50", "dxf_type": "LINE"}, "geometry": {"type": "LineString", "coordinates": [[-54.99863175137862, -10.24213811276042], [-54.99871728963242, -10.24207267895557]]}}, {"type": "Feature", "properties": {"layer": "LOTES_Q-50", "dxf_type": "LINE"}, "geometry": {"type": "LineString", "coordinates": [[-54.99871728963242, -10.24207267895557], [-54.9987100245836, -10.24205751702242]]}}, {"type": "Feature", "properties": {"layer": "LOTES_Q-50", "dxf_type": "LINE"}, "geometry": {"type": "LineString", "coordinates": [[-54.9987100245836, -10.24205751702242], [-54.99864133756826, -10.241954924697207]]}}, {"type": "Feature", "properties": {"layer": "LOTES_Q-50", "dxf_type": "LINE"}, "geometry": {"type": "LineString", "coordinates": [[-54.99864133756826, -10.241954924697207], [-54.99855116595738, -10.242013826237203]]}}, {"type": "Feature", "properties": {"layer": "LOTES_Q-50", "dxf_type": "LINE"}, "geometry": {"type": "LineString", "coordinates": [[-54.99855116595738, -10.242013826237203], [-54.99863175137862, -10.24213811276042]]}}, {"type": "Feature", "properties": {"layer": "LOTES_Q-50", "dxf_type": "LINE"}, "geometry": {"type": "LineString", "coordinates": [[-54.99863175137862, -10.24213811276042], [-54.99863175137862, -10.24213811276042]]}}, {"type": "Feature", "properties": {"layer": "LOTES_Q-50", "dxf_type": "LINE"}, "geometry": {"type": "LineString", "coordinates": [[-54.9987100245836, -10.24205751702242], [-54.99878584947766, -10.242018492116072]]}}, {"type": "Feature", "properties": {"layer": "LOTES_Q-50", "dxf_type": "LINE"}, "geometry": {"type": "LineString", "coordinates": [[-54.99878584947766, -10.242018492116072], [-54.998700620825566, -10.241885162217178]]}}, {"type": "Feature", "properties": {"layer": "LOTES_Q-50", "dxf_type": "LINE"}, "geometry": {"type": "LineString", "coordinates": [[-54.998700620825566, -10.241885162217178], [-54.99864807106022, -10.241918216208093]]}}, {"type": "Feature", "properties": {"layer": "LOTES_Q-50", "dxf_type": "LINE"}, "geometry": {"type": "LineString", "coordinates": [[-54.99864807106022, -10.241918216208093], [-54.998628839978, -10.241932145735763]]}}, {"type": "Feature", "properties": {"layer": "LOTES_Q-50", "dxf_type": "LINE"}, "geometry": {"type": "LineString", "coordinates": [[-54.998628839978, -10.241932145735763], [-54.99864133756826, -10.241954924697207]]}}, {"type": "Feature", "properties": {"layer": "LOTES_Q-50", "dxf_type": "LINE"}, "geometry": {"type": "LineString", "coordinates": [[-54.99864133756826, -10.241954924697207], [-54.9987100245836, -10.24205751702242]]}}, {"type": "Feature", "properties": {"layer": "LOTES_Q-50", "dxf_type": "LINE"}, "geometry": {"type": "LineString", "coordinates": [[-54.9987100245836, -10.24205751702242], [-54.9987100245836, -10.24205751702242]]}}, {"type": "Feature", "properties": {"layer": "LOTES_Q-50", "dxf_type": "LINE"}, "geometry": {"type": "LineString", "coordinates": [[-54.99878584947766, -10.242018492116072], [-54.9988485685905, -10.241974932907041]]}}, {"type": "Feature", "properties": {"layer": "LOTES_Q-50", "dxf_type": "LINE"}, "geometry": {"type": "LineString", "coordinates": [[-54.9988485685905, -10.241974932907041], [-54.998761924530655, -10.241843484416398]]}}, {"type": "Feature", "properties": {"layer": "LOTES_Q-50", "dxf_type": "LINE"}, "geometry": {"type": "LineString", "coordinates": [[-54.998761924530655, -10.241843484416398], [-54.998700620825566, -10.241885162217178]]}}, {"type": "Feature", "properties": {"layer": "LOTES_Q-50", "dxf_type": "LINE"}, "geometry": {"type": "LineString", "coordinates": [[-54.998700620825566, -10.241885162217178], [-54.99878584947766, -10.242018492116072]]}}, {"type": "Feature", "properties": {"layer": "LOTES_Q-50", "dxf_type": "LINE"}, "geometry": {"type": "LineString", "coordinates": [[-54.99878584947766, -10.242018492116072], [-54.99878584947766, -10.242018492116072]]}}, {"type": "Feature", "properties": {"layer": "LOTES_Q-50", "dxf_type": "LINE"}, "geometry": {"type": "LineString", "coordinates": [[-54.999091500124436, -10.24173428092607], [-54.99909951511464, -10.241851778003701]]}}, {"type": "Feature", "properties": {"layer": "LOTES_Q-50", "dxf_type": "LINE"}, "geometry": {"type": "LineString", "coordinates": [[-54.99909951511464, -10.241851778003701], [-54.99920766714299, -10.241841997675872]]}}, {"type": "Feature", "properties": {"layer": "LOTES_Q-50", "dxf_type": "LINE"}, "geometry": {"type": "LineString", "coordinates": [[-54.99920766714299, -10.241841997675872], [-54.999316723164966, -10.241832135191604]]}}, {"type": "Feature", "properties": {"layer": "LOTES_Q-50", "dxf_type": "LINE"}, "geometry": {"type": "LineString", "coordinates": [[-54.999316723164966, -10.241832135191604], [-54.99930845969294, -10.241727181236296]]}}, {"type": "Feature", "properties": {"layer": "LOTES_Q-50", "dxf_type": "LINE"}, "geometry": {"type": "LineString", "coordinates": [[-54.99930845969294, -10.241727181236296], [-54.99920899321095, -10.241729498913065]]}}, {"type": "Feature", "properties": {"layer": "LOTES_Q-50", "dxf_type": "LINE"}, "geometry": {"type": "LineString", "coordinates": [[-54.99920899321095, -10.241729498913065], [-54.999091500124436, -10.24173428092607]]}}, {"type": "Feature", "properties": {"layer": "LOTES_Q-50", "dxf_type": "LINE"}, "geometry": {"type": "LineString", "coordinates": [[-54.999091500124436, -10.24173428092607], [-54.999091500124436, -10.24173428092607]]}}, {"type": "Feature", "properties": {"layer": "LOTES_Q-50", "dxf_type": "LINE"}, "geometry": {"type": "LineString", "coordinates": [[-54.998995666063635, -10.241900983204747], [-54.99909951511464, -10.241851778003701]]}}, {"type": "Feature", "properties": {"layer": "LOTES_Q-50", "dxf_type": "LINE"}, "geometry": {"type": "LineString", "coordinates": [[-54.99909951511464, -10.241851778003701], [-54.999091500124436, -10.24173428092607]]}}, {"type": "Feature", "properties": {"layer": "LOTES_Q-50", "dxf_type": "LINE"}, "geometry": {"type": "LineString", "coordinates": [[-54.999091500124436, -10.24173428092607], [-54.999091380176104, -10.241680939626365]]}}, {"type": "Feature", "properties": {"layer": "LOTES_Q-50", "dxf_type": "LINE"}, "geometry": {"type": "LineString", "coordinates": [[-54.999091380176104, -10.241680939626365], [-54.999026448296995, -10.241706276638087]]}}, {"type": "Feature", "properties": {"layer": "LOTES_Q-50", "dxf_type": "LINE"}, "geometry": {"type": "LineString", "coordinates": [[-54.999026448296995, -10.241706276638087], [-54.99892764094558, -10.24175468575528]]}}, {"type": "Feature", "properties": {"layer": "LOTES_Q-50", "dxf_type": "LINE"}, "geometry": {"type": "LineString", "coordinates": [[-54.99892764094558, -10.24175468575528], [-54.998995666063635, -10.241900983204747]]}}, {"type": "Feature", "properties": {"layer": "LOTES_Q-50", "dxf_type": "LINE"}, "geometry": {"type": "LineString", "coordinates": [[-54.998995666063635, -10.241900983204747], [-54.998995666063635, -10.241900983204747]]}}]}