{"type": "FeatureCollection", "name": "lotes_q_51", "crs": {"type": "name", "properties": {"name": "urn:ogc:def:crs:OGC:1.3:CRS84"}}, "properties": {"source": "8be78050_MAPA TRIBUTAÇÃO 2021 (1).dxf", "assumed_crs": "EPSG:4326", "local_crs": false, "note": "Coordenadas locais do desenho (sem CRS). Use base 'Só CAD' no mapa.", "extent": [4300.4554, 2373.7696, 8215.3349, 6186.7838], "georef": true, "transform": {"scale": 1, "rotation_deg": 0, "tx": 713717.6034368816, "ty": 8862616.121289995, "rmse_m": 0, "epsg": 31981}, "layer": "LOTES_Q-51", "source_file": "8be78050_MAPA TRIBUTAÇÃO 2021 (1)_georef.geojson", "n_features": 139}, "features": [{"type": "Feature", "properties": {"layer": "LOTES_Q-51", "dxf_type": "LINE"}, "geometry": {"type": "LineString", "coordinates": [[-54.997883529190595, -10.242215822828097], [-54.998080962869594, -10.242084229348853]]}}, {"type": "Feature", "properties": {"layer": "LOTES_Q-51", "dxf_type": "LINE"}, "geometry": {"type": "LineString", "coordinates": [[-54.998080962869594, -10.242084229348853], [-54.998023401473446, -10.242008713749751]]}}, {"type": "Feature", "properties": {"layer": "LOTES_Q-51", "dxf_type": "LINE"}, "geometry": {"type": "LineString", "coordinates": [[-54.998023401473446, -10.242008713749751], [-54.99797110974828, -10.2420425194593]]}}, {"type": "Feature", "properties": {"layer": "LOTES_Q-51", "dxf_type": "LINE"}, "geometry": {"type": "LineString", "coordinates": [[-54.99797110974828, -10.2420425194593], [-54.99782888020972, -10.24213982978007]]}}, {"type": "Feature", "properties": {"layer": "LOTES_Q-51", "dxf_type": "LINE"}, "geometry": {"type": "LineString", "coordinates": [[-54.99782888020972, -10.24213982978007], [-54.997883529190595, -10.242215822828097]]}}, {"type": "Feature", "properties": {"layer": "LOTES_Q-51", "dxf_type": "LINE"}, "geometry": {"type": "LineString", "coordinates": [[-54.997883529190595, -10.242215822828097], [-54.997883529190595, -10.242215822828097]]}}, {"type": "Feature", "properties": {"layer": "LOTES_Q-51", "dxf_type": "LINE"}, "geometry": {"type": "LineString", "coordinates": [[-54.99782888020972, -10.24213982978007], [-54.99797110974828, -10.2420425194593]]}}, {"type": "Feature", "properties": {"layer": "LOTES_Q-51", "dxf_type": "LINE"}, "geometry": {"type": "LineString", "coordinates": [[-54.99797110974828, -10.2420425194593], [-54.997904470768816, -10.241954779342398]]}}, {"type": "Feature", "properties": {"layer": "LOTES_Q-51", "dxf_type": "LINE"}, "geometry": {"type": "LineString", "coordinates": [[-54.997904470768816, -10.241954779342398], [-54.99776689923028, -10.242053828540376]]}}, {"type": "Feature", "properties": {"layer": "LOTES_Q-51", "dxf_type": "LINE"}, "geometry": {"type": "LineString", "coordinates": [[-54.99776689923028, -10.242053828540376], [-54.99782888020972, -10.24213982978007]]}}, {"type": "Feature", "properties": {"layer": "LOTES_Q-51", "dxf_type": "LINE"}, "geometry": {"type": "LineString", "coordinates": [[-54.99782888020972, -10.24213982978007], [-54.99782888020972, -10.24213982978007]]}}, {"type": "Feature", "properties": {"layer": "LOTES_Q-51", "dxf_type": "LINE"}, "geometry": {"type": "LineString", "coordinates": [[-54.99797110974828, -10.2420425194593], [-54.998023401473446, -10.242008713749751]]}}, {"type": "Feature", "properties": {"layer": "LOTES_Q-51", "dxf_type": "LINE"}, "geometry": {"type": "LineString", "coordinates": [[-54.998023401473446, -10.242008713749751], [-54.997951655274264, -10.241916509359307]]}}, {"type": "Feature", "properties": {"layer": "LOTES_Q-51", "dxf_type": "LINE"}, "geometry": {"type": "LineString", "coordinates": [[-54.997951655274264, -10.241916509359307], [-54.997904470768816, -10.241954779342398]]}}, {"type": "Feature", "properties": {"layer": "LOTES_Q-51", "dxf_type": "LINE"}, "geometry": {"type": "LineString", "coordinates": [[-54.997904470768816, -10.241954779342398], [-54.99797110974828, -10.2420425194593]]}}, {"type": "Feature", "properties": {"layer": "LOTES_Q-51", "dxf_type": "LINE"}, "geometry": {"type": "LineString", "coordinates": [[-54.99797110974828, -10.2420425194593], [-54.99797110974828, -10.2420425194593]]}}, {"type": "Feature", "properties": {"layer": "LOTES_Q-51", "dxf_type": "LINE"}, "geometry": {"type": "LineString", "coordinates": [[-54.99810731432771, -10.241797999651483], [-54.998242765860034, -10.241964228870465]]}}, {"type": "Feature", "properties": {"layer": "LOTES_Q-51", "dxf_type": "LINE"}, "geometry": {"type": "LineString", "coordinates": [[-54.998242765860034, -10.241964228870465], [-54.99831892067651, -10.241910148549312]]}}, {"type": "Feature", "properties": {"layer": "LOTES_Q-51", "dxf_type": "LINE"}, "geometry": {"type": "LineString", "coordinates": [[-54.99831892067651, -10.241910148549312], [-54.99817134250641, -10.241738672461116]]}}, {"type": "Feature", "properties": {"layer": "LOTES_Q-51", "dxf_type": "LINE"}, "geometry": {"type": "LineString", "coordinates": [[-54.99817134250641, -10.241738672461116], [-54.99810731432771, -10.241797999651483]]}}, {"type": "Feature", "properties": {"layer": "LOTES_Q-51", "dxf_type": "LINE"}, "geometry": {"type": "LineString", "coordinates": [[-54.99810731432771, -10.241797999651483], [-54.99810731432771, -10.241797999651483]]}}, {"type": "Feature", "properties": {"layer": "LOTES_Q-51", "dxf_type": "LINE"}, "geometry": {"type": "LineString", "coordinates": [[-54.99831892067651, -10.241910148549312], [-54.998455436708625, -10.241815371752516]]}}, {"type": "Feature", "properties": {"layer": "LOTES_Q-51", "dxf_type": "LINE"}, "geometry": {"type": "LineString", "coordinates": [[-54.998455436708625, -10.241815371752516], [-54.99831619871608, -10.241624557891168]]}}, {"type": "Feature", "properties": {"layer": "LOTES_Q-51", "dxf_type": "LINE"}, "geometry": {"type": "LineString", "coordinates": [[-54.99831619871608, -10.241624557891168], [-54.99817134250641, -10.241738672461116]]}}, {"type": "Feature", "properties": {"layer": "LOTES_Q-51", "dxf_type": "LINE"}, "geometry": {"type": "LineString", "coordinates": [[-54.99817134250641, -10.241738672461116], [-54.99831892067651, -10.241910148549312]]}}, {"type": "Feature", "properties": {"layer": "LOTES_Q-51", "dxf_type": "LINE"}, "geometry": {"type": "LineString", "coordinates": [[-54.99831892067651, -10.241910148549312], [-54.99831892067651, -10.241910148549312]]}}, {"type": "Feature", "properties": {"layer": "LOTES_Q-51", "dxf_type": "LINE"}, "geometry": {"type": "LineString", "coordinates": [[-54.998455436708625, -10.241815371752516], [-54.99853084483215, -10.241757963948414]]}}, {"type": "Feature", "properties": {"layer": "LOTES_Q-51", "dxf_type": "LINE"}, "geometry": {"type": "LineString", "coordinates": [[-54.99853084483215, -10.241757963948414], [-54.99846276651553, -10.241670228627978]]}}, {"type": "Feature", "properties": {"layer": "LOTES_Q-51", "dxf_type": "LINE"}, "geometry": {"type": "LineString", "coordinates": [[-54.99846276651553, -10.241670228627978], [-54.99838140711741, -10.241571874517748]]}}, {"type": "Feature", "properties": {"layer": "LOTES_Q-51", "dxf_type": "LINE"}, "geometry": {"type": "LineString", "coordinates": [[-54.99838140711741, -10.241571874517748], [-54.99831619871608, -10.241624557891168]]}}, {"type": "Feature", "properties": {"layer": "LOTES_Q-51", "dxf_type": "LINE"}, "geometry": {"type": "LineString", "coordinates": [[-54.99831619871608, -10.241624557891168], [-54.998455436708625, -10.241815371752516]]}}, {"type": "Feature", "properties": {"layer": "LOTES_Q-51", "dxf_type": "LINE"}, "geometry": {"type": "LineString", "coordinates": [[-54.998455436708625, -10.241815371752516], [-54.998455436708625, -10.241815371752516]]}}, {"type": "Feature", "properties": {"layer": "LOTES_Q-51", "dxf_type": "LINE"}, "geometry": {"type": "LineString", "coordinates": [[-54.99846276651553, -10.241670228627978], [-54.998529000732326, -10.241615063033533]]}}, {"type": "Feature", "properties": {"layer": "LOTES_Q-51", "dxf_type": "LINE"}, "geometry": {"type": "LineString", "coordinates": [[-54.998529000732326, -10.241615063033533], [-54.998445837901784, -10.241520509685616]]}}, {"type": "Feature", "properties": {"layer": "LOTES_Q-51", "dxf_type": "LINE"}, "geometry": {"type": "LineString", "coordinates": [[-54.998445837901784, -10.241520509685616], [-54.99838140711741, -10.241571874517748]]}}, {"type": "Feature", "properties": {"layer": "LOTES_Q-51", "dxf_type": "LINE"}, "geometry": {"type": "LineString", "coordinates": [[-54.99838140711741, -10.241571874517748], [-54.99846276651553, -10.241670228627978]]}}, {"type": "Feature", "properties": {"layer": "LOTES_Q-51", "dxf_type": "LINE"}, "geometry": {"type": "LineString", "coordinates": [[-54.99846276651553, -10.241670228627978], [-54.99846276651553, -10.241670228627978]]}}, {"type": "Feature", "properties": {"layer": "LOTES_Q-51", "dxf_type": "LINE"}, "geometry": {"type": "LineString", "coordinates": [[-54.998445837901784, -10.241520509685616], [-54.998529000732326, -10.241615063033533]]}}, {"type": "Feature", "properties": {"layer": "LOTES_Q-51", "dxf_type": "LINE"}, "geometry": {"type": "LineString", "coordinates": [[-54.998529000732326, -10.241615063033533], [-54.9985414176355, -10.241626697926108]]}}, {"type": "Feature", "properties": {"layer": "LOTES_Q-51", "dxf_type": "LINE"}, "geometry": {"type": "LineString", "coordinates": [[-54.9985414176355, -10.241626697926108], [-54.998607692556554, -10.241574350996453]]}}, {"type": "Feature", "properties": {"layer": "LOTES_Q-51", "dxf_type": "LINE"}, "geometry": {"type": "LineString", "coordinates": [[-54.998607692556554, -10.241574350996453], [-54.99852401199313, -10.241459473368305]]}}, {"type": "Feature", "properties": {"layer": "LOTES_Q-51", "dxf_type": "LINE"}, "geometry": {"type": "LineString", "coordinates": [[-54.99852401199313, -10.241459473368305], [-54.998445837901784, -10.241520509685616]]}}, {"type": "Feature", "properties": {"layer": "LOTES_Q-51", "dxf_type": "LINE"}, "geometry": {"type": "LineString", "coordinates": [[-54.998445837901784, -10.241520509685616], [-54.998445837901784, -10.241520509685616]]}}, {"type": "Feature", "properties": {"layer": "LOTES_Q-51", "dxf_type": "LINE"}, "geometry": {"type": "LineString", "coordinates": [[-54.99852401199313, -10.241459473368305], [-54.998607692556554, -10.241574350996453]]}}, {"type": "Feature", "properties": {"layer": "LOTES_Q-51", "dxf_type": "LINE"}, "geometry": {"type": "LineString", "coordinates": [[-54.998607692556554, -10.241574350996453], [-54.99866428282864, -10.24164786376051]]}}, {"type": "Feature", "properties": {"layer": "LOTES_Q-51", "dxf_type": "LINE"}, "geometry": {"type": "LineString", "coordinates": [[-54.99866428282864, -10.24164786376051], [-54.99875629229711, -10.24157673976812]]}}, {"type": "Feature", "properties": {"layer": "LOTES_Q-51", "dxf_type": "LINE"}, "geometry": {"type": "LineString", "coordinates": [[-54.99875629229711, -10.24157673976812], [-54.99869351328425, -10.241500957145595]]}}, {"type": "Feature", "properties": {"layer": "LOTES_Q-51", "dxf_type": "LINE"}, "geometry": {"type": "LineString", "coordinates": [[-54.99869351328425, -10.241500957145595], [-54.998609100568984, -10.241392952988065]]}}, {"type": "Feature", "properties": {"layer": "LOTES_Q-51", "dxf_type": "LINE"}, "geometry": {"type": "LineString", "coordinates": [[-54.998609100568984, -10.241392952988065], [-54.99852401199313, -10.241459473368305]]}}, {"type": "Feature", "properties": {"layer": "LOTES_Q-51", "dxf_type": "LINE"}, "geometry": {"type": "LineString", "coordinates": [[-54.99852401199313, -10.241459473368305], [-54.99852401199313, -10.241459473368305]]}}, {"type": "Feature", "properties": {"layer": "LOTES_Q-51", "dxf_type": "LINE"}, "geometry": {"type": "LineString", "coordinates": [[-54.998609100568984, -10.241392952988065], [-54.99869351328425, -10.241500957145595]]}}, {"type": "Feature", "properties": {"layer": "LOTES_Q-51", "dxf_type": "LINE"}, "geometry": {"type": "LineString", "coordinates": [[-54.99869351328425, -10.241500957145595], [-54.998764520938764, -10.241443805113237]]}}, {"type": "Feature", "properties": {"layer": "LOTES_Q-51", "dxf_type": "LINE"}, "geometry": {"type": "LineString", "coordinates": [[-54.998764520938764, -10.241443805113237], [-54.998677394817726, -10.241337727710864]]}}, {"type": "Feature", "properties": {"layer": "LOTES_Q-51", "dxf_type": "LINE"}, "geometry": {"type": "LineString", "coordinates": [[-54.998677394817726, -10.241337727710864], [-54.998609100568984, -10.241392952988065]]}}, {"type": "Feature", "properties": {"layer": "LOTES_Q-51", "dxf_type": "LINE"}, "geometry": {"type": "LineString", "coordinates": [[-54.998609100568984, -10.241392952988065], [-54.998609100568984, -10.241392952988065]]}}, {"type": "Feature", "properties": {"layer": "LOTES_Q-51", "dxf_type": "LINE"}, "geometry": {"type": "LineString", "coordinates": [[-54.998677394817726, -10.241337727710864], [-54.998764520938764, -10.241443805113237]]}}, {"type": "Feature", "properties": {"layer": "LOTES_Q-51", "dxf_type": "LINE"}, "geometry": {"type": "LineString", "coordinates": [[-54.998764520938764, -10.241443805113237], [-54.99883503366097, -10.24152288672674]]}}, {"type": "Feature", "properties": {"layer": "LOTES_Q-51", "dxf_type": "LINE"}, "geometry": {"type": "LineString", "coordinates": [[-54.99883503366097, -10.24152288672674], [-54.99886019008805, -10.241507817635966]]}}, {"type": "Feature", "properties": {"layer": "LOTES_Q-51", "dxf_type": "LINE"}, "geometry": {"type": "LineString", "coordinates": [[-54.99886019008805, -10.241507817635966], [-54.998904334394034, -10.241484122626307]]}}, {"type": "Feature", "properties": {"layer": "LOTES_Q-51", "dxf_type": "LINE"}, "geometry": {"type": "LineString", "coordinates": [[-54.998904334394034, -10.241484122626307], [-54.9987482105738, -10.241283373947002]]}}, {"type": "Feature", "properties": {"layer": "LOTES_Q-51", "dxf_type": "LINE"}, "geometry": {"type": "LineString", "coordinates": [[-54.9987482105738, -10.241283373947002], [-54.998677394817726, -10.241337727710864]]}}, {"type": "Feature", "properties": {"layer": "LOTES_Q-51", "dxf_type": "LINE"}, "geometry": {"type": "LineString", "coordinates": [[-54.998677394817726, -10.241337727710864], [-54.998677394817726, -10.241337727710864]]}}, {"type": "Feature", "properties": {"layer": "LOTES_Q-51", "dxf_type": "LINE"}, "geometry": {"type": "LineString", "coordinates": [[-54.99903272104875, -10.241072191691547], [-54.99894097075404, -10.241135347498457]]}}, {"type": "Feature", "properties": {"layer": "LOTES_Q-51", "dxf_type": "LINE"}, "geometry": {"type": "LineString", "coordinates": [[-54.99894097075404, -10.241135347498457], [-54.99908391242476, -10.241312616916083]]}}, {"type": "Feature", "properties": {"layer": "LOTES_Q-51", "dxf_type": "LINE"}, "geometry": {"type": "LineString", "coordinates": [[-54.99908391242476, -10.241312616916083], [-54.99908406100495, -10.241239446980034]]}}, {"type": "Feature", "properties": {"layer": "LOTES_Q-51", "dxf_type": "LINE"}, "geometry": {"type": "LineString", "coordinates": [[-54.99908406100495, -10.241239446980034], [-54.99915331332317, -10.241237349290978]]}}, {"type": "Feature", "properties": {"layer": "LOTES_Q-51", "dxf_type": "LINE"}, "geometry": {"type": "LineString", "coordinates": [[-54.99915331332317, -10.241237349290978], [-54.999151024859906, -10.241157690453514]]}}, {"type": "Feature", "properties": {"layer": "LOTES_Q-51", "dxf_type": "LINE"}, "geometry": {"type": "LineString", "coordinates": [[-54.999151024859906, -10.241157690453514], [-54.99909334574865, -10.241157092436946]]}}, {"type": "Feature", "properties": {"layer": "LOTES_Q-51", "dxf_type": "LINE"}, "geometry": {"type": "LineString", "coordinates": [[-54.99909334574865, -10.241157092436946], [-54.99903272104875, -10.241072191691547]]}}, {"type": "Feature", "properties": {"layer": "LOTES_Q-51", "dxf_type": "LINE"}, "geometry": {"type": "LineString", "coordinates": [[-54.99903272104875, -10.241072191691547], [-54.99903272104875, -10.241072191691547]]}}, {"type": "Feature", "properties": {"layer": "LOTES_Q-51", "dxf_type": "LINE"}, "geometry": {"type": "LineString", "coordinates": [[-54.99894097075404, -10.241135347498457], [-54.9988667457917, -10.241192431884286]]}}, {"type": "Feature", "properties": {"layer": "LOTES_Q-51", "dxf_type": "LINE"}, "geometry": {"type": "LineString", "coordinates": [[-54.9988667457917, -10.241192431884286], [-54.9990398003186, -10.241422277144899]]}}, {"type": "Feature", "properties": {"layer": "LOTES_Q-51", "dxf_type": "LINE"}, "geometry": {"type": "LineString", "coordinates": [[-54.9990398003186, -10.241422277144899], [-54.99908666762247, -10.241417820805987]]}}, {"type": "Feature", "properties": {"layer": "LOTES_Q-51", "dxf_type": "LINE"}, "geometry": {"type": "LineString", "coordinates": [[-54.99908666762247, -10.241417820805987], [-54.99908391242476, -10.241312616916083]]}}, {"type": "Feature", "properties": {"layer": "LOTES_Q-51", "dxf_type": "LINE"}, "geometry": {"type": "LineString", "coordinates": [[-54.99908391242476, -10.241312616916083], [-54.99894097075404, -10.241135347498457]]}}, {"type": "Feature", "properties": {"layer": "LOTES_Q-51", "dxf_type": "LINE"}, "geometry": {"type": "LineString", "coordinates": [[-54.99894097075404, -10.241135347498457], [-54.99894097075404, -10.241135347498457]]}}, {"type": "Feature", "properties": {"layer": "LOTES_Q-51", "dxf_type": "LINE"}, "geometry": {"type": "LineString", "coordinates": [[-54.9988667457917, -10.241192431884286], [-54.998798745568614, -10.241244148182004]]}}, {"type": "Feature", "properties": {"layer": "LOTES_Q-51", "dxf_type": "LINE"}, "geometry": {"type": "LineString", "coordinates": [[-54.998798745568614, -10.241244148182004], [-54.99896134852803, -10.241453394723257]]}}, {"type": "Feature", "properties": {"layer": "LOTES_Q-51", "dxf_type": "LINE"}, "geometry": {"type": "LineString", "coordinates": [[-54.99896134852803, -10.241453394723257], [-54.9990398003186, -10.241422277144899]]}}, {"type": "Feature", "properties": {"layer": "LOTES_Q-51", "dxf_type": "LINE"}, "geometry": {"type": "LineString", "coordinates": [[-54.9990398003186, -10.241422277144899], [-54.9988667457917, -10.241192431884286]]}}, {"type": "Feature", "properties": {"layer": "LOTES_Q-51", "dxf_type": "LINE"}, "geometry": {"type": "LineString", "coordinates": [[-54.9988667457917, -10.241192431884286], [-54.9988667457917, -10.241192431884286]]}}, {"type": "Feature", "properties": {"layer": "LOTES_Q-51", "dxf_type": "LINE"}, "geometry": {"type": "LineString", "coordinates": [[-54.9987482105738, -10.241283373947002], [-54.998904334394034, -10.241484122626307]]}}, {"type": "Feature", "properties": {"layer": "LOTES_Q-51", "dxf_type": "LINE"}, "geometry": {"type": "LineString", "coordinates": [[-54.998904334394034, -10.241484122626307], [-54.99896134852803, -10.241453394723257]]}}, {"type": "Feature", "properties": {"layer": "LOTES_Q-51", "dxf_type": "LINE"}, "geometry": {"type": "LineString", "coordinates": [[-54.99896134852803, -10.241453394723257], [-54.998798745568614, -10.241244148182004]]}}, {"type": "Feature", "properties": {"layer": "LOTES_Q-51", "dxf_type": "LINE"}, "geometry": {"type": "LineString", "coordinates": [[-54.998798745568614, -10.241244148182004], [-54.9987482105738, -10.241283373947002]]}}, {"type": "Feature", "properties": {"layer": "LOTES_Q-51", "dxf_type": "LINE"}, "geometry": {"type": "LineString", "coordinates": [[-54.9987482105738, -10.241283373947002], [-54.9987482105738, -10.241283373947002]]}}, {"type": "Feature", "properties": {"layer": "LOTES_Q-51", "dxf_type": "LINE"}, "geometry": {"type": "LineString", "coordinates": [[-54.99908666762247, -10.241417820805987], [-54.99929303726675, -10.241404295016567]]}}, {"type": "Feature", "properties": {"layer": "LOTES_Q-51", "dxf_type": "LINE"}, "geometry": {"type": "LineString", "coordinates": [[-54.99929303726675, -10.241404295016567], [-54.99931868780269, -10.24138290145449]]}}, {"type": "Feature", "properties": {"layer": "LOTES_Q-51", "dxf_type": "LINE"}, "geometry": {"type": "LineString", "coordinates": [[-54.99931868780269, -10.24138290145449], [-54.99931358360218, -10.241232852978746]]}}, {"type": "Feature", "properties": {"layer": "LOTES_Q-51", "dxf_type": "LINE"}, "geometry": {"type": "LineString", "coordinates": [[-54.99931358360218, -10.241232852978746], [-54.99915331332317, -10.241237349290978]]}}, {"type": "Feature", "properties": {"layer": "LOTES_Q-51", "dxf_type": "LINE"}, "geometry": {"type": "LineString", "coordinates": [[-54.99915331332317, -10.241237349290978], [-54.99908406100495, -10.241239446980034]]}}, {"type": "Feature", "properties": {"layer": "LOTES_Q-51", "dxf_type": "LINE"}, "geometry": {"type": "LineString", "coordinates": [[-54.99908406100495, -10.241239446980034], [-54.99908391242476, -10.241312616916083]]}}, {"type": "Feature", "properties": {"layer": "LOTES_Q-51", "dxf_type": "LINE"}, "geometry": {"type": "LineString", "coordinates": [[-54.99908391242476, -10.241312616916083], [-54.99908666762247, -10.241417820805987]]}}, {"type": "Feature", "properties": {"layer": "LOTES_Q-51", "dxf_type": "LINE"}, "geometry": {"type": "LineString", "coordinates": [[-54.99908666762247, -10.241417820805987], [-54.99908666762247, -10.241417820805987]]}}, {"type": "Feature", "properties": {"layer": "LOTES_Q-51", "dxf_type": "LINE"}, "geometry": {"type": "LineString", "coordinates": [[-54.99853084483215, -10.241757963948414], [-54.998604100734326, -10.241701473014007]]}}, {"type": "Feature", "properties": {"layer": "LOTES_Q-51", "dxf_type": "LINE"}, "geometry": {"type": "LineString", "coordinates": [[-54.998604100734326, -10.241701473014007], [-54.9985414176355, -10.241626697926108]]}}, {"type": "Feature", "properties": {"layer": "LOTES_Q-51", "dxf_type": "LINE"}, "geometry": {"type": "LineString", "coordinates": [[-54.9985414176355, -10.241626697926108], [-54.998529000732326, -10.241615063033533]]}}, {"type": "Feature", "properties": {"layer": "LOTES_Q-51", "dxf_type": "LINE"}, "geometry": {"type": "LineString", "coordinates": [[-54.998529000732326, -10.241615063033533], [-54.99846276651553, -10.241670228627978]]}}, {"type": "Feature", "properties": {"layer": "LOTES_Q-51", "dxf_type": "LINE"}, "geometry": {"type": "LineString", "coordinates": [[-54.99846276651553, -10.241670228627978], [-54.99853084483215, -10.241757963948414]]}}, {"type": "Feature", "properties": {"layer": "LOTES_Q-51", "dxf_type": "LINE"}, "geometry": {"type": "LineString", "coordinates": [[-54.99853084483215, -10.241757963948414], [-54.99853084483215, -10.241757963948414]]}}, {"type": "Feature", "properties": {"layer": "LOTES_Q-51", "dxf_type": "LINE"}, "geometry": {"type": "LineString", "coordinates": [[-54.998604100734326, -10.241701473014007], [-54.99866428282864, -10.24164786376051]]}}, {"type": "Feature", "properties": {"layer": "LOTES_Q-51", "dxf_type": "LINE"}, "geometry": {"type": "LineString", "coordinates": [[-54.99866428282864, -10.24164786376051], [-54.998607692556554, -10.241574350996453]]}}, {"type": "Feature", "properties": {"layer": "LOTES_Q-51", "dxf_type": "LINE"}, "geometry": {"type": "LineString", "coordinates": [[-54.998607692556554, -10.241574350996453], [-54.9985414176355, -10.241626697926108]]}}, {"type": "Feature", "properties": {"layer": "LOTES_Q-51", "dxf_type": "LINE"}, "geometry": {"type": "LineString", "coordinates": [[-54.9985414176355, -10.241626697926108], [-54.998604100734326, -10.241701473014007]]}}, {"type": "Feature", "properties": {"layer": "LOTES_Q-51", "dxf_type": "LINE"}, "geometry": {"type": "LineString", "coordinates": [[-54.998604100734326, -10.241701473014007], [-54.998604100734326, -10.241701473014007]]}}, {"type": "Feature", "properties": {"layer": "LOTES_Q-51", "dxf_type": "LINE"}, "geometry": {"type": "LineString", "coordinates": [[-54.99875629229711, -10.24157673976812], [-54.998791574742434, -10.241549486634572]]}}, {"type": "Feature", "properties": {"layer": "LOTES_Q-51", "dxf_type": "LINE"}, "geometry": {"type": "LineString", "coordinates": [[-54.998791574742434, -10.241549486634572], [-54.99883503366097, -10.24152288672674]]}}, {"type": "Feature", "properties": {"layer": "LOTES_Q-51", "dxf_type": "LINE"}, "geometry": {"type": "LineString", "coordinates": [[-54.99883503366097, -10.24152288672674], [-54.998764520938764, -10.241443805113237]]}}, {"type": "Feature", "properties": {"layer": "LOTES_Q-51", "dxf_type": "LINE"}, "geometry": {"type": "LineString", "coordinates": [[-54.998764520938764, -10.241443805113237], [-54.99869351328425, -10.241500957145595]]}}, {"type": "Feature", "properties": {"layer": "LOTES_Q-51", "dxf_type": "LINE"}, "geometry": {"type": "LineString", "coordinates": [[-54.99869351328425, -10.241500957145595], [-54.99875629229711, -10.24157673976812]]}}, {"type": "Feature", "properties": {"layer": "LOTES_Q-51", "dxf_type": "LINE"}, "geometry": {"type": "LineString", "coordinates": [[-54.99875629229711, -10.24157673976812], [-54.99875629229711, -10.24157673976812]]}}, {"type": "Feature", "properties": {"layer": "LOTES_Q-51", "dxf_type": "LINE"}, "geometry": {"type": "LineString", "coordinates": [[-54.997951655274264, -10.241916509359307], [-54.998023401473446, -10.242008713749751]]}}, {"type": "Feature", "properties": {"layer": "LOTES_Q-51", "dxf_type": "LINE"}, "geometry": {"type": "LineString", "coordinates": [[-54.998023401473446, -10.242008713749751], [-54.998080962869594, -10.242084229348853]]}}, {"type": "Feature", "properties": {"layer": "LOTES_Q-51", "dxf_type": "LINE"}, "geometry": {"type": "LineString", "coordinates": [[-54.998080962869594, -10.242084229348853], [-54.99815599811175, -10.242030417881113]]}}, {"type": "Feature", "properties": {"layer": "LOTES_Q-51", "dxf_type": "LINE"}, "geometry": {"type": "LineString", "coordinates": [[-54.99815599811175, -10.242030417881113], [-54.998027670345245, -10.241859251865638]]}}, {"type": "Feature", "properties": {"layer": "LOTES_Q-51", "dxf_type": "LINE"}, "geometry": {"type": "LineString", "coordinates": [[-54.998027670345245, -10.241859251865638], [-54.997951655274264, -10.241916509359307]]}}, {"type": "Feature", "properties": {"layer": "LOTES_Q-51", "dxf_type": "LINE"}, "geometry": {"type": "LineString", "coordinates": [[-54.997951655274264, -10.241916509359307], [-54.997951655274264, -10.241916509359307]]}}, {"type": "Feature", "properties": {"layer": "LOTES_Q-51", "dxf_type": "LINE"}, "geometry": {"type": "LineString", "coordinates": [[-54.998027670345245, -10.241859251865638], [-54.99815599811175, -10.242030417881113]]}}, {"type": "Feature", "properties": {"layer": "LOTES_Q-51", "dxf_type": "LINE"}, "geometry": {"type": "LineString", "coordinates": [[-54.99815599811175, -10.242030417881113], [-54.998242765860034, -10.241964228870465]]}}, {"type": "Feature", "properties": {"layer": "LOTES_Q-51", "dxf_type": "LINE"}, "geometry": {"type": "LineString", "coordinates": [[-54.998242765860034, -10.241964228870465], [-54.99810731432771, -10.241797999651483]]}}, {"type": "Feature", "properties": {"layer": "LOTES_Q-51", "dxf_type": "LINE"}, "geometry": {"type": "LineString", "coordinates": [[-54.99810731432771, -10.241797999651483], [-54.998027670345245, -10.241859251865638]]}}, {"type": "Feature", "properties": {"layer": "LOTES_Q-51", "dxf_type": "LINE"}, "geometry": {"type": "LineString", "coordinates": [[-54.998027670345245, -10.241859251865638], [-54.998027670345245, -10.241859251865638]]}}, {"type": "Feature", "properties": {"layer": "LOTES_Q-51", "dxf_type": "LINE"}, "geometry": {"type": "LineString", "coordinates": [[-54.999151024859906, -10.241157690453514], [-54.99915331332317, -10.241237349290978]]}}, {"type": "Feature", "properties": {"layer": "LOTES_Q-51", "dxf_type": "LINE"}, "geometry": {"type": "LineString", "coordinates": [[-54.99915331332317, -10.241237349290978], [-54.99931358360218, -10.241232852978746]]}}, {"type": "Feature", "properties": {"layer": "LOTES_Q-51", "dxf_type": "LINE"}, "geometry": {"type": "LineString", "coordinates": [[-54.99931358360218, -10.241232852978746], [-54.99932749625521, -10.241232121418568]]}}, {"type": "Feature", "properties": {"layer": "LOTES_Q-51", "dxf_type": "LINE"}, "geometry": {"type": "LineString", "coordinates": [[-54.99932749625521, -10.241232121418568], [-54.9993232189435, -10.241132125602613]]}}, {"type": "Feature", "properties": {"layer": "LOTES_Q-51", "dxf_type": "LINE"}, "geometry": {"type": "LineString", "coordinates": [[-54.9993232189435, -10.241132125602613], [-54.999148132222615, -10.241139158482527]]}}, {"type": "Feature", "properties": {"layer": "LOTES_Q-51", "dxf_type": "LINE"}, "geometry": {"type": "LineString", "coordinates": [[-54.999148132222615, -10.241139158482527], [-54.999151024859906, -10.241157690453514]]}}, {"type": "Feature", "properties": {"layer": "LOTES_Q-51", "dxf_type": "LINE"}, "geometry": {"type": "LineString", "coordinates": [[-54.999151024859906, -10.241157690453514], [-54.999151024859906, -10.241157690453514]]}}, {"type": "Feature", "properties": {"layer": "LOTES_Q-51", "dxf_type": "LINE"}, "geometry": {"type": "LineString", "coordinates": [[-54.999316902279105, -10.24103164268092], [-54.99904996426665, -10.241059303871765]]}}, {"type": "Feature", "properties": {"layer": "LOTES_Q-51", "dxf_type": "LINE"}, "geometry": {"type": "LineString", "coordinates": [[-54.99904996426665, -10.241059303871765], [-54.999041613933144, -10.241060908485236]]}}, {"type": "Feature", "properties": {"layer": "LOTES_Q-51", "dxf_type": "LINE"}, "geometry": {"type": "LineString", "coordinates": [[-54.999041613933144, -10.241060908485236], [-54.99903729265538, -10.241064272517791]]}}, {"type": "Feature", "properties": {"layer": "LOTES_Q-51", "dxf_type": "LINE"}, "geometry": {"type": "LineString", "coordinates": [[-54.99903729265538, -10.241064272517791], [-54.99903272104875, -10.241072191691547]]}}, {"type": "Feature", "properties": {"layer": "LOTES_Q-51", "dxf_type": "LINE"}, "geometry": {"type": "LineString", "coordinates": [[-54.99903272104875, -10.241072191691547], [-54.99909334574865, -10.241157092436946]]}}, {"type": "Feature", "properties": {"layer": "LOTES_Q-51", "dxf_type": "LINE"}, "geometry": {"type": "LineString", "coordinates": [[-54.99909334574865, -10.241157092436946], [-54.999151024859906, -10.241157690453514]]}}, {"type": "Feature", "properties": {"layer": "LOTES_Q-51", "dxf_type": "LINE"}, "geometry": {"type": "LineString", "coordinates": [[-54.999151024859906, -10.241157690453514], [-54.999148132222615, -10.241139158482527]]}}, {"type": "Feature", "properties": {"layer": "LOTES_Q-51", "dxf_type": "LINE"}, "geometry": {"type": "LineString", "coordinates": [[-54.999148132222615, -10.241139158482527], [-54.9993232189435, -10.241132125602613]]}}, {"type": "Feature", "properties": {"layer": "LOTES_Q-51", "dxf_type": "LINE"}, "geometry": {"type": "LineString", "coordinates": [[-54.9993232189435, -10.241132125602613], [-54.999316902279105, -10.24103164268092]]}}, {"type": "Feature", "properties": {"layer": "LOTES_Q-51", "dxf_type": "LINE"}, "geometry": {"type": "LineString", "coordinates": [[-54.999316902279105, -10.24103164268092], [-54.999316902279105, -10.24103164268092]]}}]}