{"type": "FeatureCollection", "name": "meio_fio", "crs": {"type": "name", "properties": {"name": "urn:ogc:def:crs:OGC:1.3:CRS84"}}, "properties": {"source": "8be78050_MAPA TRIBUTAÇÃO 2021 (1).dxf", "assumed_crs": "EPSG:4326", "local_crs": false, "note": "Coordenadas locais do desenho (sem CRS). Use base 'Só CAD' no mapa.", "extent": [4300.4554, 2373.7696, 8215.3349, 6186.7838], "georef": true, "transform": {"scale": 1, "rotation_deg": 0, "tx": 713717.6034368816, "ty": 8862616.121289995, "rmse_m": 0, "epsg": 31981}, "layer": "MEIO_FIO", "source_file": "8be78050_MAPA TRIBUTAÇÃO 2021 (1)_georef.geojson", "n_features": 311}, "features": [{"type": "Feature", "properties": {"layer": "MEIO_FIO", "dxf_type": "LINE"}, "geometry": {"type": "LineString", "coordinates": [[-54.97814010496214, -10.244327165253686], [-54.97824891977461, -10.244455018882721]]}}, {"type": "Feature", "properties": {"layer": "MEIO_FIO", "dxf_type": "LINE"}, "geometry": {"type": "LineString", "coordinates": [[-54.97689200661006, -10.245623442157267], [-54.97824563313612, -10.244493229448663]]}}, {"type": "Feature", "properties": {"layer": "MEIO_FIO", "dxf_type": "LINE"}, "geometry": {"type": "LineString", "coordinates": [[-54.978286806039534, -10.244541606198284], [-54.97802864089812, -10.244757163095002]]}}, {"type": "Feature", "properties": {"layer": "MEIO_FIO", "dxf_type": "LINE"}, "geometry": {"type": "LineString", "coordinates": [[-54.97802535422348, -10.244795373652403], [-54.97853707584447, -10.245396630911296]]}}, {"type": "Feature", "properties": {"layer": "MEIO_FIO", "dxf_type": "LINE"}, "geometry": {"type": "LineString", "coordinates": [[-54.97848823397991, -10.245437412767124], [-54.97797651150876, -10.244836154528269]]}}, {"type": "Feature", "properties": {"layer": "MEIO_FIO", "dxf_type": "LINE"}, "geometry": {"type": "LineString", "coordinates": [[-54.97767648133069, -10.245086666206145], [-54.978188203459354, -10.245687923973781]]}}, {"type": "Feature", "properties": {"layer": "MEIO_FIO", "dxf_type": "LINE"}, "geometry": {"type": "LineString", "coordinates": [[-54.9781393606016, -10.245728704849826], [-54.977627639442204, -10.24512744701744]]}}, {"type": "Feature", "properties": {"layer": "MEIO_FIO", "dxf_type": "LINE"}, "geometry": {"type": "LineString", "coordinates": [[-54.977327607827014, -10.245377957354359], [-54.977839329544985, -10.245979216528944]]}}, {"type": "Feature", "properties": {"layer": "MEIO_FIO", "dxf_type": "LINE"}, "geometry": {"type": "LineString", "coordinates": [[-54.97779048751348, -10.246019997340436], [-54.977278765852205, -10.24541873809542]]}}, {"type": "Feature", "properties": {"layer": "MEIO_FIO", "dxf_type": "LINE"}, "geometry": {"type": "LineString", "coordinates": [[-54.97697873461353, -10.245669248910446], [-54.97749045501394, -10.246270508582421]]}}, {"type": "Feature", "properties": {"layer": "MEIO_FIO", "dxf_type": "LINE"}, "geometry": {"type": "LineString", "coordinates": [[-54.9774416128961, -10.246311289323696], [-54.97688871885961, -10.245661652667785]]}}, {"type": "Feature", "properties": {"layer": "MEIO_FIO", "dxf_type": "LINE"}, "geometry": {"type": "LineString", "coordinates": [[-54.97905360898639, -10.245000814294057], [-54.97892452643863, -10.245108593544574]]}}, {"type": "Feature", "properties": {"layer": "MEIO_FIO", "dxf_type": "LINE"}, "geometry": {"type": "LineString", "coordinates": [[-54.97743832609985, -10.246349499855198], [-54.97716969237127, -10.246573793735172]]}}, {"type": "Feature", "properties": {"layer": "MEIO_FIO", "dxf_type": "LINE"}, "geometry": {"type": "LineString", "coordinates": [[-54.97778720076819, -10.246058207884696], [-54.97752903302494, -10.24627376406004]]}}, {"type": "Feature", "properties": {"layer": "MEIO_FIO", "dxf_type": "LINE"}, "geometry": {"type": "LineString", "coordinates": [[-54.97813607390728, -10.245766915406836], [-54.97787790753294, -10.245982471959097]]}}, {"type": "Feature", "properties": {"layer": "MEIO_FIO", "dxf_type": "LINE"}, "geometry": {"type": "LineString", "coordinates": [[-54.97848494733654, -10.245475623336898], [-54.97822678142427, -10.245691179356484]]}}, {"type": "Feature", "properties": {"layer": "MEIO_FIO", "dxf_type": "LINE"}, "geometry": {"type": "LineString", "coordinates": [[-54.978833819242304, -10.24518432985578], [-54.978575653780624, -10.245399887150434]]}}, {"type": "Feature", "properties": {"layer": "MEIO_FIO", "dxf_type": "LINE"}, "geometry": {"type": "LineString", "coordinates": [[-54.97832538387126, -10.244544861543131], [-54.97883710583471, -10.245146119273256]]}}, {"type": "Feature", "properties": {"layer": "MEIO_FIO", "dxf_type": "LINE"}, "geometry": {"type": "LineString", "coordinates": [[-54.977240187951374, -10.245415482608239], [-54.97698202144106, -10.245631038391286]]}}, {"type": "Feature", "properties": {"layer": "MEIO_FIO", "dxf_type": "LINE"}, "geometry": {"type": "LineString", "coordinates": [[-54.97758906156441, -10.245124191577705], [-54.97733089551614, -10.24533974682814]]}}, {"type": "Feature", "properties": {"layer": "MEIO_FIO", "dxf_type": "LINE"}, "geometry": {"type": "LineString", "coordinates": [[-54.97793793365399, -10.244832899135961], [-54.97767976805629, -10.245048455661493]]}}, {"type": "Feature", "properties": {"layer": "MEIO_FIO", "dxf_type": "LINE"}, "geometry": {"type": "LineString", "coordinates": [[-54.982331648664655, -10.238516338968223], [-54.981920374788906, -10.238016208627535]]}}, {"type": "Feature", "properties": {"layer": "MEIO_FIO", "dxf_type": "LINE"}, "geometry": {"type": "LineString", "coordinates": [[-54.981922395666366, -10.237997091603876], [-54.9824698623883, -10.237559792291075]]}}, {"type": "Feature", "properties": {"layer": "MEIO_FIO", "dxf_type": "LINE"}, "geometry": {"type": "LineString", "coordinates": [[-54.98123953025269, -10.238563757522583], [-54.981662548530736, -10.239073540305359]]}}, {"type": "Feature", "properties": {"layer": "MEIO_FIO", "dxf_type": "LINE"}, "geometry": {"type": "LineString", "coordinates": [[-54.982262192551005, -10.238574815429063], [-54.98184531641074, -10.238076990490029]]}}, {"type": "Feature", "properties": {"layer": "MEIO_FIO", "dxf_type": "LINE"}, "geometry": {"type": "LineString", "coordinates": [[-54.98182616034908, -10.238075114439468], [-54.98124148471825, -10.238544615694064]]}}, {"type": "Feature", "properties": {"layer": "MEIO_FIO", "dxf_type": "LINE"}, "geometry": {"type": "LineString", "coordinates": [[-54.98159665117121, -10.239129002407747], [-54.98117136431649, -10.238618346748323]]}}, {"type": "Feature", "properties": {"layer": "MEIO_FIO", "dxf_type": "LINE"}, "geometry": {"type": "LineString", "coordinates": [[-54.981152107636866, -10.238616504377076], [-54.980579078814614, -10.239083480300023]]}}, {"type": "Feature", "properties": {"layer": "MEIO_FIO", "dxf_type": "LINE"}, "geometry": {"type": "LineString", "coordinates": [[-54.98057730822964, -10.239102687435526], [-54.9810129527647, -10.239614721483596]]}}, {"type": "Feature", "properties": {"layer": "MEIO_FIO", "dxf_type": "LINE"}, "geometry": {"type": "LineString", "coordinates": [[-54.98051264436706, -10.239153416811785], [-54.980944522822924, -10.239669307163318]]}}, {"type": "Feature", "properties": {"layer": "MEIO_FIO", "dxf_type": "LINE"}, "geometry": {"type": "LineString", "coordinates": [[-54.98004398107757, -10.239511083636136], [-54.98049350754309, -10.239151522713328]]}}, {"type": "Feature", "properties": {"layer": "MEIO_FIO", "dxf_type": "LINE"}, "geometry": {"type": "LineString", "coordinates": [[-54.98113781523982, -10.237086542380855], [-54.981851510316154, -10.237935379061925]]}}, {"type": "Feature", "properties": {"layer": "MEIO_FIO", "dxf_type": "LINE"}, "geometry": {"type": "LineString", "coordinates": [[-54.98187060697437, -10.237937267395775], [-54.98242249443691, -10.237497618280695]]}}, {"type": "Feature", "properties": {"layer": "MEIO_FIO", "dxf_type": "LINE"}, "geometry": {"type": "LineString", "coordinates": [[-54.98177719521623, -10.237995228160937], [-54.98107166099553, -10.23713824436937]]}}, {"type": "Feature", "properties": {"layer": "MEIO_FIO", "dxf_type": "LINE"}, "geometry": {"type": "LineString", "coordinates": [[-54.98105237476588, -10.237136326800405], [-54.980481557030586, -10.237599749928252]]}}, {"type": "Feature", "properties": {"layer": "MEIO_FIO", "dxf_type": "LINE"}, "geometry": {"type": "LineString", "coordinates": [[-54.98070694256635, -10.237416767533523], [-54.98047454433593, -10.237605439926181]]}}, {"type": "Feature", "properties": {"layer": "MEIO_FIO", "dxf_type": "LINE"}, "geometry": {"type": "LineString", "coordinates": [[-54.98047257426828, -10.23762444696346], [-54.98117211835818, -10.238481975978146]]}}, {"type": "Feature", "properties": {"layer": "MEIO_FIO", "dxf_type": "LINE"}, "geometry": {"type": "LineString", "coordinates": [[-54.98111127449846, -10.238532608098646], [-54.98040723918058, -10.237674727482421]]}}, {"type": "Feature", "properties": {"layer": "MEIO_FIO", "dxf_type": "LINE"}, "geometry": {"type": "LineString", "coordinates": [[-54.980387953102365, -10.237672782752258], [-54.97980669296421, -10.238143507299554]]}}, {"type": "Feature", "properties": {"layer": "MEIO_FIO", "dxf_type": "LINE"}, "geometry": {"type": "LineString", "coordinates": [[-54.97980473988315, -10.238162562337193], [-54.98050417756421, -10.239013936333638]]}}, {"type": "Feature", "properties": {"layer": "MEIO_FIO", "dxf_type": "LINE"}, "geometry": {"type": "LineString", "coordinates": [[-54.980523346374135, -10.239015966215712], [-54.98110920323053, -10.238551747392215]]}}, {"type": "Feature", "properties": {"layer": "MEIO_FIO", "dxf_type": "LINE"}, "geometry": {"type": "LineString", "coordinates": [[-54.98043978736893, -10.239067857310092], [-54.97974451301897, -10.238210137351697]]}}, {"type": "Feature", "properties": {"layer": "MEIO_FIO", "dxf_type": "LINE"}, "geometry": {"type": "LineString", "coordinates": [[-54.9799934292623, -10.239449513240594], [-54.9804378185347, -10.239086809212496]]}}, {"type": "Feature", "properties": {"layer": "MEIO_FIO", "dxf_type": "LINE"}, "geometry": {"type": "LineString", "coordinates": [[-54.98093806358533, -10.235666023545374], [-54.980366213125954, -10.23612812807091]]}}, {"type": "Feature", "properties": {"layer": "MEIO_FIO", "dxf_type": "LINE"}, "geometry": {"type": "LineString", "coordinates": [[-54.98036426088307, -10.236147205725516], [-54.981065503342485, -10.236998366903476]]}}, {"type": "Feature", "properties": {"layer": "MEIO_FIO", "dxf_type": "LINE"}, "geometry": {"type": "LineString", "coordinates": [[-54.98108479602633, -10.23700027275931], [-54.98165356763763, -10.236537574905014]]}}, {"type": "Feature", "properties": {"layer": "MEIO_FIO", "dxf_type": "LINE"}, "geometry": {"type": "LineString", "coordinates": [[-54.981001342116066, -10.237054841262628], [-54.98029998854773, -10.23620178556669]]}}, {"type": "Feature", "properties": {"layer": "MEIO_FIO", "dxf_type": "LINE"}, "geometry": {"type": "LineString", "coordinates": [[-54.98028076942024, -10.236199802393896], [-54.97969794919497, -10.236666462607685]]}}, {"type": "Feature", "properties": {"layer": "MEIO_FIO", "dxf_type": "LINE"}, "geometry": {"type": "LineString", "coordinates": [[-54.97969596731292, -10.236685601531843], [-54.98040388731886, -10.237541166858376]]}}, {"type": "Feature", "properties": {"layer": "MEIO_FIO", "dxf_type": "LINE"}, "geometry": {"type": "LineString", "coordinates": [[-54.980423166500955, -10.237543046461484], [-54.98099942027667, -10.237073876630765]]}}, {"type": "Feature", "properties": {"layer": "MEIO_FIO", "dxf_type": "LINE"}, "geometry": {"type": "LineString", "coordinates": [[-54.9801660546606, -10.234725264880922], [-54.979591717010685, -10.235186455145787]]}}, {"type": "Feature", "properties": {"layer": "MEIO_FIO", "dxf_type": "LINE"}, "geometry": {"type": "LineString", "coordinates": [[-54.97958974258651, -10.23520557242369], [-54.980297273597934, -10.236062168148498]]}}, {"type": "Feature", "properties": {"layer": "MEIO_FIO", "dxf_type": "LINE"}, "geometry": {"type": "LineString", "coordinates": [[-54.98031651131155, -10.236064097199312], [-54.980887148697924, -10.235603897004419]]}}, {"type": "Feature", "properties": {"layer": "MEIO_FIO", "dxf_type": "LINE"}, "geometry": {"type": "LineString", "coordinates": [[-54.98023037598953, -10.236116571688356], [-54.97952171661983, -10.235259338796798]]}}, {"type": "Feature", "properties": {"layer": "MEIO_FIO", "dxf_type": "LINE"}, "geometry": {"type": "LineString", "coordinates": [[-54.979502499095126, -10.235257401698817], [-54.97892192071847, -10.235724149597138]]}}, {"type": "Feature", "properties": {"layer": "MEIO_FIO", "dxf_type": "LINE"}, "geometry": {"type": "LineString", "coordinates": [[-54.97891992096315, -10.235743224221078], [-54.97962561835128, -10.236604001332225]]}}, {"type": "Feature", "properties": {"layer": "MEIO_FIO", "dxf_type": "LINE"}, "geometry": {"type": "LineString", "coordinates": [[-54.97964488320398, -10.236605971272724], [-54.98022842446843, -10.23613567827041]]}}, {"type": "Feature", "properties": {"layer": "MEIO_FIO", "dxf_type": "LINE"}, "geometry": {"type": "LineString", "coordinates": [[-54.979554318606326, -10.236659644640543], [-54.97886190068474, -10.235806581620897]]}}, {"type": "Feature", "properties": {"layer": "MEIO_FIO", "dxf_type": "LINE"}, "geometry": {"type": "LineString", "coordinates": [[-54.97884269513708, -10.235804479136739], [-54.978255405299215, -10.236268679934957]]}}, {"type": "Feature", "properties": {"layer": "MEIO_FIO", "dxf_type": "LINE"}, "geometry": {"type": "LineString", "coordinates": [[-54.97825342883993, -10.236287958975423], [-54.97896762361322, -10.237136535826432]]}}, {"type": "Feature", "properties": {"layer": "MEIO_FIO", "dxf_type": "LINE"}, "geometry": {"type": "LineString", "coordinates": [[-54.97939274114582, -10.23378369259348], [-54.97883033152324, -10.234252873085122]]}}, {"type": "Feature", "properties": {"layer": "MEIO_FIO", "dxf_type": "LINE"}, "geometry": {"type": "LineString", "coordinates": [[-54.97882851626726, -10.23427178163251], [-54.97952386455496, -10.235121385900861]]}}, {"type": "Feature", "properties": {"layer": "MEIO_FIO", "dxf_type": "LINE"}, "geometry": {"type": "LineString", "coordinates": [[-54.97954303842187, -10.235123442945593], [-54.98011881664081, -10.23466807115772]]}}, {"type": "Feature", "properties": {"layer": "MEIO_FIO", "dxf_type": "LINE"}, "geometry": {"type": "LineString", "coordinates": [[-54.979454835721626, -10.235177164474825], [-54.97875084672978, -10.23431713037798]]}}, {"type": "Feature", "properties": {"layer": "MEIO_FIO", "dxf_type": "LINE"}, "geometry": {"type": "LineString", "coordinates": [[-54.978731489473155, -10.234315221303042], [-54.978151387760775, -10.234790455952941]]}}, {"type": "Feature", "properties": {"layer": "MEIO_FIO", "dxf_type": "LINE"}, "geometry": {"type": "LineString", "coordinates": [[-54.9781495205411, -10.234809492520817], [-54.97885470380828, -10.23566263293166]]}}, {"type": "Feature", "properties": {"layer": "MEIO_FIO", "dxf_type": "LINE"}, "geometry": {"type": "LineString", "coordinates": [[-54.97887395435718, -10.235664544967262], [-54.97945286177583, -10.235196204920657]]}}, {"type": "Feature", "properties": {"layer": "MEIO_FIO", "dxf_type": "LINE"}, "geometry": {"type": "LineString", "coordinates": [[-54.98113973829477, -10.237067313580152], [-54.98171259004362, -10.23660953655403]]}}, {"type": "Feature", "properties": {"layer": "MEIO_FIO", "dxf_type": "LINE"}, "geometry": {"type": "LineString", "coordinates": [[-54.97806633756589, -10.234860519535953], [-54.97747122613393, -10.23533425102593]]}}, {"type": "Feature", "properties": {"layer": "MEIO_FIO", "dxf_type": "LINE"}, "geometry": {"type": "LineString", "coordinates": [[-54.97746920210505, -10.235353399595697], [-54.97817786880397, -10.23621224137466]]}}, {"type": "Feature", "properties": {"layer": "MEIO_FIO", "dxf_type": "LINE"}, "geometry": {"type": "LineString", "coordinates": [[-54.978197125704064, -10.236214162534312], [-54.97879372882228, -10.235731578943826]]}}, {"type": "Feature", "properties": {"layer": "MEIO_FIO", "dxf_type": "LINE"}, "geometry": {"type": "LineString", "coordinates": [[-54.978795616788716, -10.235712433122359], [-54.97808545839304, -10.23486244345729]]}}, {"type": "Feature", "properties": {"layer": "MEIO_FIO", "dxf_type": "LINE"}, "geometry": {"type": "LineString", "coordinates": [[-54.97740976592512, -10.235407304716418], [-54.978128302368034, -10.236252553430694]]}}, {"type": "Feature", "properties": {"layer": "MEIO_FIO", "dxf_type": "LINE"}, "geometry": {"type": "LineString", "coordinates": [[-54.978126475770125, -10.236271799955444], [-54.97767893672113, -10.236632814720407]]}}, {"type": "Feature", "properties": {"layer": "MEIO_FIO", "dxf_type": "LINE"}, "geometry": {"type": "LineString", "coordinates": [[-54.97696284039159, -10.235761632540418], [-54.97739048910072, -10.235405657281689]]}}, {"type": "Feature", "properties": {"layer": "MEIO_FIO", "dxf_type": "LINE"}, "geometry": {"type": "LineString", "coordinates": [[-54.977496336502334, -10.23678256265932], [-54.977049361402166, -10.237154594868874]]}}, {"type": "Feature", "properties": {"layer": "MEIO_FIO", "dxf_type": "LINE"}, "geometry": {"type": "LineString", "coordinates": [[-54.97703002740793, -10.237152881052566], [-54.976315756173086, -10.236301611274149]]}}, {"type": "Feature", "properties": {"layer": "MEIO_FIO", "dxf_type": "LINE"}, "geometry": {"type": "LineString", "coordinates": [[-54.97631761885324, -10.236282448164268], [-54.97677846528662, -10.23590925934515]]}}, {"type": "Feature", "properties": {"layer": "MEIO_FIO", "dxf_type": "LINE"}, "geometry": {"type": "LineString", "coordinates": [[-54.97627249483726, -10.236334101793771], [-54.97697972689891, -10.237197236938066]]}}, {"type": "Feature", "properties": {"layer": "MEIO_FIO", "dxf_type": "LINE"}, "geometry": {"type": "LineString", "coordinates": [[-54.97697783344272, -10.237216219987166], [-54.976524282734324, -10.237588571915525]]}}, {"type": "Feature", "properties": {"layer": "MEIO_FIO", "dxf_type": "LINE"}, "geometry": {"type": "LineString", "coordinates": [[-54.97650472689613, -10.237586437268398], [-54.97582432035384, -10.236716620041852]]}}, {"type": "Feature", "properties": {"layer": "MEIO_FIO", "dxf_type": "LINE"}, "geometry": {"type": "LineString", "coordinates": [[-54.9764556729439, -10.237627033291691], [-54.975782455893956, -10.23676640739039]]}}, {"type": "Feature", "properties": {"layer": "MEIO_FIO", "dxf_type": "LINE"}, "geometry": {"type": "LineString", "coordinates": [[-54.97582618470525, -10.236698062572724], [-54.97625291083461, -10.236332391809581]]}}, {"type": "Feature", "properties": {"layer": "MEIO_FIO", "dxf_type": "LINE"}, "geometry": {"type": "LineString", "coordinates": [[-54.9764535654816, -10.237645795349183], [-54.97599345290191, -10.238021910954352]]}}, {"type": "Feature", "properties": {"layer": "MEIO_FIO", "dxf_type": "LINE"}, "geometry": {"type": "LineString", "coordinates": [[-54.975280215407004, -10.237126920591434], [-54.97576336236687, -10.23676390859677]]}}, {"type": "Feature", "properties": {"layer": "MEIO_FIO", "dxf_type": "LINE"}, "geometry": {"type": "LineString", "coordinates": [[-54.97651746337532, -10.237701946114369], [-54.97723554006978, -10.238575870091417]]}}, {"type": "Feature", "properties": {"layer": "MEIO_FIO", "dxf_type": "LINE"}, "geometry": {"type": "LineString", "coordinates": [[-54.977233760207056, -10.238594783343073], [-54.976818689641945, -10.238942323596484]]}}, {"type": "Feature", "properties": {"layer": "MEIO_FIO", "dxf_type": "LINE"}, "geometry": {"type": "LineString", "coordinates": [[-54.97679949557473, -10.238940833883463], [-54.976054487843676, -10.238086863467736]]}}, {"type": "Feature", "properties": {"layer": "MEIO_FIO", "dxf_type": "LINE"}, "geometry": {"type": "LineString", "coordinates": [[-54.97605604449417, -10.238067613494323], [-54.97649804611398, -10.237700119657752]]}}, {"type": "Feature", "properties": {"layer": "MEIO_FIO", "dxf_type": "LINE"}, "geometry": {"type": "LineString", "coordinates": [[-54.977017280682446, -10.237272218615965], [-54.9765651377051, -10.237643613969166]]}}, {"type": "Feature", "properties": {"layer": "MEIO_FIO", "dxf_type": "LINE"}, "geometry": {"type": "LineString", "coordinates": [[-54.97656341090452, -10.237662790580258], [-54.97729012646216, -10.23851651330143]]}}, {"type": "Feature", "properties": {"layer": "MEIO_FIO", "dxf_type": "LINE"}, "geometry": {"type": "LineString", "coordinates": [[-54.9773096980874, -10.238517895955336], [-54.977739746308636, -10.23813830301352]]}}, {"type": "Feature", "properties": {"layer": "MEIO_FIO", "dxf_type": "LINE"}, "geometry": {"type": "LineString", "coordinates": [[-54.97774119567961, -10.238119549498593], [-54.97703657485988, -10.237274024385872]]}}, {"type": "Feature", "properties": {"layer": "MEIO_FIO", "dxf_type": "LINE"}, "geometry": {"type": "LineString", "coordinates": [[-54.97709101118024, -10.237228805662083], [-54.97781089583234, -10.238073772019957]]}}, {"type": "Feature", "properties": {"layer": "MEIO_FIO", "dxf_type": "LINE"}, "geometry": {"type": "LineString", "coordinates": [[-54.97783001515996, -10.238075529662092], [-54.978267628528, -10.237721561752418]]}}, {"type": "Feature", "properties": {"layer": "MEIO_FIO", "dxf_type": "LINE"}, "geometry": {"type": "LineString", "coordinates": [[-54.97754810876956, -10.236845814014606], [-54.977092878334695, -10.237209507885888]]}}, {"type": "Feature", "properties": {"layer": "MEIO_FIO", "dxf_type": "LINE"}, "geometry": {"type": "LineString", "coordinates": [[-54.97772899942045, -10.23669381371863], [-54.97817202779072, -10.236334506375677]]}}, {"type": "Feature", "properties": {"layer": "MEIO_FIO", "dxf_type": "LINE"}, "geometry": {"type": "LineString", "coordinates": [[-54.97819129301959, -10.236336410414435], [-54.97889878556802, -10.237192789917271]]}}, {"type": "Feature", "properties": {"layer": "MEIO_FIO", "dxf_type": "LINE"}, "geometry": {"type": "LineString", "coordinates": [[-54.978896864252384, -10.237211866832718], [-54.97845152635579, -10.237573033631003]]}}, {"type": "Feature", "properties": {"layer": "MEIO_FIO", "dxf_type": "LINE"}, "geometry": {"type": "LineString", "coordinates": [[-54.97896763573814, -10.23727817196528], [-54.979673651885506, -10.238130689759119]]}}, {"type": "Feature", "properties": {"layer": "MEIO_FIO", "dxf_type": "LINE"}, "geometry": {"type": "LineString", "coordinates": [[-54.97967166901174, -10.238149836808722], [-54.97922131623422, -10.23851004238764]]}}, {"type": "Feature", "properties": {"layer": "MEIO_FIO", "dxf_type": "LINE"}, "geometry": {"type": "LineString", "coordinates": [[-54.97850193926838, -10.237634399918969], [-54.97894843727312, -10.237276234027314]]}}, {"type": "Feature", "properties": {"layer": "MEIO_FIO", "dxf_type": "LINE"}, "geometry": {"type": "LineString", "coordinates": [[-54.97903710016437, -10.238657467055909], [-54.978603623935186, -10.239027523254085]]}}, {"type": "Feature", "properties": {"layer": "MEIO_FIO", "dxf_type": "LINE"}, "geometry": {"type": "LineString", "coordinates": [[-54.97858400194684, -10.239025727269947], [-54.97788015322573, -10.23815505756084]]}}, {"type": "Feature", "properties": {"layer": "MEIO_FIO", "dxf_type": "LINE"}, "geometry": {"type": "LineString", "coordinates": [[-54.97788211746358, -10.238136131885005], [-54.978316143014, -10.237780803822934]]}}, {"type": "Feature", "properties": {"layer": "MEIO_FIO", "dxf_type": "LINE"}, "geometry": {"type": "LineString", "coordinates": [[-54.97781397773637, -10.238208568245861], [-54.978515751242426, -10.2390744642755]]}}, {"type": "Feature", "properties": {"layer": "MEIO_FIO", "dxf_type": "LINE"}, "geometry": {"type": "LineString", "coordinates": [[-54.978513564004146, -10.239093589243058], [-54.978066299802784, -10.239443681751391]]}}, {"type": "Feature", "properties": {"layer": "MEIO_FIO", "dxf_type": "LINE"}, "geometry": {"type": "LineString", "coordinates": [[-54.97804713362702, -10.239441526998734], [-54.97735307908743, -10.23858435200269]]}}, {"type": "Feature", "properties": {"layer": "MEIO_FIO", "dxf_type": "LINE"}, "geometry": {"type": "LineString", "coordinates": [[-54.97735505170251, -10.23856540650277], [-54.97779459786902, -10.238206592946504]]}}, {"type": "Feature", "properties": {"layer": "MEIO_FIO", "dxf_type": "LINE"}, "geometry": {"type": "LineString", "coordinates": [[-54.97903799993109, -10.237206015745944], [-54.97960548177, -10.236740911486637]]}}, {"type": "Feature", "properties": {"layer": "MEIO_FIO", "dxf_type": "LINE"}, "geometry": {"type": "LineString", "coordinates": [[-54.97962472509837, -10.236742678819393], [-54.980339969250316, -10.237593070553167]]}}, {"type": "Feature", "properties": {"layer": "MEIO_FIO", "dxf_type": "LINE"}, "geometry": {"type": "LineString", "coordinates": [[-54.98033802043871, -10.237612322680969], [-54.97975214216394, -10.238078085808125]]}}, {"type": "Feature", "properties": {"layer": "MEIO_FIO", "dxf_type": "LINE"}, "geometry": {"type": "LineString", "coordinates": [[-54.97973294332611, -10.238076052993504], [-54.97903609470894, -10.237225002372313]]}}, {"type": "Feature", "properties": {"layer": "MEIO_FIO", "dxf_type": "LINE"}, "geometry": {"type": "LineString", "coordinates": [[-54.97865182083627, -10.239073978391739], [-54.979087520776815, -10.238719532075207]]}}, {"type": "Feature", "properties": {"layer": "MEIO_FIO", "dxf_type": "LINE"}, "geometry": {"type": "LineString", "coordinates": [[-54.97811935166168, -10.239509431342732], [-54.97855797169611, -10.239150728604923]]}}, {"type": "Feature", "properties": {"layer": "MEIO_FIO", "dxf_type": "LINE"}, "geometry": {"type": "LineString", "coordinates": [[-54.978644873839954, -10.239079659706771], [-54.97865182083627, -10.239073978391739]]}}, {"type": "Feature", "properties": {"layer": "MEIO_FIO", "dxf_type": "LINE"}, "geometry": {"type": "LineString", "coordinates": [[-54.97878203736614, -10.234185254152772], [-54.97934798540133, -10.233725951080014]]}}, {"type": "Feature", "properties": {"layer": "MEIO_FIO", "dxf_type": "LINE"}, "geometry": {"type": "LineString", "coordinates": [[-54.97863846871868, -10.232840736118018], [-54.9780565326327, -10.233314589381525]]}}, {"type": "Feature", "properties": {"layer": "MEIO_FIO", "dxf_type": "LINE"}, "geometry": {"type": "LineString", "coordinates": [[-54.978054668654174, -10.233333693764573], [-54.9787628057206, -10.234183397384376]]}}, {"type": "Feature", "properties": {"layer": "MEIO_FIO", "dxf_type": "LINE"}, "geometry": {"type": "LineString", "coordinates": [[-54.97858244080462, -10.232768928338183], [-54.97816407566066, -10.233119662336687]]}}, {"type": "Feature", "properties": {"layer": "MEIO_FIO", "dxf_type": "LINE"}, "geometry": {"type": "LineString", "coordinates": [[-54.97809909808562, -10.233174136175032], [-54.977267735564915, -10.233871098424377]]}}, {"type": "Feature", "properties": {"layer": "MEIO_FIO", "dxf_type": "LINE"}, "geometry": {"type": "LineString", "coordinates": [[-54.97736663604893, -10.232124979533939], [-54.97778918885371, -10.231779028873122]]}}, {"type": "Feature", "properties": {"layer": "MEIO_FIO", "dxf_type": "LINE"}, "geometry": {"type": "LineString", "coordinates": [[-54.977364632045635, -10.232143856155517], [-54.97814450868328, -10.233117739283138]]}}, {"type": "Feature", "properties": {"layer": "MEIO_FIO", "dxf_type": "LINE"}, "geometry": {"type": "LineString", "coordinates": [[-54.976988581438725, -10.23233845918912], [-54.9763056733763, -10.232907530514767]]}}, {"type": "Feature", "properties": {"layer": "MEIO_FIO", "dxf_type": "LINE"}, "geometry": {"type": "LineString", "coordinates": [[-54.97796546534579, -10.233389849289676], [-54.97739220495249, -10.2338662957815]]}}, {"type": "Feature", "properties": {"layer": "MEIO_FIO", "dxf_type": "LINE"}, "geometry": {"type": "LineString", "coordinates": [[-54.977390312403365, -10.233885148686765], [-54.977706275547966, -10.23427656780602]]}}, {"type": "Feature", "properties": {"layer": "MEIO_FIO", "dxf_type": "LINE"}, "geometry": {"type": "LineString", "coordinates": [[-54.97772572926111, -10.2342785173121], [-54.978307829080904, -10.233798067530444]]}}, {"type": "Feature", "properties": {"layer": "MEIO_FIO", "dxf_type": "LINE"}, "geometry": {"type": "LineString", "coordinates": [[-54.978309597070606, -10.23377898876132], [-54.97798479450045, -10.233391573826173]]}}, {"type": "Feature", "properties": {"layer": "MEIO_FIO", "dxf_type": "LINE"}, "geometry": {"type": "LineString", "coordinates": [[-54.97834983681781, -10.233855672766744], [-54.97776691042437, -10.234327720123254]]}}, {"type": "Feature", "properties": {"layer": "MEIO_FIO", "dxf_type": "LINE"}, "geometry": {"type": "LineString", "coordinates": [[-54.97776502249621, -10.234346854179604], [-54.97809179420284, -10.23473854815201]]}}, {"type": "Feature", "properties": {"layer": "MEIO_FIO", "dxf_type": "LINE"}, "geometry": {"type": "LineString", "coordinates": [[-54.978111113075755, -10.234740324155323], [-54.978697630398834, -10.234255818202682]]}}, {"type": "Feature", "properties": {"layer": "MEIO_FIO", "dxf_type": "LINE"}, "geometry": {"type": "LineString", "coordinates": [[-54.978699226193356, -10.234236548536623], [-54.978368864484274, -10.233857312253042]]}}, {"type": "Feature", "properties": {"layer": "MEIO_FIO", "dxf_type": "LINE"}, "geometry": {"type": "LineString", "coordinates": [[-54.97802886427406, -10.23479140125931], [-54.9777043802214, -10.234396715029607]]}}, {"type": "Feature", "properties": {"layer": "MEIO_FIO", "dxf_type": "LINE"}, "geometry": {"type": "LineString", "coordinates": [[-54.97768502181974, -10.23439484475371], [-54.97710048524484, -10.234875585210318]]}}, {"type": "Feature", "properties": {"layer": "MEIO_FIO", "dxf_type": "LINE"}, "geometry": {"type": "LineString", "coordinates": [[-54.97709864629088, -10.234894615608667], [-54.977424734624684, -10.235288365962722]]}}, {"type": "Feature", "properties": {"layer": "MEIO_FIO", "dxf_type": "LINE"}, "geometry": {"type": "LineString", "coordinates": [[-54.977444065962246, -10.235290194515578], [-54.978026998257405, -10.234810390829102]]}}, {"type": "Feature", "properties": {"layer": "MEIO_FIO", "dxf_type": "LINE"}, "geometry": {"type": "LineString", "coordinates": [[-54.97764201057165, -10.234342677475453], [-54.97706330810785, -10.234830911411372]]}}, {"type": "Feature", "properties": {"layer": "MEIO_FIO", "dxf_type": "LINE"}, "geometry": {"type": "LineString", "coordinates": [[-54.97704392264, -10.234829277750043], [-54.97671064998736, -10.2344337415745]]}}, {"type": "Feature", "properties": {"layer": "MEIO_FIO", "dxf_type": "LINE"}, "geometry": {"type": "LineString", "coordinates": [[-54.976712338542335, -10.23441468584094], [-54.977295533829924, -10.233927925760412]]}}, {"type": "Feature", "properties": {"layer": "MEIO_FIO", "dxf_type": "LINE"}, "geometry": {"type": "LineString", "coordinates": [[-54.97731490585424, -10.23392965693593], [-54.977643686594824, -10.234323718367394]]}}, {"type": "Feature", "properties": {"layer": "MEIO_FIO", "dxf_type": "LINE"}, "geometry": {"type": "LineString", "coordinates": [[-54.976646105241144, -10.234472109084999], [-54.97735815208296, -10.23533679775328]]}}, {"type": "Feature", "properties": {"layer": "MEIO_FIO", "dxf_type": "LINE"}, "geometry": {"type": "LineString", "coordinates": [[-54.97735622996906, -10.235355847524145], [-54.97692072858779, -10.235709952535867]]}}, {"type": "Feature", "properties": {"layer": "MEIO_FIO", "dxf_type": "LINE"}, "geometry": {"type": "LineString", "coordinates": [[-54.97673733786872, -10.235859066953008], [-54.97579260851954, -10.236627216558414]]}}, {"type": "Feature", "properties": {"layer": "MEIO_FIO", "dxf_type": "LINE"}, "geometry": {"type": "LineString", "coordinates": [[-54.975205378120656, -10.23710468412683], [-54.97520512219116, -10.237104892241597]]}}, {"type": "Feature", "properties": {"layer": "MEIO_FIO", "dxf_type": "LINE"}, "geometry": {"type": "LineString", "coordinates": [[-54.97634525257043, -10.232978193208758], [-54.97674263248124, -10.233497857360433]]}}, {"type": "Feature", "properties": {"layer": "MEIO_FIO", "dxf_type": "LINE"}, "geometry": {"type": "LineString", "coordinates": [[-54.97408998443773, -10.229890804018543], [-54.97493299104122, -10.231033351806097]]}}, {"type": "Feature", "properties": {"layer": "MEIO_FIO", "dxf_type": "LINE"}, "geometry": {"type": "LineString", "coordinates": [[-54.97493279835266, -10.231033085761187], [-54.97546717926942, -10.231779812393246]]}}, {"type": "Feature", "properties": {"layer": "MEIO_FIO", "dxf_type": "LINE"}, "geometry": {"type": "LineString", "coordinates": [[-54.97553446548625, -10.23187220124657], [-54.97617910611445, -10.232758459382316]]}}, {"type": "Feature", "properties": {"layer": "MEIO_FIO", "dxf_type": "LINE"}, "geometry": {"type": "LineString", "coordinates": [[-54.97623667476862, -10.232837605075655], [-54.97628575570519, -10.232905080903869]]}}, {"type": "Feature", "properties": {"layer": "MEIO_FIO", "dxf_type": "LINE"}, "geometry": {"type": "LineString", "coordinates": [[-54.97980960163694, -10.239598229699316], [-54.97935848546118, -10.23996190228233]]}}, {"type": "Feature", "properties": {"layer": "MEIO_FIO", "dxf_type": "LINE"}, "geometry": {"type": "LineString", "coordinates": [[-54.979272161062205, -10.240031493427704], [-54.97881934491763, -10.240396534740144]]}}, {"type": "Feature", "properties": {"layer": "MEIO_FIO", "dxf_type": "LINE"}, "geometry": {"type": "LineString", "coordinates": [[-54.97879991413461, -10.240394362105695], [-54.978117284218605, -10.239528224406797]]}}, {"type": "Feature", "properties": {"layer": "MEIO_FIO", "dxf_type": "LINE"}, "geometry": {"type": "LineString", "coordinates": [[-54.9798608426454, -10.239660919831273], [-54.97883187670086, -10.240516674939139]]}}, {"type": "Feature", "properties": {"layer": "MEIO_FIO", "dxf_type": "LINE"}, "geometry": {"type": "LineString", "coordinates": [[-54.97898682203914, -10.237138334558768], [-54.97955233409559, -10.236678620841344]]}}, {"type": "Feature", "properties": {"layer": "MEIO_FIO", "dxf_type": "LINE"}, "geometry": {"type": "LineString", "coordinates": [[-54.97927118549089, -10.23857055012817], [-54.979725248687465, -10.238208069779711]]}}, {"type": "Feature", "properties": {"layer": "MEIO_FIO", "dxf_type": "LINE"}, "geometry": {"type": "LineString", "coordinates": [[-54.97539509446976, -10.231787525464593], [-54.97704770981318, -10.234034813341005]]}}, {"type": "Feature", "properties": {"layer": "MEIO_FIO", "dxf_type": "LINE"}, "geometry": {"type": "LineString", "coordinates": [[-54.97657937753238, -10.234426827580544], [-54.9749380569511, -10.235742648528056]]}}, {"type": "Feature", "properties": {"layer": "MEIO_FIO", "dxf_type": "LINE"}, "geometry": {"type": "LineString", "coordinates": [[-54.97662688710153, -10.234470140188051], [-54.976189873535475, -10.234820489094725]]}}, {"type": "Feature", "properties": {"layer": "MEIO_FIO", "dxf_type": "LINE"}, "geometry": {"type": "LineString", "coordinates": [[-54.97600544624721, -10.234968342060023], [-54.975029506728006, -10.235750735497167]]}}, {"type": "Feature", "properties": {"layer": "MEIO_FIO", "dxf_type": "LINE"}, "geometry": {"type": "LineString", "coordinates": [[-54.977045257193, -10.234053335542159], [-54.97657937753238, -10.234426827580544]]}}, {"type": "Feature", "properties": {"layer": "MEIO_FIO", "dxf_type": "LINE"}, "geometry": {"type": "LineString", "coordinates": [[-54.9747466370572, -10.236545023758223], [-54.97517587283969, -10.237068688414412]]}}, {"type": "Feature", "properties": {"layer": "MEIO_FIO", "dxf_type": "LINE"}, "geometry": {"type": "LineString", "coordinates": [[-54.97517761402084, -10.237071424545073], [-54.975238343734006, -10.237198251633249]]}}, {"type": "Feature", "properties": {"layer": "MEIO_FIO", "dxf_type": "LINE"}, "geometry": {"type": "LineString", "coordinates": [[-54.97523996629631, -10.23720084149576], [-54.9767298156465, -10.239070456327001]]}}, {"type": "Feature", "properties": {"layer": "MEIO_FIO", "dxf_type": "LINE"}, "geometry": {"type": "LineString", "coordinates": [[-54.9752777437099, -10.23714612327964], [-54.97597399511515, -10.238019853713622]]}}, {"type": "Feature", "properties": {"layer": "MEIO_FIO", "dxf_type": "LINE"}, "geometry": {"type": "LineString", "coordinates": [[-54.976748434482, -10.239073146479114], [-54.97729792928954, -10.238690414093309]]}}, {"type": "Feature", "properties": {"layer": "MEIO_FIO", "dxf_type": "LINE"}, "geometry": {"type": "LineString", "coordinates": [[-54.97731653634316, -10.23869308967381], [-54.97871272585678, -10.240440236228293]]}}, {"type": "Feature", "properties": {"layer": "MEIO_FIO", "dxf_type": "LINE"}, "geometry": {"type": "LineString", "coordinates": [[-54.978715212928776, -10.240442643439948], [-54.97881482856554, -10.240517114054635]]}}, {"type": "Feature", "properties": {"layer": "MEIO_FIO", "dxf_type": "LINE"}, "geometry": {"type": "LineString", "coordinates": [[-54.97691728484551, -10.23585620771836], [-54.9775764089293, -10.23665839632676]]}}, {"type": "Feature", "properties": {"layer": "MEIO_FIO", "dxf_type": "LINE"}, "geometry": {"type": "LineString", "coordinates": [[-54.97768473807134, -10.236790239236234], [-54.97834842374956, -10.237597973700584]]}}, {"type": "Feature", "properties": {"layer": "MEIO_FIO", "dxf_type": "LINE"}, "geometry": {"type": "LineString", "coordinates": [[-54.978455790858916, -10.237728643533735], [-54.979118046705366, -10.238534633611659]]}}, {"type": "Feature", "properties": {"layer": "MEIO_FIO", "dxf_type": "LINE"}, "geometry": {"type": "LineString", "coordinates": [[-54.979225863599005, -10.238665850250841], [-54.97989031386231, -10.23947450424706]]}}, {"type": "Feature", "properties": {"layer": "MEIO_FIO", "dxf_type": "LINE"}, "geometry": {"type": "LineString", "coordinates": [[-54.97999897176611, -10.239606744675061], [-54.980407266300745, -10.240103648025553]]}}, {"type": "Feature", "properties": {"layer": "MEIO_FIO", "dxf_type": "LINE"}, "geometry": {"type": "LineString", "coordinates": [[-54.97696103028711, -10.235780570914876], [-54.97765967636708, -10.236630860059694]]}}, {"type": "Feature", "properties": {"layer": "MEIO_FIO", "dxf_type": "LINE"}, "geometry": {"type": "LineString", "coordinates": [[-54.977727054496434, -10.2367128624472], [-54.97843223750039, -10.23757110142555]]}}, {"type": "Feature", "properties": {"layer": "MEIO_FIO", "dxf_type": "LINE"}, "geometry": {"type": "LineString", "coordinates": [[-54.97849993749741, -10.23765349530896], [-54.979202099773005, -10.238508051911973]]}}, {"type": "Feature", "properties": {"layer": "MEIO_FIO", "dxf_type": "LINE"}, "geometry": {"type": "LineString", "coordinates": [[-54.97926915898353, -10.23858966526185], [-54.97997410724492, -10.239447608015684]]}}, {"type": "Feature", "properties": {"layer": "MEIO_FIO", "dxf_type": "LINE"}, "geometry": {"type": "LineString", "coordinates": [[-54.98004196377563, -10.23953019070308], [-54.98047096699278, -10.240052296261567]]}}, {"type": "Feature", "properties": {"layer": "MEIO_FIO", "dxf_type": "LINE"}, "geometry": {"type": "LineString", "coordinates": [[-54.976881895969306, -10.235884736629234], [-54.97754102000074, -10.23668692439844]]}}, {"type": "Feature", "properties": {"layer": "MEIO_FIO", "dxf_type": "LINE"}, "geometry": {"type": "LineString", "coordinates": [[-54.97764934913323, -10.236818767318523], [-54.978313034747245, -10.237626502751883]]}}, {"type": "Feature", "properties": {"layer": "MEIO_FIO", "dxf_type": "LINE"}, "geometry": {"type": "LineString", "coordinates": [[-54.97842040185287, -10.237757171691715], [-54.97908265764098, -10.23856316183463]]}}, {"type": "Feature", "properties": {"layer": "MEIO_FIO", "dxf_type": "LINE"}, "geometry": {"type": "LineString", "coordinates": [[-54.979190474525126, -10.238694378484382], [-54.979854923817356, -10.239503032540156]]}}, {"type": "Feature", "properties": {"layer": "MEIO_FIO", "dxf_type": "LINE"}, "geometry": {"type": "LineString", "coordinates": [[-54.97996358262414, -10.239635272984506], [-54.98037187712281, -10.24013217637508]]}}, {"type": "Feature", "properties": {"layer": "MEIO_FIO", "dxf_type": "LINE"}, "geometry": {"type": "LineString", "coordinates": [[-54.97679774576135, -10.235911197903814], [-54.97749814751119, -10.236763623379765]]}}, {"type": "Feature", "properties": {"layer": "MEIO_FIO", "dxf_type": "LINE"}, "geometry": {"type": "LineString", "coordinates": [[-54.977567318686795, -10.236847809046756], [-54.97826958720088, -10.23770250135135]]}}, {"type": "Feature", "properties": {"layer": "MEIO_FIO", "dxf_type": "LINE"}, "geometry": {"type": "LineString", "coordinates": [[-54.978335480496625, -10.237782696567475], [-54.97903878082412, -10.238638639030173]]}}, {"type": "Feature", "properties": {"layer": "MEIO_FIO", "dxf_type": "LINE"}, "geometry": {"type": "LineString", "coordinates": [[-54.979106825311064, -10.238721450793916], [-54.9798115776772, -10.239579155825092]]}}, {"type": "Feature", "properties": {"layer": "MEIO_FIO", "dxf_type": "LINE"}, "geometry": {"type": "LineString", "coordinates": [[-54.9798802610007, -10.239662745215137], [-54.980308176405856, -10.240183527209428]]}}, {"type": "Feature", "properties": {"layer": "MEIO_FIO", "dxf_type": "LINE"}, "geometry": {"type": "LineString", "coordinates": [[-54.98177521646183, -10.238014321037708], [-54.98119139500679, -10.238483978463606]]}}, {"type": "Feature", "properties": {"layer": "MEIO_FIO", "dxf_type": "LINE"}, "geometry": {"type": "LineString", "coordinates": [[-54.97502775745891, -10.235770136117102], [-54.97577356325749, -10.23662559847764]]}}, {"type": "Feature", "properties": {"layer": "MEIO_FIO", "dxf_type": "LINE"}, "geometry": {"type": "LineString", "coordinates": [[-54.97674539137278, -10.233500562748505], [-54.97725074098721, -10.23387164090231]]}}, {"type": "Feature", "properties": {"layer": "MEIO_FIO", "dxf_type": "LINE"}, "geometry": {"type": "LineString", "coordinates": [[-54.97695791921347, -10.23373538450708], [-54.97719549658372, -10.233909837671765]]}}, {"type": "Feature", "properties": {"layer": "MEIO_FIO", "dxf_type": "LINE"}, "geometry": {"type": "LineString", "coordinates": [[-54.97693885521479, -10.233754463302924], [-54.97711295287285, -10.233982133891011]]}}, {"type": "Feature", "properties": {"layer": "MEIO_FIO", "dxf_type": "LINE"}, "geometry": {"type": "LineString", "coordinates": [[-54.9771961878884, -10.233931079405613], [-54.97713270726669, -10.233984296813261]]}}, {"type": "Feature", "properties": {"layer": "MEIO_FIO", "dxf_type": "LINE"}, "geometry": {"type": "LineString", "coordinates": [[-54.97933915972028, -10.239959861404412], [-54.97864290412581, -10.239098589879106]]}}, {"type": "Feature", "properties": {"layer": "MEIO_FIO", "dxf_type": "LINE"}, "geometry": {"type": "LineString", "coordinates": [[-54.97857736172288, -10.23915269579801], [-54.97927419509863, -10.240012490429233]]}}, {"type": "Feature", "properties": {"layer": "MEIO_FIO", "dxf_type": "LINE"}, "geometry": {"type": "LineString", "coordinates": [[-54.975623173831046, -10.2288157158298], [-54.97409321025332, -10.2298716792443]]}}, {"type": "Feature", "properties": {"layer": "MEIO_FIO", "dxf_type": "LINE"}, "geometry": {"type": "LineString", "coordinates": [[-54.975581842345136, -10.2287561079588], [-54.974049616899705, -10.22981363265229]]}}, {"type": "Feature", "properties": {"layer": "MEIO_FIO", "dxf_type": "LINE"}, "geometry": {"type": "LineString", "coordinates": [[-54.975486174454545, -10.231783094229435], [-54.976971569329315, -10.230757511686269]]}}, {"type": "Feature", "properties": {"layer": "MEIO_FIO", "dxf_type": "LINE"}, "geometry": {"type": "LineString", "coordinates": [[-54.97553774461915, -10.231853152707899], [-54.97604201615702, -10.231504983023019]]}}, {"type": "Feature", "properties": {"layer": "MEIO_FIO", "dxf_type": "LINE"}, "geometry": {"type": "LineString", "coordinates": [[-54.976116878174395, -10.231453294538559], [-54.976566050701116, -10.23114316588632]]}}, {"type": "Feature", "properties": {"layer": "MEIO_FIO", "dxf_type": "LINE"}, "geometry": {"type": "LineString", "coordinates": [[-54.976668085217675, -10.231072716398561], [-54.97702604068787, -10.230825566841835]]}}, {"type": "Feature", "properties": {"layer": "MEIO_FIO", "dxf_type": "LWPOLYLINE"}, "geometry": {"type": "Polygon", "coordinates": [[[-54.97764934913323, -10.236818767318523], [-54.97768473807134, -10.236790239236234], [-54.97834842374956, -10.237597973700584], [-54.978313034747245, -10.237626502751883], [-54.97764934913323, -10.236818767318523]]]}}, {"type": "Feature", "properties": {"layer": "MEIO_FIO", "dxf_type": "LWPOLYLINE"}, "geometry": {"type": "Polygon", "coordinates": [[[-54.97842040185287, -10.237757171691715], [-54.978455790858916, -10.237728643533735], [-54.979118046705366, -10.238534633611659], [-54.97908265764098, -10.23856316183463], [-54.97842040185287, -10.237757171691715]]]}}, {"type": "Feature", "properties": {"layer": "MEIO_FIO", "dxf_type": "LWPOLYLINE"}, "geometry": {"type": "Polygon", "coordinates": [[[-54.979190473618296, -10.238694377574834], [-54.979225863599005, -10.238665850250841], [-54.97989031386231, -10.23947450424706], [-54.979854923817356, -10.239503032540156], [-54.979190473618296, -10.238694377574834]]]}}, {"type": "Feature", "properties": {"layer": "MEIO_FIO", "dxf_type": "LWPOLYLINE"}, "geometry": {"type": "Polygon", "coordinates": [[[-54.97693885521479, -10.233754463302924], [-54.97695791921347, -10.23373538450708], [-54.97719549658372, -10.233909837671765], [-54.97719618697586, -10.23393107939994], [-54.97713270726669, -10.233984296813261], [-54.97711295287285, -10.233982133891011], [-54.97693885521479, -10.233754463302924]]]}}, {"type": "Feature", "properties": {"layer": "MEIO_FIO", "dxf_type": "LINE"}, "geometry": {"type": "LineString", "coordinates": [[-54.982924523922215, -10.238024386914615], [-54.97702604068787, -10.230825566841835]]}}, {"type": "Feature", "properties": {"layer": "MEIO_FIO", "dxf_type": "LINE"}, "geometry": {"type": "LineString", "coordinates": [[-54.976197999528814, -10.23276168360955], [-54.976689373469284, -10.232424971322118]]}}, {"type": "Feature", "properties": {"layer": "MEIO_FIO", "dxf_type": "LINE"}, "geometry": {"type": "LineString", "coordinates": [[-54.976764420156925, -10.232373545090347], [-54.97721470071298, -10.232064989048933]]}}, {"type": "Feature", "properties": {"layer": "MEIO_FIO", "dxf_type": "LINE"}, "geometry": {"type": "LineString", "coordinates": [[-54.97623999329858, -10.232818528748632], [-54.976971982259705, -10.232316934185198]]}}, {"type": "Feature", "properties": {"layer": "MEIO_FIO", "dxf_type": "LINE"}, "geometry": {"type": "LineString", "coordinates": [[-54.97731698688804, -10.231994897094673], [-54.9777327797609, -10.231709972868819]]}}, {"type": "Feature", "properties": {"layer": "MEIO_FIO", "dxf_type": "LINE"}, "geometry": {"type": "LineString", "coordinates": [[-54.976729025798484, -10.232638934448566], [-54.97729507824342, -10.232181014974676]]}}, {"type": "Feature", "properties": {"layer": "MEIO_FIO", "dxf_type": "LINE"}, "geometry": {"type": "LineString", "coordinates": [[-54.97731473230669, -10.232183441184802], [-54.97750184461274, -10.23243345121626]]}}, {"type": "Feature", "properties": {"layer": "MEIO_FIO", "dxf_type": "LINE"}, "geometry": {"type": "LineString", "coordinates": [[-54.977501626347376, -10.232433188629072], [-54.978100828820075, -10.233155176493225]]}}, {"type": "Feature", "properties": {"layer": "MEIO_FIO", "dxf_type": "LINE"}, "geometry": {"type": "LineString", "coordinates": [[-54.97721814217977, -10.232046086110174], [-54.97658510736977, -10.231146535715137]]}}, {"type": "Feature", "properties": {"layer": "MEIO_FIO", "dxf_type": "LINE"}, "geometry": {"type": "LineString", "coordinates": [[-54.97674540282415, -10.232370148385451], [-54.976113476068385, -10.231472170582677]]}}, {"type": "Feature", "properties": {"layer": "MEIO_FIO", "dxf_type": "LINE"}, "geometry": {"type": "LineString", "coordinates": [[-54.976692814979884, -10.232406067492128], [-54.97606107284073, -10.231508351981676]]}}, {"type": "Feature", "properties": {"layer": "MEIO_FIO", "dxf_type": "LINE"}, "geometry": {"type": "LineString", "coordinates": [[-54.977297969564844, -10.231991500425211], [-54.97666468315159, -10.23109159245589]]}}, {"type": "Feature", "properties": {"layer": "MEIO_FIO", "dxf_type": "LINE"}, "geometry": {"type": "LineString", "coordinates": [[-54.97634730918278, -10.232959666747751], [-54.976729025798484, -10.232638934448566]]}}, {"type": "Feature", "properties": {"layer": "MEIO_FIO", "dxf_type": "LINE"}, "geometry": {"type": "LineString", "coordinates": [[-54.976129765435566, -10.234897748687374], [-54.976832343172376, -10.235752828765623]]}}, {"type": "Feature", "properties": {"layer": "MEIO_FIO", "dxf_type": "LINE"}, "geometry": {"type": "LineString", "coordinates": [[-54.97618786801783, -10.23483958623549], [-54.97690142702559, -10.235708031029835]]}}, {"type": "Feature", "properties": {"layer": "MEIO_FIO", "dxf_type": "LINE"}, "geometry": {"type": "LineString", "coordinates": [[-54.97609437572195, -10.234926276611436], [-54.97679695430937, -10.235781356764292]]}}, {"type": "Feature", "properties": {"layer": "MEIO_FIO", "dxf_type": "LINE"}, "geometry": {"type": "LineString", "coordinates": [[-54.97602467437435, -10.234970321907635], [-54.97673926908441, -10.235840028097293]]}}, {"type": "Feature", "properties": {"layer": "MEIO_FIO", "dxf_type": "LWPOLYLINE"}, "geometry": {"type": "Polygon", "coordinates": [[[-54.976129765435566, -10.234897748687374], [-54.97609437572195, -10.234926276611436], [-54.97679695430937, -10.235781356764292], [-54.976832343172376, -10.235752828765623], [-54.976129765435566, -10.234897748687374]]]}}, {"type": "Feature", "properties": {"layer": "MEIO_FIO", "dxf_type": "LINE"}, "geometry": {"type": "LineString", "coordinates": [[-54.982405527425655, -10.24140789403654], [-54.98226485842109, -10.241233988408002]]}}, {"type": "Feature", "properties": {"layer": "MEIO_FIO", "dxf_type": "LINE"}, "geometry": {"type": "LineString", "coordinates": [[-54.98220027701253, -10.241227332628275], [-54.98196755646308, -10.241416785587672]]}}, {"type": "Feature", "properties": {"layer": "MEIO_FIO", "dxf_type": "LINE"}, "geometry": {"type": "LineString", "coordinates": [[-54.98178383541464, -10.241566159109071], [-54.98136092110946, -10.241909702010757]]}}, {"type": "Feature", "properties": {"layer": "MEIO_FIO", "dxf_type": "LINE"}, "geometry": {"type": "LineString", "coordinates": [[-54.98136092110946, -10.241909702010757], [-54.98129076827197, -10.24196664343081]]}}, {"type": "Feature", "properties": {"layer": "MEIO_FIO", "dxf_type": "LINE"}, "geometry": {"type": "LineString", "coordinates": [[-54.98129076827197, -10.24196664343081], [-54.98128495921919, -10.24197059815388]]}}, {"type": "Feature", "properties": {"layer": "MEIO_FIO", "dxf_type": "LINE"}, "geometry": {"type": "LineString", "coordinates": [[-54.98128495921919, -10.24197059815388], [-54.9812777001662, -10.241971938793201]]}}, {"type": "Feature", "properties": {"layer": "MEIO_FIO", "dxf_type": "LINE"}, "geometry": {"type": "LineString", "coordinates": [[-54.9812777001662, -10.241971938793201], [-54.9812732860358, -10.241971924046299]]}}, {"type": "Feature", "properties": {"layer": "MEIO_FIO", "dxf_type": "LINE"}, "geometry": {"type": "LineString", "coordinates": [[-54.9812732860358, -10.241971924046299], [-54.98126799641002, -10.241971093956842]]}}, {"type": "Feature", "properties": {"layer": "MEIO_FIO", "dxf_type": "LINE"}, "geometry": {"type": "LineString", "coordinates": [[-54.98126799641002, -10.241971093956842], [-54.98126322619201, -10.241969520458037]]}}, {"type": "Feature", "properties": {"layer": "MEIO_FIO", "dxf_type": "LINE"}, "geometry": {"type": "LineString", "coordinates": [[-54.98126322619201, -10.241969520458037], [-54.98125942358325, -10.241967329264678]]}}, {"type": "Feature", "properties": {"layer": "MEIO_FIO", "dxf_type": "LINE"}, "geometry": {"type": "LineString", "coordinates": [[-54.98125942358325, -10.241967329264678], [-54.98124210910915, -10.24194638564036]]}}, {"type": "Feature", "properties": {"layer": "MEIO_FIO", "dxf_type": "LINE"}, "geometry": {"type": "LineString", "coordinates": [[-54.98124210910915, -10.24194638564036], [-54.981150127473136, -10.241837251751413]]}}, {"type": "Feature", "properties": {"layer": "MEIO_FIO", "dxf_type": "LINE"}, "geometry": {"type": "LineString", "coordinates": [[-54.982538618039506, -10.242127666937838], [-54.98253563788319, -10.242119380334548]]}}, {"type": "Feature", "properties": {"layer": "MEIO_FIO", "dxf_type": "LINE"}, "geometry": {"type": "LineString", "coordinates": [[-54.98253563788319, -10.242119380334548], [-54.98253527686225, -10.242113982623476]]}}, {"type": "Feature", "properties": {"layer": "MEIO_FIO", "dxf_type": "LINE"}, "geometry": {"type": "LineString", "coordinates": [[-54.98253527686225, -10.242113982623476], [-54.982536194593756, -10.242109129771483]]}}, {"type": "Feature", "properties": {"layer": "MEIO_FIO", "dxf_type": "LINE"}, "geometry": {"type": "LineString", "coordinates": [[-54.982536194593756, -10.242109129771483], [-54.9825388809796, -10.242101095262692]]}}, {"type": "Feature", "properties": {"layer": "MEIO_FIO", "dxf_type": "LINE"}, "geometry": {"type": "LineString", "coordinates": [[-54.9825388809796, -10.242101095262692], [-54.98258825700951, -10.242019987724102]]}}, {"type": "Feature", "properties": {"layer": "MEIO_FIO", "dxf_type": "LINE"}, "geometry": {"type": "LineString", "coordinates": [[-54.98248581907068, -10.242065723977742], [-54.98253355270534, -10.241987315293978]]}}, {"type": "Feature", "properties": {"layer": "MEIO_FIO", "dxf_type": "LINE"}, "geometry": {"type": "LineString", "coordinates": [[-54.98258825700951, -10.242019987724102], [-54.98260413936251, -10.241991630993644]]}}, {"type": "Feature", "properties": {"layer": "MEIO_FIO", "dxf_type": "LINE"}, "geometry": {"type": "LineString", "coordinates": [[-54.982532396709786, -10.241989294024599], [-54.982546710866664, -10.241963736034014]]}}, {"type": "Feature", "properties": {"layer": "MEIO_FIO", "dxf_type": "LINE"}, "geometry": {"type": "LineString", "coordinates": [[-54.98260413936251, -10.241991630993644], [-54.98262686849906, -10.241944723194427]]}}, {"type": "Feature", "properties": {"layer": "MEIO_FIO", "dxf_type": "LINE"}, "geometry": {"type": "LineString", "coordinates": [[-54.98254794689882, -10.241961367308365], [-54.98256761817713, -10.241920770664146]]}}, {"type": "Feature", "properties": {"layer": "MEIO_FIO", "dxf_type": "LINE"}, "geometry": {"type": "LineString", "coordinates": [[-54.98262686849906, -10.241944723194427], [-54.982640647347225, -10.241910298985454]]}}, {"type": "Feature", "properties": {"layer": "MEIO_FIO", "dxf_type": "LINE"}, "geometry": {"type": "LineString", "coordinates": [[-54.9825688986292, -10.241917871615543], [-54.982579983827854, -10.24189017842854]]}}, {"type": "Feature", "properties": {"layer": "MEIO_FIO", "dxf_type": "LINE"}, "geometry": {"type": "LineString", "coordinates": [[-54.982640647347225, -10.241910298985454], [-54.98265128247599, -10.24187786738939]]}}, {"type": "Feature", "properties": {"layer": "MEIO_FIO", "dxf_type": "LINE"}, "geometry": {"type": "LineString", "coordinates": [[-54.982580963668234, -10.241887481799836], [-54.9825889616584, -10.241863091349561]]}}, {"type": "Feature", "properties": {"layer": "MEIO_FIO", "dxf_type": "LINE"}, "geometry": {"type": "LineString", "coordinates": [[-54.98265128247599, -10.24187786738939], [-54.98265729853277, -10.241851419984691]]}}, {"type": "Feature", "properties": {"layer": "MEIO_FIO", "dxf_type": "LINE"}, "geometry": {"type": "LineString", "coordinates": [[-54.982590077664526, -10.241859065905835], [-54.98259291251542, -10.24184660222704]]}}, {"type": "Feature", "properties": {"layer": "MEIO_FIO", "dxf_type": "LINE"}, "geometry": {"type": "LineString", "coordinates": [[-54.98265729853277, -10.241851419984691], [-54.982659896410546, -10.24180022838179]]}}, {"type": "Feature", "properties": {"layer": "MEIO_FIO", "dxf_type": "LINE"}, "geometry": {"type": "LineString", "coordinates": [[-54.98259397123249, -10.241838936360194], [-54.98259554850868, -10.241807857779367]]}}, {"type": "Feature", "properties": {"layer": "MEIO_FIO", "dxf_type": "LINE"}, "geometry": {"type": "LineString", "coordinates": [[-54.982659896410546, -10.24180022838179], [-54.98265453645146, -10.241764768874633]]}}, {"type": "Feature", "properties": {"layer": "MEIO_FIO", "dxf_type": "LINE"}, "geometry": {"type": "LineString", "coordinates": [[-54.982595103246986, -10.241798896310685], [-54.98259247974784, -10.241781543840371]]}}, {"type": "Feature", "properties": {"layer": "MEIO_FIO", "dxf_type": "LINE"}, "geometry": {"type": "LineString", "coordinates": [[-54.98265453645146, -10.241764768874633], [-54.98264238621256, -10.241723915161133]]}}, {"type": "Feature", "properties": {"layer": "MEIO_FIO", "dxf_type": "LINE"}, "geometry": {"type": "LineString", "coordinates": [[-54.98259112282352, -10.241775465630072], [-54.9825817364989, -10.241743903234706]]}}, {"type": "Feature", "properties": {"layer": "MEIO_FIO", "dxf_type": "LINE"}, "geometry": {"type": "LineString", "coordinates": [[-54.98264238621256, -10.241723915161133], [-54.9826337810217, -10.241702895459312]]}}, {"type": "Feature", "properties": {"layer": "MEIO_FIO", "dxf_type": "LINE"}, "geometry": {"type": "LineString", "coordinates": [[-54.98248124097345, -10.242075907107466], [-54.98246216836683, -10.242138000757178]]}}, {"type": "Feature", "properties": {"layer": "MEIO_FIO", "dxf_type": "LINE"}, "geometry": {"type": "LineString", "coordinates": [[-54.98246216836683, -10.242138000757178], [-54.982442372139765, -10.242197340204026]]}}, {"type": "Feature", "properties": {"layer": "MEIO_FIO", "dxf_type": "LINE"}, "geometry": {"type": "LineString", "coordinates": [[-54.982442372139765, -10.242197340204026], [-54.98243905861338, -10.24220309476146]]}}, {"type": "Feature", "properties": {"layer": "MEIO_FIO", "dxf_type": "LINE"}, "geometry": {"type": "LineString", "coordinates": [[-54.98243905861338, -10.24220309476146], [-54.98243224972053, -10.242214640712438]]}}, {"type": "Feature", "properties": {"layer": "MEIO_FIO", "dxf_type": "LINE"}, "geometry": {"type": "LineString", "coordinates": [[-54.98243224972053, -10.242214640712438], [-54.98241620878016, -10.242236611187078]]}}, {"type": "Feature", "properties": {"layer": "MEIO_FIO", "dxf_type": "LINE"}, "geometry": {"type": "LineString", "coordinates": [[-54.98241620878016, -10.242236611187078], [-54.98239803207289, -10.242257039888393]]}}, {"type": "Feature", "properties": {"layer": "MEIO_FIO", "dxf_type": "LINE"}, "geometry": {"type": "LineString", "coordinates": [[-54.98239803207289, -10.242257039888393], [-54.982378717788826, -10.242273359562226]]}}, {"type": "Feature", "properties": {"layer": "MEIO_FIO", "dxf_type": "LINE"}, "geometry": {"type": "LineString", "coordinates": [[-54.981930924742066, -10.242633754127505], [-54.98188824827269, -10.242668770884173]]}}, {"type": "Feature", "properties": {"layer": "MEIO_FIO", "dxf_type": "LINE"}, "geometry": {"type": "LineString", "coordinates": [[-54.98188824827269, -10.242668770884173], [-54.9818799705019, -10.242674189100352]]}}, {"type": "Feature", "properties": {"layer": "MEIO_FIO", "dxf_type": "LINE"}, "geometry": {"type": "LineString", "coordinates": [[-54.9818799705019, -10.242674189100352], [-54.981870098739044, -10.242675518054739]]}}, {"type": "Feature", "properties": {"layer": "MEIO_FIO", "dxf_type": "LINE"}, "geometry": {"type": "LineString", "coordinates": [[-54.981870098739044, -10.242675518054739], [-54.981861085406926, -10.242675022812433]]}}, {"type": "Feature", "properties": {"layer": "MEIO_FIO", "dxf_type": "LINE"}, "geometry": {"type": "LineString", "coordinates": [[-54.981861085406926, -10.242675022812433], [-54.98185176859062, -10.24267172174182]]}}, {"type": "Feature", "properties": {"layer": "MEIO_FIO", "dxf_type": "LINE"}, "geometry": {"type": "LineString", "coordinates": [[-54.98185176859062, -10.24267172174182], [-54.98184427711048, -10.242666234582192]]}}, {"type": "Feature", "properties": {"layer": "MEIO_FIO", "dxf_type": "LINE"}, "geometry": {"type": "LineString", "coordinates": [[-54.98184427711048, -10.242666234582192], [-54.9818353314136, -10.242656057924838]]}}, {"type": "Feature", "properties": {"layer": "MEIO_FIO", "dxf_type": "LINE"}, "geometry": {"type": "LineString", "coordinates": [[-54.9818353314136, -10.242656057924838], [-54.981629784200685, -10.242410286715849]]}}, {"type": "Feature", "properties": {"layer": "MEIO_FIO", "dxf_type": "LINE"}, "geometry": {"type": "LineString", "coordinates": [[-54.981629784200685, -10.242410286715849], [-54.98161865092151, -10.242395942987672]]}}, {"type": "Feature", "properties": {"layer": "MEIO_FIO", "dxf_type": "LINE"}, "geometry": {"type": "LineString", "coordinates": [[-54.98161865092151, -10.242395942987672], [-54.98161795257292, -10.242386023609956]]}}, {"type": "Feature", "properties": {"layer": "MEIO_FIO", "dxf_type": "LINE"}, "geometry": {"type": "LineString", "coordinates": [[-54.98161795257292, -10.242386023609956], [-54.98162029762709, -10.242376409663386]]}}, {"type": "Feature", "properties": {"layer": "MEIO_FIO", "dxf_type": "LINE"}, "geometry": {"type": "LineString", "coordinates": [[-54.98162029762709, -10.242376409663386], [-54.98163108456192, -10.24236529609243]]}}, {"type": "Feature", "properties": {"layer": "MEIO_FIO", "dxf_type": "LINE"}, "geometry": {"type": "LineString", "coordinates": [[-54.98163108456192, -10.24236529609243], [-54.982473912818286, -10.241673562330872]]}}, {"type": "Feature", "properties": {"layer": "MEIO_FIO", "dxf_type": "LINE"}, "geometry": {"type": "LineString", "coordinates": [[-54.982444828837124, -10.24155631129021], [-54.982452864844625, -10.241566749844637]]}}, {"type": "Feature", "properties": {"layer": "MEIO_FIO", "dxf_type": "LINE"}, "geometry": {"type": "LineString", "coordinates": [[-54.982452864844625, -10.241566749844637], [-54.982456891739886, -10.241574315289485]]}}, {"type": "Feature", "properties": {"layer": "MEIO_FIO", "dxf_type": "LINE"}, "geometry": {"type": "LineString", "coordinates": [[-54.982456891739886, -10.241574315289485], [-54.982460597741444, -10.241583847471343]]}}, {"type": "Feature", "properties": {"layer": "MEIO_FIO", "dxf_type": "LINE"}, "geometry": {"type": "LineString", "coordinates": [[-54.982460597741444, -10.241583847471343], [-54.982460065209466, -10.241592439499472]]}}, {"type": "Feature", "properties": {"layer": "MEIO_FIO", "dxf_type": "LINE"}, "geometry": {"type": "LineString", "coordinates": [[-54.982460065209466, -10.241592439499472], [-54.98245739735536, -10.24160201801079]]}}, {"type": "Feature", "properties": {"layer": "MEIO_FIO", "dxf_type": "LINE"}, "geometry": {"type": "LineString", "coordinates": [[-54.98245739735536, -10.24160201801079], [-54.98244953892255, -10.241609823379125]]}}, {"type": "Feature", "properties": {"layer": "MEIO_FIO", "dxf_type": "LINE"}, "geometry": {"type": "LineString", "coordinates": [[-54.98244953892255, -10.241609823379125], [-54.981636508092734, -10.242278031455777]]}}, {"type": "Feature", "properties": {"layer": "MEIO_FIO", "dxf_type": "LINE"}, "geometry": {"type": "LineString", "coordinates": [[-54.981636508092734, -10.242278031455777], [-54.98158768020507, -10.242317606403144]]}}, {"type": "Feature", "properties": {"layer": "MEIO_FIO", "dxf_type": "LINE"}, "geometry": {"type": "LineString", "coordinates": [[-54.98158768020507, -10.242317606403144], [-54.98158009093556, -10.242322240672191]]}}, {"type": "Feature", "properties": {"layer": "MEIO_FIO", "dxf_type": "LINE"}, "geometry": {"type": "LineString", "coordinates": [[-54.98158009093556, -10.242322240672191], [-54.981571515414466, -10.242324236619055]]}}, {"type": "Feature", "properties": {"layer": "MEIO_FIO", "dxf_type": "LINE"}, "geometry": {"type": "LineString", "coordinates": [[-54.981571515414466, -10.242324236619055], [-54.9815623903361, -10.242322942519868]]}}, {"type": "Feature", "properties": {"layer": "MEIO_FIO", "dxf_type": "LINE"}, "geometry": {"type": "LineString", "coordinates": [[-54.9815623903361, -10.242322942519868], [-54.98155320815521, -10.242319567253839]]}}, {"type": "Feature", "properties": {"layer": "MEIO_FIO", "dxf_type": "LINE"}, "geometry": {"type": "LineString", "coordinates": [[-54.98155320815521, -10.242319567253839], [-54.98133348680601, -10.242056795708631]]}}, {"type": "Feature", "properties": {"layer": "MEIO_FIO", "dxf_type": "LINE"}, "geometry": {"type": "LineString", "coordinates": [[-54.98133348680601, -10.242056795708631], [-54.98132512411251, -10.242045349046117]]}}, {"type": "Feature", "properties": {"layer": "MEIO_FIO", "dxf_type": "LINE"}, "geometry": {"type": "LineString", "coordinates": [[-54.98132512411251, -10.242045349046117], [-54.98132425819987, -10.242037250017601]]}}, {"type": "Feature", "properties": {"layer": "MEIO_FIO", "dxf_type": "LINE"}, "geometry": {"type": "LineString", "coordinates": [[-54.98132425819987, -10.242037250017601], [-54.98132676562236, -10.242027792555392]]}}, {"type": "Feature", "properties": {"layer": "MEIO_FIO", "dxf_type": "LINE"}, "geometry": {"type": "LineString", "coordinates": [[-54.98132676562236, -10.242027792555392], [-54.98133341851378, -10.24201696427806]]}}, {"type": "Feature", "properties": {"layer": "MEIO_FIO", "dxf_type": "LINE"}, "geometry": {"type": "LineString", "coordinates": [[-54.98133341851378, -10.24201696427806], [-54.981341897834334, -10.242008536385024]]}}, {"type": "Feature", "properties": {"layer": "MEIO_FIO", "dxf_type": "LINE"}, "geometry": {"type": "LineString", "coordinates": [[-54.981341897834334, -10.242008536385024], [-54.98140498328834, -10.2419579806311]]}}, {"type": "Feature", "properties": {"layer": "MEIO_FIO", "dxf_type": "LINE"}, "geometry": {"type": "LineString", "coordinates": [[-54.98140498328834, -10.2419579806311], [-54.98218627871554, -10.241321564818918]]}}, {"type": "Feature", "properties": {"layer": "MEIO_FIO", "dxf_type": "LINE"}, "geometry": {"type": "LineString", "coordinates": [[-54.98218627871554, -10.241321564818918], [-54.98219516689324, -10.241317745784878]]}}, {"type": "Feature", "properties": {"layer": "MEIO_FIO", "dxf_type": "LINE"}, "geometry": {"type": "LineString", "coordinates": [[-54.98219516689324, -10.241317745784878], [-54.98220763477829, -10.241314855587845]]}}, {"type": "Feature", "properties": {"layer": "MEIO_FIO", "dxf_type": "LINE"}, "geometry": {"type": "LineString", "coordinates": [[-54.98220763477829, -10.241314855587845], [-54.98222238769448, -10.241315012203502]]}}, {"type": "Feature", "properties": {"layer": "MEIO_FIO", "dxf_type": "LINE"}, "geometry": {"type": "LineString", "coordinates": [[-54.98222238769448, -10.241315012203502], [-54.98223878201808, -10.241318398748843]]}}, {"type": "Feature", "properties": {"layer": "MEIO_FIO", "dxf_type": "LINE"}, "geometry": {"type": "LineString", "coordinates": [[-54.98223878201808, -10.241318398748843], [-54.98225022492434, -10.241322745264336]]}}, {"type": "Feature", "properties": {"layer": "MEIO_FIO", "dxf_type": "LINE"}, "geometry": {"type": "LineString", "coordinates": [[-54.98225022492434, -10.241322745264336], [-54.982257528845096, -10.241328160741366]]}}, {"type": "Feature", "properties": {"layer": "MEIO_FIO", "dxf_type": "LINE"}, "geometry": {"type": "LineString", "coordinates": [[-54.982257528845096, -10.241328160741366], [-54.982444828837124, -10.24155631129021]]}}, {"type": "Feature", "properties": {"layer": "MEIO_FIO", "dxf_type": "LINE"}, "geometry": {"type": "LineString", "coordinates": [[-54.98254619658279, -10.241581798727884], [-54.982511518938, -10.24153892782952]]}}, {"type": "Feature", "properties": {"layer": "MEIO_FIO", "dxf_type": "LINE"}, "geometry": {"type": "LineString", "coordinates": [[-54.98254619658279, -10.241581798727884], [-54.9826337810217, -10.241702895459312]]}}, {"type": "Feature", "properties": {"layer": "MEIO_FIO", "dxf_type": "LINE"}, "geometry": {"type": "LineString", "coordinates": [[-54.982540118167, -10.241682042306492], [-54.982575059844855, -10.241730353702486]]}}, {"type": "Feature", "properties": {"layer": "MEIO_FIO", "dxf_type": "LINE"}, "geometry": {"type": "LineString", "coordinates": [[-54.98175441435243, -10.24134498555843], [-54.98184692513895, -10.241456472754026]]}}, {"type": "Feature", "properties": {"layer": "MEIO_FIO", "dxf_type": "LINE"}, "geometry": {"type": "LineString", "coordinates": [[-54.981810800217424, -10.241299052312623], [-54.981903333659034, -10.24141056675165]]}}, {"type": "Feature", "properties": {"layer": "MEIO_FIO", "dxf_type": "LINE"}, "geometry": {"type": "LineString", "coordinates": [[-54.98178383541464, -10.241566159109071], [-54.98184058143581, -10.241520138612602]]}}]}