{"type": "FeatureCollection", "name": "mf", "crs": {"type": "name", "properties": {"name": "urn:ogc:def:crs:OGC:1.3:CRS84"}}, "properties": {"source": "8be78050_MAPA TRIBUTAÇÃO 2021 (1).dxf", "assumed_crs": "EPSG:4326", "local_crs": false, "note": "Coordenadas locais do desenho (sem CRS). Use base 'Só CAD' no mapa.", "extent": [4300.4554, 2373.7696, 8215.3349, 6186.7838], "georef": true, "transform": {"scale": 1, "rotation_deg": 0, "tx": 713717.6034368816, "ty": 8862616.121289995, "rmse_m": 0, "epsg": 31981}, "layer": "MF", "source_file": "8be78050_MAPA TRIBUTAÇÃO 2021 (1)_georef.geojson", "n_features": 31}, "features": [{"type": "Feature", "properties": {"layer": "MF", "dxf_type": "LINE"}, "geometry": {"type": "LineString", "coordinates": [[-54.996934593782214, -10.254731696067081], [-54.9964136876929, -10.254109665451757]]}}, {"type": "Feature", "properties": {"layer": "MF", "dxf_type": "LINE"}, "geometry": {"type": "LineString", "coordinates": [[-54.9964136876929, -10.254109665451757], [-54.996060046584965, -10.253678393118241]]}}, {"type": "Feature", "properties": {"layer": "MF", "dxf_type": "LINE"}, "geometry": {"type": "LineString", "coordinates": [[-54.996060046584965, -10.253678393118241], [-54.99560888385452, -10.253140205913473]]}}, {"type": "Feature", "properties": {"layer": "MF", "dxf_type": "LINE"}, "geometry": {"type": "LineString", "coordinates": [[-54.99560888385452, -10.253140205913473], [-54.99538687156781, -10.252875299468839]]}}, {"type": "Feature", "properties": {"layer": "MF", "dxf_type": "LINE"}, "geometry": {"type": "LineString", "coordinates": [[-54.995311078532914, -10.252784861744896], [-54.99489401102069, -10.252287212818347]]}}, {"type": "Feature", "properties": {"layer": "MF", "dxf_type": "LINE"}, "geometry": {"type": "LineString", "coordinates": [[-54.99483571982702, -10.252217658776493], [-54.99398574060196, -10.251203446968606]]}}, {"type": "Feature", "properties": {"layer": "MF", "dxf_type": "LINE"}, "geometry": {"type": "LineString", "coordinates": [[-54.99382866045111, -10.257292632403052], [-54.99218026256713, -10.255354123292607]]}}, {"type": "Feature", "properties": {"layer": "MF", "dxf_type": "LINE"}, "geometry": {"type": "LineString", "coordinates": [[-54.993890186281426, -10.257210638210267], [-54.99229920588867, -10.255339651919549]]}}, {"type": "Feature", "properties": {"layer": "MF", "dxf_type": "LINE"}, "geometry": {"type": "LineString", "coordinates": [[-54.998771958725335, -10.256975015178575], [-54.997366339061, -10.258116999886495]]}}, {"type": "Feature", "properties": {"layer": "MF", "dxf_type": "LINE"}, "geometry": {"type": "LineString", "coordinates": [[-54.99939451598526, -10.257667889381512], [-54.99968139464633, -10.258006384531061]]}}, {"type": "Feature", "properties": {"layer": "MF", "dxf_type": "LINE"}, "geometry": {"type": "LineString", "coordinates": [[-54.99868332030225, -10.256871767895033], [-54.99725728289317, -10.258008998236404]]}}, {"type": "Feature", "properties": {"layer": "MF", "dxf_type": "LINE"}, "geometry": {"type": "LineString", "coordinates": [[-54.99562942277455, -10.256020119549973], [-54.99702619313701, -10.254883930074705]]}}, {"type": "Feature", "properties": {"layer": "MF", "dxf_type": "LINE"}, "geometry": {"type": "LineString", "coordinates": [[-54.995523380623816, -10.2558801888453], [-54.99398728088523, -10.25397430494354]]}}, {"type": "Feature", "properties": {"layer": "MF", "dxf_type": "LINE"}, "geometry": {"type": "LineString", "coordinates": [[-54.99546745958165, -10.25592671474571], [-54.99393106937813, -10.25402046904965]]}}, {"type": "Feature", "properties": {"layer": "MF", "dxf_type": "LINE"}, "geometry": {"type": "LineString", "coordinates": [[-54.99395055787744, -10.253887666037459], [-54.994418830837986, -10.253522216942876]]}}, {"type": "Feature", "properties": {"layer": "MF", "dxf_type": "LINE"}, "geometry": {"type": "LineString", "coordinates": [[-54.99399173328701, -10.253936087547832], [-54.994458369202036, -10.253571915475964]]}}, {"type": "Feature", "properties": {"layer": "MF", "dxf_type": "LINE"}, "geometry": {"type": "LineString", "coordinates": [[-54.99441887302807, -10.25352218375828], [-54.99530704128825, -10.252823415302002]]}}, {"type": "Feature", "properties": {"layer": "MF", "dxf_type": "LINE"}, "geometry": {"type": "LineString", "coordinates": [[-54.994458369202036, -10.253571915475964], [-54.99534877637606, -10.252871385436496]]}}, {"type": "Feature", "properties": {"layer": "MF", "dxf_type": "LINE"}, "geometry": {"type": "LineString", "coordinates": [[-54.99400993233066, -10.252965981867932], [-54.994855651750925, -10.252283509533653]]}}, {"type": "Feature", "properties": {"layer": "MF", "dxf_type": "LINE"}, "geometry": {"type": "LineString", "coordinates": [[-54.99398932228138, -10.252935976401336], [-54.99483194671061, -10.252256001528284]]}}, {"type": "Feature", "properties": {"layer": "MF", "dxf_type": "LINE"}, "geometry": {"type": "LineString", "coordinates": [[-54.99693090530797, -10.2547699562401], [-54.99556216174441, -10.255884220146482]]}}, {"type": "Feature", "properties": {"layer": "MF", "dxf_type": "LINE"}, "geometry": {"type": "LineString", "coordinates": [[-54.995525511063825, -10.25610381410934], [-54.99393538221165, -10.257393404533051]]}}, {"type": "Feature", "properties": {"layer": "MF", "dxf_type": "LINE"}, "geometry": {"type": "LineString", "coordinates": [[-54.99393132507623, -10.257431296229386], [-54.99460488675319, -10.258267559238536]]}}, {"type": "Feature", "properties": {"layer": "MF", "dxf_type": "LINE"}, "geometry": {"type": "LineString", "coordinates": [[-54.9955640643977, -10.2561076451466], [-54.997163644844136, -10.258048072141818]]}}, {"type": "Feature", "properties": {"layer": "MF", "dxf_type": "LINE"}, "geometry": {"type": "LineString", "coordinates": [[-54.99384239688986, -10.257472874971262], [-54.99239371892352, -10.258630302923278]]}}, {"type": "Feature", "properties": {"layer": "MF", "dxf_type": "LINE"}, "geometry": {"type": "LineString", "coordinates": [[-54.99939451598526, -10.257667889381512], [-54.99881029329215, -10.256978547117129]]}}, {"type": "Feature", "properties": {"layer": "MF", "dxf_type": "LINE"}, "geometry": {"type": "LineString", "coordinates": [[-54.99546344664173, -10.255964581464061], [-54.99392851282153, -10.25721411914841]]}}, {"type": "Feature", "properties": {"layer": "MF", "dxf_type": "LINE"}, "geometry": {"type": "LineString", "coordinates": [[-54.996949479457335, -10.254749471297934], [-54.99695214344416, -10.25475266682124]]}}, {"type": "Feature", "properties": {"layer": "MF", "dxf_type": "LINE"}, "geometry": {"type": "LineString", "coordinates": [[-54.9970646788365, -10.254887616769235], [-54.99868725860922, -10.256833378143062]]}}, {"type": "Feature", "properties": {"layer": "MF", "dxf_type": "LINE"}, "geometry": {"type": "LineString", "coordinates": [[-54.9939506413338, -10.25388760147056], [-54.99218389366998, -10.255315645985398]]}}, {"type": "Feature", "properties": {"layer": "MF", "dxf_type": "LINE"}, "geometry": {"type": "LineString", "coordinates": [[-54.99389236192197, -10.254016378394509], [-54.99230283697689, -10.255301174608215]]}}]}