{"type": "FeatureCollection", "name": "pdf_numeracao_quadras", "crs": {"type": "name", "properties": {"name": "urn:ogc:def:crs:OGC:1.3:CRS84"}}, "properties": {"source": "8be78050_MAPA TRIBUTAÇÃO 2021 (1).dxf", "assumed_crs": "EPSG:4326", "local_crs": false, "note": "Coordenadas locais do desenho (sem CRS). Use base 'Só CAD' no mapa.", "extent": [4300.4554, 2373.7696, 8215.3349, 6186.7838], "georef": true, "transform": {"scale": 1, "rotation_deg": 0, "tx": 713717.6034368816, "ty": 8862616.121289995, "rmse_m": 0, "epsg": 31981}, "layer": "PDF_Numeração_Quadras", "source_file": "8be78050_MAPA TRIBUTAÇÃO 2021 (1)_georef.geojson", "n_features": 48}, "features": [{"type": "Feature", "properties": {"layer": "PDF_Numeração_Quadras", "dxf_type": "CIRCLE", "radius_m": 6.36}, "geometry": {"type": "Polygon", "coordinates": [[[-54.98673739803986, -10.25131976035496], [-54.986738585004446, -10.251308547385545], [-54.98674195764038, -10.251297778223751], [-54.986747386471386, -10.251287867869138], [-54.98675466283722, -10.25127919738564], [-54.986763507198404, -10.251272099490388], [-54.986773580161454, -10.251266846871177], [-54.98678449349846, -10.251263641407672], [-54.98679582936283, -10.251262606155333], [-54.98680715126314, -10.251263781797613], [-54.986818023256, -10.251267122245451], [-54.98682802908184, -10.251272499275233], [-54.98683678309313, -10.251279706212326], [-54.98684394936734, -10.251288466184613], [-54.98684925258951, -10.251298443036971], [-54.98685248892913, -10.251309253149559], [-54.986853534162115, -10.251320479950746], [-54.986852347195665, -10.25133169382522], [-54.98684897456836, -10.2513424620849], [-54.98684354573893, -10.251352372441604], [-54.98683626937307, -10.251361042927204], [-54.98682742501026, -10.251368140824239], [-54.98681735204426, -10.251373393444647], [-54.98680643870339, -10.251376598908584], [-54.986795102834854, -10.251377634160518], [-54.9867837809307, -10.251376458517063], [-54.98677290893491, -10.251373118067463], [-54.986762903107504, -10.251367741035587], [-54.986754149096235, -10.251360534096394], [-54.98674698282365, -10.251351774122321], [-54.98674167960444, -10.251341797268767], [-54.98673844326297, -10.251330988059628], [-54.98673739803986, -10.25131976035496]]]}}, {"type": "Feature", "properties": {"layer": "PDF_Numeração_Quadras", "dxf_type": "CIRCLE", "radius_m": 6.36}, "geometry": {"type": "Polygon", "coordinates": [[[-54.993086440986865, -10.250698768483197], [-54.99308762681329, -10.250687555441592], [-54.99309099923669, -10.25067678617139], [-54.99309642787638, -10.250666875670682], [-54.993103704079495, -10.250658205009], [-54.993112549225366, -10.25065110691601], [-54.99312262118767, -10.250645854070351], [-54.993133535392246, -10.250642648382753], [-54.99314487034386, -10.250641612894933], [-54.99315619228889, -10.250642788316105], [-54.9931670652822, -10.250646128565716], [-54.993177070323085, -10.250651505411053], [-54.99318582540947, -10.250658712206905], [-54.99319299187479, -10.250667472069923], [-54.99319829530938, -10.25067744885478], [-54.993201531874526, -10.250688258944232], [-54.99320257642489, -10.250699485761908], [-54.99320139059662, -10.25071069970857], [-54.993198018181836, -10.250721468076653], [-54.993192589543725, -10.250731378579449], [-54.99318531334058, -10.250740049243214], [-54.9931764681931, -10.250747147338007], [-54.99316639622783, -10.250752400184867], [-54.993155482019404, -10.250755605872879], [-54.993144146151025, -10.250756641354679], [-54.99313282511474, -10.250755465937953], [-54.99312195211851, -10.250752125686594], [-54.99311194707605, -10.250746748839166], [-54.99310319198969, -10.2507395420412], [-54.99309602552598, -10.250730782176415], [-54.993090722094365, -10.25072080539036], [-54.993087485527376, -10.250709996204357], [-54.993086440986865, -10.250698768483197]]]}}, {"type": "Feature", "properties": {"layer": "PDF_Numeração_Quadras", "dxf_type": "CIRCLE", "radius_m": 6.36}, "geometry": {"type": "Polygon", "coordinates": [[[-54.99262719464852, -10.251064674202016], [-54.99262838141293, -10.251053460267393], [-54.99263175385151, -10.251042691909774], [-54.99263718251245, -10.251032781420848], [-54.99264445873636, -10.251024110773605], [-54.9926533029892, -10.251017012691507], [-54.99266337588164, -10.251011759869463], [-54.99267429010111, -10.251008554200647], [-54.99268562506436, -10.251007518731637], [-54.99269694701734, -10.25100869417095], [-54.992707819102016, -10.25101203443167], [-54.9927178250553, -10.25101741129741], [-54.99272657922476, -10.251024618099795], [-54.99273374659437, -10.251033377977567], [-54.992739050016986, -10.25104335476814], [-54.99274228566008, -10.251054163950151], [-54.992743331099575, -10.251065391675763], [-54.99274214433901, -10.251076605611544], [-54.99273877281595, -10.251087373976567], [-54.99273334415659, -10.251097284467598], [-54.99272606702006, -10.251105955111289], [-54.99271722276561, -10.251113053195185], [-54.992707149870206, -10.251118306018414], [-54.992696236559475, -10.251121511693299], [-54.99268490067945, -10.251122547156287], [-54.99267357963522, -10.251121371721426], [-54.99266270663504, -10.2511180314533], [-54.992652700680175, -10.251112654585485], [-54.992643946510746, -10.25110544778099], [-54.99263678005534, -10.251096687907083], [-54.99263147663569, -10.251086711115292], [-54.99262824008386, -10.25107590192721], [-54.99262719464852, -10.251064674202016]]]}}, {"type": "Feature", "properties": {"layer": "PDF_Numeração_Quadras", "dxf_type": "CIRCLE", "radius_m": 6.36}, "geometry": {"type": "Polygon", "coordinates": [[[-54.992222983385034, -10.251309161130033], [-54.99222417016597, -10.251297947199934], [-54.99222754262159, -10.251287178849736], [-54.99223297129944, -10.25127726837089], [-54.99224024753947, -10.251268597735994], [-54.99224909180703, -10.251261499667992], [-54.99225916471223, -10.251256246861313], [-54.99227007802939, -10.251253041202839], [-54.99228141391268, -10.251252005755498], [-54.99229273586995, -10.251253181210256], [-54.99230360795562, -10.251256521485264], [-54.992313613906546, -10.251261898363532], [-54.9923223680704, -10.251269105176265], [-54.992329534518774, -10.251277865056121], [-54.99233483793004, -10.251287841851521], [-54.9923380744721, -10.251298651040933], [-54.99233911989623, -10.251309878765118], [-54.99233793312484, -10.251321091792505], [-54.99233456066645, -10.251331861048351], [-54.992329131990175, -10.251341771529288], [-54.99232185575012, -10.251350442166284], [-54.992313011480945, -10.25135754023607], [-54.99230293857279, -10.251362793043949], [-54.992292025251764, -10.25136599870284], [-54.99228068936431, -10.251367034149798], [-54.992269367403196, -10.25136585869385], [-54.9922584953146, -10.251362518417094], [-54.9922484893621, -10.251357141536731], [-54.992239735198275, -10.2513499347219], [-54.99223256875151, -10.251341174840263], [-54.99222726534321, -10.25133119804366], [-54.992224028810696, -10.251320387949932], [-54.992222983385034, -10.251309161130033]]]}}, {"type": "Feature", "properties": {"layer": "PDF_Numeração_Quadras", "dxf_type": "CIRCLE", "radius_m": 6.36}, "geometry": {"type": "Polygon", "coordinates": [[[-54.99186561100575, -10.25157860942821], [-54.99186679688356, -10.251567396400418], [-54.99187016936086, -10.251556627153072], [-54.99187559805488, -10.251546716683322], [-54.991882874310676, -10.251538046059588], [-54.991891719505546, -10.251530948010005], [-54.99190179151129, -10.251525695211592], [-54.991912705752064, -10.251522489573276], [-54.99192404073127, -10.251521454134815], [-54.99193536269421, -10.251522629603603], [-54.99194623569504, -10.251525969897184], [-54.9919562407328, -10.251531346781205], [-54.99196499580552, -10.25153855360898], [-54.99197216224716, -10.251547313495868], [-54.99197746564896, -10.251557290295693], [-54.99198070217347, -10.251568100390584], [-54.991981746676935, -10.251579327203997], [-54.991980560797266, -10.251590541136864], [-54.99197718832859, -10.251601309482094], [-54.99197175963614, -10.251611219953915], [-54.99196448338032, -10.25161989057977], [-54.99195563818383, -10.251626988631118], [-54.99194556617513, -10.251632241430746], [-54.9919346519305, -10.251635447069498], [-54.99192331603453, -10.2516364825019], [-54.99191199498035, -10.251635307037596], [-54.99190112197658, -10.251631966742249], [-54.99189111693725, -10.251626589856118], [-54.99188236186456, -10.251619383026267], [-54.991875195424534, -10.251610623137573], [-54.9918698920257, -10.251600646336561], [-54.991866655499344, -10.251589837145124], [-54.99186561100575, -10.25157860942821]]]}}, {"type": "Feature", "properties": {"layer": "PDF_Numeração_Quadras", "dxf_type": "CIRCLE", "radius_m": 6.36}, "geometry": {"type": "Polygon", "coordinates": [[[-54.991462842755176, -10.251776404892958], [-54.99146402864897, -10.251765191869598], [-54.991467401142465, -10.251754422629526], [-54.991472829852285, -10.251744512169665], [-54.99148010703545, -10.251735841563637], [-54.99148895133093, -10.25172874352222], [-54.99149902426037, -10.251723490744457], [-54.99150993759715, -10.251720285116114], [-54.9915212734947, -10.25171924969897], [-54.99153259454772, -10.251720425177187], [-54.99154346754808, -10.25172376548472], [-54.99155347258219, -10.251729142380977], [-54.99156222764826, -10.251736349218833], [-54.991569394080514, -10.251745109113253], [-54.991574697470504, -10.251755085917761], [-54.99157793398128, -10.251765896014344], [-54.99157897846959, -10.25177712282635], [-54.99157779257394, -10.251788336754768], [-54.991574420089066, -10.251799105092724], [-54.99156899138083, -10.251809015554677], [-54.99156171511023, -10.251817686168446], [-54.991552869894846, -10.251824785109886], [-54.99154279787504, -10.251830037894495], [-54.991531883627495, -10.251833242613724], [-54.99152054863838, -10.251834278036126], [-54.991509226668924, -10.251833102551078], [-54.991498354572535, -10.251829763151324], [-54.99148834862425, -10.251824386247328], [-54.991479594476495, -10.251817178509137], [-54.991472427133274, -10.25180841860729], [-54.99146712374623, -10.251798441801581], [-54.99146388723362, -10.25178763260845], [-54.991462842755176, -10.251776404892958]]]}}, {"type": "Feature", "properties": {"layer": "PDF_Numeração_Quadras", "dxf_type": "CIRCLE", "radius_m": 6.36}, "geometry": {"type": "Polygon", "coordinates": [[[-54.99104361930391, -10.251980147042888], [-54.99104480613261, -10.251968933125895], [-54.99104817863723, -10.25195816479729], [-54.99105360736344, -10.251948254347695], [-54.99106088364933, -10.25193958374856], [-54.991069727964174, -10.251932484817631], [-54.99107980090511, -10.251927232055456], [-54.991090715157654, -10.251924027352917], [-54.99110205014852, -10.251922991946419], [-54.99111337211685, -10.251924167445965], [-54.991124244209736, -10.251927506858443], [-54.991134250152605, -10.25193288377309], [-54.99114300429341, -10.251940091519652], [-54.991150170715834, -10.251948851421922], [-54.991155475006124, -10.251958828236953], [-54.9911587105957, -10.25196963742575], [-54.99115975597514, -10.25198086514582], [-54.99115856915598, -10.2519920781601], [-54.99115519756118, -10.252002847399996], [-54.99114976792395, -10.25201275784604], [-54.99114249163803, -10.252021428447259], [-54.99113364732727, -10.25202852647611], [-54.99112357438337, -10.252033779239461], [-54.99111266103386, -10.252036984851962], [-54.99110132512624, -10.252038020252431], [-54.99109000406666, -10.252036844757338], [-54.991079131063955, -10.252033504433571], [-54.991069125119516, -10.25202812751685], [-54.99106037097303, -10.252020920672054], [-54.99105320455223, -10.252012160768016], [-54.991047901177495, -10.25200218395743], [-54.991044664684885, -10.25199137385867], [-54.99104361930391, -10.251980147042888]]]}}, {"type": "Feature", "properties": {"layer": "PDF_Numeração_Quadras", "dxf_type": "CIRCLE", "radius_m": 6.36}, "geometry": {"type": "Polygon", "coordinates": [[[-54.99067094463256, -10.252244018607207], [-54.9906721314769, -10.252232804694431], [-54.9906755039979, -10.252222036372803], [-54.99068093274059, -10.252212125932633], [-54.990688209042425, -10.252203455345073], [-54.99069705336638, -10.252196357331242], [-54.99070712632611, -10.252191103679596], [-54.99071803967695, -10.252187898986426], [-54.99072937558865, -10.252186863600596], [-54.99074069664969, -10.252188039109019], [-54.99075156965732, -10.252191378540537], [-54.99076157559339, -10.252196756370838], [-54.99077032973562, -10.252203963223247], [-54.99077749615073, -10.252212723132773], [-54.99078279951836, -10.252222699946735], [-54.9907860360081, -10.252233509142815], [-54.990787081373234, -10.25224473686158], [-54.99078589453843, -10.252255949871648], [-54.99078252201466, -10.252266719098943], [-54.99077709327355, -10.252276629541186], [-54.99076981697169, -10.252285300130863], [-54.99076097264612, -10.25229239814646], [-54.99075089968913, -10.25229765089544], [-54.99073998541614, -10.252300856487285], [-54.99072865041286, -10.252301891878338], [-54.990717328435395, -10.252300716363118], [-54.990706456343126, -10.252297376031592], [-54.99069645039978, -10.252291999103065], [-54.99068769625758, -10.252284792248576], [-54.990680529844084, -10.252276032337242], [-54.99067522647942, -10.252266055522103], [-54.99067198999923, -10.25225524542169], [-54.99067094463256, -10.252244018607207]]]}}, {"type": "Feature", "properties": {"layer": "PDF_Numeração_Quadras", "dxf_type": "CIRCLE", "radius_m": 6.36}, "geometry": {"type": "Polygon", "coordinates": [[[-54.99029550760397, -10.252509072942273], [-54.990296693551464, -10.252497859028097], [-54.99030006608895, -10.252487090713464], [-54.990305494848215, -10.252477180282819], [-54.9903127711661, -10.252468509706903], [-54.99032161642325, -10.25246141080816], [-54.990331688477845, -10.252456158069254], [-54.990342602757906, -10.252452952492943], [-54.9903539386722, -10.252451918026166], [-54.990365259744244, -10.252453092645291], [-54.99037613274831, -10.252456432994205], [-54.99038613777637, -10.252461809926842], [-54.99039489282116, -10.252469017698564], [-54.990402059228884, -10.252477777615416], [-54.990407362586375, -10.252487754433945], [-54.9904105990636, -10.252498563631711], [-54.99041164350173, -10.252509791343519], [-54.99041045756377, -10.252521004354985], [-54.99040708502352, -10.252531773575269], [-54.99040165627152, -10.252541683104123], [-54.990394379947915, -10.252550354586024], [-54.99038553469485, -10.252557452582666], [-54.99037546263729, -10.252562705322772], [-54.99036454835337, -10.252565910899516], [-54.99035321334751, -10.252566945371537], [-54.99034189135902, -10.252565770745594], [-54.99033101835203, -10.252562430394914], [-54.990321013322394, -10.25255705346018], [-54.990312258271935, -10.252549846590243], [-54.99030509187153, -10.252541085767723], [-54.9902997885113, -10.25253110985188], [-54.99029655204363, -10.252520299749799], [-54.99029550760397, -10.252509072942273]]]}}, {"type": "Feature", "properties": {"layer": "PDF_Numeração_Quadras", "dxf_type": "CIRCLE", "radius_m": 6.36}, "geometry": {"type": "Polygon", "coordinates": [[[-54.989874266456376, -10.252700688264245], [-54.98987545333303, -10.25268947436033], [-54.98987882588719, -10.252678706053288], [-54.98988425466263, -10.25266879563291], [-54.98989153099554, -10.252660125069523], [-54.9899003753477, -10.252653027083388], [-54.989910448325986, -10.252647774365732], [-54.98992136170189, -10.252644568800024], [-54.98993269762734, -10.252643533445642], [-54.98994401869596, -10.25264470898433], [-54.98995489169902, -10.252648049347716], [-54.989964897635446, -10.252653426298723], [-54.98997365176602, -10.252660633171367], [-54.98998081816366, -10.252669393096056], [-54.98998612150864, -10.252679369919454], [-54.989989357971446, -10.252690179118952], [-54.98999040330637, -10.252701406834934], [-54.98998921643927, -10.252712619836139], [-54.98998584388233, -10.25272338904883], [-54.98998041510847, -10.2527332994713], [-54.98997313877553, -10.252741970036766], [-54.989964294421746, -10.252749068024706], [-54.989954221440506, -10.252754320743563], [-54.989943307148145, -10.252757526304038], [-54.989931972131124, -10.252758561663681], [-54.98992065014607, -10.252757386118162], [-54.98990977805266, -10.25275404575867], [-54.98989977211467, -10.25274866880557], [-54.98989101798412, -10.252741461930809], [-54.989883851588104, -10.252732702004351], [-54.98987854824608, -10.252722725179757], [-54.98987531179284, -10.252711915075942], [-54.989874266456376, -10.252700688264245]]]}}, {"type": "Feature", "properties": {"layer": "PDF_Numeração_Quadras", "dxf_type": "CIRCLE", "radius_m": 6.36}, "geometry": {"type": "Polygon", "coordinates": [[[-54.98954380269131, -10.252985867115516], [-54.98954498866976, -10.252974653209764], [-54.98954836123933, -10.252963884909029], [-54.98955379003056, -10.25295397449722], [-54.98956106637906, -10.252945303944351], [-54.9895699116643, -10.252938205071993], [-54.989579983743376, -10.252932952361778], [-54.98959089803768, -10.252929747719255], [-54.989602233059706, -10.25292871237292], [-54.9896135550474, -10.252929887930453], [-54.98962442714712, -10.252933227396518], [-54.98963443308402, -10.252938604358265], [-54.989643187206276, -10.252945812143668], [-54.98965035451089, -10.252954572080634], [-54.98965565784749, -10.252964548908201], [-54.989658894299474, -10.252975358109236], [-54.98965993870893, -10.252986585818414], [-54.98965875274001, -10.252997798821456], [-54.989655380167676, -10.253008568027841], [-54.98964995137801, -10.25301847844174], [-54.989642674116894, -10.253027148991062], [-54.98963382974834, -10.25303424696697], [-54.9896237567537, -10.253039499672738], [-54.98961284336243, -10.253042705225225], [-54.98960150742365, -10.253043740565507], [-54.98959018634471, -10.25304256501245], [-54.98957931333516, -10.253039224635087], [-54.98956930830929, -10.253033847676898], [-54.98956055326876, -10.253026640787628], [-54.98955338687835, -10.253017880854525], [-54.98954808354471, -10.25300790402576], [-54.9895448471023, -10.25299709392041], [-54.98954380269131, -10.252985867115516]]]}}, {"type": "Feature", "properties": {"layer": "PDF_Numeração_Quadras", "dxf_type": "CIRCLE", "radius_m": 6.36}, "geometry": {"type": "Polygon", "coordinates": [[[-54.989074066409316, -10.253083998836692], [-54.98907525240502, -10.253072784935938], [-54.98907862499121, -10.25306201664338], [-54.989084053797804, -10.253052106242563], [-54.98909133015981, -10.25304343570313], [-54.98910017545048, -10.253036337750004], [-54.9891102475379, -10.25303108505646], [-54.98912116184313, -10.253027879527421], [-54.98913249686705, -10.25302684419843], [-54.98914381885326, -10.253028019772689], [-54.98915469094245, -10.253031360158039], [-54.98916469687136, -10.253036737133309], [-54.98917345098852, -10.253043944025954], [-54.98918061827989, -10.253052703971203], [-54.98918592160132, -10.253062680803918], [-54.989189157124194, -10.25307349000107], [-54.98919020242905, -10.253084717714254], [-54.989189015530286, -10.253095930706653], [-54.98918564385392, -10.253106699910527], [-54.989180215048904, -10.253116610313416], [-54.98917293777428, -10.253125280849313], [-54.98916409339458, -10.253132378809859], [-54.9891540203916, -10.253137631498973], [-54.98914310699511, -10.253140837034088], [-54.989131771054424, -10.253141872357011], [-54.98912044997697, -10.253140696787243], [-54.989109576972254, -10.253137356394479], [-54.98909957195436, -10.25313197942275], [-54.989090816924644, -10.253124772522375], [-54.989083650547485, -10.253116012580973], [-54.98907834722902, -10.253106035747077], [-54.98907511080311, -10.253095225639948], [-54.989074066409316, -10.253083998836692]]]}}, {"type": "Feature", "properties": {"layer": "PDF_Numeração_Quadras", "dxf_type": "CIRCLE", "radius_m": 6.36}, "geometry": {"type": "Polygon", "coordinates": [[[-54.991281671147014, -10.250749544015898], [-54.991282857954516, -10.250738330094784], [-54.99128623043048, -10.250727561758934], [-54.99129165912166, -10.250717651299261], [-54.9912989353675, -10.25070898068762], [-54.99130777963312, -10.250701882646064], [-54.9913178525287, -10.25069662986801], [-54.99132876582894, -10.250693424239232], [-54.99134010168866, -10.250692388821518], [-54.99135142270402, -10.250693564299063], [-54.991362295668324, -10.250696904605837], [-54.991372301582, -10.25070228150693], [-54.991381055706704, -10.250709488338309], [-54.99138822211556, -10.25071824823191], [-54.991393525488434, -10.250728225035642], [-54.99139676199473, -10.250739034227639], [-54.99139780738707, -10.250750261948559], [-54.9913966205891, -10.250761474966971], [-54.99139324811036, -10.250772244208465], [-54.991387819420765, -10.250782154670228], [-54.9913805431749, -10.250790825283968], [-54.99137169890767, -10.250797923327308], [-54.99136162600912, -10.250803176106565], [-54.991350711792435, -10.250806381730118], [-54.99133937684114, -10.250807417153085], [-54.991328054909346, -10.250806241668714], [-54.9913171828547, -10.25080290136583], [-54.99130717693946, -10.250797524462646], [-54.99129842281478, -10.250790317629168], [-54.991291256407536, -10.250781557733779], [-54.991285953037625, -10.250771580928854], [-54.99128271654089, -10.250760770832542], [-54.991281671147014, -10.250749544015898]]]}}, {"type": "Feature", "properties": {"layer": "PDF_Numeração_Quadras", "dxf_type": "CIRCLE", "radius_m": 6.36}, "geometry": {"type": "Polygon", "coordinates": [[[-54.98943098912438, -10.25208294523155], [-54.9894321760098, -10.252071731331393], [-54.98943554856747, -10.252060963030177], [-54.98944097734101, -10.25205105261748], [-54.989448253666694, -10.252042382063348], [-54.98945709800657, -10.252035284087636], [-54.989467170967984, -10.25203003138122], [-54.98947808432309, -10.252026825827128], [-54.989489420224594, -10.252025790484284], [-54.98950074217966, -10.252026966039624], [-54.989511614242765, -10.252030306407441], [-54.98952162015167, -10.252035683367184], [-54.98953037425563, -10.252042890246923], [-54.98953754062856, -10.252051650176734], [-54.989542843951725, -10.252061627003128], [-54.98954608039641, -10.252072436203377], [-54.98954712571762, -10.252083663917832], [-54.989545938841744, -10.25209487691528], [-54.989542566281294, -10.252105646122146], [-54.98953713750933, -10.252115556536934], [-54.98952986118362, -10.25212422709316], [-54.989521016842126, -10.252131325070659], [-54.989510943877754, -10.252136577778272], [-54.98950003051879, -10.252139783332801], [-54.989488694613115, -10.252140818675246], [-54.989477372654214, -10.252139643118724], [-54.98946650058817, -10.252136302749143], [-54.989456494677704, -10.252130925787307], [-54.989447740573766, -10.252123718905473], [-54.98944057420245, -10.252114958973879], [-54.98943527088226, -10.252104982146282], [-54.98943203444713, -10.252094172041717], [-54.98943098912438, -10.25208294523155]]]}}, {"type": "Feature", "properties": {"layer": "PDF_Numeração_Quadras", "dxf_type": "CIRCLE", "radius_m": 5.73}, "geometry": {"type": "Polygon", "coordinates": [[[-54.99191510180522, -10.24932657639822], [-54.99191617019194, -10.24931648079007], [-54.99191920641031, -10.249306785123203], [-54.991924094035525, -10.249297861997075], [-54.99193064564329, -10.249290054647027], [-54.9919386083651, -10.2492836643236], [-54.991947677673735, -10.249278935011263], [-54.9919575038056, -10.249276048044504], [-54.991967710046524, -10.249275116797286], [-54.991977902849925, -10.249276174090815], [-54.99198769276361, -10.249279182265779], [-54.99199670088048, -10.24928402327927], [-54.99200458339862, -10.24929051151127], [-54.99201103523751, -10.249298399210526], [-54.992015810993315, -10.249307382047611], [-54.992018724842126, -10.24931711448083], [-54.992019665974276, -10.249327222506535], [-54.992018597584966, -10.249337319019517], [-54.992015561368966, -10.249347014687833], [-54.99201067283245, -10.249355937809998], [-54.99200412214293, -10.24936374426352], [-54.99199615850154, -10.24937013548662], [-54.991987090103095, -10.24937486480557], [-54.99197726306121, -10.24937775086318], [-54.9919670577238, -10.249378683019575], [-54.9919568640104, -10.249377624815594], [-54.99194707500123, -10.249374617548698], [-54.9919380659705, -10.249369776527873], [-54.99193018437065, -10.249363287395948], [-54.99192373161479, -10.249355400593474], [-54.99191895677398, -10.249346417761068], [-54.99191604292829, -10.249336685327483], [-54.99191510180522, -10.24932657639822]]]}}, {"type": "Feature", "properties": {"layer": "PDF_Numeração_Quadras", "dxf_type": "CIRCLE", "radius_m": 6.36}, "geometry": {"type": "Polygon", "coordinates": [[[-54.99106567588562, -10.250126203573327], [-54.991066861775714, -10.250114990551841], [-54.99107023425356, -10.250104221314116], [-54.99107566293068, -10.250094311760824], [-54.99108294008223, -10.250085640253882], [-54.99109178433151, -10.250078542215583], [-54.99110185720766, -10.250073289440968], [-54.99111277048609, -10.250070083815704], [-54.991124106316775, -10.250069049305283], [-54.99113542731387, -10.25007022388217], [-54.9911463002545, -10.250073564191805], [-54.991156305233105, -10.250078941089695], [-54.99116506024998, -10.250086147928616], [-54.99117222663557, -10.250094908727387], [-54.9911775300001, -10.250104884627879], [-54.991180766490714, -10.250115694723686], [-54.99118181097062, -10.25012692153435], [-54.99118062507867, -10.250138135460908], [-54.99117725260375, -10.250148904700396], [-54.991171823928205, -10.250158814255762], [-54.99116454768922, -10.250167485770463], [-54.99115570252574, -10.250174583804887], [-54.99114563055922, -10.250179836586362], [-54.991134716364336, -10.250183042206414], [-54.99112338144207, -10.250184076722059], [-54.991112059528554, -10.250182902138375], [-54.99110118749758, -10.250179561832615], [-54.991091181604816, -10.250174184926976], [-54.99108242750056, -10.250166978091617], [-54.99107526020399, -10.2501582172854], [-54.99106995684242, -10.250148241383723], [-54.99106672035567, -10.250137431287486], [-54.99106567588562, -10.250126203573327]]]}}, {"type": "Feature", "properties": {"layer": "PDF_Numeração_Quadras", "dxf_type": "CIRCLE", "radius_m": 6.36}, "geometry": {"type": "Polygon", "coordinates": [[[-54.99007517623188, -10.2508174836347], [-54.990076362169134, -10.250806269720512], [-54.99007973468462, -10.25079550140515], [-54.990085163411, -10.250785590973027], [-54.99009244059895, -10.250776920400641], [-54.99010128488727, -10.25076982239745], [-54.99011135779786, -10.250764569661033], [-54.99012227110484, -10.25076136407559], [-54.99013360696277, -10.250760328701197], [-54.990144927967904, -10.25076150422043], [-54.99015580091391, -10.250764844565618], [-54.990165806801926, -10.250770221500407], [-54.990174560894594, -10.250777428359457], [-54.990181727266275, -10.25078618827364], [-54.99018703059826, -10.250796165090087], [-54.990190267061514, -10.250806974286395], [-54.99019131241034, -10.25081820200312], [-54.99019012556433, -10.25082941591285], [-54.99018675305177, -10.250840184229984], [-54.99018132432697, -10.250850094664179], [-54.990174048051585, -10.250858765244326], [-54.990165203761656, -10.250865863249286], [-54.9901551308481, -10.250871115986914], [-54.990144216624664, -10.250874321567146], [-54.99013288167515, -10.250875356946768], [-54.990121559753604, -10.250874181420732], [-54.99011068771725, -10.250870841079424], [-54.99010068182766, -10.250865464142526], [-54.99009192773502, -10.250858257281397], [-54.99008476045237, -10.250849497359768], [-54.99007945712335, -10.250839520542137], [-54.990076220663944, -10.250828711345394], [-54.99007517623188, -10.2508174836347]]]}}, {"type": "Feature", "properties": {"layer": "PDF_Numeração_Quadras", "dxf_type": "CIRCLE", "radius_m": 6.36}, "geometry": {"type": "Polygon", "coordinates": [[[-54.98906897013729, -10.251545321958382], [-54.989070157023825, -10.251534108965123], [-54.98907352958949, -10.251523339764697], [-54.989078958360714, -10.251513429358148], [-54.98908623467956, -10.251504758811404], [-54.989095079008344, -10.251497660844029], [-54.989105151954824, -10.251492408146587], [-54.98911606529173, -10.251489202601768], [-54.9891274011668, -10.251488168171981], [-54.98913872219246, -10.251489342826586], [-54.98914959514475, -10.251492683208047], [-54.989159601030245, -10.251498060174738], [-54.9891683551117, -10.251505267060095], [-54.9891755214639, -10.251514026993972], [-54.98918082476888, -10.25152400382273], [-54.98918406119295, -10.25153481392743], [-54.98918510650879, -10.25154604073675], [-54.989183919620395, -10.251557254635063], [-54.989180547063356, -10.251568022933373], [-54.98917511829371, -10.251577933342016], [-54.98916784197483, -10.251586603890859], [-54.98915899763873, -10.2515937027639], [-54.98914892468929, -10.25159895546254], [-54.98913801043592, -10.25160216100216], [-54.98912667546929, -10.251603195437179], [-54.9891153535272, -10.251602020775767], [-54.98910448148457, -10.251598680398171], [-54.9890944755975, -10.251593303429386], [-54.98908572152177, -10.251586095638054], [-54.9890785551712, -10.25157733570239], [-54.98907325186917, -10.25156735887243], [-54.98907001544326, -10.25155654967118], [-54.98906897013729, -10.251545321958382]]]}}, {"type": "Feature", "properties": {"layer": "PDF_Numeração_Quadras", "dxf_type": "CIRCLE", "radius_m": 6.36}, "geometry": {"type": "Polygon", "coordinates": [[[-54.988067221696696, -10.25200278590258], [-54.98806840862832, -10.251991572016431], [-54.98807178122798, -10.251980803737943], [-54.98807721003769, -10.251970893355825], [-54.98808448639232, -10.251962222838936], [-54.988093330758524, -10.251955124001821], [-54.98810340373142, -10.2519498713415], [-54.98811431708276, -10.25194666673922], [-54.988125652976564, -10.251945631444276], [-54.98813697491458, -10.251946807045705], [-54.98814784695766, -10.251950146552069], [-54.988157852833126, -10.251955523549013], [-54.98816660689154, -10.251962731363149], [-54.98817377321974, -10.251971491315627], [-54.98817907649501, -10.251981468155964], [-54.98818231289049, -10.2519922773609], [-54.98818335816305, -10.252003505070602], [-54.988182171240965, -10.25201471805404], [-54.98817879863853, -10.252025487238177], [-54.988173369836105, -10.25203539671851], [-54.98816609347574, -10.252044068141391], [-54.98815724911363, -10.252051166076392], [-54.98814717613775, -10.252056418737917], [-54.98813626277686, -10.252059624244524], [-54.988124926884595, -10.25206065863517], [-54.988113604937034, -10.252059483936462], [-54.98810273289673, -10.252056143524433], [-54.98809272701969, -10.252050766525395], [-54.9880839729556, -10.25204355961306], [-54.988076806634716, -10.2520347987549], [-54.98807150335671, -10.252024822817244], [-54.98806826697079, -10.252014012707994], [-54.988067221696696, -10.25200278590258]]]}}, {"type": "Feature", "properties": {"layer": "PDF_Numeração_Quadras", "dxf_type": "CIRCLE", "radius_m": 6.36}, "geometry": {"type": "Polygon", "coordinates": [[[-54.99090332443211, -10.249421741688312], [-54.990904510320384, -10.249410528667552], [-54.99090788279132, -10.24939975943069], [-54.99091331146241, -10.249389848974522], [-54.990920588592154, -10.24938117837251], [-54.9909294328216, -10.249374080335336], [-54.990939505674916, -10.249368827561803], [-54.99095041892843, -10.249365621937587], [-54.99096175473872, -10.249364586524262], [-54.990973075703884, -10.249365762005848], [-54.99098394861915, -10.249369102316164], [-54.99099395357422, -10.249374479214564], [-54.9910027085703, -10.24938168605376], [-54.99100987494433, -10.249390445948745], [-54.99101517829011, -10.249400422752963], [-54.99101841477238, -10.249411232848432], [-54.991019459248974, -10.249422459658547], [-54.99101827335884, -10.249433673584365], [-54.99101490089653, -10.249444441919094], [-54.99100947222701, -10.249454352377368], [-54.99100219600982, -10.2494630229871], [-54.99099335086617, -10.24947012102044], [-54.99098327892248, -10.249475373800797], [-54.99097236475254, -10.2494785794198], [-54.99096102985065, -10.249479614838382], [-54.990949707969065, -10.249478439349966], [-54.990938835963455, -10.249475099043527], [-54.990928830094234, -10.24946972213741], [-54.99092007601076, -10.249462515301742], [-54.990912908725754, -10.249453755399346], [-54.990907605382944, -10.24944377859391], [-54.99090436889884, -10.249432969401912], [-54.99090332443211, -10.249421741688312]]]}}, {"type": "Feature", "properties": {"layer": "PDF_Numeração_Quadras", "dxf_type": "CIRCLE", "radius_m": 6.36}, "geometry": {"type": "Polygon", "coordinates": [[[-54.98971350964729, -10.250320329022012], [-54.989714696504365, -10.250309115116544], [-54.98971806902283, -10.250298346805929], [-54.98972349774781, -10.250288436380117], [-54.98973077401746, -10.250279765809656], [-54.98973961830168, -10.250272666911142], [-54.989749691198746, -10.250267414183941], [-54.98976060448901, -10.250264208608016], [-54.98977194032197, -10.250263174146962], [-54.989783262224286, -10.250264348776989], [-54.98979413423561, -10.250267689124787], [-54.98980414010136, -10.250273066066743], [-54.989812894166775, -10.25028027383548], [-54.989820060518426, -10.250289033753875], [-54.98982536383268, -10.250299010572773], [-54.989828600281186, -10.25030981976972], [-54.9898296456188, -10.250321047485198], [-54.989828458771264, -10.250332260487959], [-54.989825086250015, -10.250343029704219], [-54.98981965753231, -10.25035293922824], [-54.989812381256925, -10.250361610704697], [-54.98980353697681, -10.250368708701098], [-54.989793464076776, -10.2503739614295], [-54.98978255078264, -10.250377167005874], [-54.98977121494552, -10.25037820146651], [-54.98975989303936, -10.250377026835329], [-54.98974902102512, -10.250373686485744], [-54.98973901515779, -10.250368309541694], [-54.9897302610867, -10.25036110267476], [-54.98972309474237, -10.250352341850679], [-54.98971779142538, -10.250342365934468], [-54.98971455498643, -10.250331555833204], [-54.98971350964729, -10.250320329022012]]]}}, {"type": "Feature", "properties": {"layer": "PDF_Numeração_Quadras", "dxf_type": "CIRCLE", "radius_m": 6.36}, "geometry": {"type": "Polygon", "coordinates": [[[-54.98868264297755, -10.2510099650975], [-54.98868382987177, -10.250998752107519], [-54.98868720244054, -10.25098798291218], [-54.98869263121017, -10.250978072512337], [-54.9886999075228, -10.250969401973656], [-54.98870875184097, -10.250962304015395], [-54.98871882477285, -10.250957051327774], [-54.988729739004334, -10.25095384579872], [-54.988741073951765, -10.250952810469492], [-54.988752395861624, -10.250953986043228], [-54.98876326787758, -10.25095732642785], [-54.98877327373918, -10.250962703402173], [-54.988782027797505, -10.250969910293707], [-54.98878919412823, -10.250978670232069], [-54.98879449741422, -10.250988647063446], [-54.98879773382252, -10.2509994571688], [-54.9887987791264, -10.251010683976787], [-54.98879759223032, -10.251021897871826], [-54.98879421967018, -10.25103266616505], [-54.98878879090212, -10.251042576566983], [-54.98878151458947, -10.251051247107762], [-54.988772670263984, -10.251058345971686], [-54.988762597329135, -10.251063598660513], [-54.98875168401208, -10.25106680329176], [-54.98874034814791, -10.25106783861494], [-54.98872902714679, -10.251066663045679], [-54.98871815420961, -10.251063323557524], [-54.98870814834644, -10.251057946581104], [-54.988699394293846, -10.251050738783595], [-54.98869222796474, -10.25104197884345], [-54.98868692468171, -10.251032002010872], [-54.988683688271564, -10.251021192808969], [-54.98868264297755, -10.2510099650975]]]}}, {"type": "Feature", "properties": {"layer": "PDF_Numeração_Quadras", "dxf_type": "CIRCLE", "radius_m": 6.36}, "geometry": {"type": "Polygon", "coordinates": [[[-54.99104462030322, -10.248538545713062], [-54.991045807095574, -10.248527331791406], [-54.99104917954119, -10.24851656345374], [-54.99105460818797, -10.248506652990992], [-54.991061884377075, -10.248497982375186], [-54.991070728581484, -10.248490883424639], [-54.99108080140257, -10.24848563064072], [-54.99109171553618, -10.248482425011215], [-54.99110305039671, -10.248481390485068], [-54.99111437225088, -10.2484825650577], [-54.991125244227604, -10.248485905352362], [-54.99113525007363, -10.248491282247487], [-54.99114400413497, -10.248498489977491], [-54.99115117049833, -10.248507249866746], [-54.99115647475222, -10.24851722667287], [-54.9911597103295, -10.248528035857149], [-54.99116075572118, -10.2485392635773], [-54.99115956893835, -10.248550476596266], [-54.99115619740255, -10.24856124584522], [-54.99115076784476, -10.2485711563044], [-54.991143491655635, -10.248579826922322], [-54.99113464745531, -10.248586924970752], [-54.99112457463126, -10.248592177755885], [-54.99111366140638, -10.24859538339146], [-54.9911023256234, -10.248596418815453], [-54.991091004683675, -10.248595243343408], [-54.991080131791435, -10.248591903041337], [-54.99107012594383, -10.248586526144106], [-54.991061371876825, -10.248579319315901], [-54.99105420551508, -10.248570559424843], [-54.991048902176736, -10.248560582623181], [-54.99104566569643, -10.248549772528946], [-54.99104462030322, -10.248538545713062]]]}}, {"type": "Feature", "properties": {"layer": "PDF_Numeração_Quadras", "dxf_type": "CIRCLE", "radius_m": 6.36}, "geometry": {"type": "Polygon", "coordinates": [[[-54.990272876888774, -10.249174521927573], [-54.99027406280188, -10.249163308009116], [-54.990277435282934, -10.249152539686085], [-54.99028286396588, -10.249142629243241], [-54.990290140190524, -10.2491339586518], [-54.99029898533535, -10.249126860638684], [-54.990309057274075, -10.249121607879498], [-54.99031997143345, -10.249118402281669], [-54.990331306319995, -10.249117366883393], [-54.99034262818255, -10.249118542390526], [-54.99035350107918, -10.249121882719134], [-54.99036350601288, -10.249127259633518], [-54.990372260985694, -10.24913446648583], [-54.990379427335455, -10.249143226390483], [-54.99038473065688, -10.249153203200606], [-54.99038796712134, -10.249164012394084], [-54.9903890115705, -10.249175240105895], [-54.99038782566693, -10.249186453121638], [-54.99038445318311, -10.24919722235032], [-54.99037902450173, -10.24920713279525], [-54.99037174827707, -10.249215803388791], [-54.99036290313063, -10.24922290140369], [-54.990352831188936, -10.24922815416408], [-54.9903419170257, -10.249231359762359], [-54.99033058122241, -10.249232395154575], [-54.9903192602686, -10.249231219651927], [-54.99030838736905, -10.249227879321529], [-54.990298382433764, -10.24922250240506], [-54.99028962746098, -10.249215295550647], [-54.99028246111284, -10.24920653564421], [-54.990277157794374, -10.24919655883289], [-54.990273921339465, -10.249185748735094], [-54.990272876888774, -10.249174521927573]]]}}, {"type": "Feature", "properties": {"layer": "PDF_Numeração_Quadras", "dxf_type": "CIRCLE", "radius_m": 6.36}, "geometry": {"type": "Polygon", "coordinates": [[[-54.989417485662486, -10.249833403235174], [-54.989418672524636, -10.249822189332106], [-54.989422045044165, -10.249811421025191], [-54.98942747376616, -10.249801510604224], [-54.9894347500289, -10.24979284003957], [-54.989443594296816, -10.24978574205148], [-54.98945366718004, -10.24978048933132], [-54.9894645813663, -10.24977728376829], [-54.9894759162737, -10.249776248404903], [-54.98948723815026, -10.249777423945668], [-54.98949811014093, -10.24978076429972], [-54.98950811598622, -10.249786141247093], [-54.98951687003783, -10.24979334811631], [-54.98952403637172, -10.249802108037853], [-54.98952933967062, -10.24981208485856], [-54.98953257610676, -10.249822894055912], [-54.989533621435484, -10.249834121770366], [-54.98953243458287, -10.249845334770724], [-54.98952906206056, -10.249856103983287], [-54.989523633340134, -10.249866014406345], [-54.989516357077385, -10.249874684973095], [-54.98950751280785, -10.249881782962968], [-54.989497439921664, -10.249887035684331], [-54.98948652664412, -10.249890241253453], [-54.98947519081998, -10.24989127661078], [-54.98946386985216, -10.249890101074502], [-54.98945299694598, -10.24988676071302], [-54.989442991099125, -10.249881383763555], [-54.989434237047526, -10.249874176892241], [-54.98942707071526, -10.249865416968913], [-54.98942176741932, -10.249855440147009], [-54.98941853099274, -10.249844630045345], [-54.989417485662486, -10.249833403235174]]]}}, {"type": "Feature", "properties": {"layer": "PDF_Numeração_Quadras", "dxf_type": "CIRCLE", "radius_m": 6.36}, "geometry": {"type": "Polygon", "coordinates": [[[-54.98836385910465, -10.250568507556492], [-54.98836504601091, -10.250557293665317], [-54.98836841857654, -10.250546525378077], [-54.988373847344874, -10.250536614983766], [-54.988381123652374, -10.250527944451724], [-54.9883899679618, -10.250520846501006], [-54.98840004088165, -10.250515593821463], [-54.98841095418569, -10.250512388295144], [-54.98842229002859, -10.250511352979876], [-54.98843361191974, -10.250512528561549], [-54.98844448391611, -10.25051586895341], [-54.988454489758, -10.250521245934053], [-54.98846324379725, -10.250528452830661], [-54.98847041011027, -10.250537212772743], [-54.988475713380595, -10.250547189606285], [-54.98847894978158, -10.250557998808283], [-54.98847999506989, -10.250569226519062], [-54.98847880817318, -10.250580439507516], [-54.98847543560476, -10.250591208700406], [-54.98847000683801, -10.250601119096824], [-54.98846273053048, -10.250609789630948], [-54.988453886219446, -10.250616887583467], [-54.98844381329663, -10.250622140264193], [-54.98843289998873, -10.250625345790938], [-54.98842156414167, -10.250626381105821], [-54.98841024224667, -10.250625205522962], [-54.98839937024737, -10.250621865129332], [-54.988389364403915, -10.250616488146616], [-54.988380610364686, -10.25060928124789], [-54.98837344405329, -10.25060052130404], [-54.98836814078592, -10.250590544469285], [-54.9883649043945, -10.250579734362976], [-54.98836385910465, -10.250568507556492]]]}}, {"type": "Feature", "properties": {"layer": "PDF_Numeração_Quadras", "dxf_type": "CIRCLE", "radius_m": 6.36}, "geometry": {"type": "Polygon", "coordinates": [[[-54.987352155338655, -10.250937726384453], [-54.98735334136541, -10.250926513402497], [-54.98735671397526, -10.250915744229353], [-54.987362142780306, -10.250905833859361], [-54.987369419121336, -10.25089716335703], [-54.98737826437239, -10.250890065445914], [-54.98738833640311, -10.250884812797615], [-54.987399250636685, -10.250881607315373], [-54.987410585576804, -10.250880572032926], [-54.98742190747024, -10.250881747651638], [-54.98743277946129, -10.250885088077686], [-54.987442785290426, -10.250890465088348], [-54.98745153931002, -10.25089767200966], [-54.987458706509805, -10.25090643197582], [-54.98746400974915, -10.250916408820814], [-54.98746724519686, -10.250927218925089], [-54.98746829045327, -10.250938445728439], [-54.98746710351205, -10.250949659609795], [-54.98746373182344, -10.250960427886461], [-54.98745830301996, -10.250970338258563], [-54.98745102576631, -10.250979008757326], [-54.987442181426225, -10.250986106675894], [-54.987432108479965, -10.250991359319721], [-54.98742119515511, -10.250994564808048], [-54.98740985929824, -10.250995600084458], [-54.98739853831355, -10.250994424470205], [-54.98738766540699, -10.250991084036738], [-54.98737766048886, -10.250985707029653], [-54.98736890555671, -10.250978500100574], [-54.98736173927113, -10.250969740138299], [-54.98735643603476, -10.250959763292087], [-54.987353199672604, -10.250948954085626], [-54.987352155338655, -10.250937726384453]]]}}, {"type": "Feature", "properties": {"layer": "PDF_Numeração_Quadras", "dxf_type": "CIRCLE", "radius_m": 6.36}, "geometry": {"type": "Polygon", "coordinates": [[[-54.98988496340315, -10.248549419317326], [-54.98988615023563, -10.248538205407684], [-54.98988952271829, -10.248527437089525], [-54.98989495139764, -10.248517526653082], [-54.98990222761357, -10.248508856069313], [-54.98991107183235, -10.248501758059206], [-54.98992114466596, -10.248496505314964], [-54.989932057891494, -10.248493299721064], [-54.98994339366662, -10.248492264337964], [-54.98995471550336, -10.24849343985415], [-54.98996558746075, -10.248496780185407], [-54.98997559328059, -10.248502157112606], [-54.989984347315584, -10.248509363965052], [-54.98999151364227, -10.248518123873875], [-54.989996816943716, -10.248528100686407], [-54.99000005339203, -10.24853890988043], [-54.990001098742084, -10.248550137596546], [-54.989999911913436, -10.248561351507359], [-54.9899965394337, -10.248572119827285], [-54.98999111075592, -10.248582030265823], [-54.98998383453997, -10.248590700851688], [-54.98997499031958, -10.248597798863575], [-54.989964917483, -10.248603051609017], [-54.98995400425361, -10.248606257203335], [-54.98994266847431, -10.24860729258605], [-54.98993134663374, -10.248606117068674], [-54.98992047467342, -10.248602776735662], [-54.98991046885201, -10.248597399806377], [-54.98990171481705, -10.24859019295183], [-54.98989454849196, -10.24858143304122], [-54.98988924519349, -10.248571456227495], [-54.98988600874903, -10.248560647033035], [-54.98988496340315, -10.248549419317326]]]}}, {"type": "Feature", "properties": {"layer": "PDF_Numeração_Quadras", "dxf_type": "CIRCLE", "radius_m": 6.36}, "geometry": {"type": "Polygon", "coordinates": [[[-54.98843741926462, -10.24969902037416], [-54.98843860615916, -10.24968780648104], [-54.98844197779496, -10.249677038184624], [-54.98844740654118, -10.249667127785333], [-54.98845468373513, -10.249658457252696], [-54.9884635280154, -10.249651359294713], [-54.9884736009042, -10.249646106607159], [-54.98848451417649, -10.249642901072404], [-54.988495849988155, -10.249641865748579], [-54.98850717093721, -10.249643041316265], [-54.98851804381951, -10.249646381705979], [-54.98852804963861, -10.249651758679663], [-54.988536803659834, -10.24965896557042], [-54.98854396996026, -10.249667725507976], [-54.98854927322394, -10.249677702338499], [-54.98855250962445, -10.249688511539098], [-54.98855355491849, -10.249699739250154], [-54.98855236803349, -10.249710952240546], [-54.98854899548233, -10.249721721436966], [-54.98854356673769, -10.249731631838367], [-54.988536290456295, -10.24974030237873], [-54.9885274461744, -10.249747400338517], [-54.98851737328264, -10.249752653027251], [-54.988506459093905, -10.249755858556794], [-54.988495124190656, -10.249756893885879], [-54.98848380232518, -10.249755718311354], [-54.98847293035254, -10.24975237792552], [-54.988462924531866, -10.249747000949764], [-54.98845417051067, -10.249739794056891], [-54.98844700329928, -10.24973103411192], [-54.988441700038564, -10.249721057280178], [-54.988438464560204, -10.249710247180916], [-54.98843741926462, -10.24969902037416]]]}}, {"type": "Feature", "properties": {"layer": "PDF_Numeração_Quadras", "dxf_type": "CIRCLE", "radius_m": 6.36}, "geometry": {"type": "Polygon", "coordinates": [[[-54.98681608758034, -10.25009997678856], [-54.98681727453504, -10.250088762912798], [-54.98682064714184, -10.250077994650342], [-54.986826075942496, -10.250068084289293], [-54.986833352272214, -10.250059413797686], [-54.98684219659862, -10.250052314989146], [-54.986852269518366, -10.250047062359517], [-54.98686318280521, -10.250043857788931], [-54.986874518625676, -10.250042822525455], [-54.98688583957175, -10.250043998151217], [-54.98689671244508, -10.250047337690631], [-54.9869067182384, -10.250052714711341], [-54.986915472218, -10.250059922544638], [-54.98692263847378, -10.250068682511008], [-54.98692794168577, -10.250078659359385], [-54.986931178029565, -10.25008946856621], [-54.98693222326402, -10.250100696271584], [-54.98693103631886, -10.25011190924464], [-54.986927663709274, -10.250122678412726], [-54.9869222349159, -10.250132587872004], [-54.98691495858044, -10.25014125926957], [-54.98690611425813, -10.250148357176034], [-54.98689604133543, -10.250153609806842], [-54.986885127126435, -10.250156815276089], [-54.98687379222009, -10.250157849640951], [-54.98686247035189, -10.250156674912228], [-54.98685159839392, -10.250153334472813], [-54.986841592599035, -10.250147957450027], [-54.98683283861374, -10.2501407505185], [-54.98682567236529, -10.250131989646482], [-54.98682036915056, -10.250122013700773], [-54.98681713281633, -10.250111203589647], [-54.98681608758034, -10.25009997678856]]]}}, {"type": "Feature", "properties": {"layer": "PDF_Numeração_Quadras", "dxf_type": "CIRCLE", "radius_m": 6.36}, "geometry": {"type": "Polygon", "coordinates": [[[-54.987919724045604, -10.24896226698156], [-54.987920910037644, -10.248951053087174], [-54.98792428258986, -10.248940284803156], [-54.98792971133349, -10.248930374412772], [-54.987936987605984, -10.2489217038852], [-54.98794583278399, -10.248914605944968], [-54.987955904739984, -10.248909353264809], [-54.987966818900006, -10.248906147749134], [-54.98797815377058, -10.24890511243302], [-54.987989475601154, -10.248906288019109], [-54.98800034753843, -10.248909628414847], [-54.98801035332497, -10.248915005398624], [-54.988019107314756, -10.248922212297561], [-54.98802627449867, -10.248930972246699], [-54.9880315777367, -10.248940949080682], [-54.98803481411601, -10.248951758282143], [-54.988035858481524, -10.248962985985743], [-54.988034672499026, -10.248974198977425], [-54.98803129994404, -10.248984968167095], [-54.98802587120197, -10.248994878559568], [-54.98801859401688, -10.24900354908357], [-54.98800974974983, -10.249010647031254], [-54.987999676878296, -10.249015899706963], [-54.987988763626994, -10.2490191052287], [-54.987977427839674, -10.249020140538779], [-54.987966106917845, -10.24901896495715], [-54.98795523406506, -10.249015624554012], [-54.98794522918953, -10.249010247573795], [-54.98793647428718, -10.249003040667091], [-54.98792930801747, -10.248994280721835], [-54.9879240047824, -10.248984303886656], [-54.98792076841266, -10.248973493780879], [-54.987919724045604, -10.24896226698156]]]}}, {"type": "Feature", "properties": {"layer": "PDF_Numeração_Quadras", "dxf_type": "CIRCLE", "radius_m": 6.36}, "geometry": {"type": "Polygon", "coordinates": [[[-54.986416485766505, -10.249359987659242], [-54.98641767180888, -10.249348774684838], [-54.986421044421405, -10.249338005523278], [-54.98642647321611, -10.249328095168456], [-54.98643374953416, -10.249319424684304], [-54.98644259475048, -10.249312326793646], [-54.98645266673605, -10.24930707416735], [-54.986463580915796, -10.24930386870775], [-54.98647491670806, -10.249302833453413], [-54.98648623762418, -10.249304009087867], [-54.986497110461265, -10.249307349539093], [-54.986507115312044, -10.249312726560964], [-54.98651587018172, -10.249319933501535], [-54.9865230364121, -10.249328693471814], [-54.98652833960249, -10.24933867032241], [-54.98653157592359, -10.249349480433548], [-54.98653262023947, -10.249360707228004], [-54.98653143419523, -10.24937192110746], [-54.98652806159134, -10.249382689366909], [-54.986522632798206, -10.249392599723826], [-54.98651535648013, -10.249401270210074], [-54.98650651126219, -10.249408368102518], [-54.98649643927366, -10.249413620730012], [-54.986485525090046, -10.249416826190025], [-54.98647419020621, -10.249417861449631], [-54.986462868373664, -10.249416685808331], [-54.986451995533656, -10.249413345355352], [-54.98644199068131, -10.249407968331393], [-54.986433235811646, -10.249400761388722], [-54.98642606958289, -10.249392001416659], [-54.98642076639546, -10.249382024564863], [-54.9864175300725, -10.249371215357174], [-54.986416485766505, -10.249359987659242]]]}}, {"type": "Feature", "properties": {"layer": "PDF_Numeração_Quadras", "dxf_type": "CIRCLE", "radius_m": 6.36}, "geometry": {"type": "Polygon", "coordinates": [[[-54.98977404404774, -10.247865134618653], [-54.98977523087113, -10.24785392161311], [-54.98977860335129, -10.247843152391134], [-54.98978403201224, -10.247833242858476], [-54.98979130821717, -10.24782457137057], [-54.98980015241588, -10.247817473360065], [-54.98981022522683, -10.247812220615286], [-54.989821138427985, -10.24780901502074], [-54.989832474172246, -10.24780798054079], [-54.98984379598969, -10.247809155152302], [-54.98985466792324, -10.247812495482746], [-54.98986467372129, -10.247817872409128], [-54.98987342773739, -10.247825079260798], [-54.98988059404312, -10.24783384007279], [-54.9898858973392, -10.247843815980811], [-54.989889133775385, -10.247854626078214], [-54.98989017912958, -10.247865852890072], [-54.98988899230434, -10.247877066800665], [-54.989885619827106, -10.247887836024413], [-54.98988019116773, -10.247897745559161], [-54.989872914962774, -10.247906417049165], [-54.98986407076245, -10.247913515061454], [-54.98985399794853, -10.24791876780743], [-54.989843084743526, -10.247921973402407], [-54.989831748995094, -10.247923007881957], [-54.98982042717381, -10.24792183326927], [-54.989809555237336, -10.247918492937059], [-54.98979954943771, -10.247913116008588], [-54.989790795421634, -10.247905909154822], [-54.989783629117525, -10.247897148341046], [-54.98977832582441, -10.247887172431824], [-54.98977508939208, -10.247876362333992], [-54.98977404404774, -10.247865134618653]]]}}, {"type": "Feature", "properties": {"layer": "PDF_Numeração_Quadras", "dxf_type": "CIRCLE", "radius_m": 6.36}, "geometry": {"type": "Polygon", "coordinates": [[[-54.98690960049224, -10.248336247670277], [-54.98691078741938, -10.248325034695037], [-54.986914159998676, -10.248314265522497], [-54.986919588750304, -10.24830435605646], [-54.98692686503399, -10.248295684649857], [-54.986935709296496, -10.248288586732189], [-54.98694578215384, -10.248283334088226], [-54.9869566953822, -10.2482801285986], [-54.986968031133415, -10.248279094223609], [-54.98697935202475, -10.248280268930495], [-54.986990224837356, -10.24828360935972], [-54.98700023058319, -10.248288986367823], [-54.98700898453039, -10.248296193286642], [-54.98701615075318, -10.248304954148631], [-54.98702145395546, -10.248314930087595], [-54.9870246902906, -10.248325740195646], [-54.98702573554039, -10.2483369669975], [-54.98702454861138, -10.248348180877798], [-54.98702117604072, -10.248358949148242], [-54.98701574728496, -10.248368859520232], [-54.98700847100695, -10.248377530025069], [-54.98699962674283, -10.248384627944503], [-54.98698955387682, -10.248389881493564], [-54.98697863973773, -10.248393086074085], [-54.98696730488922, -10.24839412135819], [-54.98695598308717, -10.248392945740616], [-54.986945111178514, -10.248389606219154], [-54.98693510543681, -10.24838422830506], [-54.98692635148964, -10.248377021384162], [-54.98691918526277, -10.248368261424252], [-54.98691388206915, -10.248358284580227], [-54.98691064573216, -10.248347475375612], [-54.98690960049224, -10.248336247670277]]]}}, {"type": "Feature", "properties": {"layer": "PDF_Numeração_Quadras", "dxf_type": "CIRCLE", "radius_m": 6.36}, "geometry": {"type": "Polygon", "coordinates": [[[-54.98836212236293, -10.247160381816215], [-54.98836330922757, -10.247149168824336], [-54.98836668082795, -10.247138399618601], [-54.98837210951768, -10.247128489211331], [-54.98837938664196, -10.247119818668486], [-54.98838823084206, -10.247112720698402], [-54.988398303643265, -10.247107467997395], [-54.988409216823904, -10.247104262448275], [-54.988420552543374, -10.247103227109777], [-54.98843187340325, -10.247104402663041], [-54.988442746202786, -10.24710774303914], [-54.98845275103617, -10.247113119994841], [-54.988461505909264, -10.247120326880745], [-54.988468672163734, -10.247129086809968], [-54.98847397539797, -10.247139063634686], [-54.988477211781, -10.247149873736118], [-54.988478256174496, -10.247161100537424], [-54.98847707022057, -10.247172314440004], [-54.98847369771624, -10.247183082737978], [-54.98846826902808, -10.24719299314734], [-54.98846099281636, -10.247201663697929], [-54.988452147702056, -10.24720876166415], [-54.988442075810475, -10.247214014372002], [-54.9884311617134, -10.24721721991589], [-54.988419826902344, -10.247218255259646], [-54.98840850512605, -10.247217079699547], [-54.98839763323616, -10.247213739327345], [-54.98838762748863, -10.247208362363905], [-54.98837887352815, -10.247201155481548], [-54.988371706362706, -10.247192395544898], [-54.98836640313143, -10.24718241871898], [-54.98836316765914, -10.247171609526648], [-54.98836212236293, -10.247160381816215]]]}}, {"type": "Feature", "properties": {"layer": "PDF_Numeração_Quadras", "dxf_type": "CIRCLE", "radius_m": 6.36}, "geometry": {"type": "Polygon", "coordinates": [[[-54.98936591763873, -10.246773219866569], [-54.98936710447037, -10.24676200595989], [-54.98937047693909, -10.246751237645782], [-54.98937590559191, -10.24674132721432], [-54.98938318176978, -10.246732656636263], [-54.9893920259461, -10.2467255577285], [-54.98940209872332, -10.246720304990765], [-54.989413012793264, -10.246717100312924], [-54.989424347589676, -10.24671606493049], [-54.98943566935914, -10.246717240452519], [-54.98944654125642, -10.24672057988505], [-54.98945654701443, -10.246725956816508], [-54.98946530098825, -10.246733164576046], [-54.98947246726798, -10.246741924486907], [-54.98947777053274, -10.246751901300215], [-54.98948100695608, -10.246762710493737], [-54.98948205229382, -10.246773938208081], [-54.98948086547172, -10.24678515121205], [-54.98947749300023, -10.246795920431806], [-54.98947206434897, -10.246805830865364], [-54.989464788171084, -10.246814501445513], [-54.98945594399884, -10.246821599451174], [-54.98944587121866, -10.24682685219011], [-54.98943495805174, -10.246830057777908], [-54.98942362233859, -10.246831093154299], [-54.98941230147787, -10.24682991763674], [-54.989401428670774, -10.246826577292916], [-54.9893914229112, -10.246821200359367], [-54.9893826689317, -10.246813993501611], [-54.98937550265359, -10.246805233588965], [-54.98937019939179, -10.246795256774464], [-54.989366962978, -10.246784446676626], [-54.98936591763873, -10.246773219866569]]]}}, {"type": "Feature", "properties": {"layer": "PDF_Numeração_Quadras", "dxf_type": "CIRCLE", "radius_m": 6.36}, "geometry": {"type": "Polygon", "coordinates": [[[-54.98507272553707, -10.248649117674708], [-54.985073912530865, -10.248637904718922], [-54.985077285173915, -10.2486271355781], [-54.98508271398393, -10.248617226154872], [-54.98508999031843, -10.24860855480046], [-54.98509883462218, -10.248601456942417], [-54.985108907509634, -10.248596204363164], [-54.985119820755806, -10.248592998940893], [-54.98513115651187, -10.248591964633313], [-54.98514247739488, -10.248593139405024], [-54.98515335018632, -10.248596479894056], [-54.98516335498639, -10.248601856948982], [-54.985172109802214, -10.248609063916547], [-54.98517927597197, -10.248617824810646], [-54.98518457911422, -10.248627800769443], [-54.98518781538459, -10.248638610884345], [-54.985188859654805, -10.248649837674119], [-54.985187673571716, -10.248661051540612], [-54.98518430093731, -10.248671819779306], [-54.98517887212315, -10.248681730108524], [-54.98517159579434, -10.248690400561141], [-54.98516275057639, -10.248697498415325], [-54.985152678598546, -10.248702751001414], [-54.98514176443594, -10.24870595641846], [-54.98513042958258, -10.248706991635189], [-54.98511910778886, -10.24870581595275], [-54.98510823590708, -10.248702475467608], [-54.985098230192854, -10.248697098404946], [-54.98508947628964, -10.248689891440923], [-54.98508231011578, -10.24868113144894], [-54.985077006982216, -10.248671154585049], [-54.985073770709995, -10.248660345373608], [-54.98507272553707, -10.248649117674708]]]}}, {"type": "Feature", "properties": {"layer": "PDF_Numeração_Quadras", "dxf_type": "CIRCLE", "radius_m": 6.36}, "geometry": {"type": "Polygon", "coordinates": [[[-54.98523147635165, -10.24955655297829], [-54.98523266243697, -10.249545340016432], [-54.98523603509054, -10.24953457087535], [-54.985241463917085, -10.249524661451975], [-54.98524874027348, -10.2495159900976], [-54.98525758551624, -10.249508892245373], [-54.98526765752105, -10.249503639660801], [-54.98527857171211, -10.24950043424464], [-54.98528990658901, -10.249499399931954], [-54.98530122841787, -10.249500574710007], [-54.98531210032854, -10.249503915194111], [-54.98532210607034, -10.249509292255452], [-54.98533085999896, -10.249516499218156], [-54.98533802618933, -10.249525260113002], [-54.98534332934664, -10.24953523607253], [-54.98534656562593, -10.249546046188053], [-54.985347610811196, -10.249557272984017], [-54.985346423811414, -10.249568486845272], [-54.98534305116648, -10.24957925508426], [-54.98533762233579, -10.249589165413589], [-54.98533034598509, -10.249597835866199], [-54.98532150165329, -10.249604933725852], [-54.98531142873293, -10.249610186305977], [-54.9853005154506, -10.249613391728227], [-54.98528917965124, -10.249614426938718], [-54.985277858736836, -10.249613251261284], [-54.98526698591065, -10.249609910769752], [-54.98525698107986, -10.249604533711963], [-54.98524822623868, -10.249597326741519], [-54.985241060044224, -10.24958856674875], [-54.98523575689559, -10.249578589884162], [-54.98523252061444, -10.24956778067207], [-54.98523147635165, -10.24955655297829]]]}}, {"type": "Feature", "properties": {"layer": "PDF_Numeração_Quadras", "dxf_type": "CIRCLE", "radius_m": 6.36}, "geometry": {"type": "Polygon", "coordinates": [[[-54.98484525980011, -10.250374959405374], [-54.984846445913114, -10.250363745544748], [-54.98484981858729, -10.250352977316208], [-54.98485524744921, -10.250343067000824], [-54.984862523831744, -10.250334396564963], [-54.98487136910733, -10.250327298729564], [-54.984881441144694, -10.250322046163365], [-54.98489235536675, -10.250318840766427], [-54.98490369027764, -10.250317805569185], [-54.98491501212524, -10.250318981269796], [-54.98492588405563, -10.25032232177123], [-54.98493588981162, -10.250327698847878], [-54.98494464374837, -10.250334905823276], [-54.984951810858796, -10.250343665829499], [-54.98495711400571, -10.250353642699034], [-54.9849603493672, -10.25036445190745], [-54.984961394529975, -10.250375679605922], [-54.98496020751393, -10.2503868925582], [-54.98495683574956, -10.250397661698049], [-54.98495140688921, -10.250407572015508], [-54.98494412959406, -10.250416242447827], [-54.98493528522943, -10.250423340290649], [-54.984925212276536, -10.250428592852403], [-54.9849142989632, -10.250431798255434], [-54.98490296313556, -10.250432833446613], [-54.98489164219669, -10.250431657750486], [-54.9848807693508, -10.250428317241623], [-54.98487076450583, -10.250422940168525], [-54.98486200965652, -10.250415733185385], [-54.9848548434603, -10.250406973183022], [-54.98484954031635, -10.250396996312304], [-54.98484630405184, -10.250386186193925], [-54.98484525980011, -10.250374959405374]]]}}, {"type": "Feature", "properties": {"layer": "PDF_Numeração_Quadras", "dxf_type": "CIRCLE", "radius_m": 6.36}, "geometry": {"type": "Polygon", "coordinates": [[[-54.98435486505895, -10.25063540208372], [-54.98435605209849, -10.250624189138057], [-54.98435942479844, -10.250613420014579], [-54.984364853680034, -10.250603509711317], [-54.984372130081105, -10.250594839290237], [-54.98438097446081, -10.250587741466104], [-54.98439104742495, -10.250582488923973], [-54.98440196165818, -10.250579283546207], [-54.98441329657677, -10.25057824836817], [-54.98442461842831, -10.250579424087288], [-54.98443549035871, -10.250582764605808], [-54.984445496110816, -10.250588141697467], [-54.98445425003991, -10.25059534868523], [-54.98446141622663, -10.250604108695047], [-54.98446671935938, -10.250614085570321], [-54.984469955611075, -10.250624895690335], [-54.98447100076104, -10.250636122483224], [-54.98446981371961, -10.250647336333927], [-54.98446644102831, -10.250658104555294], [-54.98446101214828, -10.250668014860665], [-54.98445373574718, -10.250676685283826], [-54.98444489136587, -10.250683783109743], [-54.98443481839875, -10.250689035653071], [-54.98442390507425, -10.250692241036928], [-54.98441256923891, -10.2506932762089], [-54.98440124829612, -10.250692100494268], [-54.984390375450204, -10.250688759968321], [-54.98438036969653, -10.250683382874566], [-54.984371615767465, -10.250676175884706], [-54.98436444958236, -10.250667415873123], [-54.984359146452576, -10.25065743899663], [-54.98435591019902, -10.250646629780068], [-54.98435486505895, -10.25063540208372]]]}}, {"type": "Feature", "properties": {"layer": "PDF_Numeração_Quadras", "dxf_type": "CIRCLE", "radius_m": 6.36}, "geometry": {"type": "Polygon", "coordinates": [[[-54.983957473859945, -10.250975956483588], [-54.98395866000421, -10.25096474353686], [-54.983962032722644, -10.25095397442097], [-54.98396746162317, -10.250944064127996], [-54.983974738955496, -10.25093539372522], [-54.98398358335289, -10.250928295915541], [-54.98399365633305, -10.250923043389149], [-54.98400456966743, -10.250919838022131], [-54.98401590550953, -10.25091880286621], [-54.98402722645619, -10.250919978595528], [-54.984038099303355, -10.250923319134372], [-54.98404810414336, -10.250928696233268], [-54.98405685898183, -10.250935903237337], [-54.98406402516176, -10.250944663255115], [-54.9840693282844, -10.250954640135415], [-54.984072564523046, -10.250965450257262], [-54.98407360874495, -10.250976677043072], [-54.98407242259881, -10.250987890894855], [-54.98406904988902, -10.250998659108651], [-54.984063620990064, -10.251008569403702], [-54.98405634457029, -10.251017239814256], [-54.9840474992587, -10.251024337620036], [-54.98403742718816, -10.251029590153308], [-54.984026512937334, -10.251032795515096], [-54.98401517800365, -10.25103383067626], [-54.984003856140575, -10.25103265494012], [-54.983992984203056, -10.25102931440517], [-54.9839829784489, -10.251023937298498], [-54.983974224523045, -10.251016730298009], [-54.983967057432146, -10.25100797027277], [-54.983961754312475, -10.25099799339129], [-54.983958518071965, -10.250987184172875], [-54.983957473859945, -10.250975956483588]]]}}, {"type": "Feature", "properties": {"layer": "PDF_Numeração_Quadras", "dxf_type": "CIRCLE", "radius_m": 6.36}, "geometry": {"type": "Polygon", "coordinates": [[[-54.98590296772623, -10.250437861917703], [-54.985904154716, -10.250426648051858], [-54.98590752735763, -10.250415879805677], [-54.98591295619153, -10.25040596946658], [-54.985920232551635, -10.250397299001829], [-54.9859290768987, -10.250390201127829], [-54.98593914983976, -10.250384948531547], [-54.98595006314778, -10.250381743091786], [-54.98596139897727, -10.250380707863053], [-54.98597272083813, -10.250381883527949], [-54.98598359278851, -10.250385223996476], [-54.98599359857045, -10.25039060104429], [-54.98600235253813, -10.250397807996034], [-54.98600951877068, -10.250406567979033], [-54.98601482195475, -10.250416544837773], [-54.986018058266986, -10.250427354048224], [-54.98601910346748, -10.250438581750396], [-54.98601791648154, -10.250449795617415], [-54.98601454384285, -10.250460563865381], [-54.98600911501052, -10.250470474206555], [-54.98600183865038, -10.250479144673418], [-54.985992994301704, -10.25048624254919], [-54.985982921357675, -10.250491495146681], [-54.98597200804579, -10.250494700586872], [-54.985960672212144, -10.250495735815191], [-54.98594935034744, -10.250494560149134], [-54.98593847839414, -10.250491219678837], [-54.98592847261062, -10.250485842628917], [-54.98591971864297, -10.25047863567509], [-54.98591255241204, -10.250469875690294], [-54.98590724923094, -10.250459898830373], [-54.98590401292256, -10.25044908961947], [-54.98590296772623, -10.250437861917703]]]}}, {"type": "Feature", "properties": {"layer": "PDF_Numeração_Quadras", "dxf_type": "CIRCLE", "radius_m": 6.36}, "geometry": {"type": "Polygon", "coordinates": [[[-54.98541406902011, -10.250964899579431], [-54.985415255119726, -10.250953685713712], [-54.98541862778594, -10.250942917477134], [-54.98542405664563, -10.25093300715114], [-54.98543133303175, -10.250924336702438], [-54.98544017831662, -10.250917238852493], [-54.985450250368565, -10.250911986270596], [-54.98546116460999, -10.250908780857406], [-54.98547249954425, -10.250907745643989], [-54.985483821418356, -10.250908921329126], [-54.98549469337734, -10.25091226181637], [-54.98550469916294, -10.250917638880667], [-54.98551345312916, -10.250924845846031], [-54.98552062026779, -10.250933605844912], [-54.985525923440555, -10.250943582710068], [-54.98552915973715, -10.250954391922942], [-54.98553020400563, -10.250965619617736], [-54.98552901790985, -10.250976833484632], [-54.98552564524657, -10.250987601722978], [-54.98552021638845, -10.250997512051065], [-54.985512939089716, -10.251006182496223], [-54.985504094715814, -10.251013280353593], [-54.985494021748316, -10.25101853293103], [-54.98548310841562, -10.251021738350326], [-54.9854717725646, -10.251022773557665], [-54.985460451599245, -10.25102159787703], [-54.98544957872475, -10.251018257382338], [-54.985439573850165, -10.251012880321607], [-54.98543081897139, -10.251005673348505], [-54.98542365274696, -10.250996913353482], [-54.98541834957715, -10.250986936487129], [-54.985415113284425, -10.250976127273823], [-54.98541406902011, -10.250964899579431]]]}}, {"type": "Feature", "properties": {"layer": "PDF_Numeração_Quadras", "dxf_type": "CIRCLE", "radius_m": 6.36}, "geometry": {"type": "Polygon", "coordinates": [[[-54.98504262830079, -10.251283861784183], [-54.985043815323465, -10.251272648832282], [-54.985047187100086, -10.251261879693258], [-54.98505261597749, -10.251251969376895], [-54.985059893293666, -10.251243298945655], [-54.985068737682504, -10.251236201103563], [-54.98507881066203, -10.25123094854204], [-54.98508972400373, -10.251227743138529], [-54.98510105986082, -10.251226707946154], [-54.98511238082956, -10.25122788364046], [-54.98512325370506, -10.251231224147078], [-54.98513325857854, -10.251236601217776], [-54.985142013454364, -10.251243808198753], [-54.98514917967408, -10.25125256819943], [-54.9851544828374, -10.25126254506927], [-54.98515771911609, -10.25127335518774], [-54.98515876337582, -10.251284581977348], [-54.98515757726386, -10.251295795839962], [-54.98515420458329, -10.251306564071216], [-54.985148775707465, -10.251316474389668], [-54.98514149930384, -10.251325144828668], [-54.9851326540008, -10.251332242666885], [-54.985122581930895, -10.251337495235266], [-54.98511166767275, -10.251340700633563], [-54.98510033272407, -10.251341735831181], [-54.985089010838905, -10.251340560130057], [-54.98507813887307, -10.251337219627311], [-54.98506813308543, -10.251331842548861], [-54.98505937912222, -10.251324635571448], [-54.98505221199154, -10.251315875563323], [-54.98504690883118, -10.251305898692287], [-54.985043673463224, -10.251295089482925], [-54.98504262830079, -10.251283861784183]]]}}, {"type": "Feature", "properties": {"layer": "PDF_Numeração_Quadras", "dxf_type": "CIRCLE", "radius_m": 6.36}, "geometry": {"type": "Polygon", "coordinates": [[[-54.984607388824365, -10.251606445587461], [-54.98460857587118, -10.251595231736632], [-54.98461194857404, -10.25158446351534], [-54.98461737747103, -10.251574553210055], [-54.98462465389365, -10.251565882786736], [-54.984633498300234, -10.251558784960192], [-54.98464357129556, -10.25155353241558], [-54.98465448465048, -10.251550327029703], [-54.98466582051772, -10.251549291854998], [-54.98467714149314, -10.251550467566343], [-54.98468801437159, -10.251553808088701], [-54.98469802015679, -10.251559185178909], [-54.98470677411534, -10.251566392165639], [-54.98471394032675, -10.251575152174864], [-54.98471924347846, -10.251585129050065], [-54.9847224797484, -10.251595938266592], [-54.98472352489824, -10.251607165964204], [-54.98472233786098, -10.25161837891233], [-54.984718965155324, -10.251629148039283], [-54.98471353625992, -10.25163905834665], [-54.98470625983727, -10.251647728772086], [-54.98469741542907, -10.251654826600397], [-54.98468734243078, -10.251660079146223], [-54.98467642815941, -10.251663284526872], [-54.98466509320059, -10.251664319706812], [-54.984653771308736, -10.251663143988651], [-54.984642899339946, -10.251659803470183], [-54.984632893553176, -10.251654426377868], [-54.98462413959465, -10.251647219389058], [-54.98461697338487, -10.251638459378027], [-54.98461167023611, -10.251628482501642], [-54.98460843397576, -10.251617672380792], [-54.984607388824365, -10.251606445587461]]]}}, {"type": "Feature", "properties": {"layer": "PDF_Numeração_Quadras", "dxf_type": "CIRCLE", "radius_m": 6.36}, "geometry": {"type": "Polygon", "coordinates": [[[-54.9859127970238, -10.251914462762688], [-54.985913984023114, -10.251903249802623], [-54.98591735669548, -10.251892480656275], [-54.98592278556319, -10.251882570322609], [-54.98593006196462, -10.251873899864734], [-54.98593890635891, -10.251866801998856], [-54.9859489793513, -10.25186154941157], [-54.985959893625356, -10.251858343987031], [-54.98597122859578, -10.251857308762405], [-54.985982550508176, -10.25185848443685], [-54.98599342250611, -10.251861824914387], [-54.98600342832983, -10.251867201970324], [-54.986012182331876, -10.25187440892895], [-54.98601934859008, -10.251883168917384], [-54.98602465179008, -10.251893145779839], [-54.98602788810224, -10.251903955896095], [-54.98602893330353, -10.25191518269439], [-54.98602774630235, -10.251926396559508], [-54.98602437363862, -10.251937164803728], [-54.986018944772475, -10.251947075139505], [-54.98601166837102, -10.25195574559946], [-54.98600282397512, -10.251962843467142], [-54.98599275097977, -10.251968096055611], [-54.98598183761444, -10.25197130148624], [-54.98597050172726, -10.25197233670482], [-54.98595918072361, -10.251971161034843], [-54.985948307810155, -10.251967820549877], [-54.985938301984866, -10.251962443491866], [-54.98592954798285, -10.251955236531124], [-54.98592238172626, -10.251946476540923], [-54.98591707852922, -10.251936499677253], [-54.98591384221522, -10.25192569046446], [-54.9859127970238, -10.251914462762688]]]}}, {"type": "Feature", "properties": {"layer": "PDF_Numeração_Quadras", "dxf_type": "CIRCLE", "radius_m": 5.73}, "geometry": {"type": "Polygon", "coordinates": [[[-54.99202064654816, -10.249624624589213], [-54.992021714021845, -10.249614528974785], [-54.992024751154375, -10.249604833312668], [-54.99202963878313, -10.249595910185432], [-54.992036189483684, -10.249588102828405], [-54.99204415312507, -10.249581712509148], [-54.99205322244205, -10.249576983195277], [-54.9920630485833, -10.249574096226917], [-54.99207325392168, -10.249573164972533], [-54.99208344764801, -10.24957422227023], [-54.99209323665933, -10.249577230438272], [-54.99210224569851, -10.24958207145628], [-54.99211012731291, -10.249588559681776], [-54.99211658007202, -10.249596447386098], [-54.99212135492135, -10.24960543021724], [-54.99212426877453, -10.249615162650471], [-54.99212520990913, -10.24962527067652], [-54.992124141520286, -10.24963536719012], [-54.992121105302715, -10.249645062859313], [-54.99211621767523, -10.249653985988244], [-54.99210966606776, -10.249661792437449], [-54.99210170333197, -10.24966818366767], [-54.99209263401258, -10.249672912982533], [-54.992082807873906, -10.249675799047344], [-54.992072601613856, -10.249676731199646], [-54.9920624088027, -10.24967567300276], [-54.99205261978331, -10.249672665737183], [-54.99204361074286, -10.249667824717461], [-54.99203572822158, -10.249661335580742], [-54.99202927637068, -10.2496534487845], [-54.992024501523744, -10.249644465952384], [-54.992021586761105, -10.24963473351316], [-54.99202064654816, -10.249624624589213]]]}}, {"type": "Feature", "properties": {"layer": "PDF_Numeração_Quadras", "dxf_type": "CIRCLE", "radius_m": 6.36}, "geometry": {"type": "Polygon", "coordinates": [[[-54.9835688065157, -10.2519717196367], [-54.9835699926839, -10.251960506695335], [-54.98357336543177, -10.251949737588616], [-54.98357879436042, -10.251939828212151], [-54.98358607082279, -10.251931156915381], [-54.98359491617133, -10.251924059129292], [-54.983604988277655, -10.25191880661682], [-54.983615902562065, -10.25191560127597], [-54.98362723752055, -10.25191456703891], [-54.983638559416136, -10.251915741889956], [-54.98364943137607, -10.25191908244167], [-54.983659437147786, -10.251924459562618], [-54.983668191085826, -10.251931666574633], [-54.98367535817735, -10.25194042751228], [-54.98368066130281, -10.2519504034953], [-54.983683897531066, -10.251961213619815], [-54.98368494173546, -10.251972440404261], [-54.98368375556539, -10.251983654250662], [-54.98368038282044, -10.251994423359148], [-54.98367495389337, -10.252004332737725], [-54.9836676765241, -10.252013003127038], [-54.9836588320808, -10.252020101824451], [-54.98364875905893, -10.252025354332458], [-54.98363784568325, -10.252028559679404], [-54.983626509808, -10.252029593910411], [-54.98361518882117, -10.252028419063834], [-54.98360431594571, -10.25202507850469], [-54.98359431108502, -10.252019701387313], [-54.983585556240136, -10.252012493463655], [-54.983578390057104, -10.252003733433783], [-54.983573086934605, -10.251993757449547], [-54.98356985071021, -10.251982947324603], [-54.9835688065157, -10.2519717196367]]]}}]}