{"type": "FeatureCollection", "name": "pdf_eixo_lotes", "crs": {"type": "name", "properties": {"name": "urn:ogc:def:crs:OGC:1.3:CRS84"}}, "properties": {"source": "8be78050_MAPA TRIBUTAÇÃO 2021 (1).dxf", "assumed_crs": "EPSG:4326", "local_crs": false, "note": "Coordenadas locais do desenho (sem CRS). Use base 'Só CAD' no mapa.", "extent": [4300.4554, 2373.7696, 8215.3349, 6186.7838], "georef": true, "transform": {"scale": 1, "rotation_deg": 0, "tx": 713717.6034368816, "ty": 8862616.121289995, "rmse_m": 0, "epsg": 31981}, "layer": "PDF_EIXO_LOTES", "source_file": "8be78050_MAPA TRIBUTAÇÃO 2021 (1)_georef.geojson", "n_features": 16}, "features": [{"type": "Feature", "properties": {"layer": "PDF_EIXO_LOTES", "dxf_type": "LWPOLYLINE"}, "geometry": {"type": "LineString", "coordinates": [[-55.00901675125378, -10.237885719020442], [-55.00943728032576, -10.237874873555493], [-55.00948855495573, -10.23779946600007], [-55.009502719166534, -10.2373126355591], [-55.009493210711156, -10.236975185614895], [-55.00943862222945, -10.236263166976556]]}}, {"type": "Feature", "properties": {"layer": "PDF_EIXO_LOTES", "dxf_type": "LWPOLYLINE"}, "geometry": {"type": "LineString", "coordinates": [[-55.009420792277396, -10.236251556294352], [-55.008974759738024, -10.236395477141548]]}}, {"type": "Feature", "properties": {"layer": "PDF_EIXO_LOTES", "dxf_type": "LWPOLYLINE"}, "geometry": {"type": "LineString", "coordinates": [[-55.008964996280554, -10.236409315311853], [-55.00899433376944, -10.236980760194012], [-55.009002289063446, -10.237101579278306], [-55.009009330843966, -10.237213766573385], [-55.00900218294234, -10.237428905950772], [-55.00900232063657, -10.237872211872128]]}}, {"type": "Feature", "properties": {"layer": "PDF_EIXO_LOTES", "dxf_type": "LWPOLYLINE"}, "geometry": {"type": "LineString", "coordinates": [[-55.009502719166534, -10.2373126355591], [-55.009231797707926, -10.237307623415134], [-55.009219958560834, -10.237421611516147], [-55.00900218294234, -10.237428905950772]]}}, {"type": "Feature", "properties": {"layer": "PDF_EIXO_LOTES", "dxf_type": "LWPOLYLINE"}, "geometry": {"type": "LineString", "coordinates": [[-55.009231797707926, -10.237307623415134], [-55.00924016962862, -10.23720655294392], [-55.00924424657412, -10.237095870921163], [-55.009002289063446, -10.237101579278306]]}}, {"type": "Feature", "properties": {"layer": "PDF_EIXO_LOTES", "dxf_type": "LWPOLYLINE"}, "geometry": {"type": "LineString", "coordinates": [[-55.009009330843966, -10.237213766573385], [-55.00924016962862, -10.23720655294392]]}}, {"type": "Feature", "properties": {"layer": "PDF_EIXO_LOTES", "dxf_type": "LWPOLYLINE"}, "geometry": {"type": "LineString", "coordinates": [[-55.009493210711156, -10.236975185614895], [-55.00899433376944, -10.236980760194012]]}}, {"type": "Feature", "properties": {"layer": "PDF_EIXO_LOTES", "dxf_type": "LWPOLYLINE"}, "geometry": {"type": "LineString", "coordinates": [[-55.0090133730434, -10.235169315154057], [-55.00891201314317, -10.23497459960775], [-55.00869096189121, -10.234498789804237], [-55.00819453842438, -10.233413608402158], [-55.007350033882275, -10.231663494722234], [-55.006752576482, -10.230332798189687], [-55.00644242557757, -10.229637425945748], [-55.00634823021112, -10.229458090068706], [-55.00535114795963, -10.229520515216345], [-55.00531434226751, -10.229526040513877], [-55.0052740714286, -10.229544005223213], [-55.005269636913205, -10.22955691778204], [-55.00527674677671, -10.229580444485604], [-55.00528045616306, -10.229606346668186], [-55.005408643606195, -10.22976576324073], [-55.005537500340736, -10.229895469962793], [-55.006072434950624, -10.230389976494562], [-55.006205141292845, -10.230600700408582], [-55.00670639019522, -10.231686391610232], [-55.00773452352102, -10.233627892131768], [-55.00800172831687, -10.234228109577478], [-55.00837234849099, -10.235003885588663], [-55.00859549488759, -10.234910839438506], [-55.00868399757724, -10.235072408821031]]}}, {"type": "Feature", "properties": {"layer": "PDF_EIXO_LOTES", "dxf_type": "LWPOLYLINE"}, "geometry": {"type": "LineString", "coordinates": [[-55.00891201314317, -10.23497459960775], [-55.00868399757724, -10.235072408821031], [-55.008452580455966, -10.235172593346554], [-55.008553934105606, -10.23536826802522]]}}, {"type": "Feature", "properties": {"layer": "PDF_EIXO_LOTES", "dxf_type": "LWPOLYLINE"}, "geometry": {"type": "LineString", "coordinates": [[-55.00869096189121, -10.234498789804237], [-55.00844581991722, -10.234627645315074], [-55.008205073911796, -10.23412919161362], [-55.00800172831687, -10.234228109577478]]}}, {"type": "Feature", "properties": {"layer": "PDF_EIXO_LOTES", "dxf_type": "LWPOLYLINE"}, "geometry": {"type": "LineString", "coordinates": [[-55.00819453842438, -10.233413608402158], [-55.00773452352102, -10.233627892131768]]}}, {"type": "Feature", "properties": {"layer": "PDF_EIXO_LOTES", "dxf_type": "LWPOLYLINE"}, "geometry": {"type": "LineString", "coordinates": [[-55.007350033882275, -10.231663494722234], [-55.00670639019522, -10.231686391610232]]}}, {"type": "Feature", "properties": {"layer": "PDF_EIXO_LOTES", "dxf_type": "LWPOLYLINE"}, "geometry": {"type": "LineString", "coordinates": [[-55.006752576482, -10.230332798189687], [-55.006205141292845, -10.230600700408582]]}}, {"type": "Feature", "properties": {"layer": "PDF_EIXO_LOTES", "dxf_type": "LWPOLYLINE"}, "geometry": {"type": "LineString", "coordinates": [[-55.00837234849099, -10.235003885588663], [-55.008452580455966, -10.235172593346554]]}}, {"type": "Feature", "properties": {"layer": "PDF_EIXO_LOTES", "dxf_type": "LWPOLYLINE"}, "geometry": {"type": "LineString", "coordinates": [[-55.00863998804965, -10.234991625610714], [-55.008412462973126, -10.23508847854845]]}}, {"type": "Feature", "properties": {"layer": "PDF_EIXO_LOTES", "dxf_type": "LWPOLYLINE"}, "geometry": {"type": "LineString", "coordinates": [[-55.00961445016313, -10.238016856703823], [-55.00846751180632, -10.238052970217467]]}}]}