{"type": "FeatureCollection", "name": "pdf_linha_transmissao", "crs": {"type": "name", "properties": {"name": "urn:ogc:def:crs:OGC:1.3:CRS84"}}, "properties": {"source": "8be78050_MAPA TRIBUTAÇÃO 2021 (1).dxf", "assumed_crs": "EPSG:4326", "local_crs": false, "note": "Coordenadas locais do desenho (sem CRS). Use base 'Só CAD' no mapa.", "extent": [4300.4554, 2373.7696, 8215.3349, 6186.7838], "georef": true, "transform": {"scale": 1, "rotation_deg": 0, "tx": 713717.6034368816, "ty": 8862616.121289995, "rmse_m": 0, "epsg": 31981}, "layer": "PDF_LINHA_TRANSMISSAO", "source_file": "8be78050_MAPA TRIBUTAÇÃO 2021 (1)_georef.geojson", "n_features": 57}, "features": [{"type": "Feature", "properties": {"layer": "PDF_LINHA_TRANSMISSAO", "dxf_type": "LWPOLYLINE"}, "geometry": {"type": "LineString", "coordinates": [[-55.007135263694146, -10.230491855167095], [-55.00642125701196, -10.230005838818391], [-55.004856355290016, -10.228951491872731]]}}, {"type": "Feature", "properties": {"layer": "PDF_LINHA_TRANSMISSAO", "dxf_type": "LWPOLYLINE"}, "geometry": {"type": "LineString", "coordinates": [[-55.00669918964345, -10.230359308956684], [-55.006666428305294, -10.230337062448452]]}}, {"type": "Feature", "properties": {"layer": "PDF_LINHA_TRANSMISSAO", "dxf_type": "LWPOLYLINE"}, "geometry": {"type": "LineString", "coordinates": [[-55.006664498786186, -10.230336092469846], [-55.006649566065924, -10.230325457614569]]}}, {"type": "Feature", "properties": {"layer": "PDF_LINHA_TRANSMISSAO", "dxf_type": "LWPOLYLINE"}, "geometry": {"type": "LineString", "coordinates": [[-55.00664763745949, -10.230324487641486], [-55.006644268058665, -10.230321590709966]]}}, {"type": "Feature", "properties": {"layer": "PDF_LINHA_TRANSMISSAO", "dxf_type": "LWPOLYLINE"}, "geometry": {"type": "LineString", "coordinates": [[-55.00664233945227, -10.23032062073686], [-55.00663848639945, -10.230317721747847]]}}, {"type": "Feature", "properties": {"layer": "PDF_LINHA_TRANSMISSAO", "dxf_type": "LWPOLYLINE"}, "geometry": {"type": "LineString", "coordinates": [[-55.006636556880565, -10.23031675176911], [-55.006570552653166, -10.230271777613781]]}}, {"type": "Feature", "properties": {"layer": "PDF_LINHA_TRANSMISSAO", "dxf_type": "LWPOLYLINE"}, "geometry": {"type": "LineString", "coordinates": [[-55.00656862314045, -10.230270806730836], [-55.00654261076532, -10.230252436003155]]}}, {"type": "Feature", "properties": {"layer": "PDF_LINHA_TRANSMISSAO", "dxf_type": "LWPOLYLINE"}, "geometry": {"type": "LineString", "coordinates": [[-55.00654068215973, -10.230251466029562], [-55.00647467704877, -10.230206491854148]]}}, {"type": "Feature", "properties": {"layer": "PDF_LINHA_TRANSMISSAO", "dxf_type": "LWPOLYLINE"}, "geometry": {"type": "LineString", "coordinates": [[-55.006472748449355, -10.230205520976345], [-55.00644673608581, -10.23018715024296]]}}, {"type": "Feature", "properties": {"layer": "PDF_LINHA_TRANSMISSAO", "dxf_type": "LWPOLYLINE"}, "geometry": {"type": "LineString", "coordinates": [[-55.00644480656844, -10.230186180263354], [-55.00637880239901, -10.23014120607899]]}}, {"type": "Feature", "properties": {"layer": "PDF_LINHA_TRANSMISSAO", "dxf_type": "LWPOLYLINE"}, "geometry": {"type": "LineString", "coordinates": [[-55.00637687288781, -10.23014023519516], [-55.006344114582355, -10.230117510502824], [-55.00621740042373, -10.230031907157654]]}}, {"type": "Feature", "properties": {"layer": "PDF_LINHA_TRANSMISSAO", "dxf_type": "LWPOLYLINE"}, "geometry": {"type": "LineString", "coordinates": [[-55.00621547090816, -10.23003093717697], [-55.00618319029231, -10.230009173561918]]}}, {"type": "Feature", "properties": {"layer": "PDF_LINHA_TRANSMISSAO", "dxf_type": "LWPOLYLINE"}, "geometry": {"type": "LineString", "coordinates": [[-55.00618126078265, -10.230008202677185], [-55.00617789229668, -10.230005306651716]]}}, {"type": "Feature", "properties": {"layer": "PDF_LINHA_TRANSMISSAO", "dxf_type": "LWPOLYLINE"}, "geometry": {"type": "LineString", "coordinates": [[-55.00617596278142, -10.230004336670847], [-55.006172110649715, -10.230001437683368]]}}, {"type": "Feature", "properties": {"layer": "PDF_LINHA_TRANSMISSAO", "dxf_type": "LWPOLYLINE"}, "geometry": {"type": "LineString", "coordinates": [[-55.00617018114014, -10.230000466798586], [-55.00612103833247, -10.229967098325858]]}}, {"type": "Feature", "properties": {"layer": "PDF_LINHA_TRANSMISSAO", "dxf_type": "LWPOLYLINE"}, "geometry": {"type": "LineString", "coordinates": [[-55.00611910973584, -10.229966127446426], [-55.00607574858388, -10.229936627937633]]}}, {"type": "Feature", "properties": {"layer": "PDF_LINHA_TRANSMISSAO", "dxf_type": "LWPOLYLINE"}, "geometry": {"type": "LineString", "coordinates": [[-55.00607381906943, -10.229935657956295], [-55.005979386560156, -10.22987181817049]]}}, {"type": "Feature", "properties": {"layer": "PDF_LINHA_TRANSMISSAO", "dxf_type": "LWPOLYLINE"}, "geometry": {"type": "LineString", "coordinates": [[-55.005977457958984, -10.229870848194315], [-55.00597408856394, -10.22986795216174]]}}, {"type": "Feature", "properties": {"layer": "PDF_LINHA_TRANSMISSAO", "dxf_type": "LWPOLYLINE"}, "geometry": {"type": "LineString", "coordinates": [[-55.005972159962816, -10.229866982185523], [-55.00593409683501, -10.229841348671382]]}}, {"type": "Feature", "properties": {"layer": "PDF_LINHA_TRANSMISSAO", "dxf_type": "LWPOLYLINE"}, "geometry": {"type": "LineString", "coordinates": [[-55.00593216732731, -10.229840377785495], [-55.00592879884557, -10.22983748175818]]}}, {"type": "Feature", "properties": {"layer": "PDF_LINHA_TRANSMISSAO", "dxf_type": "LWPOLYLINE"}, "geometry": {"type": "LineString", "coordinates": [[-55.005926869332264, -10.22983651177618], [-55.00588880712481, -10.229810878263656]]}}, {"type": "Feature", "properties": {"layer": "PDF_LINHA_TRANSMISSAO", "dxf_type": "LWPOLYLINE"}, "geometry": {"type": "LineString", "coordinates": [[-55.00588687761183, -10.229809908281453], [-55.005883509130854, -10.229807012253799]]}}, {"type": "Feature", "properties": {"layer": "PDF_LINHA_TRANSMISSAO", "dxf_type": "LWPOLYLINE"}, "geometry": {"type": "LineString", "coordinates": [[-55.005881579623555, -10.229806041367683], [-55.0058777265847, -10.229803142372054]]}}, {"type": "Feature", "properties": {"layer": "PDF_LINHA_TRANSMISSAO", "dxf_type": "LWPOLYLINE"}, "geometry": {"type": "LineString", "coordinates": [[-55.00587579798434, -10.229802172395406], [-55.005832436880475, -10.229772672862346]]}}, {"type": "Feature", "properties": {"layer": "PDF_LINHA_TRANSMISSAO", "dxf_type": "LWPOLYLINE"}, "geometry": {"type": "LineString", "coordinates": [[-55.005830507373574, -10.229771701975993], [-55.005781365554455, -10.229738333470475]]}}, {"type": "Feature", "properties": {"layer": "PDF_LINHA_TRANSMISSAO", "dxf_type": "LWPOLYLINE"}, "geometry": {"type": "LineString", "coordinates": [[-55.00577943604795, -10.229737362583885], [-55.00569078529362, -10.229677392612864]]}}, {"type": "Feature", "properties": {"layer": "PDF_LINHA_TRANSMISSAO", "dxf_type": "LWPOLYLINE"}, "geometry": {"type": "LineString", "coordinates": [[-55.00568885578219, -10.229676422629748], [-55.00568548730459, -10.22967352660063]]}}, {"type": "Feature", "properties": {"layer": "PDF_LINHA_TRANSMISSAO", "dxf_type": "LWPOLYLINE"}, "geometry": {"type": "LineString", "coordinates": [[-55.0056835577932, -10.229672556617484], [-55.00564549562779, -10.229646923083646]]}}, {"type": "Feature", "properties": {"layer": "PDF_LINHA_TRANSMISSAO", "dxf_type": "LWPOLYLINE"}, "geometry": {"type": "LineString", "coordinates": [[-55.00564356612235, -10.229645952196442], [-55.00564019764552, -10.229643056166985]]}}, {"type": "Feature", "properties": {"layer": "PDF_LINHA_TRANSMISSAO", "dxf_type": "LWPOLYLINE"}, "geometry": {"type": "LineString", "coordinates": [[-55.00563826813448, -10.229642086183635], [-55.005634416012626, -10.229639187191479]]}}, {"type": "Feature", "properties": {"layer": "PDF_LINHA_TRANSMISSAO", "dxf_type": "LWPOLYLINE"}, "geometry": {"type": "LineString", "coordinates": [[-55.00563248650729, -10.22963821630421], [-55.0056002059769, -10.229616452645825]]}}, {"type": "Feature", "properties": {"layer": "PDF_LINHA_TRANSMISSAO", "dxf_type": "LWPOLYLINE"}, "geometry": {"type": "LineString", "coordinates": [[-55.00559827646618, -10.22961548266229], [-55.00559490707757, -10.229612586626908]]}}, {"type": "Feature", "properties": {"layer": "PDF_LINHA_TRANSMISSAO", "dxf_type": "LWPOLYLINE"}, "geometry": {"type": "LineString", "coordinates": [[-55.005592978485076, -10.229611615745064], [-55.00558912545151, -10.229608716746908]]}}, {"type": "Feature", "properties": {"layer": "PDF_LINHA_TRANSMISSAO", "dxf_type": "LWPOLYLINE"}, "geometry": {"type": "LineString", "coordinates": [[-55.00558719685342, -10.229607746768925], [-55.00553805418186, -10.229574377326424]]}}, {"type": "Feature", "properties": {"layer": "PDF_LINHA_TRANSMISSAO", "dxf_type": "LWPOLYLINE"}, "geometry": {"type": "LineString", "coordinates": [[-55.005536124671636, -10.229573407342615], [-55.00549276363489, -10.229543907775708]]}}, {"type": "Feature", "properties": {"layer": "PDF_LINHA_TRANSMISSAO", "dxf_type": "LWPOLYLINE"}, "geometry": {"type": "LineString", "coordinates": [[-55.0054908350432, -10.229542936893374], [-55.00544891988006, -10.229514404343298]]}}, {"type": "Feature", "properties": {"layer": "PDF_LINHA_TRANSMISSAO", "dxf_type": "LWPOLYLINE"}, "geometry": {"type": "LineString", "coordinates": [[-55.0065817523834, -10.229950269990626], [-55.00651574731916, -10.229905295833442]]}}, {"type": "Feature", "properties": {"layer": "PDF_LINHA_TRANSMISSAO", "dxf_type": "LWPOLYLINE"}, "geometry": {"type": "LineString", "coordinates": [[-55.00651381871558, -10.22990432586008], [-55.006498886019095, -10.229893691002388], [-55.00639818720596, -10.229825979394676]]}}, {"type": "Feature", "properties": {"layer": "PDF_LINHA_TRANSMISSAO", "dxf_type": "LWPOLYLINE"}, "geometry": {"type": "LineString", "coordinates": [[-55.00639625860894, -10.229825008516878], [-55.00639288920965, -10.22982211248801]]}}, {"type": "Feature", "properties": {"layer": "PDF_LINHA_TRANSMISSAO", "dxf_type": "LWPOLYLINE"}, "geometry": {"type": "LineString", "coordinates": [[-55.006390960607035, -10.229821142514083], [-55.00635289744091, -10.229795509043567]]}}, {"type": "Feature", "properties": {"layer": "PDF_LINHA_TRANSMISSAO", "dxf_type": "LWPOLYLINE"}, "geometry": {"type": "LineString", "coordinates": [[-55.00635096792606, -10.229794539063867], [-55.00634759944008, -10.229791643040254]]}}, {"type": "Feature", "properties": {"layer": "PDF_LINHA_TRANSMISSAO", "dxf_type": "LWPOLYLINE"}, "geometry": {"type": "LineString", "coordinates": [[-55.00634566993093, -10.229790672156634], [-55.00630760767952, -10.229765039591612]]}}, {"type": "Feature", "properties": {"layer": "PDF_LINHA_TRANSMISSAO", "dxf_type": "LWPOLYLINE"}, "geometry": {"type": "LineString", "coordinates": [[-55.00630567817067, -10.22976406870783], [-55.00630230968546, -10.22976117268386]]}}, {"type": "Feature", "properties": {"layer": "PDF_LINHA_TRANSMISSAO", "dxf_type": "LWPOLYLINE"}, "geometry": {"type": "LineString", "coordinates": [[-55.00630038017101, -10.229760202703945], [-55.006296528040416, -10.229757303718243]]}}, {"type": "Feature", "properties": {"layer": "PDF_LINHA_TRANSMISSAO", "dxf_type": "LWPOLYLINE"}, "geometry": {"type": "LineString", "coordinates": [[-55.00629459853165, -10.22975633283439], [-55.006262317933064, -10.229734569231061]]}}, {"type": "Feature", "properties": {"layer": "PDF_LINHA_TRANSMISSAO", "dxf_type": "LWPOLYLINE"}, "geometry": {"type": "LineString", "coordinates": [[-55.00626038841893, -10.229733599250943], [-55.006245455740036, -10.229722964384635]]}}, {"type": "Feature", "properties": {"layer": "PDF_LINHA_TRANSMISSAO", "dxf_type": "LWPOLYLINE"}, "geometry": {"type": "LineString", "coordinates": [[-55.00624352623168, -10.229721993500547], [-55.00620016600638, -10.22969249401759]]}}, {"type": "Feature", "properties": {"layer": "PDF_LINHA_TRANSMISSAO", "dxf_type": "LWPOLYLINE"}, "geometry": {"type": "LineString", "coordinates": [[-55.006198236492736, -10.2296915240372], [-55.006053216316374, -10.2295933479069]]}}, {"type": "Feature", "properties": {"layer": "PDF_LINHA_TRANSMISSAO", "dxf_type": "LWPOLYLINE"}, "geometry": {"type": "LineString", "coordinates": [[-55.00605128680389, -10.229592377925817], [-55.00601900624096, -10.229570614304428]]}}, {"type": "Feature", "properties": {"layer": "PDF_LINHA_TRANSMISSAO", "dxf_type": "LWPOLYLINE"}, "geometry": {"type": "LineString", "coordinates": [[-55.00601707673438, -10.229569643419293], [-55.00601370825409, -10.229566747393202]]}}, {"type": "Feature", "properties": {"layer": "PDF_LINHA_TRANSMISSAO", "dxf_type": "LWPOLYLINE"}, "geometry": {"type": "LineString", "coordinates": [[-55.00601177874191, -10.229565777411933], [-55.00600792570406, -10.229562878418132]]}}, {"type": "Feature", "properties": {"layer": "PDF_LINHA_TRANSMISSAO", "dxf_type": "LWPOLYLINE"}, "geometry": {"type": "LineString", "coordinates": [[-55.00600599711011, -10.229561907538534], [-55.005956854383065, -10.229528539056176]]}}, {"type": "Feature", "properties": {"layer": "PDF_LINHA_TRANSMISSAO", "dxf_type": "LWPOLYLINE"}, "geometry": {"type": "LineString", "coordinates": [[-55.005954924876974, -10.22952756817075], [-55.00589421889782, -10.229486460836812]]}}, {"type": "Feature", "properties": {"layer": "PDF_LINHA_TRANSMISSAO", "dxf_type": "LINE"}, "geometry": {"type": "LineString", "coordinates": [[-54.97490522278271, -10.23575152849258], [-54.974417028299094, -10.236142901577775]]}}, {"type": "Feature", "properties": {"layer": "PDF_LINHA_TRANSMISSAO", "dxf_type": "LINE"}, "geometry": {"type": "LineString", "coordinates": [[-54.97473654220385, -10.236554218783866], [-54.97441501561144, -10.236161957964347]]}}, {"type": "Feature", "properties": {"layer": "PDF_LINHA_TRANSMISSAO", "dxf_type": "LINE"}, "geometry": {"type": "LineString", "coordinates": [[-54.97474716862378, -10.236545672459943], [-54.974425642935344, -10.236153411655568]]}}, {"type": "Feature", "properties": {"layer": "PDF_LINHA_TRANSMISSAO", "dxf_type": "LINE"}, "geometry": {"type": "LineString", "coordinates": [[-54.974913834508435, -10.23576206746571], [-54.974425640014196, -10.236153440562552]]}}]}