{"type": "FeatureCollection", "name": "pdf_meio_fio", "crs": {"type": "name", "properties": {"name": "urn:ogc:def:crs:OGC:1.3:CRS84"}}, "properties": {"source": "8be78050_MAPA TRIBUTAÇÃO 2021 (1).dxf", "assumed_crs": "EPSG:4326", "local_crs": false, "note": "Coordenadas locais do desenho (sem CRS). Use base 'Só CAD' no mapa.", "extent": [4300.4554, 2373.7696, 8215.3349, 6186.7838], "georef": true, "transform": {"scale": 1, "rotation_deg": 0, "tx": 713717.6034368816, "ty": 8862616.121289995, "rmse_m": 0, "epsg": 31981}, "layer": "PDF_Meio-Fio", "source_file": "8be78050_MAPA TRIBUTAÇÃO 2021 (1)_georef.geojson", "n_features": 240}, "features": [{"type": "Feature", "properties": {"layer": "PDF_Meio-Fio", "dxf_type": "LWPOLYLINE"}, "geometry": {"type": "LineString", "coordinates": [[-54.98808951013535, -10.251131642889428], [-54.98902708453634, -10.250435171123712]]}}, {"type": "Feature", "properties": {"layer": "PDF_Meio-Fio", "dxf_type": "LWPOLYLINE"}, "geometry": {"type": "LineString", "coordinates": [[-54.9861720546719, -10.251070093122566], [-54.98698865776936, -10.251983399516913]]}}, {"type": "Feature", "properties": {"layer": "PDF_Meio-Fio", "dxf_type": "LWPOLYLINE"}, "geometry": {"type": "LineString", "coordinates": [[-54.98612413589538, -10.251111634819676], [-54.98694728812196, -10.252032857737202]]}}, {"type": "Feature", "properties": {"layer": "PDF_Meio-Fio", "dxf_type": "LWPOLYLINE"}, "geometry": {"type": "LineString", "coordinates": [[-54.9925026852394, -10.24946848930737], [-54.991825725950626, -10.24998201056374], [-54.99181465332202, -10.249989940923443]]}}, {"type": "Feature", "properties": {"layer": "PDF_Meio-Fio", "dxf_type": "LWPOLYLINE"}, "geometry": {"type": "LineString", "coordinates": [[-54.98992006369095, -10.251484640378267], [-54.989923005396854, -10.25146563379725], [-54.99091192824893, -10.250728531559224], [-54.99185696925743, -10.250030747758332], [-54.99254410453277, -10.249515316954971], [-54.99256297867035, -10.249517461944599], [-54.992941504660294, -10.24996652927686]]}}, {"type": "Feature", "properties": {"layer": "PDF_Meio-Fio", "dxf_type": "LWPOLYLINE"}, "geometry": {"type": "LineString", "coordinates": [[-54.992127942657554, -10.249022701872947], [-54.991459997944865, -10.249534199124012]]}}, {"type": "Feature", "properties": {"layer": "PDF_Meio-Fio", "dxf_type": "LWPOLYLINE"}, "geometry": {"type": "LineString", "coordinates": [[-54.99046178190759, -10.250173527435718], [-54.99135246147113, -10.24953468966033], [-54.9914316854097, -10.249476732793168], [-54.99207976989204, -10.24896706625046]]}}, {"type": "Feature", "properties": {"layer": "PDF_Meio-Fio", "dxf_type": "LWPOLYLINE"}, "geometry": {"type": "LineString", "coordinates": [[-54.99038959071241, -10.250225775855478], [-54.989482457182405, -10.250876374182026]]}}, {"type": "Feature", "properties": {"layer": "PDF_Meio-Fio", "dxf_type": "LWPOLYLINE"}, "geometry": {"type": "LineString", "coordinates": [[-54.98951910780927, -10.250923897600417], [-54.99042615651105, -10.250277071618193]]}}, {"type": "Feature", "properties": {"layer": "PDF_Meio-Fio", "dxf_type": "LWPOLYLINE"}, "geometry": {"type": "LineString", "coordinates": [[-54.990496251865736, -10.250222291007693], [-54.99140347549937, -10.249579551045732]]}}, {"type": "Feature", "properties": {"layer": "PDF_Meio-Fio", "dxf_type": "LWPOLYLINE"}, "geometry": {"type": "LineString", "coordinates": [[-54.99049286573801, -10.250241447617585], [-54.99083434190003, -10.250690949549782]]}}, {"type": "Feature", "properties": {"layer": "PDF_Meio-Fio", "dxf_type": "LWPOLYLINE"}, "geometry": {"type": "LineString", "coordinates": [[-54.99044497317658, -10.250279793081699], [-54.99079057380815, -10.25072330136326]]}}, {"type": "Feature", "properties": {"layer": "PDF_Meio-Fio", "dxf_type": "LWPOLYLINE"}, "geometry": {"type": "LineString", "coordinates": [[-54.990462190628335, -10.250173693572691], [-54.990442964335244, -10.250170805968693], [-54.990174235152985, -10.24981309567655]]}}, {"type": "Feature", "properties": {"layer": "PDF_Meio-Fio", "dxf_type": "LWPOLYLINE"}, "geometry": {"type": "LineString", "coordinates": [[-54.99039239495071, -10.250206562317894], [-54.99014724885128, -10.249883165087171], [-54.99005072092004, -10.249761984349663]]}}, {"type": "Feature", "properties": {"layer": "PDF_Meio-Fio", "dxf_type": "LWPOLYLINE"}, "geometry": {"type": "LineString", "coordinates": [[-54.99175571574094, -10.250033019078664], [-54.9908537404936, -10.250693727924144]]}}, {"type": "Feature", "properties": {"layer": "PDF_Meio-Fio", "dxf_type": "LWPOLYLINE"}, "geometry": {"type": "LineString", "coordinates": [[-54.990937269164846, -10.249085218936173], [-54.99093886713053, -10.249083920843415], [-54.9916650358497, -10.248474881775621]]}}, {"type": "Feature", "properties": {"layer": "PDF_Meio-Fio", "dxf_type": "LWPOLYLINE"}, "geometry": {"type": "LineString", "coordinates": [[-54.99169288936807, -10.24850466902381], [-54.99094823557059, -10.249160470236369], [-54.990176662690025, -10.249794717745253]]}}, {"type": "Feature", "properties": {"layer": "PDF_Meio-Fio", "dxf_type": "LWPOLYLINE"}, "geometry": {"type": "LineString", "coordinates": [[-54.990140700118644, -10.249734463344137], [-54.99086688586511, -10.249142880524301]]}}, {"type": "Feature", "properties": {"layer": "PDF_Meio-Fio", "dxf_type": "LWPOLYLINE"}, "geometry": {"type": "LineString", "coordinates": [[-54.990483869043736, -10.248674171363668], [-54.99086852718473, -10.249123552218464]]}}, {"type": "Feature", "properties": {"layer": "PDF_Meio-Fio", "dxf_type": "LWPOLYLINE"}, "geometry": {"type": "LineString", "coordinates": [[-54.99053682226662, -10.248638068122329], [-54.99091833669806, -10.249083649294723], [-54.990937713464106, -10.249085387100145]]}}, {"type": "Feature", "properties": {"layer": "PDF_Meio-Fio", "dxf_type": "LWPOLYLINE"}, "geometry": {"type": "LineString", "coordinates": [[-54.99012176762112, -10.249732894553595], [-54.98974172002503, -10.249302000333888]]}}, {"type": "Feature", "properties": {"layer": "PDF_Meio-Fio", "dxf_type": "LWPOLYLINE"}, "geometry": {"type": "LineString", "coordinates": [[-54.989703045770895, -10.249339214973963], [-54.9899700586302, -10.249661269737931], [-54.98999666423217, -10.249694716600242]]}}, {"type": "Feature", "properties": {"layer": "PDF_Meio-Fio", "dxf_type": "LWPOLYLINE"}, "geometry": {"type": "LineString", "coordinates": [[-54.98891187429808, -10.252219167114804], [-54.98985000107932, -10.251520129558354]]}}, {"type": "Feature", "properties": {"layer": "PDF_Meio-Fio", "dxf_type": "LWPOLYLINE"}, "geometry": {"type": "LineString", "coordinates": [[-54.988879871738334, -10.2521662832321], [-54.98981390131261, -10.251470042435916]]}}, {"type": "Feature", "properties": {"layer": "PDF_Meio-Fio", "dxf_type": "LWPOLYLINE"}, "geometry": {"type": "LineString", "coordinates": [[-54.98989068347216, -10.25141300925198], [-54.9899119277744, -10.25139735283585], [-54.99078803133273, -10.250742831993803]]}}, {"type": "Feature", "properties": {"layer": "PDF_Meio-Fio", "dxf_type": "LWPOLYLINE"}, "geometry": {"type": "LineString", "coordinates": [[-54.98806645055368, -10.251242005873992], [-54.98804702498312, -10.251239167505675], [-54.98781656196575, -10.251411416389477]]}}, {"type": "Feature", "properties": {"layer": "PDF_Meio-Fio", "dxf_type": "LWPOLYLINE"}, "geometry": {"type": "LineString", "coordinates": [[-54.98781592258651, -10.251411935798153], [-54.987009588344314, -10.252082319227187]]}}, {"type": "Feature", "properties": {"layer": "PDF_Meio-Fio", "dxf_type": "LWPOLYLINE"}, "geometry": {"type": "LineString", "coordinates": [[-54.98757641820027, -10.250586450151774], [-54.98747736644103, -10.250399572700104]]}}, {"type": "Feature", "properties": {"layer": "PDF_Meio-Fio", "dxf_type": "LWPOLYLINE"}, "geometry": {"type": "LineString", "coordinates": [[-54.98760837423921, -10.250510760557832], [-54.9875528328407, -10.2504055322969]]}}, {"type": "Feature", "properties": {"layer": "PDF_Meio-Fio", "dxf_type": "LWPOLYLINE"}, "geometry": {"type": "LineString", "coordinates": [[-54.98678476296389, -10.250564816519624], [-54.98668519576733, -10.250638225911983], [-54.986682836904656, -10.250657979061609]]}}, {"type": "Feature", "properties": {"layer": "PDF_Meio-Fio", "dxf_type": "LWPOLYLINE"}, "geometry": {"type": "LineString", "coordinates": [[-54.98675113203025, -10.250510608133174], [-54.98663287707379, -10.25059759878129]]}}, {"type": "Feature", "properties": {"layer": "PDF_Meio-Fio", "dxf_type": "LWPOLYLINE"}, "geometry": {"type": "LineString", "coordinates": [[-54.98748173642715, -10.251590575389528], [-54.987600773460436, -10.251498716285685], [-54.98785707595267, -10.251311843131525], [-54.988012119349456, -10.2511918156584]]}}, {"type": "Feature", "properties": {"layer": "PDF_Meio-Fio", "dxf_type": "LWPOLYLINE"}, "geometry": {"type": "LineString", "coordinates": [[-54.989081260449815, -10.25048322787227], [-54.98906222019786, -10.25048021840376], [-54.98878210758047, -10.250673188760562]]}}, {"type": "Feature", "properties": {"layer": "PDF_Meio-Fio", "dxf_type": "LWPOLYLINE"}, "geometry": {"type": "LineString", "coordinates": [[-54.98878146820985, -10.250673707267866], [-54.98846179261015, -10.250921548803097], [-54.98812953947164, -10.251186479258566]]}}, {"type": "Feature", "properties": {"layer": "PDF_Meio-Fio", "dxf_type": "LWPOLYLINE"}, "geometry": {"type": "LineString", "coordinates": [[-54.98891216499317, -10.252218946550354], [-54.98890938824984, -10.25223812135508], [-54.98921782777489, -10.25265092922457]]}}, {"type": "Feature", "properties": {"layer": "PDF_Meio-Fio", "dxf_type": "LWPOLYLINE"}, "geometry": {"type": "LineString", "coordinates": [[-54.990836803456666, -10.252728228988618], [-54.990287604700036, -10.251992164972094], [-54.99029056197632, -10.251972858380276]]}}, {"type": "Feature", "properties": {"layer": "PDF_Meio-Fio", "dxf_type": "LWPOLYLINE"}, "geometry": {"type": "LineString", "coordinates": [[-54.99081808449824, -10.252809581655834], [-54.99023575622434, -10.252028959159059]]}}, {"type": "Feature", "properties": {"layer": "PDF_Meio-Fio", "dxf_type": "LWPOLYLINE"}, "geometry": {"type": "LineString", "coordinates": [[-54.991640053950434, -10.252378954995017], [-54.99098080786239, -10.251492460218785]]}}, {"type": "Feature", "properties": {"layer": "PDF_Meio-Fio", "dxf_type": "LWPOLYLINE"}, "geometry": {"type": "LineString", "coordinates": [[-54.991273829559915, -10.252566668520457], [-54.99066527400065, -10.251719476272728], [-54.99066849301095, -10.251700484951167]]}}, {"type": "Feature", "properties": {"layer": "PDF_Meio-Fio", "dxf_type": "LWPOLYLINE"}, "geometry": {"type": "LineString", "coordinates": [[-54.992380125172104, -10.251868724950203], [-54.9917117034872, -10.250965332019433]]}}, {"type": "Feature", "properties": {"layer": "PDF_Meio-Fio", "dxf_type": "LWPOLYLINE"}, "geometry": {"type": "LineString", "coordinates": [[-54.99118316786593, -10.2525423466097], [-54.9906171468981, -10.251754308545522]]}}, {"type": "Feature", "properties": {"layer": "PDF_Meio-Fio", "dxf_type": "LWPOLYLINE"}, "geometry": {"type": "LineString", "coordinates": [[-54.99165101176338, -10.252301784602126], [-54.99102509956815, -10.251460741666314], [-54.991028055882964, -10.251441434148244]]}}, {"type": "Feature", "properties": {"layer": "PDF_Meio-Fio", "dxf_type": "LWPOLYLINE"}, "geometry": {"type": "LineString", "coordinates": [[-54.99201135663573, -10.252108257260474], [-54.99135304184997, -10.25122418145806]]}}, {"type": "Feature", "properties": {"layer": "PDF_Meio-Fio", "dxf_type": "LWPOLYLINE"}, "geometry": {"type": "LineString", "coordinates": [[-54.99205065365838, -10.252085356168392], [-54.99138977688966, -10.251197538638612]]}}, {"type": "Feature", "properties": {"layer": "PDF_Meio-Fio", "dxf_type": "LWPOLYLINE"}, "geometry": {"type": "LineString", "coordinates": [[-54.992434331058966, -10.251834780533834], [-54.991763550728486, -10.250928537523567], [-54.99176650605897, -10.25090923269473]]}}, {"type": "Feature", "properties": {"layer": "PDF_Meio-Fio", "dxf_type": "LWPOLYLINE"}, "geometry": {"type": "LineString", "coordinates": [[-54.99285795864827, -10.251648631285448], [-54.99212912894217, -10.250665131098996], [-54.992132084245604, -10.250645826261866]]}}, {"type": "Feature", "properties": {"layer": "PDF_Meio-Fio", "dxf_type": "LWPOLYLINE"}, "geometry": {"type": "LineString", "coordinates": [[-54.990451540027735, -10.252997553321011], [-54.989926500168856, -10.252251936453185], [-54.989929718320745, -10.25223294514328]]}}, {"type": "Feature", "properties": {"layer": "PDF_Meio-Fio", "dxf_type": "LWPOLYLINE"}, "geometry": {"type": "LineString", "coordinates": [[-54.99298174890779, -10.250033894843023], [-54.99251300052568, -10.2503715241984]]}}, {"type": "Feature", "properties": {"layer": "PDF_Meio-Fio", "dxf_type": "LWPOLYLINE"}, "geometry": {"type": "LineString", "coordinates": [[-54.992438949812566, -10.25042475323978], [-54.99213193308744, -10.250645917527653]]}}, {"type": "Feature", "properties": {"layer": "PDF_Meio-Fio", "dxf_type": "LWPOLYLINE"}, "geometry": {"type": "LineString", "coordinates": [[-54.99206575805144, -10.250693812282353], [-54.99176635581319, -10.250909323965942]]}}, {"type": "Feature", "properties": {"layer": "PDF_Meio-Fio", "dxf_type": "LWPOLYLINE"}, "geometry": {"type": "LineString", "coordinates": [[-54.99169256661713, -10.250962869873794], [-54.99139284375858, -10.251178641271457]]}}, {"type": "Feature", "properties": {"layer": "PDF_Meio-Fio", "dxf_type": "LWPOLYLINE"}, "geometry": {"type": "LineString", "coordinates": [[-54.99133396335551, -10.251221143853037], [-54.991027904707074, -10.251441528125026]]}}, {"type": "Feature", "properties": {"layer": "PDF_Meio-Fio", "dxf_type": "LWPOLYLINE"}, "geometry": {"type": "LineString", "coordinates": [[-54.99096172936015, -10.251489422589556], [-54.990668340916564, -10.251700579825975]]}}, {"type": "Feature", "properties": {"layer": "PDF_Meio-Fio", "dxf_type": "LWPOLYLINE"}, "geometry": {"type": "LineString", "coordinates": [[-54.99059806747567, -10.251751270886997], [-54.99029040989311, -10.251972951447115]]}}, {"type": "Feature", "properties": {"layer": "PDF_Meio-Fio", "dxf_type": "LWPOLYLINE"}, "geometry": {"type": "LineString", "coordinates": [[-54.990216677706535, -10.252025921481358], [-54.98992956713851, -10.252233040023293]]}}, {"type": "Feature", "properties": {"layer": "PDF_Meio-Fio", "dxf_type": "LWPOLYLINE"}, "geometry": {"type": "LineString", "coordinates": [[-54.9898558348449, -10.252286009048065], [-54.98955924814471, -10.252499759345836]]}}, {"type": "Feature", "properties": {"layer": "PDF_Meio-Fio", "dxf_type": "LWPOLYLINE"}, "geometry": {"type": "LineString", "coordinates": [[-54.9894857783978, -10.252553045355299], [-54.989189511375095, -10.252766535966304]]}}, {"type": "Feature", "properties": {"layer": "PDF_Meio-Fio", "dxf_type": "LWPOLYLINE"}, "geometry": {"type": "LineString", "coordinates": [[-54.99320199147287, -10.251424412902386], [-54.992458028283906, -10.250427790772955]]}}, {"type": "Feature", "properties": {"layer": "PDF_Meio-Fio", "dxf_type": "LWPOLYLINE"}, "geometry": {"type": "LineString", "coordinates": [[-54.992766358665, -10.251616072947007], [-54.99208483744317, -10.25069684984545]]}}, {"type": "Feature", "properties": {"layer": "PDF_Meio-Fio", "dxf_type": "LWPOLYLINE"}, "geometry": {"type": "LineString", "coordinates": [[-54.990357738917346, -10.252975250086479], [-54.989875175125995, -10.252289362932503]]}}, {"type": "Feature", "properties": {"layer": "PDF_Meio-Fio", "dxf_type": "LWPOLYLINE"}, "geometry": {"type": "LineString", "coordinates": [[-54.99322860702995, -10.251331261953528], [-54.993209879231, -10.251328033181425], [-54.99250993374391, -10.250390420687248]]}}, {"type": "Feature", "properties": {"layer": "PDF_Meio-Fio", "dxf_type": "LWPOLYLINE"}, "geometry": {"type": "LineString", "coordinates": [[-54.99293896232853, -10.249986059951299], [-54.99025422068636, -10.251920820038613]]}}, {"type": "Feature", "properties": {"layer": "PDF_Meio-Fio", "dxf_type": "LWPOLYLINE"}, "geometry": {"type": "LineString", "coordinates": [[-54.99018016837257, -10.25197404841421], [-54.98923690722067, -10.252653966971822]]}}, {"type": "Feature", "properties": {"layer": "PDF_Meio-Fio", "dxf_type": "LWPOLYLINE"}, "geometry": {"type": "LineString", "coordinates": [[-54.99000220634604, -10.253250255308092], [-54.98998436911261, -10.253246033015271], [-54.989504856930914, -10.252556083080542]]}}, {"type": "Feature", "properties": {"layer": "PDF_Meio-Fio", "dxf_type": "LWPOLYLINE"}, "geometry": {"type": "LineString", "coordinates": [[-54.99000436707744, -10.253163642521526], [-54.989556181148124, -10.252518655767254], [-54.98955940023406, -10.25249966537555]]}}, {"type": "Feature", "properties": {"layer": "PDF_Meio-Fio", "dxf_type": "LWPOLYLINE"}, "geometry": {"type": "LineString", "coordinates": [[-54.99023514217445, -10.251917782363178], [-54.98991993843734, -10.251484531133107]]}}, {"type": "Feature", "properties": {"layer": "PDF_Meio-Fio", "dxf_type": "LWPOLYLINE"}, "geometry": {"type": "LineString", "coordinates": [[-54.99018323532175, -10.251955151978267], [-54.9898693997077, -10.251522907095481]]}}, {"type": "Feature", "properties": {"layer": "PDF_Meio-Fio", "dxf_type": "LWPOLYLINE"}, "geometry": {"type": "LineString", "coordinates": [[-54.98913822236267, -10.252812401501783], [-54.98948373601415, -10.253291971674427]]}}, {"type": "Feature", "properties": {"layer": "PDF_Meio-Fio", "dxf_type": "LWPOLYLINE"}, "geometry": {"type": "LineString", "coordinates": [[-54.98956519463338, -10.253405273099327], [-54.98956592332723, -10.253406798904052]]}}, {"type": "Feature", "properties": {"layer": "PDF_Meio-Fio", "dxf_type": "LWPOLYLINE"}, "geometry": {"type": "LineString", "coordinates": [[-54.98918618259635, -10.252785116195517], [-54.98958677907846, -10.25334223542614]]}}, {"type": "Feature", "properties": {"layer": "PDF_Meio-Fio", "dxf_type": "LWPOLYLINE"}, "geometry": {"type": "LineString", "coordinates": [[-54.98886131674422, -10.2521638787473], [-54.98867144096688, -10.251933755299113]]}}, {"type": "Feature", "properties": {"layer": "PDF_Meio-Fio", "dxf_type": "LWPOLYLINE"}, "geometry": {"type": "LineString", "coordinates": [[-54.98867091746432, -10.251933122027276], [-54.98856046884569, -10.251786722130497]]}}, {"type": "Feature", "properties": {"layer": "PDF_Meio-Fio", "dxf_type": "LWPOLYLINE"}, "geometry": {"type": "LineString", "coordinates": [[-54.988560788081834, -10.251786461970626], [-54.98850265134872, -10.25170715835499]]}}, {"type": "Feature", "properties": {"layer": "PDF_Meio-Fio", "dxf_type": "LWPOLYLINE"}, "geometry": {"type": "LineString", "coordinates": [[-54.988293114818255, -10.24837402803423], [-54.98821384648647, -10.247842947368834]]}}, {"type": "Feature", "properties": {"layer": "PDF_Meio-Fio", "dxf_type": "LWPOLYLINE"}, "geometry": {"type": "LineString", "coordinates": [[-54.98805541955868, -10.24741316966698], [-54.98802286742969, -10.247362849526619]]}}, {"type": "Feature", "properties": {"layer": "PDF_Meio-Fio", "dxf_type": "LWPOLYLINE"}, "geometry": {"type": "LineString", "coordinates": [[-54.98644185410324, -10.24981003524787], [-54.98633089218691, -10.249853529327382], [-54.98624324471025, -10.249887095496828]]}}, {"type": "Feature", "properties": {"layer": "PDF_Meio-Fio", "dxf_type": "LWPOLYLINE"}, "geometry": {"type": "LineString", "coordinates": [[-54.98624106392605, -10.249888335715376], [-54.98608800478241, -10.249979761151353]]}}, {"type": "Feature", "properties": {"layer": "PDF_Meio-Fio", "dxf_type": "LWPOLYLINE"}, "geometry": {"type": "LineString", "coordinates": [[-54.98630114125746, -10.24977817703402], [-54.98606487328124, -10.249891097208376]]}}, {"type": "Feature", "properties": {"layer": "PDF_Meio-Fio", "dxf_type": "LWPOLYLINE"}, "geometry": {"type": "LineString", "coordinates": [[-54.986084502525664, -10.250000069441475], [-54.98634879342778, -10.250305279702232], [-54.986420889291146, -10.250385955435766]]}}, {"type": "Feature", "properties": {"layer": "PDF_Meio-Fio", "dxf_type": "LWPOLYLINE"}, "geometry": {"type": "LineString", "coordinates": [[-54.986421151041725, -10.250386271620917], [-54.98661452647654, -10.250596086716499], [-54.98663308666455, -10.250597937241073]]}}, {"type": "Feature", "properties": {"layer": "PDF_Meio-Fio", "dxf_type": "LWPOLYLINE"}, "geometry": {"type": "LineString", "coordinates": [[-54.98917507167682, -10.249051155368901], [-54.98881246852327, -10.249217405563295], [-54.98875674365777, -10.249243055577436], [-54.98836785332954, -10.2494459925314], [-54.98828439680771, -10.24948462550371]]}}, {"type": "Feature", "properties": {"layer": "PDF_Meio-Fio", "dxf_type": "LWPOLYLINE"}, "geometry": {"type": "LineString", "coordinates": [[-54.987269359172636, -10.249720002694808], [-54.98737746856667, -10.249995324933117], [-54.98746094401084, -10.250158855345502], [-54.98753743087711, -10.250310064554942], [-54.987551337094054, -10.250317633310141]]}}, {"type": "Feature", "properties": {"layer": "PDF_Meio-Fio", "dxf_type": "LWPOLYLINE"}, "geometry": {"type": "LineString", "coordinates": [[-54.98908103684807, -10.250482939946329], [-54.989407955923994, -10.250913560495386]]}}, {"type": "Feature", "properties": {"layer": "PDF_Meio-Fio", "dxf_type": "LWPOLYLINE"}, "geometry": {"type": "LineString", "coordinates": [[-54.990031584146585, -10.249759523026016], [-54.98913434650222, -10.250417460068922], [-54.989131481783936, -10.25043670032439], [-54.98946364049595, -10.250873653561573], [-54.98948286589753, -10.250876541224194]]}}, {"type": "Feature", "properties": {"layer": "PDF_Meio-Fio", "dxf_type": "LWPOLYLINE"}, "geometry": {"type": "LineString", "coordinates": [[-54.98946035625708, -10.25098270187109], [-54.989816648136056, -10.251451404354054]]}}, {"type": "Feature", "properties": {"layer": "PDF_Meio-Fio", "dxf_type": "LWPOLYLINE"}, "geometry": {"type": "LineString", "coordinates": [[-54.98915357007667, -10.252697265887564], [-54.988066103409835, -10.251242205298118]]}}, {"type": "Feature", "properties": {"layer": "PDF_Meio-Fio", "dxf_type": "LWPOLYLINE"}, "geometry": {"type": "LineString", "coordinates": [[-54.989519311242255, -10.250923765983126], [-54.98951630259246, -10.250943111112804], [-54.98987128485557, -10.251410230813459]]}}, {"type": "Feature", "properties": {"layer": "PDF_Meio-Fio", "dxf_type": "LWPOLYLINE"}, "geometry": {"type": "LineString", "coordinates": [[-54.989405208181154, -10.250932197661191], [-54.98846970724837, -10.251640219024301]]}}, {"type": "Feature", "properties": {"layer": "PDF_Meio-Fio", "dxf_type": "LWPOLYLINE"}, "geometry": {"type": "LineString", "coordinates": [[-54.98944121942341, -10.250980240499729], [-54.988505398245785, -10.251688521203343]]}}, {"type": "Feature", "properties": {"layer": "PDF_Meio-Fio", "dxf_type": "LWPOLYLINE"}, "geometry": {"type": "LineString", "coordinates": [[-54.989150503052585, -10.252716162299993], [-54.98879313126775, -10.252991424948094]]}}, {"type": "Feature", "properties": {"layer": "PDF_Meio-Fio", "dxf_type": "LWPOLYLINE"}, "geometry": {"type": "LineString", "coordinates": [[-54.98911856192327, -10.252809306819742], [-54.988858227680026, -10.253010037383085]]}}, {"type": "Feature", "properties": {"layer": "PDF_Meio-Fio", "dxf_type": "LWPOLYLINE"}, "geometry": {"type": "LineString", "coordinates": [[-54.98847007914052, -10.251640436459258], [-54.988450570395166, -10.251637757588576], [-54.98812737354062, -10.251205174236674], [-54.98812978897971, -10.251186277421963]]}}, {"type": "Feature", "properties": {"layer": "PDF_Meio-Fio", "dxf_type": "LWPOLYLINE"}, "geometry": {"type": "LineString", "coordinates": [[-54.988070111572, -10.251128864349495], [-54.98760968390047, -10.250512343293412], [-54.98760852375031, -10.250510496635906]]}}, {"type": "Feature", "properties": {"layer": "PDF_Meio-Fio", "dxf_type": "LWPOLYLINE"}, "geometry": {"type": "LineString", "coordinates": [[-54.98801460451693, -10.251172861426822], [-54.98757740863192, -10.250588292142622]]}}, {"type": "Feature", "properties": {"layer": "PDF_Meio-Fio", "dxf_type": "LWPOLYLINE"}, "geometry": {"type": "LineString", "coordinates": [[-54.98700826699438, -10.250453259449916], [-54.98746366391047, -10.250392699411705]]}}, {"type": "Feature", "properties": {"layer": "PDF_Meio-Fio", "dxf_type": "LWPOLYLINE"}, "geometry": {"type": "LineString", "coordinates": [[-54.9874609997299, -10.25029906597022], [-54.987184110746306, -10.249700283602937]]}}, {"type": "Feature", "properties": {"layer": "PDF_Meio-Fio", "dxf_type": "LWPOLYLINE"}, "geometry": {"type": "LineString", "coordinates": [[-54.986444877610566, -10.24980916904773], [-54.98716930285716, -10.249692721004235]]}}, {"type": "Feature", "properties": {"layer": "PDF_Meio-Fio", "dxf_type": "LWPOLYLINE"}, "geometry": {"type": "LineString", "coordinates": [[-54.986306024493096, -10.249776329858575], [-54.98718501802992, -10.249635506358256]]}}, {"type": "Feature", "properties": {"layer": "PDF_Meio-Fio", "dxf_type": "LWPOLYLINE"}, "geometry": {"type": "LineString", "coordinates": [[-54.986786942839245, -10.2505635762923], [-54.987004022209355, -10.250454588125656]]}}, {"type": "Feature", "properties": {"layer": "PDF_Meio-Fio", "dxf_type": "LWPOLYLINE"}, "geometry": {"type": "LineString", "coordinates": [[-54.986752992675186, -10.250509627160236], [-54.98696481022311, -10.250403322685639]]}}, {"type": "Feature", "properties": {"layer": "PDF_Meio-Fio", "dxf_type": "LWPOLYLINE"}, "geometry": {"type": "LineString", "coordinates": [[-54.98668265213552, -10.25065775645705], [-54.987462543030006, -10.251588689342704]]}}, {"type": "Feature", "properties": {"layer": "PDF_Meio-Fio", "dxf_type": "LWPOLYLINE"}, "geometry": {"type": "LineString", "coordinates": [[-54.991296559333385, -10.248018582859284], [-54.99125855817097, -10.248014631981777], [-54.990916249392335, -10.248280323120182]]}}, {"type": "Feature", "properties": {"layer": "PDF_Meio-Fio", "dxf_type": "LWPOLYLINE"}, "geometry": {"type": "LineString", "coordinates": [[-54.99091561002424, -10.248280842537214], [-54.990538406120365, -10.248619316166046], [-54.99053710033908, -10.248638401580065]]}}, {"type": "Feature", "properties": {"layer": "PDF_Meio-Fio", "dxf_type": "LWPOLYLINE"}, "geometry": {"type": "LineString", "coordinates": [[-54.99094874907706, -10.248196251601954], [-54.990559283320636, -10.248545737860152]]}}, {"type": "Feature", "properties": {"layer": "PDF_Meio-Fio", "dxf_type": "LWPOLYLINE"}, "geometry": {"type": "LineString", "coordinates": [[-54.98974186953579, -10.249302170291575], [-54.9897433623271, -10.249282672052692], [-54.99046493751523, -10.248672602610341], [-54.990484433699564, -10.248674211915771]]}}, {"type": "Feature", "properties": {"layer": "PDF_Meio-Fio", "dxf_type": "LWPOLYLINE"}, "geometry": {"type": "LineString", "coordinates": [[-54.98973612532737, -10.249217094975235], [-54.99028253010231, -10.248755038390104]]}}, {"type": "Feature", "properties": {"layer": "PDF_Meio-Fio", "dxf_type": "LWPOLYLINE"}, "geometry": {"type": "LineString", "coordinates": [[-54.993785826935046, -10.250966898545013], [-54.99322805755791, -10.251331273022526]]}}, {"type": "Feature", "properties": {"layer": "PDF_Meio-Fio", "dxf_type": "LWPOLYLINE"}, "geometry": {"type": "LineString", "coordinates": [[-54.99276265249794, -10.251635488857321], [-54.99245309038399, -10.251838077343486]]}}, {"type": "Feature", "properties": {"layer": "PDF_Meio-Fio", "dxf_type": "LWPOLYLINE"}, "geometry": {"type": "LineString", "coordinates": [[-54.9923767382046, -10.25188788159049], [-54.992069412989395, -10.252088653002216]]}}, {"type": "Feature", "properties": {"layer": "PDF_Meio-Fio", "dxf_type": "LWPOLYLINE"}, "geometry": {"type": "LineString", "coordinates": [[-54.989991007746724, -10.253255993696275], [-54.98958467249465, -10.25346885234399]]}}, {"type": "Feature", "properties": {"layer": "PDF_Meio-Fio", "dxf_type": "LWPOLYLINE"}, "geometry": {"type": "LineString", "coordinates": [[-54.99200669089581, -10.252128451823925], [-54.991668230592985, -10.252305803208769]]}}, {"type": "Feature", "properties": {"layer": "PDF_Meio-Fio", "dxf_type": "LWPOLYLINE"}, "geometry": {"type": "LineString", "coordinates": [[-54.99117882221211, -10.252562280992516], [-54.990854341525456, -10.252731987478473]]}}, {"type": "Feature", "properties": {"layer": "PDF_Meio-Fio", "dxf_type": "LWPOLYLINE"}, "geometry": {"type": "LineString", "coordinates": [[-54.99035286878248, -10.252994551171101], [-54.9900224295705, -10.253168034335113]]}}, {"type": "Feature", "properties": {"layer": "PDF_Meio-Fio", "dxf_type": "LWPOLYLINE"}, "geometry": {"type": "LineString", "coordinates": [[-54.99145751300899, -10.249553153425186], [-54.99160271655659, -10.249739617465664]]}}, {"type": "Feature", "properties": {"layer": "PDF_Meio-Fio", "dxf_type": "LWPOLYLINE"}, "geometry": {"type": "LineString", "coordinates": [[-54.991653194772766, -10.249804497336758], [-54.99179551741972, -10.249987478800355]]}}, {"type": "Feature", "properties": {"layer": "PDF_Meio-Fio", "dxf_type": "LWPOLYLINE"}, "geometry": {"type": "LineString", "coordinates": [[-54.99142229214417, -10.249582272446464], [-54.99175851989517, -10.250013805513083]]}}, {"type": "Feature", "properties": {"layer": "PDF_Meio-Fio", "dxf_type": "LWPOLYLINE"}, "geometry": {"type": "LineString", "coordinates": [[-54.989098741891794, -10.250370653580221], [-54.989994440956856, -10.249713987959986]]}}, {"type": "Feature", "properties": {"layer": "PDF_Meio-Fio", "dxf_type": "LWPOLYLINE"}, "geometry": {"type": "LineString", "coordinates": [[-54.98880049385551, -10.250114177557716], [-54.98902988977143, -10.250415957619738]]}}, {"type": "Feature", "properties": {"layer": "PDF_Meio-Fio", "dxf_type": "LWPOLYLINE"}, "geometry": {"type": "LineString", "coordinates": [[-54.98968358980196, -10.249337012892878], [-54.988841813291096, -10.250033533502725], [-54.98883958504667, -10.250052278729669], [-54.989079343353, -10.250367875107607]]}}, {"type": "Feature", "properties": {"layer": "PDF_Meio-Fio", "dxf_type": "LWPOLYLINE"}, "geometry": {"type": "LineString", "coordinates": [[-54.98964580295832, -10.249286178665965], [-54.98916326179443, -10.249685277886709], [-54.9885693026162, -10.250176403203374]]}}, {"type": "Feature", "properties": {"layer": "PDF_Meio-Fio", "dxf_type": "LWPOLYLINE"}, "geometry": {"type": "LineString", "coordinates": [[-54.98964974445889, -10.249270275999157], [-54.98951004883462, -10.248955492555467]]}}, {"type": "Feature", "properties": {"layer": "PDF_Meio-Fio", "dxf_type": "LWPOLYLINE"}, "geometry": {"type": "LineString", "coordinates": [[-54.989715621449434, -10.24921362635227], [-54.98954601970079, -10.24891888400935]]}}, {"type": "Feature", "properties": {"layer": "PDF_Meio-Fio", "dxf_type": "LWPOLYLINE"}, "geometry": {"type": "LineString", "coordinates": [[-54.99055832381346, -10.248546516529547], [-54.9902831694666, -10.248754519878593]]}}, {"type": "Feature", "properties": {"layer": "PDF_Meio-Fio", "dxf_type": "LWPOLYLINE"}, "geometry": {"type": "LineString", "coordinates": [[-54.990367631311365, -10.248242431382463], [-54.990937882543335, -10.248172786472304]]}}, {"type": "Feature", "properties": {"layer": "PDF_Meio-Fio", "dxf_type": "LWPOLYLINE"}, "geometry": {"type": "LineString", "coordinates": [[-54.99036704942552, -10.248242373549289], [-54.989906345905716, -10.24831783374086]]}}, {"type": "Feature", "properties": {"layer": "PDF_Meio-Fio", "dxf_type": "LWPOLYLINE"}, "geometry": {"type": "LineString", "coordinates": [[-54.9899054447887, -10.248318036068978], [-54.989477179673024, -10.248412680338209]]}}, {"type": "Feature", "properties": {"layer": "PDF_Meio-Fio", "dxf_type": "LWPOLYLINE"}, "geometry": {"type": "LineString", "coordinates": [[-54.98954441644276, -10.248914363536406], [-54.98946651999397, -10.248428213321295]]}}, {"type": "Feature", "properties": {"layer": "PDF_Meio-Fio", "dxf_type": "LWPOLYLINE"}, "geometry": {"type": "LineString", "coordinates": [[-54.98949317691553, -10.248948017624826], [-54.98917629293554, -10.249050693791697]]}}, {"type": "Feature", "properties": {"layer": "PDF_Meio-Fio", "dxf_type": "LWPOLYLINE"}, "geometry": {"type": "LineString", "coordinates": [[-54.987838815636934, -10.249599672637965], [-54.98727966794821, -10.24970210841447]]}}, {"type": "Feature", "properties": {"layer": "PDF_Meio-Fio", "dxf_type": "LWPOLYLINE"}, "geometry": {"type": "LineString", "coordinates": [[-54.987821456271135, -10.249529610946826], [-54.98725876079617, -10.249632279646129]]}}, {"type": "Feature", "properties": {"layer": "PDF_Meio-Fio", "dxf_type": "LWPOLYLINE"}, "geometry": {"type": "LineString", "coordinates": [[-54.99044661241245, -10.25301743165673], [-54.990001849703596, -10.253250368803025]]}}, {"type": "Feature", "properties": {"layer": "PDF_Meio-Fio", "dxf_type": "LWPOLYLINE"}, "geometry": {"type": "LineString", "coordinates": [[-54.99083562256521, -10.252813341051397], [-54.99126890292371, -10.25258654598191]]}}, {"type": "Feature", "properties": {"layer": "PDF_Meio-Fio", "dxf_type": "LWPOLYLINE"}, "geometry": {"type": "LineString", "coordinates": [[-54.99162153412711, -10.249742338862587], [-54.99230317643676, -10.24923189584716]]}}, {"type": "Feature", "properties": {"layer": "PDF_Meio-Fio", "dxf_type": "LWPOLYLINE"}, "geometry": {"type": "LineString", "coordinates": [[-54.991653333402176, -10.249804656379505], [-54.991655679702134, -10.249785543032525], [-54.99232902355628, -10.249261195205088]]}}, {"type": "Feature", "properties": {"layer": "PDF_Meio-Fio", "dxf_type": "LWPOLYLINE"}, "geometry": {"type": "LineString", "coordinates": [[-54.98856255874125, -10.25017923139893], [-54.98809845127201, -10.250256389313279]]}}, {"type": "Feature", "properties": {"layer": "PDF_Meio-Fio", "dxf_type": "LWPOLYLINE"}, "geometry": {"type": "LineString", "coordinates": [[-54.988097869378045, -10.250256332379303], [-54.98755107501654, -10.250317513273819]]}}, {"type": "Feature", "properties": {"layer": "PDF_Meio-Fio", "dxf_type": "LWPOLYLINE"}, "geometry": {"type": "LineString", "coordinates": [[-54.98802129603115, -10.247360949706865], [-54.987922630299636, -10.24725526660933]]}}, {"type": "Feature", "properties": {"layer": "PDF_Meio-Fio", "dxf_type": "LWPOLYLINE"}, "geometry": {"type": "LineString", "coordinates": [[-54.98790230429356, -10.247255887420478], [-54.98788434981644, -10.247276812254523], [-54.98701122616608, -10.247974959411195], [-54.986826333494335, -10.248076347377372], [-54.98655477247812, -10.248163402726233], [-54.98624744560248, -10.248217565035288], [-54.98609415329472, -10.248235083123198], [-54.985828522040435, -10.24828345165067], [-54.98581157051801, -10.248285568423139]]}}, {"type": "Feature", "properties": {"layer": "PDF_Meio-Fio", "dxf_type": "LWPOLYLINE"}, "geometry": {"type": "LineString", "coordinates": [[-54.985799370202855, -10.248301822070514], [-54.98590215324494, -10.248753476520823]]}}, {"type": "Feature", "properties": {"layer": "PDF_Meio-Fio", "dxf_type": "LWPOLYLINE"}, "geometry": {"type": "LineString", "coordinates": [[-54.98591757383872, -10.248763717651425], [-54.98819369749062, -10.248416619928484]]}}, {"type": "Feature", "properties": {"layer": "PDF_Meio-Fio", "dxf_type": "LWPOLYLINE"}, "geometry": {"type": "LineString", "coordinates": [[-54.9882052008595, -10.248401461019712], [-54.98805780803108, -10.247418640501168]]}}, {"type": "Feature", "properties": {"layer": "PDF_Meio-Fio", "dxf_type": "LWPOLYLINE"}, "geometry": {"type": "LineString", "coordinates": [[-54.985654679160795, -10.248960704110992], [-54.986886076768876, -10.24877305744733]]}}, {"type": "Feature", "properties": {"layer": "PDF_Meio-Fio", "dxf_type": "LWPOLYLINE"}, "geometry": {"type": "LineString", "coordinates": [[-54.984446149692936, -10.24876459448691], [-54.984652997682055, -10.248951300319348]]}}, {"type": "Feature", "properties": {"layer": "PDF_Meio-Fio", "dxf_type": "LWPOLYLINE"}, "geometry": {"type": "LineString", "coordinates": [[-54.9846643991168, -10.248954748054688], [-54.98584302289128, -10.24877501015814]]}}, {"type": "Feature", "properties": {"layer": "PDF_Meio-Fio", "dxf_type": "LWPOLYLINE"}, "geometry": {"type": "LineString", "coordinates": [[-54.985854379599765, -10.248758381582174], [-54.985744150700626, -10.248304832472494]]}}, {"type": "Feature", "properties": {"layer": "PDF_Meio-Fio", "dxf_type": "LWPOLYLINE"}, "geometry": {"type": "LineString", "coordinates": [[-54.98572904936153, -10.2482943320852], [-54.985702618840065, -10.248297261479637], [-54.98498792062803, -10.248428043506124], [-54.98441448694026, -10.248626224595222]]}}, {"type": "Feature", "properties": {"layer": "PDF_Meio-Fio", "dxf_type": "LWPOLYLINE"}, "geometry": {"type": "LineString", "coordinates": [[-54.98440603870551, -10.248643137801357], [-54.984446149692936, -10.24876459448691], [-54.98461176174948, -10.248914379948362]]}}, {"type": "Feature", "properties": {"layer": "PDF_Meio-Fio", "dxf_type": "LWPOLYLINE"}, "geometry": {"type": "LineString", "coordinates": [[-54.99115945596516, -10.247980754318979], [-54.99121144508824, -10.247939611043208]]}}, {"type": "Feature", "properties": {"layer": "PDF_Meio-Fio", "dxf_type": "LWPOLYLINE"}, "geometry": {"type": "LineString", "coordinates": [[-54.98975920149556, -10.247572978467897], [-54.989391740659926, -10.24762938164973], [-54.98823632876614, -10.247811995359204]]}}, {"type": "Feature", "properties": {"layer": "PDF_Meio-Fio", "dxf_type": "LWPOLYLINE"}, "geometry": {"type": "LineString", "coordinates": [[-54.98976222498314, -10.24757211132712], [-54.99021585221219, -10.24737960499137]]}}, {"type": "Feature", "properties": {"layer": "PDF_Meio-Fio", "dxf_type": "LWPOLYLINE"}, "geometry": {"type": "LineString", "coordinates": [[-54.99115271215873, -10.247983581678021], [-54.988324307227444, -10.248396872393803]]}}, {"type": "Feature", "properties": {"layer": "PDF_Meio-Fio", "dxf_type": "LWPOLYLINE"}, "geometry": {"type": "LineString", "coordinates": [[-54.99024012240321, -10.24733079427632], [-54.99022870848801, -10.247347998501473]]}}, {"type": "Feature", "properties": {"layer": "PDF_Meio-Fio", "dxf_type": "LWPOLYLINE"}, "geometry": {"type": "LineString", "coordinates": [[-54.99022702652053, -10.247353069031327], [-54.99022387034884, -10.247369920264042]]}}, {"type": "Feature", "properties": {"layer": "PDF_Meio-Fio", "dxf_type": "LWPOLYLINE"}, "geometry": {"type": "LineString", "coordinates": [[-54.991213349028364, -10.247920599820496], [-54.990521458470106, -10.247102493469418], [-54.990501590590945, -10.247101085267664], [-54.99046224642399, -10.247136197929732], [-54.99023942556529, -10.24733188913339]]}}, {"type": "Feature", "properties": {"layer": "PDF_Meio-Fio", "dxf_type": "LWPOLYLINE"}, "geometry": {"type": "LineString", "coordinates": [[-54.99367640711276, -10.250836599771418], [-54.99305785086758, -10.250103908898335], [-54.99300036133107, -10.250035722728633]]}}, {"type": "Feature", "properties": {"layer": "PDF_Meio-Fio", "dxf_type": "LWPOLYLINE"}, "geometry": {"type": "LineString", "coordinates": [[-54.99250464569215, -10.249448901714127], [-54.99234821781301, -10.249263080948934]]}}, {"type": "Feature", "properties": {"layer": "PDF_Meio-Fio", "dxf_type": "LWPOLYLINE"}, "geometry": {"type": "LineString", "coordinates": [[-54.992305399560756, -10.249212625347774], [-54.9923033037056, -10.24921009227013], [-54.99215525855741, -10.24903440285327], [-54.99214681767169, -10.249024846886401]]}}, {"type": "Feature", "properties": {"layer": "PDF_Meio-Fio", "dxf_type": "LWPOLYLINE"}, "geometry": {"type": "LineString", "coordinates": [[-54.99208199302429, -10.248947795754525], [-54.99174444892524, -10.248541148946163], [-54.99171246118118, -10.248505719195597]]}}, {"type": "Feature", "properties": {"layer": "PDF_Meio-Fio", "dxf_type": "LWPOLYLINE"}, "geometry": {"type": "LineString", "coordinates": [[-54.99166667711039, -10.248455553455145], [-54.991296364614385, -10.248018345732792]]}}, {"type": "Feature", "properties": {"layer": "PDF_Meio-Fio", "dxf_type": "LWPOLYLINE"}, "geometry": {"type": "LineString", "coordinates": [[-54.98878295597633, -10.250110418084462], [-54.988562255815424, -10.25023505008888]]}}, {"type": "Feature", "properties": {"layer": "PDF_Meio-Fio", "dxf_type": "LWPOLYLINE"}, "geometry": {"type": "LineString", "coordinates": [[-54.98855827278896, -10.250236694970555], [-54.988416736359724, -10.250265841553984], [-54.98817154541777, -10.250312438248958], [-54.98808492568035, -10.250323999984788], [-54.98790200377512, -10.250347043542277], [-54.98756331499412, -10.250385908984708]]}}, {"type": "Feature", "properties": {"layer": "PDF_Meio-Fio", "dxf_type": "LWPOLYLINE"}, "geometry": {"type": "LineString", "coordinates": [[-54.98949259823417, -10.248845279158322], [-54.989450538452544, -10.248620078777213]]}}, {"type": "Feature", "properties": {"layer": "PDF_Meio-Fio", "dxf_type": "LWPOLYLINE"}, "geometry": {"type": "LineString", "coordinates": [[-54.989450276705305, -10.248619761690293], [-54.98941400902939, -10.248436435023121]]}}, {"type": "Feature", "properties": {"layer": "PDF_Meio-Fio", "dxf_type": "LWPOLYLINE"}, "geometry": {"type": "LineString", "coordinates": [[-54.986952599890245, -10.24875981222207], [-54.98700322092683, -10.24896694751199], [-54.9870560811896, -10.24910187276376], [-54.987089132352516, -10.249194129728297], [-54.98713926707015, -10.249338677472547], [-54.98724348689449, -10.24962350743477]]}}, {"type": "Feature", "properties": {"layer": "PDF_Meio-Fio", "dxf_type": "LWPOLYLINE"}, "geometry": {"type": "LineString", "coordinates": [[-54.988267094822135, -10.249413987474563], [-54.98833540198059, -10.24937706584969]]}}, {"type": "Feature", "properties": {"layer": "PDF_Meio-Fio", "dxf_type": "LWPOLYLINE"}, "geometry": {"type": "LineString", "coordinates": [[-54.98864529538993, -10.24922396294349], [-54.989087691174944, -10.249020464487321]]}}, {"type": "Feature", "properties": {"layer": "PDF_Meio-Fio", "dxf_type": "LWPOLYLINE"}, "geometry": {"type": "LineString", "coordinates": [[-54.989089232578785, -10.249019742755038], [-54.98918575115826, -10.248988501248665]]}}, {"type": "Feature", "properties": {"layer": "PDF_Meio-Fio", "dxf_type": "LWPOLYLINE"}, "geometry": {"type": "LineString", "coordinates": [[-54.98918697150413, -10.248988039665722], [-54.9893666218569, -10.24891260554713], [-54.98948496203224, -10.24885994590713]]}}, {"type": "Feature", "properties": {"layer": "PDF_Meio-Fio", "dxf_type": "LWPOLYLINE"}, "geometry": {"type": "LineString", "coordinates": [[-54.98695294993314, -10.248760020483461], [-54.98696453752001, -10.248743241429805], [-54.988249574433894, -10.248577148238375], [-54.98939864669634, -10.248425617701082]]}}, {"type": "Feature", "properties": {"layer": "PDF_Meio-Fio", "dxf_type": "LWPOLYLINE"}, "geometry": {"type": "LineString", "coordinates": [[-54.98833575358805, -10.249377026446005], [-54.98833784359504, -10.249376141793002], [-54.988644393357525, -10.249224165261808]]}}, {"type": "Feature", "properties": {"layer": "PDF_Meio-Fio", "dxf_type": "LWPOLYLINE"}, "geometry": {"type": "LineString", "coordinates": [[-54.985149153727306, -10.249961696771809], [-54.98528235134706, -10.250229884856534]]}}, {"type": "Feature", "properties": {"layer": "PDF_Meio-Fio", "dxf_type": "LWPOLYLINE"}, "geometry": {"type": "LineString", "coordinates": [[-54.985284913148135, -10.250233627587832], [-54.985441952670406, -10.250389841660873]]}}, {"type": "Feature", "properties": {"layer": "PDF_Meio-Fio", "dxf_type": "LWPOLYLINE"}, "geometry": {"type": "LineString", "coordinates": [[-54.98546004148806, -10.250391037602885], [-54.985685238521604, -10.250215654693745]]}}, {"type": "Feature", "properties": {"layer": "PDF_Meio-Fio", "dxf_type": "LWPOLYLINE"}, "geometry": {"type": "LineString", "coordinates": [[-54.98568651727412, -10.25021461678901], [-54.98579574015568, -10.250106377287617]]}}, {"type": "Feature", "properties": {"layer": "PDF_Meio-Fio", "dxf_type": "LWPOLYLINE"}, "geometry": {"type": "LineString", "coordinates": [[-54.985799655263406, -10.250093672599508], [-54.98563194246645, -10.24936075694617]]}}, {"type": "Feature", "properties": {"layer": "PDF_Meio-Fio", "dxf_type": "LWPOLYLINE"}, "geometry": {"type": "LineString", "coordinates": [[-54.98563173820356, -10.249359864418143], [-54.98556862557928, -10.248987155339885]]}}, {"type": "Feature", "properties": {"layer": "PDF_Meio-Fio", "dxf_type": "LWPOLYLINE"}, "geometry": {"type": "LineString", "coordinates": [[-54.98444535470565, -10.250162485849591], [-54.98455346460758, -10.250297022766418]]}}, {"type": "Feature", "properties": {"layer": "PDF_Meio-Fio", "dxf_type": "LWPOLYLINE"}, "geometry": {"type": "LineString", "coordinates": [[-54.984553726350235, -10.250297339856587], [-54.984704005366254, -10.25047121549205]]}}, {"type": "Feature", "properties": {"layer": "PDF_Meio-Fio", "dxf_type": "LWPOLYLINE"}, "geometry": {"type": "LineString", "coordinates": [[-54.984705110750404, -10.250471905708354], [-54.984792098085194, -10.250556372013337]]}}, {"type": "Feature", "properties": {"layer": "PDF_Meio-Fio", "dxf_type": "LWPOLYLINE"}, "geometry": {"type": "LineString", "coordinates": [[-54.98479262157711, -10.250557005289577], [-54.98498285213341, -10.250763022398951], [-54.985001799294814, -10.250764578028228]]}}, {"type": "Feature", "properties": {"layer": "PDF_Meio-Fio", "dxf_type": "LWPOLYLINE"}, "geometry": {"type": "LineString", "coordinates": [[-54.98538407176873, -10.250445822117225], [-54.98506048063686, -10.250023086915363]]}}, {"type": "Feature", "properties": {"layer": "PDF_Meio-Fio", "dxf_type": "LWPOLYLINE"}, "geometry": {"type": "LineString", "coordinates": [[-54.983955650198766, -10.250448302413085], [-54.98418851931459, -10.250700686848678]]}}, {"type": "Feature", "properties": {"layer": "PDF_Meio-Fio", "dxf_type": "LWPOLYLINE"}, "geometry": {"type": "LineString", "coordinates": [[-54.984189304553496, -10.250701636312261], [-54.98424728979192, -10.250773653971597]]}}, {"type": "Feature", "properties": {"layer": "PDF_Meio-Fio", "dxf_type": "LWPOLYLINE"}, "geometry": {"type": "LineString", "coordinates": [[-54.98424781328284, -10.250774287248552], [-54.98431222230712, -10.250843736954623]]}}, {"type": "Feature", "properties": {"layer": "PDF_Meio-Fio", "dxf_type": "LWPOLYLINE"}, "geometry": {"type": "LineString", "coordinates": [[-54.98431274671087, -10.250844370237196], [-54.98437043846092, -10.25091345014411]]}}, {"type": "Feature", "properties": {"layer": "PDF_Meio-Fio", "dxf_type": "LWPOLYLINE"}, "geometry": {"type": "LineString", "coordinates": [[-54.98437096195231, -10.250914083420971], [-54.984559443316094, -10.251114110507869]]}}, {"type": "Feature", "properties": {"layer": "PDF_Meio-Fio", "dxf_type": "LWPOLYLINE"}, "geometry": {"type": "LineString", "coordinates": [[-54.98457811314255, -10.251115363441011], [-54.98479813432908, -10.250938890748323]]}}, {"type": "Feature", "properties": {"layer": "PDF_Meio-Fio", "dxf_type": "LWPOLYLINE"}, "geometry": {"type": "LineString", "coordinates": [[-54.984798453560884, -10.250938631496448], [-54.98493587999166, -10.250824436947537]]}}, {"type": "Feature", "properties": {"layer": "PDF_Meio-Fio", "dxf_type": "LWPOLYLINE"}, "geometry": {"type": "LineString", "coordinates": [[-54.98450274122835, -10.251155371463868], [-54.98432739850974, -10.250947326765798]]}}, {"type": "Feature", "properties": {"layer": "PDF_Meio-Fio", "dxf_type": "LWPOLYLINE"}, "geometry": {"type": "LineString", "coordinates": [[-54.98432713585435, -10.250947009669739], [-54.98391585948265, -10.250473190719482]]}}, {"type": "Feature", "properties": {"layer": "PDF_Meio-Fio", "dxf_type": "LWPOLYLINE"}, "geometry": {"type": "LineString", "coordinates": [[-54.98411885531472, -10.251475436614465], [-54.98425548317439, -10.251380944664675], [-54.98430206594335, -10.251341016633518], [-54.98435125943341, -10.251292618826493], [-54.98450083775115, -10.251174382569408]]}}, {"type": "Feature", "properties": {"layer": "PDF_Meio-Fio", "dxf_type": "LWPOLYLINE"}, "geometry": {"type": "LineString", "coordinates": [[-54.984574358818904, -10.251219972958928], [-54.984554554201594, -10.251218637960337], [-54.984472461552414, -10.251290564944597]]}}, {"type": "Feature", "properties": {"layer": "PDF_Meio-Fio", "dxf_type": "LWPOLYLINE"}, "geometry": {"type": "LineString", "coordinates": [[-54.984471822175, -10.251291083441822], [-54.98428138364205, -10.251441956065385]]}}, {"type": "Feature", "properties": {"layer": "PDF_Meio-Fio", "dxf_type": "LWPOLYLINE"}, "geometry": {"type": "LineString", "coordinates": [[-54.9842806867744, -10.25144305090379], [-54.98417849093953, -10.251539763182956]]}}, {"type": "Feature", "properties": {"layer": "PDF_Meio-Fio", "dxf_type": "LWPOLYLINE"}, "geometry": {"type": "LineString", "coordinates": [[-54.98472690883799, -10.251397883363623], [-54.98480083846796, -10.251480775448153]]}}, {"type": "Feature", "properties": {"layer": "PDF_Meio-Fio", "dxf_type": "LWPOLYLINE"}, "geometry": {"type": "LineString", "coordinates": [[-54.98480136196106, -10.25148140872462], [-54.98508034626624, -10.251833440892593]]}}, {"type": "Feature", "properties": {"layer": "PDF_Meio-Fio", "dxf_type": "LWPOLYLINE"}, "geometry": {"type": "LineString", "coordinates": [[-54.984727170587256, -10.251398199549943], [-54.98457406858942, -10.251220264027472]]}}, {"type": "Feature", "properties": {"layer": "PDF_Meio-Fio", "dxf_type": "LWPOLYLINE"}, "geometry": {"type": "LineString", "coordinates": [[-54.985526026745276, -10.251476976384819], [-54.985389431255975, -10.251286701088775]]}}, {"type": "Feature", "properties": {"layer": "PDF_Meio-Fio", "dxf_type": "LWPOLYLINE"}, "geometry": {"type": "LineString", "coordinates": [[-54.98538812160505, -10.251285118345804], [-54.985163345888, -10.2510457468738]]}}, {"type": "Feature", "properties": {"layer": "PDF_Meio-Fio", "dxf_type": "LWPOLYLINE"}, "geometry": {"type": "LineString", "coordinates": [[-54.985162821482035, -10.251045113592223], [-54.984990481397304, -10.250883323121371]]}}, {"type": "Feature", "properties": {"layer": "PDF_Meio-Fio", "dxf_type": "LWPOLYLINE"}, "geometry": {"type": "LineString", "coordinates": [[-54.984972335065066, -10.250882704394204], [-54.98463528915542, -10.251157340715496]]}}, {"type": "Feature", "properties": {"layer": "PDF_Meio-Fio", "dxf_type": "LWPOLYLINE"}, "geometry": {"type": "LineString", "coordinates": [[-54.984633065541175, -10.251176611069301], [-54.98478469402604, -10.25136632720602]]}}, {"type": "Feature", "properties": {"layer": "PDF_Meio-Fio", "dxf_type": "LWPOLYLINE"}, "geometry": {"type": "LineString", "coordinates": [[-54.98478548017513, -10.251367277578316], [-54.984920639324606, -10.251507380423877], [-54.98492214749161, -10.25150932054266]]}}, {"type": "Feature", "properties": {"layer": "PDF_Meio-Fio", "dxf_type": "LWPOLYLINE"}, "geometry": {"type": "LineString", "coordinates": [[-54.984921629735446, -10.251509223324227], [-54.984987283588545, -10.251607300465496]]}}, {"type": "Feature", "properties": {"layer": "PDF_Meio-Fio", "dxf_type": "LWPOLYLINE"}, "geometry": {"type": "LineString", "coordinates": [[-54.98498911672615, -10.251609517390078], [-54.98515709826642, -10.251773788362382], [-54.98517560363881, -10.251774644333421]]}}, {"type": "Feature", "properties": {"layer": "PDF_Meio-Fio", "dxf_type": "LWPOLYLINE"}, "geometry": {"type": "LineString", "coordinates": [[-54.98507951438593, -10.250835930615196], [-54.98536054360983, -10.251164602619385], [-54.985591239776824, -10.251424044205715]]}}, {"type": "Feature", "properties": {"layer": "PDF_Meio-Fio", "dxf_type": "LWPOLYLINE"}, "geometry": {"type": "LineString", "coordinates": [[-54.986048977129165, -10.251055673899078], [-54.9858210125236, -10.250792428690117]]}}, {"type": "Feature", "properties": {"layer": "PDF_Meio-Fio", "dxf_type": "LWPOLYLINE"}, "geometry": {"type": "LineString", "coordinates": [[-54.98582074986658, -10.250792111595002], [-54.98550510548045, -10.25045131354417]]}}, {"type": "Feature", "properties": {"layer": "PDF_Meio-Fio", "dxf_type": "LWPOLYLINE"}, "geometry": {"type": "LineString", "coordinates": [[-54.98550557939827, -10.250451271286455], [-54.985485796298505, -10.250450580074775], [-54.9853559938433, -10.250570760022505], [-54.98508077844203, -10.250817438901612]]}}, {"type": "Feature", "properties": {"layer": "PDF_Meio-Fio", "dxf_type": "LWPOLYLINE"}, "geometry": {"type": "LineString", "coordinates": [[-54.986014717261874, -10.250042953536195], [-54.985683124382454, -10.250298347254772], [-54.985554176930044, -10.2503987829338], [-54.985552682679824, -10.250419046712366], [-54.985958973462495, -10.250837106649547], [-54.986113802833565, -10.25099194098984]]}}, {"type": "Feature", "properties": {"layer": "PDF_Meio-Fio", "dxf_type": "LWPOLYLINE"}, "geometry": {"type": "LineString", "coordinates": [[-54.986132210931515, -10.250992876744114], [-54.98626626768091, -10.250883004887793]]}}, {"type": "Feature", "properties": {"layer": "PDF_Meio-Fio", "dxf_type": "LWPOLYLINE"}, "geometry": {"type": "LineString", "coordinates": [[-54.986266375013294, -10.25088291696914], [-54.986266586917445, -10.250882744730353], [-54.98633982236836, -10.250825946304136]]}}, {"type": "Feature", "properties": {"layer": "PDF_Meio-Fio", "dxf_type": "LWPOLYLINE"}, "geometry": {"type": "LineString", "coordinates": [[-54.986340429647626, -10.250825452009312], [-54.986340141599065, -10.250825687050463], [-54.98644426431577, -10.250739052788196], [-54.986550944476825, -10.250650343568548]]}}, {"type": "Feature", "properties": {"layer": "PDF_Meio-Fio", "dxf_type": "LWPOLYLINE"}, "geometry": {"type": "LineString", "coordinates": [[-54.986552324328734, -10.250630699152408], [-54.98640286636626, -10.250466212826106]]}}, {"type": "Feature", "properties": {"layer": "PDF_Meio-Fio", "dxf_type": "LWPOLYLINE"}, "geometry": {"type": "LineString", "coordinates": [[-54.98640312811687, -10.250466529011282], [-54.986033329562545, -10.250044782717545]]}}, {"type": "Feature", "properties": {"layer": "PDF_Meio-Fio", "dxf_type": "LWPOLYLINE"}, "geometry": {"type": "LineString", "coordinates": [[-54.9866027260416, -10.250710989148871], [-54.98639941275643, -10.250870197152691]]}}, {"type": "Feature", "properties": {"layer": "PDF_Meio-Fio", "dxf_type": "LWPOLYLINE"}, "geometry": {"type": "LineString", "coordinates": [[-54.9863990935257, -10.250870456406407], [-54.98617401644808, -10.251050505650921]]}}, {"type": "Feature", "properties": {"layer": "PDF_Meio-Fio", "dxf_type": "LWPOLYLINE"}, "geometry": {"type": "LineString", "coordinates": [[-54.9874247641134, -10.251619883637954], [-54.98662165853919, -10.250712558152285]]}}, {"type": "Feature", "properties": {"layer": "PDF_Meio-Fio", "dxf_type": "LWPOLYLINE"}, "geometry": {"type": "LineString", "coordinates": [[-54.98710504068536, -10.249375456490073], [-54.98703654154288, -10.249211942887866], [-54.98690097299706, -10.248782665258597]]}}, {"type": "Feature", "properties": {"layer": "PDF_Meio-Fio", "dxf_type": "LWPOLYLINE"}, "geometry": {"type": "LineString", "coordinates": [[-54.98564285643373, -10.248976122155227], [-54.985699984838696, -10.249355806728657]]}}, {"type": "Feature", "properties": {"layer": "PDF_Meio-Fio", "dxf_type": "LWPOLYLINE"}, "geometry": {"type": "LineString", "coordinates": [[-54.98570018909606, -10.24935670016056], [-54.98583596737306, -10.24993929174981]]}}, {"type": "Feature", "properties": {"layer": "PDF_Meio-Fio", "dxf_type": "LWPOLYLINE"}, "geometry": {"type": "LineString", "coordinates": [[-54.98585319117113, -10.249949128268081], [-54.98595439438118, -10.24992096578322]]}}, {"type": "Feature", "properties": {"layer": "PDF_Meio-Fio", "dxf_type": "LWPOLYLINE"}, "geometry": {"type": "LineString", "coordinates": [[-54.98595471361108, -10.249920706529817], [-54.986062430752405, -10.249892020336386]]}}, {"type": "Feature", "properties": {"layer": "PDF_Meio-Fio", "dxf_type": "LWPOLYLINE"}, "geometry": {"type": "LineString", "coordinates": [[-54.987196112047585, -10.249618562442338], [-54.98716215754465, -10.249488402236143]]}}, {"type": "Feature", "properties": {"layer": "PDF_Meio-Fio", "dxf_type": "LWPOLYLINE"}, "geometry": {"type": "LineString", "coordinates": [[-54.987160963768744, -10.249485666818904], [-54.987105244952545, -10.249376349017961]]}}, {"type": "Feature", "properties": {"layer": "PDF_Meio-Fio", "dxf_type": "LWPOLYLINE"}, "geometry": {"type": "LineString", "coordinates": [[-54.984621001338695, -10.248904233841134], [-54.98453023565954, -10.248822305840754]]}}, {"type": "Feature", "properties": {"layer": "PDF_Meio-Fio", "dxf_type": "LWPOLYLINE"}, "geometry": {"type": "LineString", "coordinates": [[-54.98604733549484, -10.251075001216975], [-54.985610171387094, -10.251425613269534]]}}, {"type": "Feature", "properties": {"layer": "PDF_Meio-Fio", "dxf_type": "LWPOLYLINE"}, "geometry": {"type": "LineString", "coordinates": [[-54.98552359891498, -10.251495354226025], [-54.98517492450634, -10.251774666335434]]}}, {"type": "Feature", "properties": {"layer": "PDF_Meio-Fio", "dxf_type": "LWPOLYLINE"}, "geometry": {"type": "LineString", "coordinates": [[-54.98508071800056, -10.251833249759892], [-54.98507844189836, -10.251852452000923], [-54.98473999685063, -10.252123460286906]]}}, {"type": "Feature", "properties": {"layer": "PDF_Meio-Fio", "dxf_type": "LWPOLYLINE"}, "geometry": {"type": "LineString", "coordinates": [[-54.98610520338254, -10.251110065783216], [-54.98481027380704, -10.252148981683954]]}}, {"type": "Feature", "properties": {"layer": "PDF_Meio-Fio", "dxf_type": "LWPOLYLINE"}, "geometry": {"type": "LineString", "coordinates": [[-54.98742338429845, -10.251639528066114], [-54.98700759034764, -10.251984968512486]]}}, {"type": "Feature", "properties": {"layer": "PDF_Meio-Fio", "dxf_type": "LWPOLYLINE"}, "geometry": {"type": "LineString", "coordinates": [[-54.98700894896822, -10.252082837729853], [-54.98628691501316, -10.252682672393188]]}}, {"type": "Feature", "properties": {"layer": "PDF_Meio-Fio", "dxf_type": "LWPOLYLINE"}, "geometry": {"type": "LineString", "coordinates": [[-54.986946227508696, -10.252052241998939], [-54.98621774315624, -10.252657842388654]]}}, {"type": "Feature", "properties": {"layer": "PDF_Meio-Fio", "dxf_type": "LWPOLYLINE"}, "geometry": {"type": "LineString", "coordinates": [[-54.987451157870154, -10.250318168972028], [-54.986968473113855, -10.250401937074297], [-54.986964664169264, -10.25040332810823]]}}, {"type": "Feature", "properties": {"layer": "PDF_Meio-Fio", "dxf_type": "LWPOLYLINE"}, "geometry": {"type": "LineString", "coordinates": [[-54.98538164303728, -10.250464199952757], [-54.98500146537624, -10.250764850748052]]}}, {"type": "Feature", "properties": {"layer": "PDF_Meio-Fio", "dxf_type": "LWPOLYLINE"}, "geometry": {"type": "LineString", "coordinates": [[-54.984937521688096, -10.25080510964759], [-54.984378218503394, -10.250173051995935]]}}, {"type": "Feature", "properties": {"layer": "PDF_Meio-Fio", "dxf_type": "LWPOLYLINE"}, "geometry": {"type": "LineString", "coordinates": [[-54.98828407757976, -10.249484884759854], [-54.98784183914088, -10.2495988064237]]}}, {"type": "Feature", "properties": {"layer": "PDF_Meio-Fio", "dxf_type": "LWPOLYLINE"}, "geometry": {"type": "LineString", "coordinates": [[-54.98826401383893, -10.249415430037253], [-54.9878226775328, -10.249529149375446]]}}, {"type": "Feature", "properties": {"layer": "PDF_Meio-Fio", "dxf_type": "LWPOLYLINE"}, "geometry": {"type": "LineString", "coordinates": [[-54.98824668893991, -10.248577405168028], [-54.98824711726611, -10.248577356296076]]}}, {"type": "Feature", "properties": {"layer": "PDF_Meio-Fio", "dxf_type": "LWPOLYLINE"}, "geometry": {"type": "LineString", "coordinates": [[-54.98639996806564, -10.250870272907356], [-54.986399679195834, -10.250870493480807]]}}]}