{"type": "FeatureCollection", "name": "pdf_vertices_quadras", "crs": {"type": "name", "properties": {"name": "urn:ogc:def:crs:OGC:1.3:CRS84"}}, "properties": {"source": "8be78050_MAPA TRIBUTAÇÃO 2021 (1).dxf", "assumed_crs": "EPSG:4326", "local_crs": false, "note": "Coordenadas locais do desenho (sem CRS). Use base 'Só CAD' no mapa.", "extent": [4300.4554, 2373.7696, 8215.3349, 6186.7838], "georef": true, "transform": {"scale": 1, "rotation_deg": 0, "tx": 713717.6034368816, "ty": 8862616.121289995, "rmse_m": 0, "epsg": 31981}, "layer": "PDF_Vértices_Quadras", "source_file": "8be78050_MAPA TRIBUTAÇÃO 2021 (1)_georef.geojson", "n_features": 7}, "features": [{"type": "Feature", "properties": {"layer": "PDF_Vértices_Quadras", "dxf_type": "LWPOLYLINE"}, "geometry": {"type": "LineString", "coordinates": [[-54.992088901866325, -10.250723718674466], [-54.99207482156522, -10.25071768206351]]}}, {"type": "Feature", "properties": {"layer": "PDF_Vértices_Quadras", "dxf_type": "LWPOLYLINE"}, "geometry": {"type": "LineString", "coordinates": [[-54.99134604593399, -10.251238328842906], [-54.99133386252816, -10.251239750414797]]}}, {"type": "Feature", "properties": {"layer": "PDF_Vértices_Quadras", "dxf_type": "LWPOLYLINE"}, "geometry": {"type": "LineString", "coordinates": [[-54.989871966639605, -10.252312609046648], [-54.989856581943286, -10.25231080725886]]}}, {"type": "Feature", "properties": {"layer": "PDF_Vértices_Quadras", "dxf_type": "LWPOLYLINE"}, "geometry": {"type": "LineString", "coordinates": [[-54.987470582695174, -10.251569990083954], [-54.98749248038451, -10.251571269177765]]}}, {"type": "Feature", "properties": {"layer": "PDF_Vértices_Quadras", "dxf_type": "LWPOLYLINE"}, "geometry": {"type": "LineString", "coordinates": [[-54.98356716806324, -10.250875832100062], [-54.983895481007096, -10.250480205214641]]}}, {"type": "Feature", "properties": {"layer": "PDF_Vértices_Quadras", "dxf_type": "LWPOLYLINE"}, "geometry": {"type": "LineString", "coordinates": [[-54.990243021367604, -10.247249049995293], [-54.99019676880628, -10.247300356097021], [-54.990155417167344, -10.247334980836381], [-54.99001544196938, -10.247386679070813], [-54.989840157624066, -10.247465450894765]]}}, {"type": "Feature", "properties": {"layer": "PDF_Vértices_Quadras", "dxf_type": "LWPOLYLINE"}, "geometry": {"type": "LineString", "coordinates": [[-54.98441512631156, -10.248625706097027], [-54.98445864792229, -10.248757096278299], [-54.984621263080555, -10.248904550931071]]}}]}