{"type": "FeatureCollection", "name": "pdf_meio_fio_2", "crs": {"type": "name", "properties": {"name": "urn:ogc:def:crs:OGC:1.3:CRS84"}}, "properties": {"source": "8be78050_MAPA TRIBUTAÇÃO 2021 (1).dxf", "assumed_crs": "EPSG:4326", "local_crs": false, "note": "Coordenadas locais do desenho (sem CRS). Use base 'Só CAD' no mapa.", "extent": [4300.4554, 2373.7696, 8215.3349, 6186.7838], "georef": true, "transform": {"scale": 1, "rotation_deg": 0, "tx": 713717.6034368816, "ty": 8862616.121289995, "rmse_m": 0, "epsg": 31981}, "layer": "PDF_MEIO_FIO", "source_file": "8be78050_MAPA TRIBUTAÇÃO 2021 (1)_georef.geojson", "n_features": 118}, "features": [{"type": "Feature", "properties": {"layer": "PDF_MEIO_FIO", "dxf_type": "LINE"}, "geometry": {"type": "LineString", "coordinates": [[-54.98632415791532, -10.248136411197368], [-54.985538407288544, -10.247136017735796]]}}, {"type": "Feature", "properties": {"layer": "PDF_MEIO_FIO", "dxf_type": "LINE"}, "geometry": {"type": "LineString", "coordinates": [[-54.98459261569236, -10.250032341336476], [-54.984293151405076, -10.250120647678193]]}}, {"type": "Feature", "properties": {"layer": "PDF_MEIO_FIO", "dxf_type": "LINE"}, "geometry": {"type": "LineString", "coordinates": [[-54.984293151405076, -10.250120647678193], [-54.984157482169756, -10.250130031169403]]}}, {"type": "Feature", "properties": {"layer": "PDF_MEIO_FIO", "dxf_type": "LINE"}, "geometry": {"type": "LineString", "coordinates": [[-54.98050678405533, -10.246141178060231], [-54.9810745037522, -10.246816286766348]]}}, {"type": "Feature", "properties": {"layer": "PDF_MEIO_FIO", "dxf_type": "LINE"}, "geometry": {"type": "LineString", "coordinates": [[-54.98112609059275, -10.246820789588263], [-54.98145627987125, -10.24654816586905]]}}, {"type": "Feature", "properties": {"layer": "PDF_MEIO_FIO", "dxf_type": "LINE"}, "geometry": {"type": "LineString", "coordinates": [[-54.98146082685384, -10.246497069595081], [-54.98089310278998, -10.245822426092163]]}}, {"type": "Feature", "properties": {"layer": "PDF_MEIO_FIO", "dxf_type": "LINE"}, "geometry": {"type": "LineString", "coordinates": [[-54.9808415161188, -10.245817923264484], [-54.980511330256505, -10.246090081820658]]}}, {"type": "Feature", "properties": {"layer": "PDF_MEIO_FIO", "dxf_type": "LINE"}, "geometry": {"type": "LineString", "coordinates": [[-54.98007093466569, -10.246500984740484], [-54.980639125794205, -10.247175631557148]]}}, {"type": "Feature", "properties": {"layer": "PDF_MEIO_FIO", "dxf_type": "LINE"}, "geometry": {"type": "LineString", "coordinates": [[-54.98069024360354, -10.247180132447882], [-54.981020433606645, -10.246907508415925]]}}, {"type": "Feature", "properties": {"layer": "PDF_MEIO_FIO", "dxf_type": "LINE"}, "geometry": {"type": "LineString", "coordinates": [[-54.98102544678974, -10.246856880574576], [-54.980457257183836, -10.246181768870528]]}}, {"type": "Feature", "properties": {"layer": "PDF_MEIO_FIO", "dxf_type": "LINE"}, "geometry": {"type": "LineString", "coordinates": [[-54.98040613953663, -10.246177268877984], [-54.980075950926334, -10.246449891442852]]}}, {"type": "Feature", "properties": {"layer": "PDF_MEIO_FIO", "dxf_type": "LINE"}, "geometry": {"type": "LineString", "coordinates": [[-54.97981149765005, -10.246715486519154], [-54.980379219365815, -10.247390131738774]]}}, {"type": "Feature", "properties": {"layer": "PDF_MEIO_FIO", "dxf_type": "LINE"}, "geometry": {"type": "LineString", "coordinates": [[-54.98043080717894, -10.247394634692537], [-54.980585052509085, -10.247267318594385]]}}, {"type": "Feature", "properties": {"layer": "PDF_MEIO_FIO", "dxf_type": "LINE"}, "geometry": {"type": "LineString", "coordinates": [[-54.98058959965603, -10.247216223267266], [-54.98002187766128, -10.246541578382724]]}}, {"type": "Feature", "properties": {"layer": "PDF_MEIO_FIO", "dxf_type": "LINE"}, "geometry": {"type": "LineString", "coordinates": [[-54.979970292945325, -10.246536610797838], [-54.97981604489381, -10.246664391223442]]}}, {"type": "Feature", "properties": {"layer": "PDF_MEIO_FIO", "dxf_type": "LINE"}, "geometry": {"type": "LineString", "coordinates": [[-54.98032514596591, -10.247481818710355], [-54.97992467438114, -10.247812099537239]]}}, {"type": "Feature", "properties": {"layer": "PDF_MEIO_FIO", "dxf_type": "LINE"}, "geometry": {"type": "LineString", "coordinates": [[-54.97987355650072, -10.247807599412734], [-54.97930536548114, -10.24713295046614]]}}, {"type": "Feature", "properties": {"layer": "PDF_MEIO_FIO", "dxf_type": "LINE"}, "geometry": {"type": "LineString", "coordinates": [[-54.979310381886215, -10.247081858111438], [-54.97971038678177, -10.246751109561808]]}}, {"type": "Feature", "properties": {"layer": "PDF_MEIO_FIO", "dxf_type": "LINE"}, "geometry": {"type": "LineString", "coordinates": [[-54.979761971513966, -10.246756078097654], [-54.980329693163576, -10.247430723396056]]}}, {"type": "Feature", "properties": {"layer": "PDF_MEIO_FIO", "dxf_type": "LINE"}, "geometry": {"type": "LineString", "coordinates": [[-54.97879970200869, -10.247550416283316], [-54.9793678914447, -10.248225066030344]]}}, {"type": "Feature", "properties": {"layer": "PDF_MEIO_FIO", "dxf_type": "LINE"}, "geometry": {"type": "LineString", "coordinates": [[-54.97941900936831, -10.248229566245776], [-54.97981948287743, -10.247899286256564]]}}, {"type": "Feature", "properties": {"layer": "PDF_MEIO_FIO", "dxf_type": "LINE"}, "geometry": {"type": "LineString", "coordinates": [[-54.97982402926697, -10.24784819005766], [-54.97925630828301, -10.247173544857892]]}}, {"type": "Feature", "properties": {"layer": "PDF_MEIO_FIO", "dxf_type": "LINE"}, "geometry": {"type": "LineString", "coordinates": [[-54.9792047244206, -10.24716857623611], [-54.978804717600376, -10.247499323948746]]}}, {"type": "Feature", "properties": {"layer": "PDF_MEIO_FIO", "dxf_type": "LINE"}, "geometry": {"type": "LineString", "coordinates": [[-54.978913343989646, -10.24864703190919], [-54.97931381759803, -10.24831675274639]]}}, {"type": "Feature", "properties": {"layer": "PDF_MEIO_FIO", "dxf_type": "LINE"}, "geometry": {"type": "LineString", "coordinates": [[-54.979318364998875, -10.24826565657811], [-54.97875064377381, -10.247591010567408]]}}, {"type": "Feature", "properties": {"layer": "PDF_MEIO_FIO", "dxf_type": "LINE"}, "geometry": {"type": "LineString", "coordinates": [[-54.97869905986862, -10.247586041854008], [-54.978299052954576, -10.247916787837028]]}}, {"type": "Feature", "properties": {"layer": "PDF_MEIO_FIO", "dxf_type": "LINE"}, "geometry": {"type": "LineString", "coordinates": [[-54.97829403634539, -10.24796788104399], [-54.97886175605133, -10.248642527776148]]}}, {"type": "Feature", "properties": {"layer": "PDF_MEIO_FIO", "dxf_type": "LINE"}, "geometry": {"type": "LineString", "coordinates": [[-54.98066362051819, -10.24938340607528], [-54.98120466268849, -10.248936877658187]]}}, {"type": "Feature", "properties": {"layer": "PDF_MEIO_FIO", "dxf_type": "LINE"}, "geometry": {"type": "LineString", "coordinates": [[-54.98120920981372, -10.248885782312863], [-54.98029032621244, -10.247793458098483]]}}, {"type": "Feature", "properties": {"layer": "PDF_MEIO_FIO", "dxf_type": "LINE"}, "geometry": {"type": "LineString", "coordinates": [[-54.9802387383479, -10.24778895420667], [-54.97969769739442, -10.248235482061638]]}}, {"type": "Feature", "properties": {"layer": "PDF_MEIO_FIO", "dxf_type": "LINE"}, "geometry": {"type": "LineString", "coordinates": [[-54.97969315097306, -10.248286577348825], [-54.980612033290576, -10.249378903102519]]}}, {"type": "Feature", "properties": {"layer": "PDF_MEIO_FIO", "dxf_type": "LINE"}, "geometry": {"type": "LineString", "coordinates": [[-54.9814011486371, -10.248067132211073], [-54.98173133923397, -10.24779450843353]]}}, {"type": "Feature", "properties": {"layer": "PDF_MEIO_FIO", "dxf_type": "LINE"}, "geometry": {"type": "LineString", "coordinates": [[-54.98173588237086, -10.247743877646485], [-54.981168159777496, -10.247068769548962]]}}, {"type": "Feature", "properties": {"layer": "PDF_MEIO_FIO", "dxf_type": "LINE"}, "geometry": {"type": "LineString", "coordinates": [[-54.98111657290129, -10.247064265822116], [-54.98078638277284, -10.247336889934033]]}}, {"type": "Feature", "properties": {"layer": "PDF_MEIO_FIO", "dxf_type": "LINE"}, "geometry": {"type": "LineString", "coordinates": [[-54.98078183565143, -10.247387985269256], [-54.98134956158577, -10.248062629393862]]}}, {"type": "Feature", "properties": {"layer": "PDF_MEIO_FIO", "dxf_type": "LINE"}, "geometry": {"type": "LineString", "coordinates": [[-54.9818365273486, -10.247707786485671], [-54.98216671723253, -10.24743516121368]]}}, {"type": "Feature", "properties": {"layer": "PDF_MEIO_FIO", "dxf_type": "LINE"}, "geometry": {"type": "LineString", "coordinates": [[-54.98217126322519, -10.247384065811248], [-54.98160353711318, -10.246709423000986]]}}, {"type": "Feature", "properties": {"layer": "PDF_MEIO_FIO", "dxf_type": "LINE"}, "geometry": {"type": "LineString", "coordinates": [[-54.98155194935626, -10.246704920251352], [-54.98122176380597, -10.246977079461839]]}}, {"type": "Feature", "properties": {"layer": "PDF_MEIO_FIO", "dxf_type": "LINE"}, "geometry": {"type": "LineString", "coordinates": [[-54.981217216769565, -10.247028174818542], [-54.981784940340575, -10.247703282843588]]}}, {"type": "Feature", "properties": {"layer": "PDF_MEIO_FIO", "dxf_type": "LINE"}, "geometry": {"type": "LineString", "coordinates": [[-54.982271905118424, -10.247348439077747], [-54.98260209337114, -10.24707581320955]]}}, {"type": "Feature", "properties": {"layer": "PDF_MEIO_FIO", "dxf_type": "LINE"}, "geometry": {"type": "LineString", "coordinates": [[-54.9826066401914, -10.247024717791321], [-54.982038913501576, -10.246350075674384]]}}, {"type": "Feature", "properties": {"layer": "PDF_MEIO_FIO", "dxf_type": "LINE"}, "geometry": {"type": "LineString", "coordinates": [[-54.9819873287222, -10.246345108409706], [-54.9816576100123, -10.246617735717152]]}}, {"type": "Feature", "properties": {"layer": "PDF_MEIO_FIO", "dxf_type": "LINE"}, "geometry": {"type": "LineString", "coordinates": [[-54.981652593998355, -10.246668828182814], [-54.98222079015166, -10.247343473832501]]}}, {"type": "Feature", "properties": {"layer": "PDF_MEIO_FIO", "dxf_type": "LINE"}, "geometry": {"type": "LineString", "coordinates": [[-54.982289026492005, -10.247444367590877], [-54.982622488513115, -10.2478410208793]]}}, {"type": "Feature", "properties": {"layer": "PDF_MEIO_FIO", "dxf_type": "LINE"}, "geometry": {"type": "LineString", "coordinates": [[-54.98267407649337, -10.247845524400487], [-54.98300426507945, -10.247572898163872]]}}, {"type": "Feature", "properties": {"layer": "PDF_MEIO_FIO", "dxf_type": "LINE"}, "geometry": {"type": "LineString", "coordinates": [[-54.983008808920076, -10.247522267324795], [-54.98267487662109, -10.247125611480792]]}}, {"type": "Feature", "properties": {"layer": "PDF_MEIO_FIO", "dxf_type": "LINE"}, "geometry": {"type": "LineString", "coordinates": [[-54.9826237587315, -10.247121110898728], [-54.98229357337838, -10.247393272188702]]}}, {"type": "Feature", "properties": {"layer": "PDF_MEIO_FIO", "dxf_type": "CIRCLE", "radius_m": 20.03}, "geometry": {"type": "Polygon", "coordinates": [[[-54.983554115707875, -10.249236131367347], [-54.983557850690104, -10.249200837654653], [-54.98356846524243, -10.249166945213576], [-54.98358555232701, -10.249135754059948], [-54.983608454570124, -10.249108464129382], [-54.98363629196571, -10.249086123926176], [-54.9836679940615, -10.249069591854852], [-54.983702343968524, -10.24905950395249], [-54.98373802142366, -10.249056247038528], [-54.98377365397374, -10.249059946377603], [-54.98380787359518, -10.249070459703335], [-54.98383936410779, -10.24908738383984], [-54.983866916761805, -10.249110067701148], [-54.98388947204509, -10.249137639667918], [-54.98390616328119, -10.24916904039858], [-54.983916348324065, -10.249203061894184], [-54.983919636610075, -10.249238399189313], [-54.983915901671594, -10.249273692009774], [-54.983905287142534, -10.249307585372273], [-54.98388820007351, -10.249338776546614], [-54.98386529783585, -10.249366065594083], [-54.98383746042422, -10.249388405814972], [-54.98380575829906, -10.249404937898152], [-54.9837714083538, -10.249415025804787], [-54.98373573176998, -10.249418282720413], [-54.983700098269296, -10.249414583364025], [-54.98366587861886, -10.249404070020756], [-54.98363438809072, -10.24938714586354], [-54.983606835436966, -10.24936446198143], [-54.983584280163996, -10.249336890900867], [-54.983567588957264, -10.249305490158356], [-54.98355740395834, -10.249271467754598], [-54.983554115707875, -10.249236131367347]]]}}, {"type": "Feature", "properties": {"layer": "PDF_MEIO_FIO", "dxf_type": "LINE"}, "geometry": {"type": "LineString", "coordinates": [[-54.983452248868936, -10.249465324331071], [-54.98009174729712, -10.25010395203879]]}}, {"type": "Feature", "properties": {"layer": "PDF_MEIO_FIO", "dxf_type": "LINE"}, "geometry": {"type": "LineString", "coordinates": [[-54.98009174729712, -10.25010395203879], [-54.980105254684545, -10.25011983822238]]}}, {"type": "Feature", "properties": {"layer": "PDF_MEIO_FIO", "dxf_type": "LINE"}, "geometry": {"type": "LineString", "coordinates": [[-54.980105254684545, -10.25011983822238], [-54.9834657564303, -10.249481210402294]]}}, {"type": "Feature", "properties": {"layer": "PDF_MEIO_FIO", "dxf_type": "LINE"}, "geometry": {"type": "LineString", "coordinates": [[-54.98002794502919, -10.250027799324926], [-54.9790256922113, -10.24883735349777]]}}, {"type": "Feature", "properties": {"layer": "PDF_MEIO_FIO", "dxf_type": "LINE"}, "geometry": {"type": "LineString", "coordinates": [[-54.9790307087405, -10.248786261166112], [-54.979571282433646, -10.24833973187806]]}}, {"type": "Feature", "properties": {"layer": "PDF_MEIO_FIO", "dxf_type": "LINE"}, "geometry": {"type": "LineString", "coordinates": [[-54.97962286649919, -10.248344700478635], [-54.98063862426084, -10.249551495376883]]}}, {"type": "Feature", "properties": {"layer": "PDF_MEIO_FIO", "dxf_type": "LINE"}, "geometry": {"type": "LineString", "coordinates": [[-54.98063862426084, -10.249551495376883], [-54.98004710569072, -10.250040001950715]]}}, {"type": "Feature", "properties": {"layer": "PDF_MEIO_FIO", "dxf_type": "LINE"}, "geometry": {"type": "LineString", "coordinates": [[-54.98004710569072, -10.250040001950715], [-54.980666455506416, -10.249528429593498]]}}, {"type": "Feature", "properties": {"layer": "PDF_MEIO_FIO", "dxf_type": "LINE"}, "geometry": {"type": "LineString", "coordinates": [[-54.980666455506416, -10.249528429593498], [-54.98065201880135, -10.249511143821893]]}}, {"type": "Feature", "properties": {"layer": "PDF_MEIO_FIO", "dxf_type": "LINE"}, "geometry": {"type": "LineString", "coordinates": [[-54.98065201880135, -10.249511143821893], [-54.98125249759553, -10.249015254933761]]}}, {"type": "Feature", "properties": {"layer": "PDF_MEIO_FIO", "dxf_type": "LINE"}, "geometry": {"type": "LineString", "coordinates": [[-54.98006258743645, -10.25004056279943], [-54.98341181437954, -10.249403724669275]]}}, {"type": "Feature", "properties": {"layer": "PDF_MEIO_FIO", "dxf_type": "LINE"}, "geometry": {"type": "LineString", "coordinates": [[-54.983463185949354, -10.248997376344569], [-54.982676093355046, -10.248062035465415]]}}, {"type": "Feature", "properties": {"layer": "PDF_MEIO_FIO", "dxf_type": "LINE"}, "geometry": {"type": "LineString", "coordinates": [[-54.982625447322214, -10.248057073172461], [-54.98134507024745, -10.249068348306373]]}}, {"type": "Feature", "properties": {"layer": "PDF_MEIO_FIO", "dxf_type": "LINE"}, "geometry": {"type": "LineString", "coordinates": [[-54.98134507024745, -10.249068348306373], [-54.98130408570669, -10.249019757801017]]}}, {"type": "Feature", "properties": {"layer": "PDF_MEIO_FIO", "dxf_type": "LINE"}, "geometry": {"type": "LineString", "coordinates": [[-54.98445302776396, -10.248831771898692], [-54.984571999418776, -10.248939870566346]]}}, {"type": "Feature", "properties": {"layer": "PDF_MEIO_FIO", "dxf_type": "LINE"}, "geometry": {"type": "LineString", "coordinates": [[-54.984551895603765, -10.249002488518977], [-54.98404473659242, -10.249063015610144]]}}, {"type": "Feature", "properties": {"layer": "PDF_MEIO_FIO", "dxf_type": "LINE"}, "geometry": {"type": "LineString", "coordinates": [[-54.98400721815532, -10.248985631841052], [-54.98408533930309, -10.248801140898376]]}}, {"type": "Feature", "properties": {"layer": "PDF_MEIO_FIO", "dxf_type": "LINE"}, "geometry": {"type": "LineString", "coordinates": [[-54.98410752202127, -10.248780829207199], [-54.98436709772767, -10.24869274002998]]}}, {"type": "Feature", "properties": {"layer": "PDF_MEIO_FIO", "dxf_type": "LINE"}, "geometry": {"type": "LineString", "coordinates": [[-54.98441387591343, -10.248715803412152], [-54.984449312512595, -10.24882570708161]]}}, {"type": "Feature", "properties": {"layer": "PDF_MEIO_FIO", "dxf_type": "LINE"}, "geometry": {"type": "LineString", "coordinates": [[-54.98338019677997, -10.248690116730504], [-54.98356786982929, -10.248916226954044]]}}, {"type": "Feature", "properties": {"layer": "PDF_MEIO_FIO", "dxf_type": "LINE"}, "geometry": {"type": "LineString", "coordinates": [[-54.98380927094017, -10.248882403270455], [-54.984233426381294, -10.247997335550416]]}}, {"type": "Feature", "properties": {"layer": "PDF_MEIO_FIO", "dxf_type": "LINE"}, "geometry": {"type": "LineString", "coordinates": [[-54.98417645247799, -10.247954224247387], [-54.983384268607736, -10.24863994756485]]}}, {"type": "Feature", "properties": {"layer": "PDF_MEIO_FIO", "dxf_type": "LINE"}, "geometry": {"type": "LineString", "coordinates": [[-54.98225313210317, -10.24822262259578], [-54.982583322326654, -10.247949997845962]]}}, {"type": "Feature", "properties": {"layer": "PDF_MEIO_FIO", "dxf_type": "LINE"}, "geometry": {"type": "LineString", "coordinates": [[-54.98399796679222, -10.24684627299712], [-54.98274089157568, -10.247884190989712]]}}, {"type": "Feature", "properties": {"layer": "PDF_MEIO_FIO", "dxf_type": "LINE"}, "geometry": {"type": "LineString", "coordinates": [[-54.982736345650075, -10.24793528641473], [-54.98324259804823, -10.248537043511481]]}}, {"type": "Feature", "properties": {"layer": "PDF_MEIO_FIO", "dxf_type": "LINE"}, "geometry": {"type": "LineString", "coordinates": [[-54.98329418525463, -10.248541546951504], [-54.984551262101114, -10.247503626103578]]}}, {"type": "Feature", "properties": {"layer": "PDF_MEIO_FIO", "dxf_type": "LINE"}, "geometry": {"type": "LineString", "coordinates": [[-54.98455627678557, -10.247452533503752], [-54.98404955376923, -10.246850775363512]]}}, {"type": "Feature", "properties": {"layer": "PDF_MEIO_FIO", "dxf_type": "LINE"}, "geometry": {"type": "LineString", "coordinates": [[-54.982588908823864, -10.247957003516195], [-54.98225918765498, -10.24822963208708]]}}, {"type": "Feature", "properties": {"layer": "PDF_MEIO_FIO", "dxf_type": "LINE"}, "geometry": {"type": "LineString", "coordinates": [[-54.982207603485065, -10.248224663900947], [-54.98185317657995, -10.24780417667983]]}}, {"type": "Feature", "properties": {"layer": "PDF_MEIO_FIO", "dxf_type": "LINE"}, "geometry": {"type": "LineString", "coordinates": [[-54.98185819261566, -10.247753084211697], [-54.982187912563305, -10.24748045600615]]}}, {"type": "Feature", "properties": {"layer": "PDF_MEIO_FIO", "dxf_type": "LINE"}, "geometry": {"type": "LineString", "coordinates": [[-54.9822395004666, -10.247484959584142], [-54.982593923838394, -10.247905911009411]]}}, {"type": "Feature", "properties": {"layer": "PDF_MEIO_FIO", "dxf_type": "LINE"}, "geometry": {"type": "LineString", "coordinates": [[-54.98183363827927, -10.247867646669839], [-54.982171296920015, -10.248268509768149]]}}, {"type": "Feature", "properties": {"layer": "PDF_MEIO_FIO", "dxf_type": "LINE"}, "geometry": {"type": "LineString", "coordinates": [[-54.98216675088713, -10.248319605165575], [-54.982082319638415, -10.24838879538694]]}}, {"type": "Feature", "properties": {"layer": "PDF_MEIO_FIO", "dxf_type": "LINE"}, "geometry": {"type": "LineString", "coordinates": [[-54.98203120157043, -10.248384295578733], [-54.98169726999527, -10.247987637905167]]}}, {"type": "Feature", "properties": {"layer": "PDF_MEIO_FIO", "dxf_type": "LINE"}, "geometry": {"type": "LineString", "coordinates": [[-54.981701816999646, -10.247936542532479], [-54.98178624726019, -10.247867352395446]]}}, {"type": "Feature", "properties": {"layer": "PDF_MEIO_FIO", "dxf_type": "LINE"}, "geometry": {"type": "LineString", "coordinates": [[-54.981367047706335, -10.248932309197755], [-54.980360607508736, -10.247735799369385]]}}, {"type": "Feature", "properties": {"layer": "PDF_MEIO_FIO", "dxf_type": "LINE"}, "geometry": {"type": "LineString", "coordinates": [[-54.9803651537998, -10.247684704049268], [-54.9806953446237, -10.2474120805088]]}}, {"type": "Feature", "properties": {"layer": "PDF_MEIO_FIO", "dxf_type": "LINE"}, "geometry": {"type": "LineString", "coordinates": [[-54.98074646247284, -10.247416581398044], [-54.981343996943544, -10.248126267475321]]}}, {"type": "Feature", "properties": {"layer": "PDF_MEIO_FIO", "dxf_type": "LINE"}, "geometry": {"type": "LineString", "coordinates": [[-54.981395111998715, -10.248131231975844], [-54.981549830364855, -10.248003453744472]]}}, {"type": "Feature", "properties": {"layer": "PDF_MEIO_FIO", "dxf_type": "LINE"}, "geometry": {"type": "LineString", "coordinates": [[-54.98160141741006, -10.248007957432472], [-54.981964222359295, -10.2484391866238]]}}, {"type": "Feature", "properties": {"layer": "PDF_MEIO_FIO", "dxf_type": "LINE"}, "geometry": {"type": "LineString", "coordinates": [[-54.981959675373425, -10.248490282005353], [-54.98141863489688, -10.24893681203891]]}}, {"type": "Feature", "properties": {"layer": "PDF_MEIO_FIO", "dxf_type": "LINE"}, "geometry": {"type": "LineString", "coordinates": [[-54.98432818408192, -10.24807600350693], [-54.98406459324536, -10.248650675623805]]}}, {"type": "Feature", "properties": {"layer": "PDF_MEIO_FIO", "dxf_type": "LINE"}, "geometry": {"type": "LineString", "coordinates": [[-54.98406459324536, -10.248650675623805], [-54.98392114983891, -10.24892492604556]]}}, {"type": "Feature", "properties": {"layer": "PDF_MEIO_FIO", "dxf_type": "LINE"}, "geometry": {"type": "LineString", "coordinates": [[-54.98429782581708, -10.248053506578806], [-54.98403184848741, -10.248634670248133]]}}, {"type": "Feature", "properties": {"layer": "PDF_MEIO_FIO", "dxf_type": "LINE"}, "geometry": {"type": "LineString", "coordinates": [[-54.98403184848741, -10.248634670248133], [-54.98388841002882, -10.248907991457012]]}}, {"type": "Feature", "properties": {"layer": "PDF_MEIO_FIO", "dxf_type": "LINE"}, "geometry": {"type": "LineString", "coordinates": [[-54.98193255057538, -10.252256087193736], [-54.980465019127244, -10.250512474779436]]}}, {"type": "Feature", "properties": {"layer": "PDF_MEIO_FIO", "dxf_type": "LINE"}, "geometry": {"type": "LineString", "coordinates": [[-54.980465019127244, -10.250512474779436], [-54.980180923692465, -10.250174685320038]]}}, {"type": "Feature", "properties": {"layer": "PDF_MEIO_FIO", "dxf_type": "LINE"}, "geometry": {"type": "LineString", "coordinates": [[-54.980180923692465, -10.250174685320038], [-54.98353202928101, -10.249537857846478]]}}, {"type": "Feature", "properties": {"layer": "PDF_MEIO_FIO", "dxf_type": "LWPOLYLINE"}, "geometry": {"type": "LineString", "coordinates": [[-55.00847558278138, -10.23792266309862], [-55.008897082091906, -10.237911345202535], [-55.00892386117119, -10.23788402151104]]}}, {"type": "Feature", "properties": {"layer": "PDF_MEIO_FIO", "dxf_type": "LWPOLYLINE"}, "geometry": {"type": "LineString", "coordinates": [[-55.00961362330949, -10.237994326619619], [-55.008466685034676, -10.238030440145673]]}}, {"type": "Feature", "properties": {"layer": "PDF_MEIO_FIO", "dxf_type": "LWPOLYLINE"}, "geometry": {"type": "LineString", "coordinates": [[-55.00895538318724, -10.236399192135215], [-55.00898514063204, -10.236980703935904], [-55.008993555247805, -10.237881263508568]]}}, {"type": "Feature", "properties": {"layer": "PDF_MEIO_FIO", "dxf_type": "LWPOLYLINE"}, "geometry": {"type": "LineString", "coordinates": [[-55.00512171527056, -10.229535882802143], [-55.0053245618808, -10.229748953901856], [-55.00564765898966, -10.230075383786604], [-55.005968593986196, -10.230360585614477], [-55.006219737993284, -10.230742646896479], [-55.00647297287147, -10.231332235744967], [-55.007457680316904, -10.233254301097215], [-55.00785898708959, -10.234074355209307], [-55.00816532747022, -10.234761076863535], [-55.008616584441505, -10.235718502830448], [-55.00887149339267, -10.2362735948251], [-55.00891562272542, -10.236955836255449], [-55.008923862843154, -10.237884192363923]]}}, {"type": "Feature", "properties": {"layer": "PDF_MEIO_FIO", "dxf_type": "LWPOLYLINE"}, "geometry": {"type": "LineString", "coordinates": [[-55.0089935578211, -10.237881436174828], [-55.009021449160336, -10.237908272789436], [-55.00949763013947, -10.23789585060205], [-55.00952441384081, -10.2378682177357], [-55.00948836009969, -10.236356445857995], [-55.00944550970992, -10.236244997640071]]}}, {"type": "Feature", "properties": {"layer": "PDF_MEIO_FIO", "dxf_type": "LWPOLYLINE"}, "geometry": {"type": "LineString", "coordinates": [[-55.00956419853001, -10.236298920900278], [-55.009602157860265, -10.23789313475484], [-55.00961135102739, -10.237893191000476]]}}, {"type": "Feature", "properties": {"layer": "PDF_MEIO_FIO", "dxf_type": "LWPOLYLINE"}, "geometry": {"type": "LineString", "coordinates": [[-55.00941098447104, -10.236194944640124], [-55.008987742882624, -10.236330857834865]]}}, {"type": "Feature", "properties": {"layer": "PDF_MEIO_FIO", "dxf_type": "LWPOLYLINE"}, "geometry": {"type": "LineString", "coordinates": [[-55.00942862615432, -10.236236747231494], [-55.00896514573212, -10.236385353959626]]}}, {"type": "Feature", "properties": {"layer": "PDF_MEIO_FIO", "dxf_type": "LWPOLYLINE"}, "geometry": {"type": "LineString", "coordinates": [[-55.0095646642582, -10.23630179915003], [-55.00921379352773, -10.235384286376439], [-55.00835005607289, -10.233458172007788], [-55.00651806298835, -10.229456733662866]]}}, {"type": "Feature", "properties": {"layer": "PDF_MEIO_FIO", "dxf_type": "LWPOLYLINE"}, "geometry": {"type": "LineString", "coordinates": [[-55.009419804500546, -10.236177266209888], [-55.00912939021689, -10.235418755680225], [-55.00826660653645, -10.233495042416171], [-55.00641648078912, -10.2294532362757]]}}, {"type": "Feature", "properties": {"layer": "PDF_MEIO_FIO", "dxf_type": "LWPOLYLINE"}, "geometry": {"type": "LineString", "coordinates": [[-55.006608289074606, -10.229341786615176], [-55.00487113775173, -10.229450958226378]]}}, {"type": "Feature", "properties": {"layer": "PDF_MEIO_FIO", "dxf_type": "LWPOLYLINE"}, "geometry": {"type": "LineString", "coordinates": [[-55.00640298110574, -10.229445485588958], [-55.00523019776709, -10.229519295111341]]}}, {"type": "Feature", "properties": {"layer": "PDF_MEIO_FIO", "dxf_type": "LWPOLYLINE"}, "geometry": {"type": "LineString", "coordinates": [[-55.00664644411743, -10.229430202071711], [-55.006529794662335, -10.229437634977176]]}}, {"type": "Feature", "properties": {"layer": "PDF_MEIO_FIO", "dxf_type": "LWPOLYLINE"}, "geometry": {"type": "LineString", "coordinates": [[-55.008970853363344, -10.236323565532635], [-55.00892122625388, -10.236212555797563], [-55.008545685326595, -10.235372051106882], [-55.008444812347655, -10.235176858450707], [-55.00799347956045, -10.234231893553602], [-55.00772627477962, -10.233631676103576], [-55.00669813851126, -10.231690654627375], [-55.00619737328789, -10.230604965475523], [-55.006065622275, -10.230396164642087], [-55.005531172221666, -10.229901661971676], [-55.00540183093604, -10.22977195137464]]}}, {"type": "Feature", "properties": {"layer": "PDF_MEIO_FIO", "dxf_type": "LWPOLYLINE"}, "geometry": {"type": "LineString", "coordinates": [[-55.00535765612797, -10.229718005494144], [-55.005212012223616, -10.229564711825878]]}}, {"type": "Feature", "properties": {"layer": "PDF_MEIO_FIO", "dxf_type": "LWPOLYLINE"}, "geometry": {"type": "LineString", "coordinates": [[-55.00509999782294, -10.22952712355089], [-55.004817812572796, -10.229545043982947]]}}, {"type": "Feature", "properties": {"layer": "PDF_MEIO_FIO", "dxf_type": "LWPOLYLINE"}, "geometry": {"type": "LineString", "coordinates": [[-55.00480909134876, -10.229546906864526], [-55.00296826289733, -10.230297145536811]]}}, {"type": "Feature", "properties": {"layer": "PDF_MEIO_FIO", "dxf_type": "LWPOLYLINE"}, "geometry": {"type": "LineString", "coordinates": [[-55.0048624144452, -10.229453301082764], [-55.00294931219604, -10.230232809817398]]}}, {"type": "Feature", "properties": {"layer": "PDF_MEIO_FIO", "dxf_type": "LWPOLYLINE"}, "geometry": {"type": "LineString", "coordinates": [[-55.0029372045165, -10.230234652773644], [-55.001468320337914, -10.230152793266964]]}}, {"type": "Feature", "properties": {"layer": "PDF_MEIO_FIO", "dxf_type": "LWPOLYLINE"}, "geometry": {"type": "LineString", "coordinates": [[-55.00146444727074, -10.230153248571703], [-55.00117304198095, -10.230175421728555]]}}, {"type": "Feature", "properties": {"layer": "PDF_MEIO_FIO", "dxf_type": "LWPOLYLINE"}, "geometry": {"type": "LineString", "coordinates": [[-55.00295615613344, -10.23029898759502], [-55.00146888974953, -10.23021653619371]]}}, {"type": "Feature", "properties": {"layer": "PDF_MEIO_FIO", "dxf_type": "LWPOLYLINE"}, "geometry": {"type": "LineString", "coordinates": [[-55.001465503323736, -10.230216515405004], [-55.00117409497171, -10.230239168517931]]}}]}