{"type": "FeatureCollection", "name": "pdf_perimetro", "crs": {"type": "name", "properties": {"name": "urn:ogc:def:crs:OGC:1.3:CRS84"}}, "properties": {"source": "8be78050_MAPA TRIBUTAÇÃO 2021 (1).dxf", "assumed_crs": "EPSG:4326", "local_crs": false, "note": "Coordenadas locais do desenho (sem CRS). Use base 'Só CAD' no mapa.", "extent": [4300.4554, 2373.7696, 8215.3349, 6186.7838], "georef": true, "transform": {"scale": 1, "rotation_deg": 0, "tx": 713717.6034368816, "ty": 8862616.121289995, "rmse_m": 0, "epsg": 31981}, "layer": "PDF_Perímetro", "source_file": "8be78050_MAPA TRIBUTAÇÃO 2021 (1)_georef.geojson", "n_features": 4}, "features": [{"type": "Feature", "properties": {"layer": "PDF_Perímetro", "dxf_type": "LWPOLYLINE"}, "geometry": {"type": "LineString", "coordinates": [[-54.98441512631156, -10.248625706097027], [-54.98445864792229, -10.248757096278299], [-54.984621263080555, -10.248904550931071]]}}, {"type": "Feature", "properties": {"layer": "PDF_Perímetro", "dxf_type": "LWPOLYLINE"}, "geometry": {"type": "LineString", "coordinates": [[-54.983895481007096, -10.250480205214641], [-54.98356716806324, -10.250875832100062], [-54.98471055869232, -10.25211242345797]]}}, {"type": "Feature", "properties": {"layer": "PDF_Perímetro", "dxf_type": "LWPOLYLINE"}, "geometry": {"type": "LineString", "coordinates": [[-54.985008767464706, -10.249073227401148], [-54.98497619519702, -10.248853031172148]]}}, {"type": "Feature", "properties": {"layer": "PDF_Perímetro", "dxf_type": "LWPOLYLINE"}, "geometry": {"type": "LineString", "coordinates": [[-54.98790114680207, -10.247257236132175], [-54.98788464075785, -10.247276841173129], [-54.98790114680207, -10.247257236132175], [-54.98788464075785, -10.247276841173129], [-54.987633745459995, -10.24747573532306], [-54.98701135658466, -10.247975117500596], [-54.98683562198117, -10.248073041435035], [-54.986744833059085, -10.248105718816202], [-54.98655477247812, -10.248163402726233], [-54.98645609121448, -10.248181050502769], [-54.98624728598576, -10.24821769511427], [-54.98609415329472, -10.248235083123198], [-54.985828652452724, -10.248283610644336], [-54.985702618840065, -10.248297261479637], [-54.98498776101079, -10.248428173584388], [-54.9844148070822, -10.248625965348948], [-54.98445806603293, -10.248757039338459], [-54.98462145189833, -10.248904132684881], [-54.984766795711344, -10.248891215824948], [-54.98497448225142, -10.248855480107858], [-54.98500824397417, -10.249072594125582], [-54.98514851434811, -10.249962216175003], [-54.98504347843493, -10.250034506422587], [-54.98463718544867, -10.250098869394389], [-54.98433860979373, -10.25018879476999], [-54.9842038189531, -10.250198967419268], [-54.983939415176444, -10.250437399890798], [-54.98389476778479, -10.250479990177007], [-54.983564159978876, -10.250878009043289], [-54.9847099485085, -10.252112654691178], [-54.98731400020115, -10.253054386114298], [-54.98791574006449, -10.253075105509794], [-54.98799333170582, -10.253118506807727], [-54.98804902899056, -10.253166446651276], [-54.988261102533244, -10.253281961918981], [-54.98828689632937, -10.253317656473811], [-54.988333598215505, -10.253407036736942], [-54.98837524631743, -10.253448651602847], [-54.98880121385155, -10.25357790727537], [-54.98893623765007, -10.253654873921446], [-54.989044792604126, -10.253672083140822], [-54.98907730516298, -10.25367294969436], [-54.98912661428326, -10.253677647980394], [-54.989200048451885, -10.253686316459486], [-54.989234795748615, -10.253682458490612], [-54.989315702880596, -10.253654627779486], [-54.98934670204729, -10.253636875065263], [-54.989401165889966, -10.253597429814912], [-54.98943556185793, -10.25357215672239], [-54.98948337130639, -10.253556637667772], [-54.98952087921114, -10.253532542647902], [-54.989545587615794, -10.253520425777305], [-54.9895844098259, -10.253468536154717], [-54.99204795342144, -10.252178318492179], [-54.99382723288691, -10.251015325049119], [-54.992855824048846, -10.249864595555955], [-54.99161610224009, -10.248396045922794], [-54.99076987503469, -10.247397229897095], [-54.99030860164615, -10.24685073217126]]}}]}