{"type": "FeatureCollection", "name": "pdf_corrego", "crs": {"type": "name", "properties": {"name": "urn:ogc:def:crs:OGC:1.3:CRS84"}}, "properties": {"source": "8be78050_MAPA TRIBUTAÇÃO 2021 (1).dxf", "assumed_crs": "EPSG:4326", "local_crs": false, "note": "Coordenadas locais do desenho (sem CRS). Use base 'Só CAD' no mapa.", "extent": [4300.4554, 2373.7696, 8215.3349, 6186.7838], "georef": true, "transform": {"scale": 1, "rotation_deg": 0, "tx": 713717.6034368816, "ty": 8862616.121289995, "rmse_m": 0, "epsg": 31981}, "layer": "PDF_CORREGO", "source_file": "8be78050_MAPA TRIBUTAÇÃO 2021 (1)_georef.geojson", "n_features": 38}, "features": [{"type": "Feature", "properties": {"layer": "PDF_CORREGO", "dxf_type": "LINE"}, "geometry": {"type": "LineString", "coordinates": [[-54.98436716655278, -10.247912272172186], [-54.984351373445925, -10.24797064585036]]}}, {"type": "Feature", "properties": {"layer": "PDF_CORREGO", "dxf_type": "LINE"}, "geometry": {"type": "LineString", "coordinates": [[-54.984384796052396, -10.247916951703663], [-54.984369002948206, -10.247975325383232]]}}, {"type": "Feature", "properties": {"layer": "PDF_CORREGO", "dxf_type": "LINE"}, "geometry": {"type": "LineString", "coordinates": [[-54.98434953614128, -10.247907592634212], [-54.98433374302605, -10.247965967214848]]}}, {"type": "Feature", "properties": {"layer": "PDF_CORREGO", "dxf_type": "LINE"}, "geometry": {"type": "LineString", "coordinates": [[-54.984351373445925, -10.24797064585036], [-54.98427463642475, -10.24815886422652]]}}, {"type": "Feature", "properties": {"layer": "PDF_CORREGO", "dxf_type": "LINE"}, "geometry": {"type": "LineString", "coordinates": [[-54.98436829706189, -10.247977415379205], [-54.984291560965815, -10.248165632862667]]}}, {"type": "Feature", "properties": {"layer": "PDF_CORREGO", "dxf_type": "LINE"}, "geometry": {"type": "LineString", "coordinates": [[-54.98433444891254, -10.247963877218988], [-54.98425771189026, -10.248152094685748]]}}, {"type": "Feature", "properties": {"layer": "PDF_CORREGO", "dxf_type": "LINE"}, "geometry": {"type": "LineString", "coordinates": [[-54.98427463642475, -10.24815886422652], [-54.9842266507219, -10.248326810696097]]}}, {"type": "Feature", "properties": {"layer": "PDF_CORREGO", "dxf_type": "LINE"}, "geometry": {"type": "LineString", "coordinates": [[-54.98429219869213, -10.24816378650167], [-54.98424421299108, -10.248331733879295]]}}, {"type": "Feature", "properties": {"layer": "PDF_CORREGO", "dxf_type": "LINE"}, "geometry": {"type": "LineString", "coordinates": [[-54.98425707415807, -10.248153941950521], [-54.98420908844772, -10.24832188841593]]}}, {"type": "Feature", "properties": {"layer": "PDF_CORREGO", "dxf_type": "LINE"}, "geometry": {"type": "LineString", "coordinates": [[-54.9842266507219, -10.248326810696097], [-54.984102930596194, -10.248524497166416]]}}, {"type": "Feature", "properties": {"layer": "PDF_CORREGO", "dxf_type": "LINE"}, "geometry": {"type": "LineString", "coordinates": [[-54.9842421642802, -10.24833633566401], [-54.984118443245535, -10.248534022135598]]}}, {"type": "Feature", "properties": {"layer": "PDF_CORREGO", "dxf_type": "LINE"}, "geometry": {"type": "LineString", "coordinates": [[-54.984211138071494, -10.248317286637155], [-54.98408741702957, -10.24851497309488]]}}, {"type": "Feature", "properties": {"layer": "PDF_CORREGO", "dxf_type": "LINE"}, "geometry": {"type": "LineString", "coordinates": [[-54.984102930596194, -10.248524497166416], [-54.984048221322205, -10.248642672939129]]}}, {"type": "Feature", "properties": {"layer": "PDF_CORREGO", "dxf_type": "LINE"}, "geometry": {"type": "LineString", "coordinates": [[-54.98411952175756, -10.248532032978916], [-54.98406481158048, -10.248650207845758]]}}, {"type": "Feature", "properties": {"layer": "PDF_CORREGO", "dxf_type": "LINE"}, "geometry": {"type": "LineString", "coordinates": [[-54.98408633943002, -10.24851696225709], [-54.98403163015226, -10.248635138026147]]}}, {"type": "Feature", "properties": {"layer": "PDF_CORREGO", "dxf_type": "LINE"}, "geometry": {"type": "LineString", "coordinates": [[-54.984048221322205, -10.248642672939129], [-54.98401286856363, -10.248816274862135]]}}, {"type": "Feature", "properties": {"layer": "PDF_CORREGO", "dxf_type": "LINE"}, "geometry": {"type": "LineString", "coordinates": [[-54.98406611246311, -10.248646246820288], [-54.98403076062, -10.24881984965651]]}}, {"type": "Feature", "properties": {"layer": "PDF_CORREGO", "dxf_type": "LINE"}, "geometry": {"type": "LineString", "coordinates": [[-54.9840303292693, -10.248639099051415], [-54.98399497741472, -10.248812700976382]]}}, {"type": "Feature", "properties": {"layer": "PDF_CORREGO", "dxf_type": "LINE"}, "geometry": {"type": "LineString", "coordinates": [[-54.98401286856363, -10.248816274862135], [-54.98389074923597, -10.248983297637517]]}}, {"type": "Feature", "properties": {"layer": "PDF_CORREGO", "dxf_type": "LINE"}, "geometry": {"type": "LineString", "coordinates": [[-54.984027651610994, -10.248826878202967], [-54.983905532284844, -10.248993900984527]]}}, {"type": "Feature", "properties": {"layer": "PDF_CORREGO", "dxf_type": "LINE"}, "geometry": {"type": "LineString", "coordinates": [[-54.98399808642991, -10.24880567152645], [-54.983875967106435, -10.248972693391796]]}}, {"type": "Feature", "properties": {"layer": "PDF_CORREGO", "dxf_type": "LINE"}, "geometry": {"type": "LineString", "coordinates": [[-54.98389074923597, -10.248983297637517], [-54.98382583514062, -10.249082818292]]}}, {"type": "Feature", "properties": {"layer": "PDF_CORREGO", "dxf_type": "LINE"}, "geometry": {"type": "LineString", "coordinates": [[-54.98390608031198, -10.248993107130548], [-54.98384116529994, -10.24909262868679]]}}, {"type": "Feature", "properties": {"layer": "PDF_CORREGO", "dxf_type": "LINE"}, "geometry": {"type": "LineString", "coordinates": [[-54.983875419079276, -10.24897348724572], [-54.98381050406404, -10.24907300879488]]}}, {"type": "Feature", "properties": {"layer": "PDF_CORREGO", "dxf_type": "LINE"}, "geometry": {"type": "LineString", "coordinates": [[-54.98382583514062, -10.249082818292], [-54.98373663968941, -10.249237496168915]]}}, {"type": "Feature", "properties": {"layer": "PDF_CORREGO", "dxf_type": "LINE"}, "geometry": {"type": "LineString", "coordinates": [[-54.98384168352664, -10.249091784932734], [-54.983752488997204, -10.249246461916695]]}}, {"type": "Feature", "properties": {"layer": "PDF_CORREGO", "dxf_type": "LINE"}, "geometry": {"type": "LineString", "coordinates": [[-54.983809985837304, -10.24907385254886], [-54.98372079129518, -10.249228530426173]]}}, {"type": "Feature", "properties": {"layer": "PDF_CORREGO", "dxf_type": "LINE"}, "geometry": {"type": "LineString", "coordinates": [[-54.98373663968941, -10.249237496168915], [-54.983663717975645, -10.249415977454726]]}}, {"type": "Feature", "properties": {"layer": "PDF_CORREGO", "dxf_type": "LINE"}, "geometry": {"type": "LineString", "coordinates": [[-54.983753558710916, -10.249244277461779], [-54.98368063700361, -10.24942275875285]]}}, {"type": "Feature", "properties": {"layer": "PDF_CORREGO", "dxf_type": "LINE"}, "geometry": {"type": "LineString", "coordinates": [[-54.98371972066876, -10.249230714875287], [-54.983646798948556, -10.249409196155856]]}}, {"type": "Feature", "properties": {"layer": "PDF_CORREGO", "dxf_type": "LINE"}, "geometry": {"type": "LineString", "coordinates": [[-54.983663717975645, -10.249415977454726], [-54.98354403430866, -10.249642969141538]]}}, {"type": "Feature", "properties": {"layer": "PDF_CORREGO", "dxf_type": "LINE"}, "geometry": {"type": "LineString", "coordinates": [[-54.98367989687066, -10.249424345956118], [-54.98356021320973, -10.24965133765038]]}}, {"type": "Feature", "properties": {"layer": "PDF_CORREGO", "dxf_type": "LINE"}, "geometry": {"type": "LineString", "coordinates": [[-54.9836475390816, -10.24940760895269], [-54.983527855408546, -10.249634600632044]]}}, {"type": "Feature", "properties": {"layer": "PDF_CORREGO", "dxf_type": "LINE"}, "geometry": {"type": "LineString", "coordinates": [[-54.98354403430866, -10.249642969141538], [-54.983364068082686, -10.249853982356365]]}}, {"type": "Feature", "properties": {"layer": "PDF_CORREGO", "dxf_type": "LINE"}, "geometry": {"type": "LineString", "coordinates": [[-54.98355797742915, -10.249654634819953], [-54.983378011197104, -10.249865648946747]]}}, {"type": "Feature", "properties": {"layer": "PDF_CORREGO", "dxf_type": "LINE"}, "geometry": {"type": "LineString", "coordinates": [[-54.983530091189216, -10.249631303462712], [-54.983350124963614, -10.249842316669449]]}}, {"type": "Feature", "properties": {"layer": "PDF_CORREGO", "dxf_type": "LINE"}, "geometry": {"type": "LineString", "coordinates": [[-54.98287426222855, -10.25010646831244], [-54.98287384289575, -10.250106826371598]]}}, {"type": "Feature", "properties": {"layer": "PDF_CORREGO", "dxf_type": "LINE"}, "geometry": {"type": "LineString", "coordinates": [[-54.981600349050225, -10.251633898393878], [-54.98153287406356, -10.251793024631494]]}}]}