{"type": "FeatureCollection", "name": "pdf_ident_das_quadras", "crs": {"type": "name", "properties": {"name": "urn:ogc:def:crs:OGC:1.3:CRS84"}}, "properties": {"source": "8be78050_MAPA TRIBUTAÇÃO 2021 (1).dxf", "assumed_crs": "EPSG:4326", "local_crs": false, "note": "Coordenadas locais do desenho (sem CRS). Use base 'Só CAD' no mapa.", "extent": [4300.4554, 2373.7696, 8215.3349, 6186.7838], "georef": true, "transform": {"scale": 1, "rotation_deg": 0, "tx": 713717.6034368816, "ty": 8862616.121289995, "rmse_m": 0, "epsg": 31981}, "layer": "PDF_IDENT_DAS_QUADRAS", "source_file": "8be78050_MAPA TRIBUTAÇÃO 2021 (1)_georef.geojson", "n_features": 18}, "features": [{"type": "Feature", "properties": {"layer": "PDF_IDENT_DAS_QUADRAS", "dxf_type": "CIRCLE", "radius_m": 2.6}, "geometry": {"type": "Polygon", "coordinates": [[[-54.9853120382317, -10.247844220914494], [-54.9853125225415, -10.247839644674965], [-54.98531389915198, -10.247835250230272], [-54.985316114065576, -10.247831206278091], [-54.98531908324957, -10.247827668675077], [-54.985322692687554, -10.247824772301954], [-54.98532680295941, -10.247822628380185], [-54.98533125656481, -10.24782132090158], [-54.98533588253749, -10.247820898521816], [-54.98534050189788, -10.247821378209819], [-54.98534493863258, -10.247822740796211], [-54.98534902149097, -10.247824935504063], [-54.98535259404639, -10.247827876395656], [-54.98535551829508, -10.247831450529882], [-54.98535768193396, -10.247835521623147], [-54.985359002906364, -10.247839932789256], [-54.985359429350666, -10.24784451467434], [-54.98535894504151, -10.247849090914066], [-54.98535756843722, -10.247853484455186], [-54.985355353523886, -10.247857528407717], [-54.98535238433418, -10.24786106691496], [-54.985348774895925, -10.247863963288363], [-54.985344664623575, -10.247866107210353], [-54.98534021101753, -10.247867414689026], [-54.98533558595673, -10.247867837074365], [-54.98533096568313, -10.247867357380523], [-54.985326528947944, -10.247865994793836], [-54.9853224460893, -10.24786380008562], [-54.985318873533885, -10.247860859193695], [-54.98531594929117, -10.247857284155291], [-54.985313785652785, -10.247853213061825], [-54.98531246467531, -10.247848802799512], [-54.9853120382317, -10.247844220914494]]]}}, {"type": "Feature", "properties": {"layer": "PDF_IDENT_DAS_QUADRAS", "dxf_type": "CIRCLE", "radius_m": 2.6}, "geometry": {"type": "Polygon", "coordinates": [[[-54.980455923964854, -10.248623823735413], [-54.98045640834636, -10.248619247516869], [-54.98045778411271, -10.248614853100714], [-54.98046000000143, -10.248610809200292], [-54.98046296923966, -10.248607271653514], [-54.9804665787215, -10.248604375344627], [-54.980470689025154, -10.248602231492553], [-54.98047514264905, -10.248600924086492], [-54.98047976771365, -10.248600501773655], [-54.980484387976944, -10.24860098153713], [-54.98048882468817, -10.248602344187914], [-54.98049290751017, -10.248604538952264], [-54.980496479105135, -10.248607479884567], [-54.98049940420887, -10.248611054059001], [-54.98050156778276, -10.24861512517362], [-54.98050288868521, -10.248619536347068], [-54.98050331414472, -10.24862411821952], [-54.980502830682155, -10.24862869354005], [-54.980501454003715, -10.248633087950827], [-54.98049923902784, -10.248637131857254], [-54.980496268871306, -10.248640670302589], [-54.98049266030176, -10.248643566617458], [-54.98048854999762, -10.248645710469733], [-54.98048409637308, -10.24864701787585], [-54.98047947039521, -10.248647440182964], [-54.98047485104386, -10.248646960424947], [-54.98047041433214, -10.248645597773885], [-54.98046633150988, -10.248643403009188], [-54.98046275900234, -10.248640462070847], [-54.980459834817175, -10.248636886997907], [-54.980457670331205, -10.248632815877437], [-54.980456350341974, -10.24862840470959], [-54.980455923964854, -10.248623823735413]]]}}, {"type": "Feature", "properties": {"layer": "PDF_IDENT_DAS_QUADRAS", "dxf_type": "CIRCLE", "radius_m": 2.6}, "geometry": {"type": "Polygon", "coordinates": [[[-54.98105409725231, -10.248121651062073], [-54.981054580704935, -10.248117075738929], [-54.98105595737258, -10.248112681323791], [-54.981058172337185, -10.248108637411402], [-54.981061142482375, -10.248105098958682], [-54.98106475104091, -10.248102202635247], [-54.98106886132916, -10.248100059677428], [-54.9810733149505, -10.248098751357437], [-54.98107794092113, -10.248098329040177], [-54.98108256026726, -10.248098808788285], [-54.98108699697034, -10.248100172333963], [-54.981091079797885, -10.24810236618652], [-54.981094652307505, -10.248105307117994], [-54.98109757649719, -10.248108882185754], [-54.98109974098991, -10.248112953302966], [-54.98110106098782, -10.248117364469627], [-54.98110148737512, -10.24812194544473], [-54.98110100300484, -10.24812652166628], [-54.98109962725025, -10.248130916087396], [-54.981097411373334, -10.248134959994468], [-54.981094442140716, -10.24813849845321], [-54.98109083266933, -10.248141394771253], [-54.98108672238059, -10.248143537729286], [-54.981082268758605, -10.24814484604935], [-54.98107764369987, -10.248145268372191], [-54.981073023440516, -10.248144788618239], [-54.98106858673694, -10.248143425072263], [-54.98106450390914, -10.248141231219345], [-54.981060932312104, -10.248138290293204], [-54.98105800721011, -10.248134715219477], [-54.98105584363046, -10.248130644107738], [-54.98105452272062, -10.248126232935322], [-54.98105409725231, -10.248121651062073]]]}}, {"type": "Feature", "properties": {"layer": "PDF_IDENT_DAS_QUADRAS", "dxf_type": "CIRCLE", "radius_m": 2.6}, "geometry": {"type": "Polygon", "coordinates": [[[-54.981938549585095, -10.248150386414416], [-54.98193903393797, -10.248145811093211], [-54.98194041059435, -10.248141416672027], [-54.98194262554917, -10.2481373727515], [-54.98194559477387, -10.24813383428321], [-54.981949204239235, -10.248130937954143], [-54.98195331452412, -10.24812879498407], [-54.98195776814461, -10.248127486651333], [-54.98196239320437, -10.248127064315664], [-54.98196701346727, -10.24812754405719], [-54.981971450176864, -10.248128907591585], [-54.98197553301299, -10.248131101434248], [-54.98197910553294, -10.248134042357615], [-54.981982029734304, -10.248137617419347], [-54.981984193327015, -10.248141688527186], [-54.98198551425049, -10.248146099698271], [-54.981985940650695, -10.248150680674643], [-54.98198545629274, -10.248155256899924], [-54.981984079636845, -10.24815965132142], [-54.98198186468228, -10.248163695242294], [-54.98197889546331, -10.24816723280706], [-54.98197528599194, -10.248170130040279], [-54.98197117570657, -10.248172273010569], [-54.98196672208544, -10.248173581343378], [-54.981962096112404, -10.248174003673313], [-54.981957476761444, -10.24817352393726], [-54.98195304005136, -10.248172160402568], [-54.98194895721497, -10.24816996655954], [-54.98194538470075, -10.248167024731966], [-54.98194246049393, -10.248163450573811], [-54.98194029690171, -10.248159379465775], [-54.981938975978885, -10.248154968294601], [-54.981938549585095, -10.248150386414416]]]}}, {"type": "Feature", "properties": {"layer": "PDF_IDENT_DAS_QUADRAS", "dxf_type": "CIRCLE", "radius_m": 2.6}, "geometry": {"type": "Polygon", "coordinates": [[[-54.98372292269455, -10.247689959705612], [-54.98372340702604, -10.24768538347272], [-54.98372478365606, -10.247680989038761], [-54.98372699858626, -10.247676945101027], [-54.98372996778331, -10.247673407515599], [-54.98373357723029, -10.247670511162555], [-54.98373768750674, -10.24766836726252], [-54.98374214111214, -10.247667059806528], [-54.98374676708025, -10.247666637449385], [-54.983751386431656, -10.247667117159097], [-54.98375582315332, -10.247668479765508], [-54.9837599059951, -10.247670674490912], [-54.983763478531, -10.247673615396863], [-54.983766402758015, -10.247677189541761], [-54.983768566373854, -10.247681260641576], [-54.98376988732278, -10.247685671809888], [-54.98377031374405, -10.2476902536927], [-54.98376982941891, -10.247694829021906], [-54.98376845278938, -10.247699223456145], [-54.983766237859435, -10.247703267394229], [-54.983763268656666, -10.247706805883883], [-54.983759659209426, -10.247709702237229], [-54.983755548932486, -10.247711846137461], [-54.98375109532643, -10.247713153593525], [-54.98374647027021, -10.247713575956277], [-54.983741850005586, -10.247713096240691], [-54.983737413283436, -10.247711733633986], [-54.983733330441396, -10.247709538908236], [-54.98372975790549, -10.247706598001932], [-54.98372683368447, -10.247703022952857], [-54.983724670069115, -10.247698951852843], [-54.98372334912084, -10.247694540684476], [-54.98372292269455, -10.247689959705612]]]}}, {"type": "Feature", "properties": {"layer": "PDF_IDENT_DAS_QUADRAS", "dxf_type": "CIRCLE", "radius_m": 2.6}, "geometry": {"type": "Polygon", "coordinates": [[[-54.978783280333865, -10.248111480654027], [-54.97878376381839, -10.24810690534049], [-54.97878514051542, -10.248102510940956], [-54.97878735550573, -10.248098467049548], [-54.97879032567198, -10.248094928622397], [-54.97879393424611, -10.248092032328119], [-54.97879804454962, -10.248089888498043], [-54.978802498168335, -10.24808858111484], [-54.97880712413552, -10.248088158830479], [-54.9788117434718, -10.248088638610202], [-54.97881618016471, -10.24809000128113], [-54.978820262965215, -10.248092196063112], [-54.97882383544891, -10.248095137015543], [-54.97882675960905, -10.248098712098864], [-54.97882892406976, -10.248102783225649], [-54.978830244034405, -10.248107194395525], [-54.9788306703885, -10.248111775367374], [-54.978830185986304, -10.248116351579304], [-54.97882881020234, -10.248120745984828], [-54.978826594299704, -10.248124789870907], [-54.97882362505176, -10.248128327400208], [-54.97882001555905, -10.248131224592967], [-54.97881590526078, -10.248133367519364], [-54.97881145163569, -10.248134675806531], [-54.97880682658612, -10.248135097192609], [-54.9788022063309, -10.248134618310907], [-54.97879776964323, -10.24813325473579], [-54.97879368683674, -10.24813106085734], [-54.97879011527136, -10.24812811900637], [-54.978787190193174, -10.248124544820953], [-54.97878502664553, -10.248120473699645], [-54.97878370576895, -10.248116062524007], [-54.978783280333865, -10.248111480654027]]]}}, {"type": "Feature", "properties": {"layer": "PDF_IDENT_DAS_QUADRAS", "dxf_type": "CIRCLE", "radius_m": 2.6}, "geometry": {"type": "Polygon", "coordinates": [[[-54.98120804094956, -10.247528147964836], [-54.981208524397445, -10.247523572640713], [-54.981209901058946, -10.247519178223879], [-54.98121211692879, -10.247515134314789], [-54.98121508615314, -10.247511595853487], [-54.98121869470285, -10.247508699526712], [-54.981222804982, -10.247506556565192], [-54.98122725859435, -10.247505248241339], [-54.98123188455643, -10.247504825920204], [-54.98123650389479, -10.247505305664518], [-54.98124094059117, -10.247506669206693], [-54.981245023413344, -10.24750886305615], [-54.98124859591912, -10.24751180398502], [-54.98125152010665, -10.247515379050807], [-54.98125368459898, -10.247519450166747], [-54.98125500459828, -10.247523861332871], [-54.9812554309887, -10.247528442308202], [-54.98125494662316, -10.247533018530733], [-54.98125357087473, -10.24753741295353], [-54.98125135500515, -10.247541456862953], [-54.98124838578078, -10.247544995324604], [-54.981244776318235, -10.247547891646025], [-54.98124066603858, -10.247550034607727], [-54.98123621242559, -10.24755134293165], [-54.9812315873754, -10.2475517652584], [-54.981226967123824, -10.247551285508205], [-54.981222530426955, -10.247549921965737], [-54.98121844760452, -10.247547728115947], [-54.98121487601132, -10.247544787192384], [-54.98121195182406, -10.2475412121263], [-54.98120978733222, -10.24753714101017], [-54.98120846642099, -10.247532729838312], [-54.98120804094956, -10.247528147964836]]]}}, {"type": "Feature", "properties": {"layer": "PDF_IDENT_DAS_QUADRAS", "dxf_type": "CIRCLE", "radius_m": 2.6}, "geometry": {"type": "Polygon", "coordinates": [[[-54.979292360870964, -10.24769543735409], [-54.97929284526484, -10.247690861139967], [-54.97929422194662, -10.247686467640358], [-54.979296436932955, -10.247682422839715], [-54.97929940617137, -10.247678885304204], [-54.97930301564911, -10.247675989008087], [-54.97930712594453, -10.247673845169851], [-54.97931157955637, -10.247672537778108], [-54.979316205518145, -10.247672115485198], [-54.97932082485069, -10.247672595256685], [-54.97932526154169, -10.247673957920016], [-54.97932934434217, -10.247676152695286], [-54.97933291682774, -10.247679093642196], [-54.97933584099731, -10.2476826678175], [-54.97933800454509, -10.2476867398399], [-54.9793393254349, -10.247691150110628], [-54.979339751791315, -10.247695731987084], [-54.979339267398075, -10.247700308201404], [-54.97933789071679, -10.247704701701323], [-54.97933567573071, -10.247708746502319], [-54.979332706492286, -10.247712284038178], [-54.97932909701428, -10.247715180334572], [-54.97932498671837, -10.247717324173024], [-54.979320533105884, -10.247718631564839], [-54.979315908055995, -10.247719053863339], [-54.97931128781023, -10.247718574085999], [-54.97930685111874, -10.247717211422373], [-54.97930276831801, -10.247715016646737], [-54.97929919583244, -10.247712075699498], [-54.97929627166314, -10.24770850152389], [-54.979294108115845, -10.247704429501296], [-54.97929278722668, -10.24770001923048], [-54.979292360870964, -10.24769543735409]]]}}, {"type": "Feature", "properties": {"layer": "PDF_IDENT_DAS_QUADRAS", "dxf_type": "CIRCLE", "radius_m": 2.6}, "geometry": {"type": "Polygon", "coordinates": [[[-54.98164417530157, -10.247173019327263], [-54.981644659654364, -10.247168444006759], [-54.981646036307716, -10.247164049586546], [-54.98164825125667, -10.2471600056672], [-54.98165122047289, -10.247156467200284], [-54.9816548299275, -10.247153570872744], [-54.98165894019975, -10.24715142790423], [-54.981663393806215, -10.247150119573076], [-54.98166801976368, -10.247149697244623], [-54.98167263909886, -10.247150176981888], [-54.98167707579362, -10.247151540517542], [-54.98168115861579, -10.24715373436127], [-54.98168473112318, -10.247156675285407], [-54.98168765531389, -10.247160250347648], [-54.98168981889826, -10.247164321455706], [-54.981691139816, -10.247168732626683], [-54.98169156621333, -10.247173313602646], [-54.981691081855445, -10.247177889827217], [-54.98168970520258, -10.247182284247732], [-54.98168749025388, -10.247186328167421], [-54.981684521037664, -10.24718986663467], [-54.98168091158279, -10.247192762962525], [-54.981676801310044, -10.247194905931243], [-54.98167234770293, -10.24719621426245], [-54.98166772265734, -10.247196636596517], [-54.98166310240895, -10.247196156853374], [-54.98165866571371, -10.247194793317439], [-54.98165458289128, -10.247192599473365], [-54.981651010383885, -10.24718965854886], [-54.98164808619345, -10.247186083486337], [-54.98164592260957, -10.247182012378081], [-54.98164460169248, -10.24717760120703], [-54.98164417530157, -10.247173019327263]]]}}, {"type": "Feature", "properties": {"layer": "PDF_IDENT_DAS_QUADRAS", "dxf_type": "CIRCLE", "radius_m": 2.6}, "geometry": {"type": "Polygon", "coordinates": [[[-54.982221354139384, -10.247874187534183], [-54.98222183848708, -10.24786961221163], [-54.98222321422528, -10.247865217782536], [-54.98222543008687, -10.247861173864631], [-54.982228399305754, -10.247857635392604], [-54.98223200876554, -10.247854739059266], [-54.98223611905102, -10.247852595180657], [-54.9822405726613, -10.247851287746938], [-54.98224519771739, -10.2478508654064], [-54.982249817977575, -10.247851345143225], [-54.982254254691235, -10.247852707769397], [-54.98225833752111, -10.247854902512112], [-54.9822619091291, -10.247857843426655], [-54.9822648333322, -10.247861418486021], [-54.982266997840284, -10.24786548959804], [-54.98226831785492, -10.247869900762906], [-54.982268744259656, -10.247874481739686], [-54.982268259906874, -10.247879057966315], [-54.982266884169164, -10.24788345239572], [-54.98226466830784, -10.247887496313972], [-54.98226169909467, -10.247891033882471], [-54.982258090541464, -10.247893931125637], [-54.98225398026122, -10.247896074100582], [-54.98224952664457, -10.247897382438248], [-54.98224490068094, -10.247897803869161], [-54.982240281326966, -10.247897325041702], [-54.982235844618536, -10.247895961511356], [-54.98223176178268, -10.247893767672151], [-54.98222818926784, -10.247890825847735], [-54.98222526505929, -10.24788725169195], [-54.9822231005517, -10.247883180579732], [-54.982221780537714, -10.247878769414779], [-54.982221354139384, -10.247874187534183]]]}}, {"type": "Feature", "properties": {"layer": "PDF_IDENT_DAS_QUADRAS", "dxf_type": "CIRCLE", "radius_m": 2.6}, "geometry": {"type": "Polygon", "coordinates": [[[-54.98263104159019, -10.247478957391854], [-54.98263152593614, -10.247474381163464], [-54.98263290257884, -10.247469986736798], [-54.982635117519465, -10.247465942808823], [-54.98263808672999, -10.247462404331394], [-54.982641696181766, -10.247459507991874], [-54.98264580645416, -10.247457365010392], [-54.98265026006373, -10.247456056665788], [-54.98265488511457, -10.247455634318204], [-54.98265950537089, -10.247456114048235], [-54.982663942076506, -10.247457477571988], [-54.98266802491139, -10.247459671405315], [-54.98267159652031, -10.247462612315292], [-54.98267452163854, -10.247466187376903], [-54.98267668523811, -10.247470258481103], [-54.982678006170744, -10.24747466965084], [-54.98267843257634, -10.247479251532088], [-54.982677948236756, -10.247483826856797], [-54.98267657159454, -10.247488221283756], [-54.98267435665417, -10.247492265212093], [-54.98267138653107, -10.247495803684204], [-54.982667777991594, -10.247498700029675], [-54.98266366771871, -10.247500843011359], [-54.9826592141085, -10.247502151356047], [-54.982654588144385, -10.247502573697881], [-54.982649968800004, -10.247502093973338], [-54.982645532093905, -10.247500730449273], [-54.98264144925876, -10.247498536615597], [-54.982637876737265, -10.24749559569962], [-54.98263495253188, -10.247492020643381], [-54.982632788932804, -10.247487949538964], [-54.98263146800082, -10.247483538369153], [-54.98263104159019, -10.247478957391854]]]}}, {"type": "Feature", "properties": {"layer": "PDF_IDENT_DAS_QUADRAS", "dxf_type": "CIRCLE", "radius_m": 2.6}, "geometry": {"type": "Polygon", "coordinates": [[[-54.98271958437435, -10.246539209043696], [-54.982720068709284, -10.246534633718293], [-54.98272144534425, -10.246530239290005], [-54.98272366027501, -10.246526195359747], [-54.98272662947392, -10.246522656879462], [-54.98273023891278, -10.246519760536607], [-54.982734349171444, -10.24651761755148], [-54.982738802767, -10.246516309202999], [-54.98274342871665, -10.246515886857168], [-54.98274804804743, -10.246516366577724], [-54.982752484741354, -10.246517730097931], [-54.982756567566284, -10.246519923928066], [-54.98276014007994, -10.246522864841037], [-54.982763064280164, -10.246526439894922], [-54.98276522787694, -10.246530510997752], [-54.98276654880951, -10.246534922166857], [-54.98276697522349, -10.246539503144362], [-54.98276649088348, -10.246544079373841], [-54.982765114249, -10.24654847380244], [-54.982762899318494, -10.246552517733047], [-54.982759930119585, -10.246556056213683], [-54.98275632068045, -10.246558952556812], [-54.982752210421296, -10.24656109554216], [-54.9827477568251, -10.24656240389071], [-54.98274313178732, -10.246562826242137], [-54.98273851154334, -10.246562346515722], [-54.98273407484893, -10.24656098299522], [-54.982729992023735, -10.24655878916472], [-54.98272641951009, -10.246555848251417], [-54.982723495310125, -10.246552273197235], [-54.98272133171384, -10.246548202094207], [-54.982720010781925, -10.246543790925013], [-54.98271958437435, -10.246539209043696]]]}}, {"type": "Feature", "properties": {"layer": "PDF_IDENT_DAS_QUADRAS", "dxf_type": "CIRCLE", "radius_m": 2.6}, "geometry": {"type": "Polygon", "coordinates": [[[-54.98208368832905, -10.2468060298333], [-54.9820841726798, -10.24680145360686], [-54.98208554932488, -10.24679705918323], [-54.98208776426539, -10.246793015259263], [-54.98209073438015, -10.24678947769621], [-54.98209434292004, -10.246786580452607], [-54.98209845318521, -10.246784437477032], [-54.98210290678563, -10.246783129138501], [-54.982107532738304, -10.246782706802636], [-54.98211215207015, -10.24678318653279], [-54.982116588763155, -10.246784550061848], [-54.98212067158521, -10.246786743899758], [-54.98212424408843, -10.246789685723009], [-54.982127168287995, -10.246793259877789], [-54.98212933278954, -10.246797330989255], [-54.98213065280061, -10.246801742153744], [-54.982131079199185, -10.246806324034214], [-54.982130594854794, -10.246810899356973], [-54.98212921912277, -10.24681529378658], [-54.98212700326995, -10.246819337705228], [-54.98212403406204, -10.246822876178173], [-54.98212042461502, -10.246825772512512], [-54.98211631434364, -10.246827916392183], [-54.982111860748304, -10.246829223826907], [-54.9821072357075, -10.246829646168353], [-54.982102615462445, -10.24682916643236], [-54.98209817876324, -10.246827803806879], [-54.982094095946636, -10.246825609064727], [-54.982090524350276, -10.246822668150688], [-54.982087599244124, -10.246819093086069], [-54.98208543565565, -10.24681502198007], [-54.98208411473264, -10.246810610809828], [-54.98208368832905, -10.2468060298333]]]}}, {"type": "Feature", "properties": {"layer": "PDF_IDENT_DAS_QUADRAS", "dxf_type": "CIRCLE", "radius_m": 2.6}, "geometry": {"type": "Polygon", "coordinates": [[[-54.97979659745494, -10.247278586431134], [-54.97979708183992, -10.247274010214642], [-54.979798457599664, -10.247269616705449], [-54.97980067348319, -10.247265572809038], [-54.979803642717854, -10.24726203436314], [-54.97980725218663, -10.247259138059572], [-54.97981136247398, -10.247256994213206], [-54.97981581607893, -10.247255686813027], [-54.97982044112271, -10.247255264505966], [-54.97982506136407, -10.247255744274955], [-54.97982949805311, -10.247257106930716], [-54.979833580853516, -10.24725930169936], [-54.97983715242832, -10.247262242635117], [-54.97984007659579, -10.247265817710195], [-54.97984224106718, -10.247269888831818], [-54.97984356196376, -10.247274299101603], [-54.97984398741559, -10.247278880973118], [-54.97984350394383, -10.247283457195476], [-54.979842127266274, -10.247287851603174], [-54.97983991138301, -10.24729189549995], [-54.97983694215407, -10.247295433042318], [-54.97983333359759, -10.247298329351837], [-54.97982922330976, -10.2473004731984], [-54.97982476970415, -10.247301780598672], [-54.97982014374711, -10.247302202899974], [-54.97981552441769, -10.247301723136477], [-54.979811087728166, -10.247300360480407], [-54.979807004927494, -10.247298165711413], [-54.97980343244012, -10.247295224769653], [-54.97980050826719, -10.247291650598154], [-54.9797983437963, -10.247287579476314], [-54.97979702381866, -10.24728316830825], [-54.97979659745494, -10.247278586431134]]]}}, {"type": "Feature", "properties": {"layer": "PDF_IDENT_DAS_QUADRAS", "dxf_type": "CIRCLE", "radius_m": 2.6}, "geometry": {"type": "Polygon", "coordinates": [[[-54.98010811640251, -10.246962994692634], [-54.98010860078174, -10.246958418474646], [-54.98010997745354, -10.246954024064765], [-54.98011219241797, -10.246949980159307], [-54.98011516164038, -10.246946442613153], [-54.98011877110859, -10.24694354540097], [-54.9801228813844, -10.246941402453322], [-54.98012733498998, -10.24694009414388], [-54.98013196002954, -10.246939671831424], [-54.98013658026774, -10.246940151595203], [-54.980141016949084, -10.246941515150024], [-54.980145099754516, -10.246943709010553], [-54.98014867223674, -10.246946650852355], [-54.98015159641177, -10.246950225020932], [-54.98015375997362, -10.246954296135236], [-54.98015508086857, -10.246958707308284], [-54.980155507237995, -10.24696328918592], [-54.980155022865134, -10.246967864500224], [-54.98015364619383, -10.246972258910402], [-54.98015143122965, -10.24697630281622], [-54.980148462001516, -10.246979841266604], [-54.98014485253875, -10.246982737575191], [-54.98014074225672, -10.246984881426915], [-54.98013628865623, -10.246986188832567], [-54.98013166270341, -10.246986611139274], [-54.98012704337714, -10.24698613138098], [-54.98012260668958, -10.246984768729726], [-54.98011852388962, -10.246982573964974], [-54.980114951401674, -10.246979633026712], [-54.980112027232636, -10.246976057953962], [-54.98010986367129, -10.246971986839442], [-54.98010854277697, -10.246967575666325], [-54.98010811640251, -10.246962994692634]]]}}, {"type": "Feature", "properties": {"layer": "PDF_IDENT_DAS_QUADRAS", "dxf_type": "CIRCLE", "radius_m": 2.6}, "geometry": {"type": "Polygon", "coordinates": [[[-54.98049976713606, -10.246639489468805], [-54.980500251508374, -10.246634913248979], [-54.980501628172824, -10.246630518836051], [-54.98050384312976, -10.246626474926455], [-54.98050681235053, -10.246622936471368], [-54.980510421806066, -10.24662004015729], [-54.98051453207562, -10.246617897203345], [-54.98051898567584, -10.24661658888732], [-54.98052361162377, -10.246616166573967], [-54.980528230946476, -10.246616646325714], [-54.980532667626306, -10.24661800987469], [-54.980536750431675, -10.246620203730057], [-54.98054032292103, -10.246623144663712], [-54.98054324709316, -10.246626719732978], [-54.980545410659126, -10.246630790845298], [-54.98054673155934, -10.24663520201762], [-54.98054715793498, -10.24663978389582], [-54.98054667356902, -10.246644359211965], [-54.980545296905056, -10.246648753625182], [-54.98054308194838, -10.246652797535111], [-54.98054011272761, -10.246656335990549], [-54.9805365032718, -10.246659232304939], [-54.980532393001766, -10.246661375259082], [-54.980527939400886, -10.246662683575163], [-54.980523314364845, -10.246663105894136], [-54.980518694128925, -10.246662626136505], [-54.98051425744861, -10.246661262587253], [-54.98051017464298, -10.246659068731535], [-54.98050660215363, -10.246656127797518], [-54.980503677981766, -10.246652552727952], [-54.9805015144163, -10.246648481615448], [-54.980500193516725, -10.246644070443057], [-54.98049976713606, -10.246639489468805]]]}}, {"type": "Feature", "properties": {"layer": "PDF_IDENT_DAS_QUADRAS", "dxf_type": "CIRCLE", "radius_m": 2.6}, "geometry": {"type": "Polygon", "coordinates": [[[-54.98093178906457, -10.246282106187353], [-54.98093227342926, -10.2462775299655], [-54.98093365008561, -10.24627313554922], [-54.98093586503427, -10.246269091635067], [-54.98093883515947, -10.246265553180095], [-54.98094244369477, -10.246262656853945], [-54.980946553957395, -10.246260513893054], [-54.98095100755173, -10.246259205569782], [-54.98095563349499, -10.246258783249168], [-54.98096025281448, -10.246259262993915], [-54.98096468949262, -10.246260626536417], [-54.98096877229793, -10.246262820386093], [-54.98097234478883, -10.24626576131507], [-54.980975268964066, -10.246269336380802], [-54.980977433447144, -10.246273407496588], [-54.9809787534406, -10.246277818662435], [-54.98097917982308, -10.246282400541258], [-54.98097869546474, -10.24628697585943], [-54.980977319721454, -10.246291370281671], [-54.98097510386048, -10.246295414190502], [-54.98097213464785, -10.246298952651495], [-54.98096852519971, -10.246301848972273], [-54.980964414936594, -10.246303991933361], [-54.98095996134162, -10.246305300256704], [-54.98095533631023, -10.246305722582921], [-54.98095071607754, -10.24630524283231], [-54.98094627939889, -10.246303879289513], [-54.98094219659334, -10.246301685439487], [-54.98093862501501, -10.246298744515832], [-54.98093569992747, -10.246295169444135], [-54.98093353635746, -10.246291098333813], [-54.98093221545208, -10.246286687162234], [-54.98093178906457, -10.246282106187353]]]}}, {"type": "Feature", "properties": {"layer": "PDF_IDENT_DAS_QUADRAS", "dxf_type": "CIRCLE", "radius_m": 2.6}, "geometry": {"type": "Polygon", "coordinates": [[[-54.981338468433535, -10.245971924476132], [-54.98133895279117, -10.245967348252385], [-54.981340328527494, -10.245962953827293], [-54.981342544381185, -10.245958909914583], [-54.98134551358646, -10.245955371448726], [-54.981349122114885, -10.245952475116649], [-54.98135323237137, -10.245950332149285], [-54.98135768596053, -10.245949023819268], [-54.9813623118998, -10.24594860149187], [-54.98136693121662, -10.245949081230117], [-54.98137136789353, -10.245950444766597], [-54.98137545069907, -10.245952638610978], [-54.98137902319168, -10.245955579535568], [-54.981381947370025, -10.245959154598049], [-54.981384111857494, -10.245963225711774], [-54.981385431856445, -10.245967636876887], [-54.98138585824533, -10.245972218756298], [-54.98138537389406, -10.245976794076363], [-54.981383998158215, -10.245981188501736], [-54.98138178230479, -10.24598523241479], [-54.981378813099504, -10.245988770881], [-54.981375203658246, -10.245991667207724], [-54.981371093401265, -10.24599381017527], [-54.981366639811455, -10.245995118505357], [-54.98136201478406, -10.245995540838354], [-54.98135739455404, -10.245995061094243], [-54.98135295787664, -10.24599369755747], [-54.98134887507084, -10.24599150371276], [-54.981345303490805, -10.24598856279347], [-54.981342379312736, -10.245984987730692], [-54.98134021482576, -10.24598091661677], [-54.981338894827445, -10.245976505451596], [-54.981338468433535, -10.245971924476132]]]}}]}