{"type": "FeatureCollection", "name": "pdf_lago", "crs": {"type": "name", "properties": {"name": "urn:ogc:def:crs:OGC:1.3:CRS84"}}, "properties": {"source": "8be78050_MAPA TRIBUTAÇÃO 2021 (1).dxf", "assumed_crs": "EPSG:4326", "local_crs": false, "note": "Coordenadas locais do desenho (sem CRS). Use base 'Só CAD' no mapa.", "extent": [4300.4554, 2373.7696, 8215.3349, 6186.7838], "georef": true, "transform": {"scale": 1, "rotation_deg": 0, "tx": 713717.6034368816, "ty": 8862616.121289995, "rmse_m": 0, "epsg": 31981}, "layer": "PDF_LAGO", "source_file": "8be78050_MAPA TRIBUTAÇÃO 2021 (1)_georef.geojson", "n_features": 438}, "features": [{"type": "Feature", "properties": {"layer": "PDF_LAGO", "dxf_type": "LINE"}, "geometry": {"type": "LineString", "coordinates": [[-54.98357792601587, -10.249848605116634], [-54.9835883432303, -10.249833796729684]]}}, {"type": "Feature", "properties": {"layer": "PDF_LAGO", "dxf_type": "LINE"}, "geometry": {"type": "LineString", "coordinates": [[-54.9835883432303, -10.249833796729684], [-54.9836029594459, -10.24982273310638]]}}, {"type": "Feature", "properties": {"layer": "PDF_LAGO", "dxf_type": "LINE"}, "geometry": {"type": "LineString", "coordinates": [[-54.9836029594459, -10.24982273310638], [-54.9836208100741, -10.24981959067857]]}}, {"type": "Feature", "properties": {"layer": "PDF_LAGO", "dxf_type": "LINE"}, "geometry": {"type": "LineString", "coordinates": [[-54.9836208100741, -10.24981959067857], [-54.98363867337477, -10.24981458897384]]}}, {"type": "Feature", "properties": {"layer": "PDF_LAGO", "dxf_type": "LINE"}, "geometry": {"type": "LineString", "coordinates": [[-54.98363867337477, -10.24981458897384], [-54.983656515181124, -10.249812841231044]]}}, {"type": "Feature", "properties": {"layer": "PDF_LAGO", "dxf_type": "LINE"}, "geometry": {"type": "LineString", "coordinates": [[-54.983656515181124, -10.249812841231044], [-54.98367481815798, -10.249812489282782]]}}, {"type": "Feature", "properties": {"layer": "PDF_LAGO", "dxf_type": "LINE"}, "geometry": {"type": "LineString", "coordinates": [[-54.98367481815798, -10.249812489282782], [-54.9836931202167, -10.249812138231695]]}}, {"type": "Feature", "properties": {"layer": "PDF_LAGO", "dxf_type": "LINE"}, "geometry": {"type": "LineString", "coordinates": [[-54.9836931202167, -10.249812138231695], [-54.983711420249676, -10.249812251779664]]}}, {"type": "Feature", "properties": {"layer": "PDF_LAGO", "dxf_type": "LINE"}, "geometry": {"type": "LineString", "coordinates": [[-54.983711420249676, -10.249812251779664], [-54.983729719370274, -10.249812365320944]]}}, {"type": "Feature", "properties": {"layer": "PDF_LAGO", "dxf_type": "LINE"}, "geometry": {"type": "LineString", "coordinates": [[-54.983729719370274, -10.249812365320944], [-54.98374801940368, -10.249812478866858]]}}, {"type": "Feature", "properties": {"layer": "PDF_LAGO", "dxf_type": "LINE"}, "geometry": {"type": "LineString", "coordinates": [[-54.98374801940368, -10.249812478866858], [-54.983766318524715, -10.249812592406077]]}}, {"type": "Feature", "properties": {"layer": "PDF_LAGO", "dxf_type": "LINE"}, "geometry": {"type": "LineString", "coordinates": [[-54.983766318524715, -10.249812592406077], [-54.983784618558545, -10.249812705949934]]}}, {"type": "Feature", "properties": {"layer": "PDF_LAGO", "dxf_type": "LINE"}, "geometry": {"type": "LineString", "coordinates": [[-54.983784618558545, -10.249812705949934], [-54.98380291768001, -10.249812819487094]]}}, {"type": "Feature", "properties": {"layer": "PDF_LAGO", "dxf_type": "LINE"}, "geometry": {"type": "LineString", "coordinates": [[-54.98380291768001, -10.249812819487094], [-54.98382121771427, -10.249812933028894]]}}, {"type": "Feature", "properties": {"layer": "PDF_LAGO", "dxf_type": "LINE"}, "geometry": {"type": "LineString", "coordinates": [[-54.98382121771427, -10.249812933028894], [-54.98383854636774, -10.249818153090374]]}}, {"type": "Feature", "properties": {"layer": "PDF_LAGO", "dxf_type": "LINE"}, "geometry": {"type": "LineString", "coordinates": [[-54.98383854636774, -10.249818153090374], [-54.98385683961359, -10.249819195813515]]}}, {"type": "Feature", "properties": {"layer": "PDF_LAGO", "dxf_type": "LINE"}, "geometry": {"type": "LineString", "coordinates": [[-54.98385683961359, -10.249819195813515], [-54.98387416238613, -10.249825345966093]]}}, {"type": "Feature", "properties": {"layer": "PDF_LAGO", "dxf_type": "LINE"}, "geometry": {"type": "LineString", "coordinates": [[-54.98387416238613, -10.249825345966093], [-54.98388863842587, -10.249836590099854]]}}, {"type": "Feature", "properties": {"layer": "PDF_LAGO", "dxf_type": "LINE"}, "geometry": {"type": "LineString", "coordinates": [[-54.98388863842587, -10.249836590099854], [-54.98390358850415, -10.24984690704482]]}}, {"type": "Feature", "properties": {"layer": "PDF_LAGO", "dxf_type": "LINE"}, "geometry": {"type": "LineString", "coordinates": [[-54.98390358850415, -10.24984690704482], [-54.983918063633425, -10.249858151171978]]}}, {"type": "Feature", "properties": {"layer": "PDF_LAGO", "dxf_type": "LINE"}, "geometry": {"type": "LineString", "coordinates": [[-54.983918063633425, -10.249858151171978], [-54.98393301370809, -10.249868469019825]]}}, {"type": "Feature", "properties": {"layer": "PDF_LAGO", "dxf_type": "LINE"}, "geometry": {"type": "LineString", "coordinates": [[-54.98393301370809, -10.249868469019825], [-54.98394843964638, -10.249877859690097]]}}, {"type": "Feature", "properties": {"layer": "PDF_LAGO", "dxf_type": "LINE"}, "geometry": {"type": "LineString", "coordinates": [[-54.98394843964638, -10.249877859690097], [-54.983960078885495, -10.249892339414826]]}}, {"type": "Feature", "properties": {"layer": "PDF_LAGO", "dxf_type": "LINE"}, "geometry": {"type": "LineString", "coordinates": [[-54.983960078885495, -10.249892339414826], [-54.983976926720544, -10.24989941584193]]}}, {"type": "Feature", "properties": {"layer": "PDF_LAGO", "dxf_type": "LINE"}, "geometry": {"type": "LineString", "coordinates": [[-54.983976926720544, -10.24989941584193], [-54.98399046078088, -10.249911118741089]]}}, {"type": "Feature", "properties": {"layer": "PDF_LAGO", "dxf_type": "LINE"}, "geometry": {"type": "LineString", "coordinates": [[-54.98399046078088, -10.249911118741089], [-54.98400351989226, -10.249923748822686]]}}, {"type": "Feature", "properties": {"layer": "PDF_LAGO", "dxf_type": "LINE"}, "geometry": {"type": "LineString", "coordinates": [[-54.98400351989226, -10.249923748822686], [-54.98401657515976, -10.24993684258893]]}}, {"type": "Feature", "properties": {"layer": "PDF_LAGO", "dxf_type": "LINE"}, "geometry": {"type": "LineString", "coordinates": [[-54.98401657515976, -10.24993684258893], [-54.984029165205136, -10.249949469759825]]}}, {"type": "Feature", "properties": {"layer": "PDF_LAGO", "dxf_type": "LINE"}, "geometry": {"type": "LineString", "coordinates": [[-54.984029165205136, -10.249949469759825], [-54.98404411235006, -10.249960252198527]]}}, {"type": "Feature", "properties": {"layer": "PDF_LAGO", "dxf_type": "LINE"}, "geometry": {"type": "LineString", "coordinates": [[-54.98404411235006, -10.249960252198527], [-54.98406001030275, -10.249969181180411]]}}, {"type": "Feature", "properties": {"layer": "PDF_LAGO", "dxf_type": "LINE"}, "geometry": {"type": "LineString", "coordinates": [[-54.98406001030275, -10.249969181180411], [-54.9840674114157, -10.249985958577975]]}}, {"type": "Feature", "properties": {"layer": "PDF_LAGO", "dxf_type": "LINE"}, "geometry": {"type": "LineString", "coordinates": [[-54.9840674114157, -10.249985958577975], [-54.98407293625649, -10.250002724335555]]}}, {"type": "Feature", "properties": {"layer": "PDF_LAGO", "dxf_type": "LINE"}, "geometry": {"type": "LineString", "coordinates": [[-54.98407293625649, -10.250002724335555], [-54.98407422975699, -10.250020857681175]]}}, {"type": "Feature", "properties": {"layer": "PDF_LAGO", "dxf_type": "LINE"}, "geometry": {"type": "LineString", "coordinates": [[-54.98407422975699, -10.250020857681175], [-54.984074584202624, -10.250038986105023]]}}, {"type": "Feature", "properties": {"layer": "PDF_LAGO", "dxf_type": "LINE"}, "geometry": {"type": "LineString", "coordinates": [[-54.984074584202624, -10.250038986105023], [-54.98407446958553, -10.250057110714978]]}}, {"type": "Feature", "properties": {"layer": "PDF_LAGO", "dxf_type": "LINE"}, "geometry": {"type": "LineString", "coordinates": [[-54.98407446958553, -10.250057110714978], [-54.984074354962495, -10.250075236228797]]}}, {"type": "Feature", "properties": {"layer": "PDF_LAGO", "dxf_type": "LINE"}, "geometry": {"type": "LineString", "coordinates": [[-54.984074354962495, -10.250075236228797], [-54.984074240344974, -10.250093360838695]]}}, {"type": "Feature", "properties": {"layer": "PDF_LAGO", "dxf_type": "LINE"}, "geometry": {"type": "LineString", "coordinates": [[-54.984074240344974, -10.250093360838695], [-54.98407412572152, -10.250111486352466]]}}, {"type": "Feature", "properties": {"layer": "PDF_LAGO", "dxf_type": "LINE"}, "geometry": {"type": "LineString", "coordinates": [[-54.98407412572152, -10.250111486352466], [-54.984074011103566, -10.250129610962334]]}}, {"type": "Feature", "properties": {"layer": "PDF_LAGO", "dxf_type": "LINE"}, "geometry": {"type": "LineString", "coordinates": [[-54.984074011103566, -10.250129610962334], [-54.98407389647968, -10.250147736476066]]}}, {"type": "Feature", "properties": {"layer": "PDF_LAGO", "dxf_type": "LINE"}, "geometry": {"type": "LineString", "coordinates": [[-54.98407389647968, -10.250147736476066], [-54.984073781861305, -10.250165861085877]]}}, {"type": "Feature", "properties": {"layer": "PDF_LAGO", "dxf_type": "LINE"}, "geometry": {"type": "LineString", "coordinates": [[-54.984073781861305, -10.250165861085877], [-54.9840699167147, -10.250183498719045]]}}, {"type": "Feature", "properties": {"layer": "PDF_LAGO", "dxf_type": "LINE"}, "geometry": {"type": "LineString", "coordinates": [[-54.9840699167147, -10.250183498719045], [-54.98406464345514, -10.250201126712359]]}}, {"type": "Feature", "properties": {"layer": "PDF_LAGO", "dxf_type": "LINE"}, "geometry": {"type": "LineString", "coordinates": [[-54.98406464345514, -10.250201126712359], [-54.98406124738148, -10.250218766351393]]}}, {"type": "Feature", "properties": {"layer": "PDF_LAGO", "dxf_type": "LINE"}, "geometry": {"type": "LineString", "coordinates": [[-54.98406124738148, -10.250218766351393], [-54.984055507990064, -10.25023592683973]]}}, {"type": "Feature", "properties": {"layer": "PDF_LAGO", "dxf_type": "LINE"}, "geometry": {"type": "LineString", "coordinates": [[-54.984055507990064, -10.25023592683973], [-54.984049299523576, -10.250253085321614]]}}, {"type": "Feature", "properties": {"layer": "PDF_LAGO", "dxf_type": "LINE"}, "geometry": {"type": "LineString", "coordinates": [[-54.984049299523576, -10.250253085321614], [-54.98403795005502, -10.25026695781135]]}}, {"type": "Feature", "properties": {"layer": "PDF_LAGO", "dxf_type": "LINE"}, "geometry": {"type": "LineString", "coordinates": [[-54.98403795005502, -10.25026695781135], [-54.98402472928048, -10.250279888561382]]}}, {"type": "Feature", "properties": {"layer": "PDF_LAGO", "dxf_type": "LINE"}, "geometry": {"type": "LineString", "coordinates": [[-54.98402472928048, -10.250279888561382], [-54.98401431206499, -10.25029469696304]]}}, {"type": "Feature", "properties": {"layer": "PDF_LAGO", "dxf_type": "LINE"}, "geometry": {"type": "LineString", "coordinates": [[-54.98401431206499, -10.25029469696304], [-54.98400529709628, -10.250310442385492]]}}, {"type": "Feature", "properties": {"layer": "PDF_LAGO", "dxf_type": "LINE"}, "geometry": {"type": "LineString", "coordinates": [[-54.98400529709628, -10.250310442385492], [-54.983995349859974, -10.250325253701991]]}}, {"type": "Feature", "properties": {"layer": "PDF_LAGO", "dxf_type": "LINE"}, "geometry": {"type": "LineString", "coordinates": [[-54.983995349859974, -10.250325253701991], [-54.98398306133631, -10.250339120362757]]}}, {"type": "Feature", "properties": {"layer": "PDF_LAGO", "dxf_type": "LINE"}, "geometry": {"type": "LineString", "coordinates": [[-54.98398306133631, -10.250339120362757], [-54.983968448047385, -10.25034971850247]]}}, {"type": "Feature", "properties": {"layer": "PDF_LAGO", "dxf_type": "LINE"}, "geometry": {"type": "LineString", "coordinates": [[-54.983968448047385, -10.25034971850247], [-54.983954761130356, -10.250362182647551]]}}, {"type": "Feature", "properties": {"layer": "PDF_LAGO", "dxf_type": "LINE"}, "geometry": {"type": "LineString", "coordinates": [[-54.983954761130356, -10.250362182647551], [-54.983943411653506, -10.25037605513235]]}}, {"type": "Feature", "properties": {"layer": "PDF_LAGO", "dxf_type": "LINE"}, "geometry": {"type": "LineString", "coordinates": [[-54.983943411653506, -10.25037605513235], [-54.98392926154802, -10.250387586272826]]}}, {"type": "Feature", "properties": {"layer": "PDF_LAGO", "dxf_type": "LINE"}, "geometry": {"type": "LineString", "coordinates": [[-54.98392926154802, -10.250387586272826], [-54.983915577571935, -10.25039958491727]]}}, {"type": "Feature", "properties": {"layer": "PDF_LAGO", "dxf_type": "LINE"}, "geometry": {"type": "LineString", "coordinates": [[-54.983915577571935, -10.25039958491727], [-54.98390236063209, -10.25041205197529]]}}, {"type": "Feature", "properties": {"layer": "PDF_LAGO", "dxf_type": "LINE"}, "geometry": {"type": "LineString", "coordinates": [[-54.98390236063209, -10.25041205197529], [-54.98388960890901, -10.250424986531753]]}}, {"type": "Feature", "properties": {"layer": "PDF_LAGO", "dxf_type": "LINE"}, "geometry": {"type": "LineString", "coordinates": [[-54.98388960890901, -10.250424986531753], [-54.98387406041415, -10.250435114250605]]}}, {"type": "Feature", "properties": {"layer": "PDF_LAGO", "dxf_type": "LINE"}, "geometry": {"type": "LineString", "coordinates": [[-54.98387406041415, -10.250435114250605], [-54.98386037642833, -10.25044711379578]]}}, {"type": "Feature", "properties": {"layer": "PDF_LAGO", "dxf_type": "LINE"}, "geometry": {"type": "LineString", "coordinates": [[-54.98386037642833, -10.25044711379578], [-54.98384762764637, -10.250459582851636]]}}, {"type": "Feature", "properties": {"layer": "PDF_LAGO", "dxf_type": "LINE"}, "geometry": {"type": "LineString", "coordinates": [[-54.98384762764637, -10.250459582851636], [-54.98383440776296, -10.25047251450032]]}}, {"type": "Feature", "properties": {"layer": "PDF_LAGO", "dxf_type": "LINE"}, "geometry": {"type": "LineString", "coordinates": [[-54.98383440776296, -10.25047251450032], [-54.98381747465905, -10.250478915819143]]}}, {"type": "Feature", "properties": {"layer": "PDF_LAGO", "dxf_type": "LINE"}, "geometry": {"type": "LineString", "coordinates": [[-54.98381747465905, -10.250478915819143], [-54.98380565316461, -10.250493249981064]]}}, {"type": "Feature", "properties": {"layer": "PDF_LAGO", "dxf_type": "LINE"}, "geometry": {"type": "LineString", "coordinates": [[-54.98380565316461, -10.250493249981064], [-54.98379104188353, -10.250503384414005]]}}, {"type": "Feature", "properties": {"layer": "PDF_LAGO", "dxf_type": "LINE"}, "geometry": {"type": "LineString", "coordinates": [[-54.98379104188353, -10.250503384414005], [-54.98377735587154, -10.250515847650691]]}}, {"type": "Feature", "properties": {"layer": "PDF_LAGO", "dxf_type": "LINE"}, "geometry": {"type": "LineString", "coordinates": [[-54.98377735587154, -10.250515847650691], [-54.98376460707797, -10.250528317605974]]}}, {"type": "Feature", "properties": {"layer": "PDF_LAGO", "dxf_type": "LINE"}, "geometry": {"type": "LineString", "coordinates": [[-54.98376460707797, -10.250528317605974], [-54.983749524699164, -10.250538913725954]]}}, {"type": "Feature", "properties": {"layer": "PDF_LAGO", "dxf_type": "LINE"}, "geometry": {"type": "LineString", "coordinates": [[-54.983749524699164, -10.250538913725954], [-54.98373864133724, -10.250553253705597]]}}, {"type": "Feature", "properties": {"layer": "PDF_LAGO", "dxf_type": "LINE"}, "geometry": {"type": "LineString", "coordinates": [[-54.98373864133724, -10.250553253705597], [-54.98372170528907, -10.250560119612627]]}}, {"type": "Feature", "properties": {"layer": "PDF_LAGO", "dxf_type": "LINE"}, "geometry": {"type": "LineString", "coordinates": [[-54.98372170528907, -10.250560119612627], [-54.98370802129247, -10.250572119149194]]}}, {"type": "Feature", "properties": {"layer": "PDF_LAGO", "dxf_type": "LINE"}, "geometry": {"type": "LineString", "coordinates": [[-54.98370802129247, -10.250572119149194], [-54.98369294185439, -10.250582249767474]]}}, {"type": "Feature", "properties": {"layer": "PDF_LAGO", "dxf_type": "LINE"}, "geometry": {"type": "LineString", "coordinates": [[-54.98369294185439, -10.250582249767474], [-54.98367925785583, -10.250594249302408]]}}, {"type": "Feature", "properties": {"layer": "PDF_LAGO", "dxf_type": "LINE"}, "geometry": {"type": "LineString", "coordinates": [[-54.98367925785583, -10.250594249302408], [-54.98366603999218, -10.250606715437828]]}}, {"type": "Feature", "properties": {"layer": "PDF_LAGO", "dxf_type": "LINE"}, "geometry": {"type": "LineString", "coordinates": [[-54.98366603999218, -10.250606715437828], [-54.98364910099559, -10.250614046838496]]}}, {"type": "Feature", "properties": {"layer": "PDF_LAGO", "dxf_type": "LINE"}, "geometry": {"type": "LineString", "coordinates": [[-54.98364910099559, -10.250614046838496], [-54.9836372824274, -10.250627916397367]]}}, {"type": "Feature", "properties": {"layer": "PDF_LAGO", "dxf_type": "LINE"}, "geometry": {"type": "LineString", "coordinates": [[-54.9836372824274, -10.250627916397367], [-54.98362034931265, -10.250634317703536]]}}, {"type": "Feature", "properties": {"layer": "PDF_LAGO", "dxf_type": "LINE"}, "geometry": {"type": "LineString", "coordinates": [[-54.98362034931265, -10.250634317703536], [-54.98360666530934, -10.250646317234427]]}}, {"type": "Feature", "properties": {"layer": "PDF_LAGO", "dxf_type": "LINE"}, "geometry": {"type": "LineString", "coordinates": [[-54.98360666530934, -10.250646317234427], [-54.98359158586497, -10.25065644784669]]}}, {"type": "Feature", "properties": {"layer": "PDF_LAGO", "dxf_type": "LINE"}, "geometry": {"type": "LineString", "coordinates": [[-54.98359158586497, -10.25065644784669], [-54.98357790185969, -10.250668447375967]]}}, {"type": "Feature", "properties": {"layer": "PDF_LAGO", "dxf_type": "LINE"}, "geometry": {"type": "LineString", "coordinates": [[-54.98357790185969, -10.250668447375967], [-54.98356282241348, -10.250678577986507]]}}, {"type": "Feature", "properties": {"layer": "PDF_LAGO", "dxf_type": "LINE"}, "geometry": {"type": "LineString", "coordinates": [[-54.98356282241348, -10.250678577986507], [-54.983551469969306, -10.250692915046312]]}}, {"type": "Feature", "properties": {"layer": "PDF_LAGO", "dxf_type": "LINE"}, "geometry": {"type": "LineString", "coordinates": [[-54.983551469969306, -10.250692915046312], [-54.98353685664555, -10.250703514064426]]}}, {"type": "Feature", "properties": {"layer": "PDF_LAGO", "dxf_type": "LINE"}, "geometry": {"type": "LineString", "coordinates": [[-54.98353685664555, -10.250703514064426], [-54.9835227035672, -10.2507155106796]]}}, {"type": "Feature", "properties": {"layer": "PDF_LAGO", "dxf_type": "LINE"}, "geometry": {"type": "LineString", "coordinates": [[-54.9835227035672, -10.2507155106796], [-54.98350762320463, -10.250725641281127]]}}, {"type": "Feature", "properties": {"layer": "PDF_LAGO", "dxf_type": "LINE"}, "geometry": {"type": "LineString", "coordinates": [[-54.98350762320463, -10.250725641281127], [-54.98348931227213, -10.250727386998582]]}}, {"type": "Feature", "properties": {"layer": "PDF_LAGO", "dxf_type": "LINE"}, "geometry": {"type": "LineString", "coordinates": [[-54.98348931227213, -10.250727386998582], [-54.98347100925005, -10.250727738022423]]}}, {"type": "Feature", "properties": {"layer": "PDF_LAGO", "dxf_type": "LINE"}, "geometry": {"type": "LineString", "coordinates": [[-54.98347100925005, -10.250727738022423], [-54.98345319972853, -10.250724374303445]]}}, {"type": "Feature", "properties": {"layer": "PDF_LAGO", "dxf_type": "LINE"}, "geometry": {"type": "LineString", "coordinates": [[-54.98345319972853, -10.250724374303445], [-54.9834349143476, -10.25072193685542]]}}, {"type": "Feature", "properties": {"layer": "PDF_LAGO", "dxf_type": "LINE"}, "geometry": {"type": "LineString", "coordinates": [[-54.9834349143476, -10.25072193685542], [-54.983419492244906, -10.250712081567658]]}}, {"type": "Feature", "properties": {"layer": "PDF_LAGO", "dxf_type": "LINE"}, "geometry": {"type": "LineString", "coordinates": [[-54.983419492244906, -10.250712081567658], [-54.983401676846924, -10.250709647034736]]}}, {"type": "Feature", "properties": {"layer": "PDF_LAGO", "dxf_type": "LINE"}, "geometry": {"type": "LineString", "coordinates": [[-54.983401676846924, -10.250709647034736], [-54.98338337970518, -10.250709068865184]]}}, {"type": "Feature", "properties": {"layer": "PDF_LAGO", "dxf_type": "LINE"}, "geometry": {"type": "LineString", "coordinates": [[-54.98338337970518, -10.250709068865184], [-54.98336508053704, -10.250708955294586]]}}, {"type": "Feature", "properties": {"layer": "PDF_LAGO", "dxf_type": "LINE"}, "geometry": {"type": "LineString", "coordinates": [[-54.98336508053704, -10.250708955294586], [-54.983346783401515, -10.250708376219116]]}}, {"type": "Feature", "properties": {"layer": "PDF_LAGO", "dxf_type": "LINE"}, "geometry": {"type": "LineString", "coordinates": [[-54.983346783401515, -10.250708376219116], [-54.98332848423383, -10.250708262646468]]}}, {"type": "Feature", "properties": {"layer": "PDF_LAGO", "dxf_type": "LINE"}, "geometry": {"type": "LineString", "coordinates": [[-54.98332848423383, -10.250708262646468], [-54.983310184153765, -10.250708149067124]]}}, {"type": "Feature", "properties": {"layer": "PDF_LAGO", "dxf_type": "LINE"}, "geometry": {"type": "LineString", "coordinates": [[-54.983310184153765, -10.250708149067124], [-54.9832923275899, -10.250712221560066]]}}, {"type": "Feature", "properties": {"layer": "PDF_LAGO", "dxf_type": "LINE"}, "geometry": {"type": "LineString", "coordinates": [[-54.9832923275899, -10.250712221560066], [-54.98327492539788, -10.250718619934698]]}}, {"type": "Feature", "properties": {"layer": "PDF_LAGO", "dxf_type": "LINE"}, "geometry": {"type": "LineString", "coordinates": [[-54.98327492539788, -10.250718619934698], [-54.98325799521375, -10.250724556625332]]}}, {"type": "Feature", "properties": {"layer": "PDF_LAGO", "dxf_type": "LINE"}, "geometry": {"type": "LineString", "coordinates": [[-54.98325799521375, -10.250724556625332], [-54.98324059798695, -10.25073002580365]]}}, {"type": "Feature", "properties": {"layer": "PDF_LAGO", "dxf_type": "LINE"}, "geometry": {"type": "LineString", "coordinates": [[-54.98324059798695, -10.25073002580365], [-54.98322365897778, -10.250737357178933]]}}, {"type": "Feature", "properties": {"layer": "PDF_LAGO", "dxf_type": "LINE"}, "geometry": {"type": "LineString", "coordinates": [[-54.98322365897778, -10.250737357178933], [-54.983206259723104, -10.250743290955086]]}}, {"type": "Feature", "properties": {"layer": "PDF_LAGO", "dxf_type": "LINE"}, "geometry": {"type": "LineString", "coordinates": [[-54.983206259723104, -10.250743290955086], [-54.98318978978177, -10.25075062523976]]}}, {"type": "Feature", "properties": {"layer": "PDF_LAGO", "dxf_type": "LINE"}, "geometry": {"type": "LineString", "coordinates": [[-54.98318978978177, -10.25075062523976], [-54.98317239346559, -10.250756094419582]]}}, {"type": "Feature", "properties": {"layer": "PDF_LAGO", "dxf_type": "LINE"}, "geometry": {"type": "LineString", "coordinates": [[-54.98317239346559, -10.250756094419582], [-54.98315684787596, -10.250765757502217]]}}, {"type": "Feature", "properties": {"layer": "PDF_LAGO", "dxf_type": "LINE"}, "geometry": {"type": "LineString", "coordinates": [[-54.98315684787596, -10.250765757502217], [-54.98314036910821, -10.250774486470542]]}}, {"type": "Feature", "properties": {"layer": "PDF_LAGO", "dxf_type": "LINE"}, "geometry": {"type": "LineString", "coordinates": [[-54.98314036910821, -10.250774486470542], [-54.9831271541585, -10.2507864879842]]}}, {"type": "Feature", "properties": {"layer": "PDF_LAGO", "dxf_type": "LINE"}, "geometry": {"type": "LineString", "coordinates": [[-54.9831271541585, -10.2507864879842], [-54.98311393718076, -10.250798954097025]]}}, {"type": "Feature", "properties": {"layer": "PDF_LAGO", "dxf_type": "LINE"}, "geometry": {"type": "LineString", "coordinates": [[-54.98311393718076, -10.250798954097025], [-54.983100716344026, -10.250811885701548]]}}, {"type": "Feature", "properties": {"layer": "PDF_LAGO", "dxf_type": "LINE"}, "geometry": {"type": "LineString", "coordinates": [[-54.983100716344026, -10.250811885701548], [-54.983090299074846, -10.250826693157713]]}}, {"type": "Feature", "properties": {"layer": "PDF_LAGO", "dxf_type": "LINE"}, "geometry": {"type": "LineString", "coordinates": [[-54.983090299074846, -10.250826693157713], [-54.98307521960334, -10.250836824645006]]}}, {"type": "Feature", "properties": {"layer": "PDF_LAGO", "dxf_type": "LINE"}, "geometry": {"type": "LineString", "coordinates": [[-54.98307521960334, -10.250836824645006], [-54.983068542006244, -10.25085397927969]]}}, {"type": "Feature", "properties": {"layer": "PDF_LAGO", "dxf_type": "LINE"}, "geometry": {"type": "LineString", "coordinates": [[-54.983068542006244, -10.25085397927969], [-54.98305905992693, -10.25086925805574]]}}, {"type": "Feature", "properties": {"layer": "PDF_LAGO", "dxf_type": "LINE"}, "geometry": {"type": "LineString", "coordinates": [[-54.98305905992693, -10.25086925805574], [-54.98304677519615, -10.250882660080288]]}}, {"type": "Feature", "properties": {"layer": "PDF_LAGO", "dxf_type": "LINE"}, "geometry": {"type": "LineString", "coordinates": [[-54.98304677519615, -10.250882660080288], [-54.9830372940331, -10.250897937957104]]}}, {"type": "Feature", "properties": {"layer": "PDF_LAGO", "dxf_type": "LINE"}, "geometry": {"type": "LineString", "coordinates": [[-54.9830372940331, -10.250897937957104], [-54.9830245393184, -10.250911337063016]]}}, {"type": "Feature", "properties": {"layer": "PDF_LAGO", "dxf_type": "LINE"}, "geometry": {"type": "LineString", "coordinates": [[-54.9830245393184, -10.250911337063016], [-54.98301739558699, -10.250928024189792]]}}, {"type": "Feature", "properties": {"layer": "PDF_LAGO", "dxf_type": "LINE"}, "geometry": {"type": "LineString", "coordinates": [[-54.98301739558699, -10.250928024189792], [-54.98301306333056, -10.250945193381158]]}}, {"type": "Feature", "properties": {"layer": "PDF_LAGO", "dxf_type": "LINE"}, "geometry": {"type": "LineString", "coordinates": [[-54.98301306333056, -10.250945193381158], [-54.98300311308861, -10.25096046924833]]}}, {"type": "Feature", "properties": {"layer": "PDF_LAGO", "dxf_type": "LINE"}, "geometry": {"type": "LineString", "coordinates": [[-54.98300311308861, -10.25096046924833], [-54.98299830882148, -10.250978100121626]]}}, {"type": "Feature", "properties": {"layer": "PDF_LAGO", "dxf_type": "LINE"}, "geometry": {"type": "LineString", "coordinates": [[-54.98299830882148, -10.250978100121626], [-54.98299022897521, -10.250994316823697]]}}, {"type": "Feature", "properties": {"layer": "PDF_LAGO", "dxf_type": "LINE"}, "geometry": {"type": "LineString", "coordinates": [[-54.98299022897521, -10.250994316823697], [-54.98298636375787, -10.25101195352588]]}}, {"type": "Feature", "properties": {"layer": "PDF_LAGO", "dxf_type": "LINE"}, "geometry": {"type": "LineString", "coordinates": [[-54.98298636375787, -10.25101195352588], [-54.98297921910874, -10.251028640645242]]}}, {"type": "Feature", "properties": {"layer": "PDF_LAGO", "dxf_type": "LINE"}, "geometry": {"type": "LineString", "coordinates": [[-54.98297921910874, -10.251028640645242], [-54.98297301057025, -10.251045798187878]]}}, {"type": "Feature", "properties": {"layer": "PDF_LAGO", "dxf_type": "LINE"}, "geometry": {"type": "LineString", "coordinates": [[-54.98297301057025, -10.251045798187878], [-54.98296867627565, -10.251063432881502]]}}, {"type": "Feature", "properties": {"layer": "PDF_LAGO", "dxf_type": "LINE"}, "geometry": {"type": "LineString", "coordinates": [[-54.98296867627565, -10.251063432881502], [-54.98296153162399, -10.251080120000028]]}}, {"type": "Feature", "properties": {"layer": "PDF_LAGO", "dxf_type": "LINE"}, "geometry": {"type": "LineString", "coordinates": [[-54.98296153162399, -10.251080120000028], [-54.98295579215256, -10.251097280453807]]}}, {"type": "Feature", "properties": {"layer": "PDF_LAGO", "dxf_type": "LINE"}, "geometry": {"type": "LineString", "coordinates": [[-54.98295579215256, -10.251097280453807], [-54.98294817842967, -10.251113964659837]]}}, {"type": "Feature", "properties": {"layer": "PDF_LAGO", "dxf_type": "LINE"}, "geometry": {"type": "LineString", "coordinates": [[-54.98294817842967, -10.251113964659837], [-54.98294009948889, -10.251130181365047]]}}, {"type": "Feature", "properties": {"layer": "PDF_LAGO", "dxf_type": "LINE"}, "geometry": {"type": "LineString", "coordinates": [[-54.98294009948889, -10.251130181365047], [-54.98293529521406, -10.25114781223609]]}}, {"type": "Feature", "properties": {"layer": "PDF_LAGO", "dxf_type": "LINE"}, "geometry": {"type": "LineString", "coordinates": [[-54.98293529521406, -10.25114781223609], [-54.98292862054023, -10.251164502270735]]}}, {"type": "Feature", "properties": {"layer": "PDF_LAGO", "dxf_type": "LINE"}, "geometry": {"type": "LineString", "coordinates": [[-54.98292862054023, -10.251164502270735], [-54.98292381920394, -10.25118166854718]]}}, {"type": "Feature", "properties": {"layer": "PDF_LAGO", "dxf_type": "LINE"}, "geometry": {"type": "LineString", "coordinates": [[-54.98292381920394, -10.25118166854718], [-54.98291480120781, -10.251197879421506]]}}, {"type": "Feature", "properties": {"layer": "PDF_LAGO", "dxf_type": "LINE"}, "geometry": {"type": "LineString", "coordinates": [[-54.98291480120781, -10.251197879421506], [-54.9829020494145, -10.251210813924937]]}}, {"type": "Feature", "properties": {"layer": "PDF_LAGO", "dxf_type": "LINE"}, "geometry": {"type": "LineString", "coordinates": [[-54.9829020494145, -10.251210813924937], [-54.98288696992387, -10.251220944494774]]}}, {"type": "Feature", "properties": {"layer": "PDF_LAGO", "dxf_type": "LINE"}, "geometry": {"type": "LineString", "coordinates": [[-54.98288696992387, -10.251220944494774], [-54.982873285869424, -10.251232943984267]]}}, {"type": "Feature", "properties": {"layer": "PDF_LAGO", "dxf_type": "LINE"}, "geometry": {"type": "LineString", "coordinates": [[-54.982873285869424, -10.251232943984267], [-54.98285820637695, -10.25124307455236]]}}, {"type": "Feature", "properties": {"layer": "PDF_LAGO", "dxf_type": "LINE"}, "geometry": {"type": "LineString", "coordinates": [[-54.98285820637695, -10.25124307455236], [-54.982844522320555, -10.251255074040257]]}}, {"type": "Feature", "properties": {"layer": "PDF_LAGO", "dxf_type": "LINE"}, "geometry": {"type": "LineString", "coordinates": [[-54.982844522320555, -10.251255074040257], [-54.982828975784145, -10.251264737094683]]}}, {"type": "Feature", "properties": {"layer": "PDF_LAGO", "dxf_type": "LINE"}, "geometry": {"type": "LineString", "coordinates": [[-54.982828975784145, -10.251264737094683], [-54.982812042625, -10.251271138348901]]}}, {"type": "Feature", "properties": {"layer": "PDF_LAGO", "dxf_type": "LINE"}, "geometry": {"type": "LineString", "coordinates": [[-54.982812042625, -10.251271138348901], [-54.98279373460461, -10.25127241942623]]}}, {"type": "Feature", "properties": {"layer": "PDF_LAGO", "dxf_type": "LINE"}, "geometry": {"type": "LineString", "coordinates": [[-54.98279373460461, -10.25127241942623], [-54.98277633237497, -10.251278817766181]]}}, {"type": "Feature", "properties": {"layer": "PDF_LAGO", "dxf_type": "LINE"}, "geometry": {"type": "LineString", "coordinates": [[-54.98277633237497, -10.251278817766181], [-54.982759405095095, -10.25128428982907]]}}, {"type": "Feature", "properties": {"layer": "PDF_LAGO", "dxf_type": "LINE"}, "geometry": {"type": "LineString", "coordinates": [[-54.982759405095095, -10.25128428982907], [-54.98274109910204, -10.251285106303465]]}}, {"type": "Feature", "properties": {"layer": "PDF_LAGO", "dxf_type": "LINE"}, "geometry": {"type": "LineString", "coordinates": [[-54.98274109910204, -10.251285106303465], [-54.98272416006016, -10.251292436740766]]}}, {"type": "Feature", "properties": {"layer": "PDF_LAGO", "dxf_type": "LINE"}, "geometry": {"type": "LineString", "coordinates": [[-54.98272416006016, -10.251292436740766], [-54.982707690081625, -10.251299770993215]]}}, {"type": "Feature", "properties": {"layer": "PDF_LAGO", "dxf_type": "LINE"}, "geometry": {"type": "LineString", "coordinates": [[-54.982707690081625, -10.251299770993215], [-54.98269167538275, -10.251309431133194]]}}, {"type": "Feature", "properties": {"layer": "PDF_LAGO", "dxf_type": "LINE"}, "geometry": {"type": "LineString", "coordinates": [[-54.98269167538275, -10.251309431133194], [-54.98267566859171, -10.25131769748424]]}}, {"type": "Feature", "properties": {"layer": "PDF_LAGO", "dxf_type": "LINE"}, "geometry": {"type": "LineString", "coordinates": [[-54.98267566859171, -10.25131769748424], [-54.98266151839689, -10.251329229455962]]}}, {"type": "Feature", "properties": {"layer": "PDF_LAGO", "dxf_type": "LINE"}, "geometry": {"type": "LineString", "coordinates": [[-54.98266151839689, -10.251329229455962], [-54.982648300465364, -10.251341695535999]]}}, {"type": "Feature", "properties": {"layer": "PDF_LAGO", "dxf_type": "LINE"}, "geometry": {"type": "LineString", "coordinates": [[-54.982648300465364, -10.251341695535999], [-54.98263321801572, -10.251352291589205]]}}, {"type": "Feature", "properties": {"layer": "PDF_LAGO", "dxf_type": "LINE"}, "geometry": {"type": "LineString", "coordinates": [[-54.98263321801572, -10.251352291589205], [-54.982619067823656, -10.25136382265459]]}}, {"type": "Feature", "properties": {"layer": "PDF_LAGO", "dxf_type": "LINE"}, "geometry": {"type": "LineString", "coordinates": [[-54.982619067823656, -10.25136382265459], [-54.98260631986577, -10.251376292554317]]}}, {"type": "Feature", "properties": {"layer": "PDF_LAGO", "dxf_type": "LINE"}, "geometry": {"type": "LineString", "coordinates": [[-54.98260631986577, -10.251376292554317], [-54.982593098989646, -10.251389223225358]]}}, {"type": "Feature", "properties": {"layer": "PDF_LAGO", "dxf_type": "LINE"}, "geometry": {"type": "LineString", "coordinates": [[-54.982593098989646, -10.251389223225358], [-54.982579881047315, -10.251401690205457]]}}, {"type": "Feature", "properties": {"layer": "PDF_LAGO", "dxf_type": "LINE"}, "geometry": {"type": "LineString", "coordinates": [[-54.982579881047315, -10.251401690205457], [-54.982567130151494, -10.251414623793217]]}}, {"type": "Feature", "properties": {"layer": "PDF_LAGO", "dxf_type": "LINE"}, "geometry": {"type": "LineString", "coordinates": [[-54.982567130151494, -10.251414623793217], [-54.982552516765814, -10.251425222754017]]}}, {"type": "Feature", "properties": {"layer": "PDF_LAGO", "dxf_type": "LINE"}, "geometry": {"type": "LineString", "coordinates": [[-54.982552516765814, -10.251425222754017], [-54.98253836656776, -10.25143675381466]]}}, {"type": "Feature", "properties": {"layer": "PDF_LAGO", "dxf_type": "LINE"}, "geometry": {"type": "LineString", "coordinates": [[-54.98253836656776, -10.25143675381466], [-54.98253075281335, -10.251453438004834]]}}, {"type": "Feature", "properties": {"layer": "PDF_LAGO", "dxf_type": "LINE"}, "geometry": {"type": "LineString", "coordinates": [[-54.98253075281335, -10.251453438004834], [-54.98251613648404, -10.251464501557427]]}}, {"type": "Feature", "properties": {"layer": "PDF_LAGO", "dxf_type": "LINE"}, "geometry": {"type": "LineString", "coordinates": [[-54.98251613648404, -10.251464501557427], [-54.98250571915836, -10.251479309888914]]}}, {"type": "Feature", "properties": {"layer": "PDF_LAGO", "dxf_type": "LINE"}, "geometry": {"type": "LineString", "coordinates": [[-54.98250571915836, -10.251479309888914], [-54.98249717314824, -10.251495058160447]]}}, {"type": "Feature", "properties": {"layer": "PDF_LAGO", "dxf_type": "LINE"}, "geometry": {"type": "LineString", "coordinates": [[-54.98249717314824, -10.251495058160447], [-54.98249236883501, -10.25151268992271]]}}, {"type": "Feature", "properties": {"layer": "PDF_LAGO", "dxf_type": "LINE"}, "geometry": {"type": "LineString", "coordinates": [[-54.98249236883501, -10.25151268992271], [-54.982483353753096, -10.251528435280854]]}}, {"type": "Feature", "properties": {"layer": "PDF_LAGO", "dxf_type": "LINE"}, "geometry": {"type": "LineString", "coordinates": [[-54.982483353753096, -10.251528435280854], [-54.98247293733602, -10.251543243616208]]}}, {"type": "Feature", "properties": {"layer": "PDF_LAGO", "dxf_type": "LINE"}, "geometry": {"type": "LineString", "coordinates": [[-54.98247293733602, -10.251543243616208], [-54.98246438837558, -10.251559457384085]]}}, {"type": "Feature", "properties": {"layer": "PDF_LAGO", "dxf_type": "LINE"}, "geometry": {"type": "LineString", "coordinates": [[-54.98246438837558, -10.251559457384085], [-54.982455842360714, -10.251575205653674]]}}, {"type": "Feature", "properties": {"layer": "PDF_LAGO", "dxf_type": "LINE"}, "geometry": {"type": "LineString", "coordinates": [[-54.982455842360714, -10.251575205653674], [-54.98244776246839, -10.251591422333526]]}}, {"type": "Feature", "properties": {"layer": "PDF_LAGO", "dxf_type": "LINE"}, "geometry": {"type": "LineString", "coordinates": [[-54.98244776246839, -10.251591422333526], [-54.98243781126389, -10.251606698168109]]}}, {"type": "Feature", "properties": {"layer": "PDF_LAGO", "dxf_type": "LINE"}, "geometry": {"type": "LineString", "coordinates": [[-54.98243781126389, -10.251606698168109], [-54.982430667481566, -10.251623385272461]]}}, {"type": "Feature", "properties": {"layer": "PDF_LAGO", "dxf_type": "LINE"}, "geometry": {"type": "LineString", "coordinates": [[-54.982430667481566, -10.251623385272461], [-54.98242024721065, -10.251638657289453]]}}, {"type": "Feature", "properties": {"layer": "PDF_LAGO", "dxf_type": "LINE"}, "geometry": {"type": "LineString", "coordinates": [[-54.98242024721065, -10.251638657289453], [-54.9824074992334, -10.251651127177592]]}}, {"type": "Feature", "properties": {"layer": "PDF_LAGO", "dxf_type": "LINE"}, "geometry": {"type": "LineString", "coordinates": [[-54.9824074992334, -10.251651127177592], [-54.98239707896035, -10.251666399193411]]}}, {"type": "Feature", "properties": {"layer": "PDF_LAGO", "dxf_type": "LINE"}, "geometry": {"type": "LineString", "coordinates": [[-54.98239707896035, -10.251666399193411], [-54.982387130691635, -10.251681210431482]]}}, {"type": "Feature", "properties": {"layer": "PDF_LAGO", "dxf_type": "LINE"}, "geometry": {"type": "LineString", "coordinates": [[-54.982387130691635, -10.251681210431482], [-54.98237251434661, -10.251692273974518]]}}, {"type": "Feature", "properties": {"layer": "PDF_LAGO", "dxf_type": "LINE"}, "geometry": {"type": "LineString", "coordinates": [[-54.98237251434661, -10.251692273974518], [-54.98235929730082, -10.25170474004316]]}}, {"type": "Feature", "properties": {"layer": "PDF_LAGO", "dxf_type": "LINE"}, "geometry": {"type": "LineString", "coordinates": [[-54.98235929730082, -10.25170474004316], [-54.982346076394656, -10.251717671603258]]}}, {"type": "Feature", "properties": {"layer": "PDF_LAGO", "dxf_type": "LINE"}, "geometry": {"type": "LineString", "coordinates": [[-54.982346076394656, -10.251717671603258], [-54.98233099686423, -10.251727802139019]]}}, {"type": "Feature", "properties": {"layer": "PDF_LAGO", "dxf_type": "LINE"}, "geometry": {"type": "LineString", "coordinates": [[-54.98233099686423, -10.251727802139019], [-54.98231964726746, -10.251741674543197]]}}, {"type": "Feature", "properties": {"layer": "PDF_LAGO", "dxf_type": "LINE"}, "geometry": {"type": "LineString", "coordinates": [[-54.98231964726746, -10.251741674543197], [-54.98230736155764, -10.25175507652109]]}}, {"type": "Feature", "properties": {"layer": "PDF_LAGO", "dxf_type": "LINE"}, "geometry": {"type": "LineString", "coordinates": [[-54.98230736155764, -10.25175507652109], [-54.98229227907748, -10.251765672552285]]}}, {"type": "Feature", "properties": {"layer": "PDF_LAGO", "dxf_type": "LINE"}, "geometry": {"type": "LineString", "coordinates": [[-54.98229227907748, -10.251765672552285], [-54.98227859498383, -10.251777671103717]]}}, {"type": "Feature", "properties": {"layer": "PDF_LAGO", "dxf_type": "LINE"}, "geometry": {"type": "LineString", "coordinates": [[-54.98227859498383, -10.251777671103717], [-54.98226864467726, -10.251792946935977]]}}, {"type": "Feature", "properties": {"layer": "PDF_LAGO", "dxf_type": "LINE"}, "geometry": {"type": "LineString", "coordinates": [[-54.98226864467726, -10.251792946935977], [-54.98225356422273, -10.251803078365137]]}}, {"type": "Feature", "properties": {"layer": "PDF_LAGO", "dxf_type": "LINE"}, "geometry": {"type": "LineString", "coordinates": [[-54.98225356422273, -10.251803078365137], [-54.9822375583098, -10.251811344693117]]}}, {"type": "Feature", "properties": {"layer": "PDF_LAGO", "dxf_type": "LINE"}, "geometry": {"type": "LineString", "coordinates": [[-54.9822375583098, -10.251811344693117], [-54.98222154265984, -10.251821004796316]]}}, {"type": "Feature", "properties": {"layer": "PDF_LAGO", "dxf_type": "LINE"}, "geometry": {"type": "LineString", "coordinates": [[-54.98222154265984, -10.251821004796316], [-54.982206463115325, -10.251831136228422]]}}, {"type": "Feature", "properties": {"layer": "PDF_LAGO", "dxf_type": "LINE"}, "geometry": {"type": "LineString", "coordinates": [[-54.982206463115325, -10.251831136228422], [-54.98219138266305, -10.25184126675007]]}}, {"type": "Feature", "properties": {"layer": "PDF_LAGO", "dxf_type": "LINE"}, "geometry": {"type": "LineString", "coordinates": [[-54.98219138266305, -10.25184126675007], [-54.98217630311676, -10.251851398180396]]}}, {"type": "Feature", "properties": {"layer": "PDF_LAGO", "dxf_type": "LINE"}, "geometry": {"type": "LineString", "coordinates": [[-54.98217630311676, -10.251851398180396], [-54.98216075947501, -10.251860596599153]]}}, {"type": "Feature", "properties": {"layer": "PDF_LAGO", "dxf_type": "LINE"}, "geometry": {"type": "LineString", "coordinates": [[-54.98216075947501, -10.251860596599153], [-54.9821442815399, -10.251869325506018]]}}, {"type": "Feature", "properties": {"layer": "PDF_LAGO", "dxf_type": "LINE"}, "geometry": {"type": "LineString", "coordinates": [[-54.9821442815399, -10.251869325506018], [-54.98213246489414, -10.251882729484263]]}}, {"type": "Feature", "properties": {"layer": "PDF_LAGO", "dxf_type": "LINE"}, "geometry": {"type": "LineString", "coordinates": [[-54.98213246489414, -10.251882729484263], [-54.98211691921529, -10.251892393403818]]}}, {"type": "Feature", "properties": {"layer": "PDF_LAGO", "dxf_type": "LINE"}, "geometry": {"type": "LineString", "coordinates": [[-54.98211691921529, -10.251892393403818], [-54.982101369681544, -10.251902521910704]]}}, {"type": "Feature", "properties": {"layer": "PDF_LAGO", "dxf_type": "LINE"}, "geometry": {"type": "LineString", "coordinates": [[-54.982101369681544, -10.251902521910704], [-54.98208443647875, -10.251908923117476]]}}, {"type": "Feature", "properties": {"layer": "PDF_LAGO", "dxf_type": "LINE"}, "geometry": {"type": "LineString", "coordinates": [[-54.98208443647875, -10.251908923117476], [-54.98207028918431, -10.251919989556153]]}}, {"type": "Feature", "properties": {"layer": "PDF_LAGO", "dxf_type": "LINE"}, "geometry": {"type": "LineString", "coordinates": [[-54.98207028918431, -10.251919989556153], [-54.9820533530387, -10.251926855354881]]}}, {"type": "Feature", "properties": {"layer": "PDF_LAGO", "dxf_type": "LINE"}, "geometry": {"type": "LineString", "coordinates": [[-54.9820533530387, -10.251926855354881], [-54.982035036160745, -10.251929530163295]]}}, {"type": "Feature", "properties": {"layer": "PDF_LAGO", "dxf_type": "LINE"}, "geometry": {"type": "LineString", "coordinates": [[-54.982035036160745, -10.251929530163295], [-54.98201673307795, -10.251929881995515]]}}, {"type": "Feature", "properties": {"layer": "PDF_LAGO", "dxf_type": "LINE"}, "geometry": {"type": "LineString", "coordinates": [[-54.98201673307795, -10.251929881995515], [-54.98199843385522, -10.251929768334602]]}}, {"type": "Feature", "properties": {"layer": "PDF_LAGO", "dxf_type": "LINE"}, "geometry": {"type": "LineString", "coordinates": [[-54.98199843385522, -10.251929768334602], [-54.981980133720114, -10.25192965466699]]}}, {"type": "Feature", "properties": {"layer": "PDF_LAGO", "dxf_type": "LINE"}, "geometry": {"type": "LineString", "coordinates": [[-54.981980133720114, -10.25192965466699], [-54.98196280500824, -10.251924434490846]]}}, {"type": "Feature", "properties": {"layer": "PDF_LAGO", "dxf_type": "LINE"}, "geometry": {"type": "LineString", "coordinates": [[-54.98196280500824, -10.251924434490846], [-54.98194547923876, -10.251918749720014]]}}, {"type": "Feature", "properties": {"layer": "PDF_LAGO", "dxf_type": "LINE"}, "geometry": {"type": "LineString", "coordinates": [[-54.98194547923876, -10.251918749720014], [-54.98193100411673, -10.251907505501675]]}}, {"type": "Feature", "properties": {"layer": "PDF_LAGO", "dxf_type": "LINE"}, "geometry": {"type": "LineString", "coordinates": [[-54.98193100411673, -10.251907505501675], [-54.98191605404199, -10.251897187556946]]}}, {"type": "Feature", "properties": {"layer": "PDF_LAGO", "dxf_type": "LINE"}, "geometry": {"type": "LineString", "coordinates": [[-54.98191605404199, -10.251897187556946], [-54.981901103055705, -10.251886869606038]]}}, {"type": "Feature", "properties": {"layer": "PDF_LAGO", "dxf_type": "LINE"}, "geometry": {"type": "LineString", "coordinates": [[-54.981901103055705, -10.251886869606038], [-54.98188710289067, -10.251874699112243]]}}, {"type": "Feature", "properties": {"layer": "PDF_LAGO", "dxf_type": "LINE"}, "geometry": {"type": "LineString", "coordinates": [[-54.98188710289067, -10.251874699112243], [-54.98187404177992, -10.251862534451075]]}}, {"type": "Feature", "properties": {"layer": "PDF_LAGO", "dxf_type": "LINE"}, "geometry": {"type": "LineString", "coordinates": [[-54.98187404177992, -10.251862534451075], [-54.9818609827051, -10.251849904286173]]}}, {"type": "Feature", "properties": {"layer": "PDF_LAGO", "dxf_type": "LINE"}, "geometry": {"type": "LineString", "coordinates": [[-54.9818609827051, -10.251849904286173], [-54.98184792362559, -10.251837275024815]]}}, {"type": "Feature", "properties": {"layer": "PDF_LAGO", "dxf_type": "LINE"}, "geometry": {"type": "LineString", "coordinates": [[-54.98184792362559, -10.251837275024815], [-54.98183486840723, -10.25182418027107]]}}, {"type": "Feature", "properties": {"layer": "PDF_LAGO", "dxf_type": "LINE"}, "geometry": {"type": "LineString", "coordinates": [[-54.98183486840723, -10.25182418027107], [-54.98182369535443, -10.251810167984303]]}}, {"type": "Feature", "properties": {"layer": "PDF_LAGO", "dxf_type": "LINE"}, "geometry": {"type": "LineString", "coordinates": [[-54.98182369535443, -10.251810167984303], [-54.981808744375506, -10.25179985003044]]}}, {"type": "Feature", "properties": {"layer": "PDF_LAGO", "dxf_type": "LINE"}, "geometry": {"type": "LineString", "coordinates": [[-54.981808744375506, -10.25179985003044], [-54.9817961611666, -10.251786294499533]]}}, {"type": "Feature", "properties": {"layer": "PDF_LAGO", "dxf_type": "LINE"}, "geometry": {"type": "LineString", "coordinates": [[-54.9817961611666, -10.251786294499533], [-54.98178215512639, -10.251775053190384]]}}, {"type": "Feature", "properties": {"layer": "PDF_LAGO", "dxf_type": "LINE"}, "geometry": {"type": "LineString", "coordinates": [[-54.98178215512639, -10.251775053190384], [-54.981768624046836, -10.251762884703114]]}}, {"type": "Feature", "properties": {"layer": "PDF_LAGO", "dxf_type": "LINE"}, "geometry": {"type": "LineString", "coordinates": [[-54.981768624046836, -10.251762884703114], [-54.98175367692659, -10.251752102159308]]}}, {"type": "Feature", "properties": {"layer": "PDF_LAGO", "dxf_type": "LINE"}, "geometry": {"type": "LineString", "coordinates": [[-54.98175367692659, -10.251752102159308], [-54.98173919795919, -10.25174132342707]]}}, {"type": "Feature", "properties": {"layer": "PDF_LAGO", "dxf_type": "LINE"}, "geometry": {"type": "LineString", "coordinates": [[-54.98173919795919, -10.25174132342707], [-54.98172471991115, -10.251730543796153]]}}, {"type": "Feature", "properties": {"layer": "PDF_LAGO", "dxf_type": "LINE"}, "geometry": {"type": "LineString", "coordinates": [[-54.98172471991115, -10.251730543796153], [-54.981709297840126, -10.251720687524605]]}}, {"type": "Feature", "properties": {"layer": "PDF_LAGO", "dxf_type": "LINE"}, "geometry": {"type": "LineString", "coordinates": [[-54.981709297840126, -10.251720687524605], [-54.9816952976901, -10.251708517025214]]}}, {"type": "Feature", "properties": {"layer": "PDF_LAGO", "dxf_type": "LINE"}, "geometry": {"type": "LineString", "coordinates": [[-54.9816952976901, -10.251708517025214], [-54.981678921852904, -10.25170097879197]]}}, {"type": "Feature", "properties": {"layer": "PDF_LAGO", "dxf_type": "LINE"}, "geometry": {"type": "LineString", "coordinates": [[-54.981678921852904, -10.25170097879197], [-54.981664446751005, -10.25168973456529]]}}, {"type": "Feature", "properties": {"layer": "PDF_LAGO", "dxf_type": "LINE"}, "geometry": {"type": "LineString", "coordinates": [[-54.981664446751005, -10.25168973456529], [-54.981651384744126, -10.251677569892436]]}}, {"type": "Feature", "properties": {"layer": "PDF_LAGO", "dxf_type": "LINE"}, "geometry": {"type": "LineString", "coordinates": [[-54.981651384744126, -10.251677569892436], [-54.981636437632346, -10.2516667873447]]}}, {"type": "Feature", "properties": {"layer": "PDF_LAGO", "dxf_type": "LINE"}, "geometry": {"type": "LineString", "coordinates": [[-54.981636437632346, -10.2516667873447], [-54.98162290949967, -10.251654155163319]]}}, {"type": "Feature", "properties": {"layer": "PDF_LAGO", "dxf_type": "LINE"}, "geometry": {"type": "LineString", "coordinates": [[-54.98162290949967, -10.251654155163319], [-54.98160985044371, -10.251641524991694]]}}, {"type": "Feature", "properties": {"layer": "PDF_LAGO", "dxf_type": "LINE"}, "geometry": {"type": "LineString", "coordinates": [[-54.98160985044371, -10.251641524991694], [-54.98159584441702, -10.2516302836769]]}}, {"type": "Feature", "properties": {"layer": "PDF_LAGO", "dxf_type": "LINE"}, "geometry": {"type": "LineString", "coordinates": [[-54.98159584441702, -10.2516302836769], [-54.98158231334544, -10.251618116088162]]}}, {"type": "Feature", "properties": {"layer": "PDF_LAGO", "dxf_type": "LINE"}, "geometry": {"type": "LineString", "coordinates": [[-54.98158231334544, -10.251618116088162], [-54.98156878522276, -10.251605483001418]]}}, {"type": "Feature", "properties": {"layer": "PDF_LAGO", "dxf_type": "LINE"}, "geometry": {"type": "LineString", "coordinates": [[-54.98156878522276, -10.251605483001418], [-54.98155478214135, -10.251593777091642]]}}, {"type": "Feature", "properties": {"layer": "PDF_LAGO", "dxf_type": "LINE"}, "geometry": {"type": "LineString", "coordinates": [[-54.98155478214135, -10.251593777091642], [-54.98154030410688, -10.251582997454868]]}}, {"type": "Feature", "properties": {"layer": "PDF_LAGO", "dxf_type": "LINE"}, "geometry": {"type": "LineString", "coordinates": [[-54.98154030410688, -10.251582997454868], [-54.981525826073444, -10.251572217817642]]}}, {"type": "Feature", "properties": {"layer": "PDF_LAGO", "dxf_type": "LINE"}, "geometry": {"type": "LineString", "coordinates": [[-54.981525826073444, -10.251572217817642], [-54.98151135098324, -10.251560973586201]]}}, {"type": "Feature", "properties": {"layer": "PDF_LAGO", "dxf_type": "LINE"}, "geometry": {"type": "LineString", "coordinates": [[-54.98151135098324, -10.251560973586201], [-54.98149640093422, -10.25155065653152]]}}, {"type": "Feature", "properties": {"layer": "PDF_LAGO", "dxf_type": "LINE"}, "geometry": {"type": "LineString", "coordinates": [[-54.98149640093422, -10.25155065653152], [-54.98148145292161, -10.251539873973039]]}}, {"type": "Feature", "properties": {"layer": "PDF_LAGO", "dxf_type": "LINE"}, "geometry": {"type": "LineString", "coordinates": [[-54.98148145292161, -10.251539873973039], [-54.9814665028804, -10.251529556013482]]}}, {"type": "Feature", "properties": {"layer": "PDF_LAGO", "dxf_type": "LINE"}, "geometry": {"type": "LineString", "coordinates": [[-54.9814665028804, -10.251529556013482], [-54.981451555782506, -10.251518773459662]]}}, {"type": "Feature", "properties": {"layer": "PDF_LAGO", "dxf_type": "LINE"}, "geometry": {"type": "LineString", "coordinates": [[-54.981451555782506, -10.251518773459662], [-54.98143707684276, -10.2515079938139]]}}, {"type": "Feature", "properties": {"layer": "PDF_LAGO", "dxf_type": "LINE"}, "geometry": {"type": "LineString", "coordinates": [[-54.98143707684276, -10.2515079938139], [-54.98142307377088, -10.251496287900103]]}}, {"type": "Feature", "properties": {"layer": "PDF_LAGO", "dxf_type": "LINE"}, "geometry": {"type": "LineString", "coordinates": [[-54.98142307377088, -10.251496287900103], [-54.98140812372813, -10.251485970842463]]}}, {"type": "Feature", "properties": {"layer": "PDF_LAGO", "dxf_type": "LINE"}, "geometry": {"type": "LineString", "coordinates": [[-54.98140812372813, -10.251485970842463], [-54.98139459267603, -10.251473802344478]]}}, {"type": "Feature", "properties": {"layer": "PDF_LAGO", "dxf_type": "LINE"}, "geometry": {"type": "LineString", "coordinates": [[-54.98139459267603, -10.251473802344478], [-54.98137917062345, -10.251463946965302]]}}, {"type": "Feature", "properties": {"layer": "PDF_LAGO", "dxf_type": "LINE"}, "geometry": {"type": "LineString", "coordinates": [[-54.98137917062345, -10.251463946965302], [-54.98136374472265, -10.25145455526974]]}}, {"type": "Feature", "properties": {"layer": "PDF_LAGO", "dxf_type": "LINE"}, "geometry": {"type": "LineString", "coordinates": [[-54.98136374472265, -10.25145455526974], [-54.98134879468406, -10.251444238210064]]}}, {"type": "Feature", "properties": {"layer": "PDF_LAGO", "dxf_type": "LINE"}, "geometry": {"type": "LineString", "coordinates": [[-54.98134879468406, -10.251444238210064], [-54.981334322548996, -10.251432529379246]]}}, {"type": "Feature", "properties": {"layer": "PDF_LAGO", "dxf_type": "LINE"}, "geometry": {"type": "LineString", "coordinates": [[-54.981334322548996, -10.251432529379246], [-54.98132079150219, -10.251420360879116]]}}, {"type": "Feature", "properties": {"layer": "PDF_LAGO", "dxf_type": "LINE"}, "geometry": {"type": "LineString", "coordinates": [[-54.98132079150219, -10.251420360879116], [-54.98130772952018, -10.251408196196865]]}}, {"type": "Feature", "properties": {"layer": "PDF_LAGO", "dxf_type": "LINE"}, "geometry": {"type": "LineString", "coordinates": [[-54.98130772952018, -10.251408196196865], [-54.98129608743569, -10.251394180984446]]}}, {"type": "Feature", "properties": {"layer": "PDF_LAGO", "dxf_type": "LINE"}, "geometry": {"type": "LineString", "coordinates": [[-54.98129608743569, -10.251394180984446], [-54.98128538937598, -10.251379242413226]]}}, {"type": "Feature", "properties": {"layer": "PDF_LAGO", "dxf_type": "LINE"}, "geometry": {"type": "LineString", "coordinates": [[-54.98128538937598, -10.251379242413226], [-54.981273747293436, -10.25136522720037]]}}, {"type": "Feature", "properties": {"layer": "PDF_LAGO", "dxf_type": "LINE"}, "geometry": {"type": "LineString", "coordinates": [[-54.981273747293436, -10.25136522720037], [-54.98126257722948, -10.251350749404148]]}}, {"type": "Feature", "properties": {"layer": "PDF_LAGO", "dxf_type": "LINE"}, "geometry": {"type": "LineString", "coordinates": [[-54.98126257722948, -10.251350749404148], [-54.981250932200666, -10.251337199688404]]}}, {"type": "Feature", "properties": {"layer": "PDF_LAGO", "dxf_type": "LINE"}, "geometry": {"type": "LineString", "coordinates": [[-54.981250932200666, -10.251337199688404], [-54.98123976213863, -10.251322721891754]]}}, {"type": "Feature", "properties": {"layer": "PDF_LAGO", "dxf_type": "LINE"}, "geometry": {"type": "LineString", "coordinates": [[-54.98123976213863, -10.251322721891754], [-54.98122859207184, -10.251308244998796]]}}, {"type": "Feature", "properties": {"layer": "PDF_LAGO", "dxf_type": "LINE"}, "geometry": {"type": "LineString", "coordinates": [[-54.98122859207184, -10.251308244998796], [-54.981219777092605, -10.251292388902629]]}}, {"type": "Feature", "properties": {"layer": "PDF_LAGO", "dxf_type": "LINE"}, "geometry": {"type": "LineString", "coordinates": [[-54.981219777092605, -10.251292388902629], [-54.981211903200915, -10.25127607313776]]}}, {"type": "Feature", "properties": {"layer": "PDF_LAGO", "dxf_type": "LINE"}, "geometry": {"type": "LineString", "coordinates": [[-54.981211903200915, -10.25127607313776], [-54.98120685052294, -10.251258845678054]]}}, {"type": "Feature", "properties": {"layer": "PDF_LAGO", "dxf_type": "LINE"}, "geometry": {"type": "LineString", "coordinates": [[-54.98120685052294, -10.251258845678054], [-54.981203677982975, -10.251241164384393]]}}, {"type": "Feature", "properties": {"layer": "PDF_LAGO", "dxf_type": "LINE"}, "geometry": {"type": "LineString", "coordinates": [[-54.981203677982975, -10.251241164384393], [-54.981201446518355, -10.25122302522992]]}}, {"type": "Feature", "properties": {"layer": "PDF_LAGO", "dxf_type": "LINE"}, "geometry": {"type": "LineString", "coordinates": [[-54.981201446518355, -10.25122302522992], [-54.981201092248654, -10.25120489683513]]}}, {"type": "Feature", "properties": {"layer": "PDF_LAGO", "dxf_type": "LINE"}, "geometry": {"type": "LineString", "coordinates": [[-54.981201092248654, -10.25120489683513], [-54.98120073797307, -10.251186769344203]]}}, {"type": "Feature", "properties": {"layer": "PDF_LAGO", "dxf_type": "LINE"}, "geometry": {"type": "LineString", "coordinates": [[-54.98120073797307, -10.251186769344203], [-54.98120085277213, -10.251168643863846]]}}, {"type": "Feature", "properties": {"layer": "PDF_LAGO", "dxf_type": "LINE"}, "geometry": {"type": "LineString", "coordinates": [[-54.98120085277213, -10.251168643863846], [-54.981200967565265, -10.251150519287364]]}}, {"type": "Feature", "properties": {"layer": "PDF_LAGO", "dxf_type": "LINE"}, "geometry": {"type": "LineString", "coordinates": [[-54.981200967565265, -10.251150519287364], [-54.98120530195528, -10.251132884636336]]}}, {"type": "Feature", "properties": {"layer": "PDF_LAGO", "dxf_type": "LINE"}, "geometry": {"type": "LineString", "coordinates": [[-54.98120530195528, -10.251132884636336], [-54.98121244669314, -10.251116197574284]]}}, {"type": "Feature", "properties": {"layer": "PDF_LAGO", "dxf_type": "LINE"}, "geometry": {"type": "LineString", "coordinates": [[-54.98121244669314, -10.251116197574284], [-54.981224731492794, -10.251102796539655]]}}, {"type": "Feature", "properties": {"layer": "PDF_LAGO", "dxf_type": "LINE"}, "geometry": {"type": "LineString", "coordinates": [[-54.981224731492794, -10.251102796539655], [-54.98123421274623, -10.251087517829836]]}}, {"type": "Feature", "properties": {"layer": "PDF_LAGO", "dxf_type": "LINE"}, "geometry": {"type": "LineString", "coordinates": [[-54.98123421274623, -10.251087517829836], [-54.981247433657586, -10.251074586318177]]}}, {"type": "Feature", "properties": {"layer": "PDF_LAGO", "dxf_type": "LINE"}, "geometry": {"type": "LineString", "coordinates": [[-54.981247433657586, -10.251074586318177], [-54.9812625102353, -10.251064920426735]]}}, {"type": "Feature", "properties": {"layer": "PDF_LAGO", "dxf_type": "LINE"}, "geometry": {"type": "LineString", "coordinates": [[-54.9812625102353, -10.251064920426735], [-54.98127572820221, -10.251052453507205]]}}, {"type": "Feature", "properties": {"layer": "PDF_LAGO", "dxf_type": "LINE"}, "geometry": {"type": "LineString", "coordinates": [[-54.98127572820221, -10.251052453507205], [-54.98129127770203, -10.251042325940354]]}}, {"type": "Feature", "properties": {"layer": "PDF_LAGO", "dxf_type": "LINE"}, "geometry": {"type": "LineString", "coordinates": [[-54.98129127770203, -10.251042325940354], [-54.98130635722516, -10.251032194548726]]}}, {"type": "Feature", "properties": {"layer": "PDF_LAGO", "dxf_type": "LINE"}, "geometry": {"type": "LineString", "coordinates": [[-54.98130635722516, -10.251032194548726], [-54.98132236696513, -10.251023463675388]]}}, {"type": "Feature", "properties": {"layer": "PDF_LAGO", "dxf_type": "LINE"}, "geometry": {"type": "LineString", "coordinates": [[-54.98132236696513, -10.251023463675388], [-54.98133884191836, -10.251015200303353]]}}, {"type": "Feature", "properties": {"layer": "PDF_LAGO", "dxf_type": "LINE"}, "geometry": {"type": "LineString", "coordinates": [[-54.98133884191836, -10.251015200303353], [-54.98135577213529, -10.251009263722672]]}}, {"type": "Feature", "properties": {"layer": "PDF_LAGO", "dxf_type": "LINE"}, "geometry": {"type": "LineString", "coordinates": [[-54.98135577213529, -10.251009263722672], [-54.981373169390984, -10.251003794654535]]}}, {"type": "Feature", "properties": {"layer": "PDF_LAGO", "dxf_type": "LINE"}, "geometry": {"type": "LineString", "coordinates": [[-54.981373169390984, -10.251003794654535], [-54.98139147738584, -10.251002513655417]]}}, {"type": "Feature", "properties": {"layer": "PDF_LAGO", "dxf_type": "LINE"}, "geometry": {"type": "LineString", "coordinates": [[-54.98139147738584, -10.251002513655417], [-54.98140655984675, -10.250991917664427]]}}, {"type": "Feature", "properties": {"layer": "PDF_LAGO", "dxf_type": "LINE"}, "geometry": {"type": "LineString", "coordinates": [[-54.98140655984675, -10.250991917664427], [-54.98142349300394, -10.250985516485969]]}}, {"type": "Feature", "properties": {"layer": "PDF_LAGO", "dxf_type": "LINE"}, "geometry": {"type": "LineString", "coordinates": [[-54.98142349300394, -10.250985516485969], [-54.98143996298171, -10.250978182301075]]}}, {"type": "Feature", "properties": {"layer": "PDF_LAGO", "dxf_type": "LINE"}, "geometry": {"type": "LineString", "coordinates": [[-54.98143996298171, -10.250978182301075], [-54.981450849392495, -10.250963377827608]]}}, {"type": "Feature", "properties": {"layer": "PDF_LAGO", "dxf_type": "LINE"}, "geometry": {"type": "LineString", "coordinates": [[-54.981450849392495, -10.250963377827608], [-54.98145986450417, -10.25094763160044]]}}, {"type": "Feature", "properties": {"layer": "PDF_LAGO", "dxf_type": "LINE"}, "geometry": {"type": "LineString", "coordinates": [[-54.98145986450417, -10.25094763160044], [-54.981466073115605, -10.250930474101839]]}}, {"type": "Feature", "properties": {"layer": "PDF_LAGO", "dxf_type": "LINE"}, "geometry": {"type": "LineString", "coordinates": [[-54.981466073115605, -10.250930474101839], [-54.98147040839313, -10.250912840353218]]}}, {"type": "Feature", "properties": {"layer": "PDF_LAGO", "dxf_type": "LINE"}, "geometry": {"type": "LineString", "coordinates": [[-54.98147040839313, -10.250912840353218], [-54.9814752097967, -10.250895674112181]]}}, {"type": "Feature", "properties": {"layer": "PDF_LAGO", "dxf_type": "LINE"}, "geometry": {"type": "LineString", "coordinates": [[-54.9814752097967, -10.250895674112181], [-54.98147813990185, -10.250877566117975]]}}, {"type": "Feature", "properties": {"layer": "PDF_LAGO", "dxf_type": "LINE"}, "geometry": {"type": "LineString", "coordinates": [[-54.98147813990185, -10.250877566117975], [-54.981483879441555, -10.250860405704541]]}}, {"type": "Feature", "properties": {"layer": "PDF_LAGO", "dxf_type": "LINE"}, "geometry": {"type": "LineString", "coordinates": [[-54.981483879441555, -10.250860405704541], [-54.98148540142114, -10.25084228986642]]}}, {"type": "Feature", "properties": {"layer": "PDF_LAGO", "dxf_type": "LINE"}, "geometry": {"type": "LineString", "coordinates": [[-54.98148540142114, -10.25084228986642], [-54.98149161003386, -10.250825131462673]]}}, {"type": "Feature", "properties": {"layer": "PDF_LAGO", "dxf_type": "LINE"}, "geometry": {"type": "LineString", "coordinates": [[-54.98149161003386, -10.250825131462673], [-54.9814926638564, -10.250807012716093]]}}, {"type": "Feature", "properties": {"layer": "PDF_LAGO", "dxf_type": "LINE"}, "geometry": {"type": "LineString", "coordinates": [[-54.9814926638564, -10.250807012716093], [-54.9814965291483, -10.250789376046797]]}}, {"type": "Feature", "properties": {"layer": "PDF_LAGO", "dxf_type": "LINE"}, "geometry": {"type": "LineString", "coordinates": [[-54.9814965291483, -10.250789376046797], [-54.98149851817097, -10.250771726817803]]}}, {"type": "Feature", "properties": {"layer": "PDF_LAGO", "dxf_type": "LINE"}, "geometry": {"type": "LineString", "coordinates": [[-54.98149851817097, -10.250771726817803], [-54.981499102011206, -10.250753605151436]]}}, {"type": "Feature", "properties": {"layer": "PDF_LAGO", "dxf_type": "LINE"}, "geometry": {"type": "LineString", "coordinates": [[-54.981499102011206, -10.250753605151436], [-54.981499685856896, -10.250735482581163]]}}, {"type": "Feature", "properties": {"layer": "PDF_LAGO", "dxf_type": "LINE"}, "geometry": {"type": "LineString", "coordinates": [[-54.981499685856896, -10.250735482581163], [-54.98149980062808, -10.250717358000845]]}}, {"type": "Feature", "properties": {"layer": "PDF_LAGO", "dxf_type": "LINE"}, "geometry": {"type": "LineString", "coordinates": [[-54.98149980062808, -10.250717358000845], [-54.981499915404775, -10.250699232516613]]}}, {"type": "Feature", "properties": {"layer": "PDF_LAGO", "dxf_type": "LINE"}, "geometry": {"type": "LineString", "coordinates": [[-54.981499915404775, -10.250699232516613], [-54.98150752918278, -10.250682548356753]]}}, {"type": "Feature", "properties": {"layer": "PDF_LAGO", "dxf_type": "LINE"}, "geometry": {"type": "LineString", "coordinates": [[-54.98150752918278, -10.250682548356753], [-54.981517945597055, -10.250667740958711]]}}, {"type": "Feature", "properties": {"layer": "PDF_LAGO", "dxf_type": "LINE"}, "geometry": {"type": "LineString", "coordinates": [[-54.981517945597055, -10.250667740958711], [-54.98153395531299, -10.250659010070152]]}}, {"type": "Feature", "properties": {"layer": "PDF_LAGO", "dxf_type": "LINE"}, "geometry": {"type": "LineString", "coordinates": [[-54.98153395531299, -10.250659010070152], [-54.98154903481007, -10.250648878662107]]}}, {"type": "Feature", "properties": {"layer": "PDF_LAGO", "dxf_type": "LINE"}, "geometry": {"type": "LineString", "coordinates": [[-54.98154903481007, -10.250648878662107], [-54.98156504158256, -10.250640612365435]]}}, {"type": "Feature", "properties": {"layer": "PDF_LAGO", "dxf_type": "LINE"}, "geometry": {"type": "LineString", "coordinates": [[-54.98156504158256, -10.250640612365435], [-54.98157919176662, -10.250629081346661]]}}, {"type": "Feature", "properties": {"layer": "PDF_LAGO", "dxf_type": "LINE"}, "geometry": {"type": "LineString", "coordinates": [[-54.98157919176662, -10.250629081346661], [-54.981595201479315, -10.250620350454371]]}}, {"type": "Feature", "properties": {"layer": "PDF_LAGO", "dxf_type": "LINE"}, "geometry": {"type": "LineString", "coordinates": [[-54.981595201479315, -10.250620350454371], [-54.981611676405265, -10.250612087062967]]}}, {"type": "Feature", "properties": {"layer": "PDF_LAGO", "dxf_type": "LINE"}, "geometry": {"type": "LineString", "coordinates": [[-54.981611676405265, -10.250612087062967], [-54.98162768317469, -10.250603820762544]]}}, {"type": "Feature", "properties": {"layer": "PDF_LAGO", "dxf_type": "LINE"}, "geometry": {"type": "LineString", "coordinates": [[-54.98162768317469, -10.250603820762544], [-54.98164507949247, -10.250598351668916]]}}, {"type": "Feature", "properties": {"layer": "PDF_LAGO", "dxf_type": "LINE"}, "geometry": {"type": "LineString", "coordinates": [[-54.98164507949247, -10.250598351668916], [-54.98166016577975, -10.250587291072476]]}}, {"type": "Feature", "properties": {"layer": "PDF_LAGO", "dxf_type": "LINE"}, "geometry": {"type": "LineString", "coordinates": [[-54.98166016577975, -10.250587291072476], [-54.98167663573203, -10.250579956870439]]}}, {"type": "Feature", "properties": {"layer": "PDF_LAGO", "dxf_type": "LINE"}, "geometry": {"type": "LineString", "coordinates": [[-54.98167663573203, -10.250579956870439], [-54.981694495233164, -10.25057541987502]]}}, {"type": "Feature", "properties": {"layer": "PDF_LAGO", "dxf_type": "LINE"}, "geometry": {"type": "LineString", "coordinates": [[-54.981694495233164, -10.25057541987502], [-54.981712337072835, -10.250573672249287]]}}, {"type": "Feature", "properties": {"layer": "PDF_LAGO", "dxf_type": "LINE"}, "geometry": {"type": "LineString", "coordinates": [[-54.981712337072835, -10.250573672249287], [-54.9817297392772, -10.250567273058975]]}}, {"type": "Feature", "properties": {"layer": "PDF_LAGO", "dxf_type": "LINE"}, "geometry": {"type": "LineString", "coordinates": [[-54.9817297392772, -10.250567273058975], [-54.98174759380114, -10.250563666157598]]}}, {"type": "Feature", "properties": {"layer": "PDF_LAGO", "dxf_type": "LINE"}, "geometry": {"type": "LineString", "coordinates": [[-54.98174759380114, -10.250563666157598], [-54.98176590176723, -10.250562386036094]]}}, {"type": "Feature", "properties": {"layer": "PDF_LAGO", "dxf_type": "LINE"}, "geometry": {"type": "LineString", "coordinates": [[-54.98176590176723, -10.250562386036094], [-54.981784207710184, -10.25056156960918]]}}, {"type": "Feature", "properties": {"layer": "PDF_LAGO", "dxf_type": "LINE"}, "geometry": {"type": "LineString", "coordinates": [[-54.981784207710184, -10.25056156960918], [-54.98180250685197, -10.250561683267156]]}}, {"type": "Feature", "properties": {"layer": "PDF_LAGO", "dxf_type": "LINE"}, "geometry": {"type": "LineString", "coordinates": [[-54.98180250685197, -10.250561683267156], [-54.981820806906555, -10.250561796929771]]}}, {"type": "Feature", "properties": {"layer": "PDF_LAGO", "dxf_type": "LINE"}, "geometry": {"type": "LineString", "coordinates": [[-54.981820806906555, -10.250561796929771], [-54.98183910604877, -10.250561910585686]]}}, {"type": "Feature", "properties": {"layer": "PDF_LAGO", "dxf_type": "LINE"}, "geometry": {"type": "LineString", "coordinates": [[-54.98183910604877, -10.250561910585686], [-54.98185740610378, -10.250562024246245]]}}, {"type": "Feature", "properties": {"layer": "PDF_LAGO", "dxf_type": "LINE"}, "geometry": {"type": "LineString", "coordinates": [[-54.98185740610378, -10.250562024246245], [-54.98187473474306, -10.250567244413945]]}}, {"type": "Feature", "properties": {"layer": "PDF_LAGO", "dxf_type": "LINE"}, "geometry": {"type": "LineString", "coordinates": [[-54.98187473474306, -10.250567244413945], [-54.98189302800348, -10.250568287254668]]}}, {"type": "Feature", "properties": {"layer": "PDF_LAGO", "dxf_type": "LINE"}, "geometry": {"type": "LineString", "coordinates": [[-54.98189302800348, -10.250568287254668], [-54.98191082956637, -10.250573045745682]]}}, {"type": "Feature", "properties": {"layer": "PDF_LAGO", "dxf_type": "LINE"}, "geometry": {"type": "LineString", "coordinates": [[-54.98191082956637, -10.250573045745682], [-54.98192865081219, -10.250574551168976]]}}, {"type": "Feature", "properties": {"layer": "PDF_LAGO", "dxf_type": "LINE"}, "geometry": {"type": "LineString", "coordinates": [[-54.98192865081219, -10.250574551168976], [-54.98194597357146, -10.25058070052103]]}}, {"type": "Feature", "properties": {"layer": "PDF_LAGO", "dxf_type": "LINE"}, "geometry": {"type": "LineString", "coordinates": [[-54.98194597357146, -10.25058070052103], [-54.98196427068751, -10.25058127876969]]}}, {"type": "Feature", "properties": {"layer": "PDF_LAGO", "dxf_type": "LINE"}, "geometry": {"type": "LineString", "coordinates": [[-54.98196427068751, -10.25058127876969], [-54.98198159933063, -10.250586498932215]]}}, {"type": "Feature", "properties": {"layer": "PDF_LAGO", "dxf_type": "LINE"}, "geometry": {"type": "LineString", "coordinates": [[-54.98198159933063, -10.250586498932215], [-54.981999892593684, -10.250587541767178]]}}, {"type": "Feature", "properties": {"layer": "PDF_LAGO", "dxf_type": "LINE"}, "geometry": {"type": "LineString", "coordinates": [[-54.981999892593684, -10.250587541767178], [-54.98201818971081, -10.250588120012889]]}}, {"type": "Feature", "properties": {"layer": "PDF_LAGO", "dxf_type": "LINE"}, "geometry": {"type": "LineString", "coordinates": [[-54.98201818971081, -10.250588120012889], [-54.98203648885678, -10.250588233657986]]}}, {"type": "Feature", "properties": {"layer": "PDF_LAGO", "dxf_type": "LINE"}, "geometry": {"type": "LineString", "coordinates": [[-54.98203648885678, -10.250588233657986], [-54.982054788915526, -10.250588347307717]]}}, {"type": "Feature", "properties": {"layer": "PDF_LAGO", "dxf_type": "LINE"}, "geometry": {"type": "LineString", "coordinates": [[-54.982054788915526, -10.250588347307717], [-54.98207308806192, -10.250588460950755]]}}, {"type": "Feature", "properties": {"layer": "PDF_LAGO", "dxf_type": "LINE"}, "geometry": {"type": "LineString", "coordinates": [[-54.98207308806192, -10.250588460950755], [-54.982091388121106, -10.25058857459843]]}}, {"type": "Feature", "properties": {"layer": "PDF_LAGO", "dxf_type": "LINE"}, "geometry": {"type": "LineString", "coordinates": [[-54.982091388121106, -10.25058857459843], [-54.98210879031696, -10.250582176290385]]}}, {"type": "Feature", "properties": {"layer": "PDF_LAGO", "dxf_type": "LINE"}, "geometry": {"type": "LineString", "coordinates": [[-54.98210879031696, -10.250582176290385], [-54.98212526026304, -10.250574842063562]]}}, {"type": "Feature", "properties": {"layer": "PDF_LAGO", "dxf_type": "LINE"}, "geometry": {"type": "LineString", "coordinates": [[-54.98212526026304, -10.250574842063562], [-54.982141269962995, -10.25056611114094]]}}, {"type": "Feature", "properties": {"layer": "PDF_LAGO", "dxf_type": "LINE"}, "geometry": {"type": "LineString", "coordinates": [[-54.982141269962995, -10.25056611114094], [-54.982158206029546, -10.250559245322895]]}}, {"type": "Feature", "properties": {"layer": "PDF_LAGO", "dxf_type": "LINE"}, "geometry": {"type": "LineString", "coordinates": [[-54.982158206029546, -10.250559245322895], [-54.982174678002046, -10.250551446493477]]}}, {"type": "Feature", "properties": {"layer": "PDF_LAGO", "dxf_type": "LINE"}, "geometry": {"type": "LineString", "coordinates": [[-54.982174678002046, -10.250551446493477], [-54.98218789591526, -10.250538979525558]]}}, {"type": "Feature", "properties": {"layer": "PDF_LAGO", "dxf_type": "LINE"}, "geometry": {"type": "LineString", "coordinates": [[-54.98218789591526, -10.250538979525558], [-54.98220251220437, -10.25052791598122]]}}, {"type": "Feature", "properties": {"layer": "PDF_LAGO", "dxf_type": "LINE"}, "geometry": {"type": "LineString", "coordinates": [[-54.98220251220437, -10.25052791598122], [-54.98221433082032, -10.250514046485693]]}}, {"type": "Feature", "properties": {"layer": "PDF_LAGO", "dxf_type": "LINE"}, "geometry": {"type": "LineString", "coordinates": [[-54.98221433082032, -10.250514046485693], [-54.98222194161699, -10.250497826894902]]}}, {"type": "Feature", "properties": {"layer": "PDF_LAGO", "dxf_type": "LINE"}, "geometry": {"type": "LineString", "coordinates": [[-54.98222194161699, -10.250497826894902], [-54.98223329410331, -10.250483489891502]]}}, {"type": "Feature", "properties": {"layer": "PDF_LAGO", "dxf_type": "LINE"}, "geometry": {"type": "LineString", "coordinates": [[-54.98223329410331, -10.250483489891502], [-54.982243711392655, -10.250468682467986]]}}, {"type": "Feature", "properties": {"layer": "PDF_LAGO", "dxf_type": "LINE"}, "geometry": {"type": "LineString", "coordinates": [[-54.982243711392655, -10.250468682467986], [-54.98225319551899, -10.250452939120937]]}}, {"type": "Feature", "properties": {"layer": "PDF_LAGO", "dxf_type": "LINE"}, "geometry": {"type": "LineString", "coordinates": [[-54.98225319551899, -10.250452939120937], [-54.98226314373794, -10.250438128783689]]}}, {"type": "Feature", "properties": {"layer": "PDF_LAGO", "dxf_type": "LINE"}, "geometry": {"type": "LineString", "coordinates": [[-54.98226314373794, -10.250438128783689], [-54.982274496220036, -10.250423791778037]]}}, {"type": "Feature", "properties": {"layer": "PDF_LAGO", "dxf_type": "LINE"}, "geometry": {"type": "LineString", "coordinates": [[-54.982274496220036, -10.250423791778037], [-54.98228491259835, -10.250408983442867]]}}, {"type": "Feature", "properties": {"layer": "PDF_LAGO", "dxf_type": "LINE"}, "geometry": {"type": "LineString", "coordinates": [[-54.98228491259835, -10.250408983442867], [-54.9822995288781, -10.250397919892297]]}}, {"type": "Feature", "properties": {"layer": "PDF_LAGO", "dxf_type": "LINE"}, "geometry": {"type": "LineString", "coordinates": [[-54.9822995288781, -10.250397919892297], [-54.98231274677416, -10.250385453820913]]}}, {"type": "Feature", "properties": {"layer": "PDF_LAGO", "dxf_type": "LINE"}, "geometry": {"type": "LineString", "coordinates": [[-54.98231274677416, -10.250385453820913], [-54.982327826238865, -10.250375322369319]]}}, {"type": "Feature", "properties": {"layer": "PDF_LAGO", "dxf_type": "LINE"}, "geometry": {"type": "LineString", "coordinates": [[-54.982327826238865, -10.250375322369319], [-54.98234383592411, -10.250366591433632]]}}, {"type": "Feature", "properties": {"layer": "PDF_LAGO", "dxf_type": "LINE"}, "geometry": {"type": "LineString", "coordinates": [[-54.98234383592411, -10.250366591433632], [-54.982359382421585, -10.250356928396382]]}}, {"type": "Feature", "properties": {"layer": "PDF_LAGO", "dxf_type": "LINE"}, "geometry": {"type": "LineString", "coordinates": [[-54.982359382421585, -10.250356928396382], [-54.98237631847936, -10.250350061659978]]}}, {"type": "Feature", "properties": {"layer": "PDF_LAGO", "dxf_type": "LINE"}, "geometry": {"type": "LineString", "coordinates": [[-54.98237631847936, -10.250350061659978], [-54.98239046862597, -10.250338530597581]]}}, {"type": "Feature", "properties": {"layer": "PDF_LAGO", "dxf_type": "LINE"}, "geometry": {"type": "LineString", "coordinates": [[-54.98239046862597, -10.250338530597581], [-54.98240554514586, -10.2503288637355]]}}, {"type": "Feature", "properties": {"layer": "PDF_LAGO", "dxf_type": "LINE"}, "geometry": {"type": "LineString", "coordinates": [[-54.98240554514586, -10.2503288637355], [-54.98242155776766, -10.250319668201056]]}}, {"type": "Feature", "properties": {"layer": "PDF_LAGO", "dxf_type": "LINE"}, "geometry": {"type": "LineString", "coordinates": [[-54.98242155776766, -10.250319668201056], [-54.98243803266326, -10.250311404760517]]}}, {"type": "Feature", "properties": {"layer": "PDF_LAGO", "dxf_type": "LINE"}, "geometry": {"type": "LineString", "coordinates": [[-54.98243803266326, -10.250311404760517], [-54.982453110087555, -10.250301738805254]]}}, {"type": "Feature", "properties": {"layer": "PDF_LAGO", "dxf_type": "LINE"}, "geometry": {"type": "LineString", "coordinates": [[-54.982453110087555, -10.250301738805254], [-54.982470046141096, -10.250294872062996]]}}, {"type": "Feature", "properties": {"layer": "PDF_LAGO", "dxf_type": "LINE"}, "geometry": {"type": "LineString", "coordinates": [[-54.982470046141096, -10.250294872062996], [-54.982486988074854, -10.250287076131594]]}}, {"type": "Feature", "properties": {"layer": "PDF_LAGO", "dxf_type": "LINE"}, "geometry": {"type": "LineString", "coordinates": [[-54.982486988074854, -10.250287076131594], [-54.98250346093977, -10.250279277286813]]}}, {"type": "Feature", "properties": {"layer": "PDF_LAGO", "dxf_type": "LINE"}, "geometry": {"type": "LineString", "coordinates": [[-54.98250346093977, -10.250279277286813], [-54.98251853744837, -10.250269611322139]]}}, {"type": "Feature", "properties": {"layer": "PDF_LAGO", "dxf_type": "LINE"}, "geometry": {"type": "LineString", "coordinates": [[-54.98251853744837, -10.250269611322139], [-54.98253547055328, -10.250263210073841]]}}, {"type": "Feature", "properties": {"layer": "PDF_LAGO", "dxf_type": "LINE"}, "geometry": {"type": "LineString", "coordinates": [[-54.98253547055328, -10.250263210073841], [-54.98255241248427, -10.250255414138365]]}}, {"type": "Feature", "properties": {"layer": "PDF_LAGO", "dxf_type": "LINE"}, "geometry": {"type": "LineString", "coordinates": [[-54.98255241248427, -10.250255414138365], [-54.98256981171589, -10.25024948039434]]}}, {"type": "Feature", "properties": {"layer": "PDF_LAGO", "dxf_type": "LINE"}, "geometry": {"type": "LineString", "coordinates": [[-54.98256981171589, -10.25024948039434], [-54.98258628163722, -10.250242146138683]]}}, {"type": "Feature", "properties": {"layer": "PDF_LAGO", "dxf_type": "LINE"}, "geometry": {"type": "LineString", "coordinates": [[-54.98258628163722, -10.250242146138683], [-54.98260367792757, -10.250236676986669]]}}, {"type": "Feature", "properties": {"layer": "PDF_LAGO", "dxf_type": "LINE"}, "geometry": {"type": "LineString", "coordinates": [[-54.98260367792757, -10.250236676986669], [-54.98262153740522, -10.250232139933974]]}}, {"type": "Feature", "properties": {"layer": "PDF_LAGO", "dxf_type": "LINE"}, "geometry": {"type": "LineString", "coordinates": [[-54.98262153740522, -10.250232139933974], [-54.98263847050697, -10.250225738679495]]}}, {"type": "Feature", "properties": {"layer": "PDF_LAGO", "dxf_type": "LINE"}, "geometry": {"type": "LineString", "coordinates": [[-54.98263847050697, -10.250225738679495], [-54.98265587064874, -10.250219804935899]]}}, {"type": "Feature", "properties": {"layer": "PDF_LAGO", "dxf_type": "LINE"}, "geometry": {"type": "LineString", "coordinates": [[-54.98265587064874, -10.250219804935899], [-54.98267371541894, -10.25021759175449]]}}, {"type": "Feature", "properties": {"layer": "PDF_LAGO", "dxf_type": "LINE"}, "geometry": {"type": "LineString", "coordinates": [[-54.98267371541894, -10.25021759175449], [-54.982691580775395, -10.250212125509298]]}}, {"type": "Feature", "properties": {"layer": "PDF_LAGO", "dxf_type": "LINE"}, "geometry": {"type": "LineString", "coordinates": [[-54.982691580775395, -10.250212125509298], [-54.98270712726281, -10.250202461547962]]}}, {"type": "Feature", "properties": {"layer": "PDF_LAGO", "dxf_type": "LINE"}, "geometry": {"type": "LineString", "coordinates": [[-54.98270712726281, -10.250202461547962], [-54.98272406036202, -10.25019606028838]]}}, {"type": "Feature", "properties": {"layer": "PDF_LAGO", "dxf_type": "LINE"}, "geometry": {"type": "LineString", "coordinates": [[-54.98272406036202, -10.25019606028838], [-54.982738676619135, -10.250184996713129]]}}, {"type": "Feature", "properties": {"layer": "PDF_LAGO", "dxf_type": "LINE"}, "geometry": {"type": "LineString", "coordinates": [[-54.982738676619135, -10.250184996713129], [-54.98275606407949, -10.250180922238163]]}}, {"type": "Feature", "properties": {"layer": "PDF_LAGO", "dxf_type": "LINE"}, "geometry": {"type": "LineString", "coordinates": [[-54.98275606407949, -10.250180922238163], [-54.98276928195636, -10.250168455239029]]}}, {"type": "Feature", "properties": {"layer": "PDF_LAGO", "dxf_type": "LINE"}, "geometry": {"type": "LineString", "coordinates": [[-54.98276928195636, -10.250168455239029], [-54.98278758108674, -10.250168568837244]]}}, {"type": "Feature", "properties": {"layer": "PDF_LAGO", "dxf_type": "LINE"}, "geometry": {"type": "LineString", "coordinates": [[-54.98278758108674, -10.250168568837244], [-54.982805441472316, -10.250164031778851]]}}, {"type": "Feature", "properties": {"layer": "PDF_LAGO", "dxf_type": "LINE"}, "geometry": {"type": "LineString", "coordinates": [[-54.982805441472316, -10.250164031778851], [-54.982823303879144, -10.250159031023422]]}}, {"type": "Feature", "properties": {"layer": "PDF_LAGO", "dxf_type": "LINE"}, "geometry": {"type": "LineString", "coordinates": [[-54.982823303879144, -10.250159031023422], [-54.98283884650846, -10.250149831643]]}}, {"type": "Feature", "properties": {"layer": "PDF_LAGO", "dxf_type": "LINE"}, "geometry": {"type": "LineString", "coordinates": [[-54.98283884650846, -10.250149831643], [-54.982849263759505, -10.250135024192332]]}}, {"type": "Feature", "properties": {"layer": "PDF_LAGO", "dxf_type": "LINE"}, "geometry": {"type": "LineString", "coordinates": [[-54.982849263759505, -10.250135024192332], [-54.9828596810095, -10.250120216741117]]}}, {"type": "Feature", "properties": {"layer": "PDF_LAGO", "dxf_type": "LINE"}, "geometry": {"type": "LineString", "coordinates": [[-54.9828596810095, -10.250120216741117], [-54.982873828191096, -10.250109150246404]]}}, {"type": "Feature", "properties": {"layer": "PDF_LAGO", "dxf_type": "LINE"}, "geometry": {"type": "LineString", "coordinates": [[-54.982873828191096, -10.250109150246404], [-54.982876758203254, -10.250091042222195]]}}, {"type": "Feature", "properties": {"layer": "PDF_LAGO", "dxf_type": "LINE"}, "geometry": {"type": "LineString", "coordinates": [[-54.982876758203254, -10.250091042222195], [-54.98288202858203, -10.250073878854442]]}}, {"type": "Feature", "properties": {"layer": "PDF_LAGO", "dxf_type": "LINE"}, "geometry": {"type": "LineString", "coordinates": [[-54.98288202858203, -10.250073878854442], [-54.98288776802802, -10.250056718398193]]}}, {"type": "Feature", "properties": {"layer": "PDF_LAGO", "dxf_type": "LINE"}, "geometry": {"type": "LineString", "coordinates": [[-54.98288776802802, -10.250056718398193], [-54.982890228057855, -10.250038607456196]]}}, {"type": "Feature", "properties": {"layer": "PDF_LAGO", "dxf_type": "LINE"}, "geometry": {"type": "LineString", "coordinates": [[-54.982890228057855, -10.250038607456196], [-54.98289596750242, -10.250021446999561]]}}, {"type": "Feature", "properties": {"layer": "PDF_LAGO", "dxf_type": "LINE"}, "geometry": {"type": "LineString", "coordinates": [[-54.98289596750242, -10.250021446999561], [-54.98290825311076, -10.250008044980573]]}}, {"type": "Feature", "properties": {"layer": "PDF_LAGO", "dxf_type": "LINE"}, "geometry": {"type": "LineString", "coordinates": [[-54.98290825311076, -10.250008044980573], [-54.98291305644496, -10.249990414100136]]}}, {"type": "Feature", "properties": {"layer": "PDF_LAGO", "dxf_type": "LINE"}, "geometry": {"type": "LineString", "coordinates": [[-54.98291305644496, -10.249990414100136], [-54.98292020106339, -10.249973726977437]]}}, {"type": "Feature", "properties": {"layer": "PDF_LAGO", "dxf_type": "LINE"}, "geometry": {"type": "LineString", "coordinates": [[-54.98292020106339, -10.249973726977437], [-54.982928280876884, -10.249957510271898]]}}, {"type": "Feature", "properties": {"layer": "PDF_LAGO", "dxf_type": "LINE"}, "geometry": {"type": "LineString", "coordinates": [[-54.982928280876884, -10.249957510271898], [-54.98293822813592, -10.249942699898932]]}}, {"type": "Feature", "properties": {"layer": "PDF_LAGO", "dxf_type": "LINE"}, "geometry": {"type": "LineString", "coordinates": [[-54.98293822813592, -10.249942699898932], [-54.982945375691216, -10.249925548180983]]}}, {"type": "Feature", "properties": {"layer": "PDF_LAGO", "dxf_type": "LINE"}, "geometry": {"type": "LineString", "coordinates": [[-54.982945375691216, -10.249925548180983], [-54.9829595228606, -10.249914481680173]]}}, {"type": "Feature", "properties": {"layer": "PDF_LAGO", "dxf_type": "LINE"}, "geometry": {"type": "LineString", "coordinates": [[-54.9829595228606, -10.249914481680173], [-54.9829722736773, -10.249901547157505]]}}, {"type": "Feature", "properties": {"layer": "PDF_LAGO", "dxf_type": "LINE"}, "geometry": {"type": "LineString", "coordinates": [[-54.9829722736773, -10.249901547157505], [-54.98298549153369, -10.24988908014554]]}}, {"type": "Feature", "properties": {"layer": "PDF_LAGO", "dxf_type": "LINE"}, "geometry": {"type": "LineString", "coordinates": [[-54.98298549153369, -10.24988908014554], [-54.983001967308375, -10.249880816674805]]}}, {"type": "Feature", "properties": {"layer": "PDF_LAGO", "dxf_type": "LINE"}, "geometry": {"type": "LineString", "coordinates": [[-54.983001967308375, -10.249880816674805], [-54.98301890038628, -10.249874415395354]]}}, {"type": "Feature", "properties": {"layer": "PDF_LAGO", "dxf_type": "LINE"}, "geometry": {"type": "LineString", "coordinates": [[-54.98301890038628, -10.249874415395354], [-54.98303629959188, -10.249868481620554]]}}, {"type": "Feature", "properties": {"layer": "PDF_LAGO", "dxf_type": "LINE"}, "geometry": {"type": "LineString", "coordinates": [[-54.98303629959188, -10.249868481620554], [-54.983053695857535, -10.249863012438942]]}}, {"type": "Feature", "properties": {"layer": "PDF_LAGO", "dxf_type": "LINE"}, "geometry": {"type": "LineString", "coordinates": [[-54.983053695857535, -10.249863012438942], [-54.98307155237218, -10.249858939950423]]}}, {"type": "Feature", "properties": {"layer": "PDF_LAGO", "dxf_type": "LINE"}, "geometry": {"type": "LineString", "coordinates": [[-54.98307155237218, -10.249858939950423], [-54.983088943665116, -10.249854400864756]]}}, {"type": "Feature", "properties": {"layer": "PDF_LAGO", "dxf_type": "LINE"}, "geometry": {"type": "LineString", "coordinates": [[-54.983088943665116, -10.249854400864756], [-54.98310725454431, -10.249852655160634]]}}, {"type": "Feature", "properties": {"layer": "PDF_LAGO", "dxf_type": "LINE"}, "geometry": {"type": "LineString", "coordinates": [[-54.98310725454431, -10.249852655160634], [-54.983125557512324, -10.249852304147764]]}}, {"type": "Feature", "properties": {"layer": "PDF_LAGO", "dxf_type": "LINE"}, "geometry": {"type": "LineString", "coordinates": [[-54.983125557512324, -10.249852304147764], [-54.9831438566286, -10.249852417722458]]}}, {"type": "Feature", "properties": {"layer": "PDF_LAGO", "dxf_type": "LINE"}, "geometry": {"type": "LineString", "coordinates": [[-54.9831438566286, -10.249852417722458], [-54.98316215665767, -10.24985253130179]]}}, {"type": "Feature", "properties": {"layer": "PDF_LAGO", "dxf_type": "LINE"}, "geometry": {"type": "LineString", "coordinates": [[-54.98316215665767, -10.24985253130179], [-54.983180455774374, -10.249852644874426]]}}, {"type": "Feature", "properties": {"layer": "PDF_LAGO", "dxf_type": "LINE"}, "geometry": {"type": "LineString", "coordinates": [[-54.983180455774374, -10.249852644874426], [-54.983198755803876, -10.2498527584517]]}}, {"type": "Feature", "properties": {"layer": "PDF_LAGO", "dxf_type": "LINE"}, "geometry": {"type": "LineString", "coordinates": [[-54.983198755803876, -10.2498527584517], [-54.983217054921006, -10.249852872022279]]}}, {"type": "Feature", "properties": {"layer": "PDF_LAGO", "dxf_type": "LINE"}, "geometry": {"type": "LineString", "coordinates": [[-54.983217054921006, -10.249852872022279], [-54.98323535495093, -10.249852985597498]]}}, {"type": "Feature", "properties": {"layer": "PDF_LAGO", "dxf_type": "LINE"}, "geometry": {"type": "LineString", "coordinates": [[-54.98323535495093, -10.249852985597498], [-54.983253654068484, -10.249853099166021]]}}, {"type": "Feature", "properties": {"layer": "PDF_LAGO", "dxf_type": "LINE"}, "geometry": {"type": "LineString", "coordinates": [[-54.983253654068484, -10.249853099166021], [-54.98327195409884, -10.249853212739179]]}}, {"type": "Feature", "properties": {"layer": "PDF_LAGO", "dxf_type": "LINE"}, "geometry": {"type": "LineString", "coordinates": [[-54.98327195409884, -10.249853212739179], [-54.98329025321682, -10.249853326305642]]}}, {"type": "Feature", "properties": {"layer": "PDF_LAGO", "dxf_type": "LINE"}, "geometry": {"type": "LineString", "coordinates": [[-54.98329025321682, -10.249853326305642], [-54.9833085532476, -10.249853439876743]]}}, {"type": "Feature", "properties": {"layer": "PDF_LAGO", "dxf_type": "LINE"}, "geometry": {"type": "LineString", "coordinates": [[-54.9833085532476, -10.249853439876743], [-54.98332685236601, -10.249853553441149]]}}, {"type": "Feature", "properties": {"layer": "PDF_LAGO", "dxf_type": "LINE"}, "geometry": {"type": "LineString", "coordinates": [[-54.98332685236601, -10.249853553441149], [-54.98334515239722, -10.24985366701019]]}}, {"type": "Feature", "properties": {"layer": "PDF_LAGO", "dxf_type": "LINE"}, "geometry": {"type": "LineString", "coordinates": [[-54.98334515239722, -10.24985366701019], [-54.98336345151606, -10.24985378057254]]}}, {"type": "Feature", "properties": {"layer": "PDF_LAGO", "dxf_type": "LINE"}, "geometry": {"type": "LineString", "coordinates": [[-54.98336345151606, -10.24985378057254], [-54.983380777220404, -10.249859465251772]]}}, {"type": "Feature", "properties": {"layer": "PDF_LAGO", "dxf_type": "LINE"}, "geometry": {"type": "LineString", "coordinates": [[-54.983380777220404, -10.249859465251772], [-54.98339810292553, -10.249865149930176]]}}, {"type": "Feature", "properties": {"layer": "PDF_LAGO", "dxf_type": "LINE"}, "geometry": {"type": "LineString", "coordinates": [[-54.98339810292553, -10.249865149930176], [-54.983416397080354, -10.249866192684031]]}}, {"type": "Feature", "properties": {"layer": "PDF_LAGO", "dxf_type": "LINE"}, "geometry": {"type": "LineString", "coordinates": [[-54.983416397080354, -10.249866192684031], [-54.98343469620072, -10.24986630624251]]}}, {"type": "Feature", "properties": {"layer": "PDF_LAGO", "dxf_type": "LINE"}, "geometry": {"type": "LineString", "coordinates": [[-54.98343469620072, -10.24986630624251], [-54.98345299329501, -10.249866884399976]]}}, {"type": "Feature", "properties": {"layer": "PDF_LAGO", "dxf_type": "LINE"}, "geometry": {"type": "LineString", "coordinates": [[-54.98345299329501, -10.249866884399976], [-54.98347129241582, -10.249866997956401]]}}, {"type": "Feature", "properties": {"layer": "PDF_LAGO", "dxf_type": "LINE"}, "geometry": {"type": "LineString", "coordinates": [[-54.98347129241582, -10.249866997956401], [-54.98348959244944, -10.249867111517458]]}}, {"type": "Feature", "properties": {"layer": "PDF_LAGO", "dxf_type": "LINE"}, "geometry": {"type": "LineString", "coordinates": [[-54.98348959244944, -10.249867111517458], [-54.98350789157069, -10.249867225071826]]}}, {"type": "Feature", "properties": {"layer": "PDF_LAGO", "dxf_type": "LINE"}, "geometry": {"type": "LineString", "coordinates": [[-54.98350789157069, -10.249867225071826], [-54.98351680751005, -10.24986728039891]]}}, {"type": "Feature", "properties": {"layer": "PDF_LAGO", "dxf_type": "LINE"}, "geometry": {"type": "LineString", "coordinates": [[-54.98351680751005, -10.24986728039891], [-54.98351871317491, -10.249862645194279]]}}, {"type": "Feature", "properties": {"layer": "PDF_LAGO", "dxf_type": "LINE"}, "geometry": {"type": "LineString", "coordinates": [[-54.98351871317491, -10.249862645194279], [-54.98351920870316, -10.249858464947884]]}}, {"type": "Feature", "properties": {"layer": "PDF_LAGO", "dxf_type": "LINE"}, "geometry": {"type": "LineString", "coordinates": [[-54.98351920870316, -10.249858464947884], [-54.98352250870271, -10.249856161458668]]}}, {"type": "Feature", "properties": {"layer": "PDF_LAGO", "dxf_type": "LINE"}, "geometry": {"type": "LineString", "coordinates": [[-54.98352250870271, -10.249856161458668], [-54.98352955242287, -10.249855275942284]]}}, {"type": "Feature", "properties": {"layer": "PDF_LAGO", "dxf_type": "LINE"}, "geometry": {"type": "LineString", "coordinates": [[-54.98352955242287, -10.249855275942284], [-54.98353425962583, -10.2498529811851]]}}, {"type": "Feature", "properties": {"layer": "PDF_LAGO", "dxf_type": "LINE"}, "geometry": {"type": "LineString", "coordinates": [[-54.98353425962583, -10.2498529811851], [-54.98353848214887, -10.249853007387253]]}}, {"type": "Feature", "properties": {"layer": "PDF_LAGO", "dxf_type": "LINE"}, "geometry": {"type": "LineString", "coordinates": [[-54.98353848214887, -10.249853007387253], [-54.98354364959766, -10.249852110227678]]}}, {"type": "Feature", "properties": {"layer": "PDF_LAGO", "dxf_type": "LINE"}, "geometry": {"type": "LineString", "coordinates": [[-54.98354364959766, -10.249852110227678], [-54.98355960925691, -10.24985128003663]]}}, {"type": "Feature", "properties": {"layer": "PDF_LAGO", "dxf_type": "LINE"}, "geometry": {"type": "LineString", "coordinates": [[-54.98355960925691, -10.24985128003663], [-54.98357792601587, -10.249848605116634]]}}]}