{"type": "FeatureCollection", "name": "perimetro", "crs": {"type": "name", "properties": {"name": "urn:ogc:def:crs:OGC:1.3:CRS84"}}, "properties": {"source": "8be78050_MAPA TRIBUTAÇÃO 2021 (1).dxf", "assumed_crs": "EPSG:4326", "local_crs": false, "note": "Coordenadas locais do desenho (sem CRS). Use base 'Só CAD' no mapa.", "extent": [4300.4554, 2373.7696, 8215.3349, 6186.7838], "georef": true, "transform": {"scale": 1, "rotation_deg": 0, "tx": 713717.6034368816, "ty": 8862616.121289995, "rmse_m": 0, "epsg": 31981}, "layer": "PERIMETRO", "source_file": "8be78050_MAPA TRIBUTAÇÃO 2021 (1)_georef.geojson", "n_features": 68}, "features": [{"type": "Feature", "properties": {"layer": "PERIMETRO", "dxf_type": "LINE"}, "geometry": {"type": "LineString", "coordinates": [[-54.99893734873705, -10.243941324927135], [-54.99870965415064, -10.243658721843431]]}}, {"type": "Feature", "properties": {"layer": "PERIMETRO", "dxf_type": "LINE"}, "geometry": {"type": "LineString", "coordinates": [[-54.99870965415064, -10.243658721843431], [-54.99892088178652, -10.243956132901868]]}}, {"type": "Feature", "properties": {"layer": "PERIMETRO", "dxf_type": "LINE"}, "geometry": {"type": "LineString", "coordinates": [[-54.99892088178652, -10.243956132901868], [-54.99893734873705, -10.243941324927135]]}}, {"type": "Feature", "properties": {"layer": "PERIMETRO", "dxf_type": "LINE"}, "geometry": {"type": "LineString", "coordinates": [[-54.99927601657888, -10.240373961629892], [-54.99926690694251, -10.240284022075299]]}}, {"type": "Feature", "properties": {"layer": "PERIMETRO", "dxf_type": "LINE"}, "geometry": {"type": "LineString", "coordinates": [[-54.99926690694251, -10.240284022075299], [-54.999061460953904, -10.240288043477907]]}}, {"type": "Feature", "properties": {"layer": "PERIMETRO", "dxf_type": "LINE"}, "geometry": {"type": "LineString", "coordinates": [[-54.999061460953904, -10.240288043477907], [-54.99906309998533, -10.240378419763585]]}}, {"type": "Feature", "properties": {"layer": "PERIMETRO", "dxf_type": "LINE"}, "geometry": {"type": "LineString", "coordinates": [[-54.99906309998533, -10.240378419763585], [-54.99927601657888, -10.240373961629892]]}}, {"type": "Feature", "properties": {"layer": "PERIMETRO", "dxf_type": "LINE"}, "geometry": {"type": "LineString", "coordinates": [[-54.997595831712644, -10.24155128037578], [-54.99767774388589, -10.24149476342472]]}}, {"type": "Feature", "properties": {"layer": "PERIMETRO", "dxf_type": "LINE"}, "geometry": {"type": "LineString", "coordinates": [[-54.99767774388589, -10.24149476342472], [-54.99756311957999, -10.24134100084849]]}}, {"type": "Feature", "properties": {"layer": "PERIMETRO", "dxf_type": "LINE"}, "geometry": {"type": "LineString", "coordinates": [[-54.99756311957999, -10.24134100084849], [-54.99748082547475, -10.241396287895029]]}}, {"type": "Feature", "properties": {"layer": "PERIMETRO", "dxf_type": "LINE"}, "geometry": {"type": "LineString", "coordinates": [[-54.99748082547475, -10.241396287895029], [-54.99753663853414, -10.241470134084526]]}}, {"type": "Feature", "properties": {"layer": "PERIMETRO", "dxf_type": "LINE"}, "geometry": {"type": "LineString", "coordinates": [[-54.99753663853414, -10.241470134084526], [-54.997595831712644, -10.24155128037578]]}}, {"type": "Feature", "properties": {"layer": "PERIMETRO", "dxf_type": "LINE"}, "geometry": {"type": "LineString", "coordinates": [[-54.99722319021361, -10.240939245249928], [-54.99713107461976, -10.240850916087881]]}}, {"type": "Feature", "properties": {"layer": "PERIMETRO", "dxf_type": "LINE"}, "geometry": {"type": "LineString", "coordinates": [[-54.99713107461976, -10.240850916087881], [-54.99714840565098, -10.240837275953671]]}}, {"type": "Feature", "properties": {"layer": "PERIMETRO", "dxf_type": "LINE"}, "geometry": {"type": "LineString", "coordinates": [[-54.99714840565098, -10.240837275953671], [-54.997166242941546, -10.24082323669007]]}}, {"type": "Feature", "properties": {"layer": "PERIMETRO", "dxf_type": "LINE"}, "geometry": {"type": "LineString", "coordinates": [[-54.997166242941546, -10.24082323669007], [-54.997185038627, -10.240808444031627]]}}, {"type": "Feature", "properties": {"layer": "PERIMETRO", "dxf_type": "LINE"}, "geometry": {"type": "LineString", "coordinates": [[-54.997185038627, -10.240808444031627], [-54.99725973641726, -10.240913625329213]]}}, {"type": "Feature", "properties": {"layer": "PERIMETRO", "dxf_type": "LINE"}, "geometry": {"type": "LineString", "coordinates": [[-54.99725973641726, -10.240913625329213], [-54.99722319021361, -10.240939245249928]]}}, {"type": "Feature", "properties": {"layer": "PERIMETRO", "dxf_type": "LINE"}, "geometry": {"type": "LineString", "coordinates": [[-54.99932365381181, -10.242506892168024], [-54.999322751347286, -10.242416505947372]]}}, {"type": "Feature", "properties": {"layer": "PERIMETRO", "dxf_type": "LINE"}, "geometry": {"type": "LineString", "coordinates": [[-54.999322751347286, -10.242416505947372], [-54.99910172182762, -10.242472522582933]]}}, {"type": "Feature", "properties": {"layer": "PERIMETRO", "dxf_type": "LINE"}, "geometry": {"type": "LineString", "coordinates": [[-54.99910172182762, -10.242472522582933], [-54.99910261873401, -10.242562911470051]]}}, {"type": "Feature", "properties": {"layer": "PERIMETRO", "dxf_type": "LINE"}, "geometry": {"type": "LineString", "coordinates": [[-54.99910261873401, -10.242562911470051], [-54.99932365381181, -10.242506892168024]]}}, {"type": "Feature", "properties": {"layer": "PERIMETRO", "dxf_type": "LINE"}, "geometry": {"type": "LineString", "coordinates": [[-54.999324555359316, -10.242597278382702], [-54.99932365381181, -10.242506892168024]]}}, {"type": "Feature", "properties": {"layer": "PERIMETRO", "dxf_type": "LINE"}, "geometry": {"type": "LineString", "coordinates": [[-54.99932365381181, -10.242506892168024], [-54.99910261873401, -10.242562911470051]]}}, {"type": "Feature", "properties": {"layer": "PERIMETRO", "dxf_type": "LINE"}, "geometry": {"type": "LineString", "coordinates": [[-54.99910261873401, -10.242562911470051], [-54.99910352021582, -10.24265329767319]]}}, {"type": "Feature", "properties": {"layer": "PERIMETRO", "dxf_type": "LINE"}, "geometry": {"type": "LineString", "coordinates": [[-54.99910352021582, -10.24265329767319], [-54.999324555359316, -10.242597278382702]]}}, {"type": "Feature", "properties": {"layer": "PERIMETRO", "dxf_type": "LINE"}, "geometry": {"type": "LineString", "coordinates": [[-55.00664394005544, -10.25395918041865], [-55.006644788183735, -10.253823596508106]]}}, {"type": "Feature", "properties": {"layer": "PERIMETRO", "dxf_type": "LINE"}, "geometry": {"type": "LineString", "coordinates": [[-55.00671280971134, -10.253891808470796], [-55.00657591853375, -10.253890968441862]]}}, {"type": "Feature", "properties": {"layer": "PERIMETRO", "dxf_type": "CIRCLE", "radius_m": 3}, "geometry": {"type": "Polygon", "coordinates": [[[-55.006616985885785, -10.253891220456588], [-55.0066175446423, -10.253885933198235], [-55.006619134286, -10.253880855649642], [-55.006621694270365, -10.253876183591474], [-55.00662512491985, -10.253872094485748], [-55.00662929472509, -10.253868748424518], [-55.006634043188136, -10.253866270972692], [-55.00663918899639, -10.253864759545717], [-55.00664453374649, -10.253864271681397], [-55.00664987107039, -10.253864825095803], [-55.006654997575346, -10.253866399558401], [-55.006659715593024, -10.253868935100929], [-55.00666384321819, -10.25387233207908], [-55.00666722244867, -10.253876462973482], [-55.00666972287534, -10.253881166084817], [-55.00667124887559, -10.253886262752614], [-55.00667174235682, -10.253891556468163], [-55.006671182694205, -10.253896842817266], [-55.00666959305116, -10.253901920366271], [-55.0066670339741, -10.253906593334392], [-55.00666360333026, -10.253910681536679], [-55.00665943351902, -10.253914028502214], [-55.00665468414836, -10.253916505044797], [-55.00664953833924, -10.253918016471872], [-55.00664419449517, -10.253918505245611], [-55.006638856263464, -10.25391795092144], [-55.00663372975785, -10.253916376458449], [-55.006629012646776, -10.253913841824964], [-55.00662488502727, -10.25391044394244], [-55.0066215057915, -10.253906313951548], [-55.00661900445853, -10.253901609930455], [-55.006617478459134, -10.253896513262541], [-55.006616985885785, -10.253891220456588]]]}}, {"type": "Feature", "properties": {"layer": "PERIMETRO", "dxf_type": "LINE"}, "geometry": {"type": "LineString", "coordinates": [[-55.00478218172589, -10.252378049465039], [-55.0047830305123, -10.25224246569572]]}}, {"type": "Feature", "properties": {"layer": "PERIMETRO", "dxf_type": "LINE"}, "geometry": {"type": "LineString", "coordinates": [[-55.00489662723923, -10.252267418365852], [-55.00475973691116, -10.25226657770354]]}}, {"type": "Feature", "properties": {"layer": "PERIMETRO", "dxf_type": "CIRCLE", "radius_m": 3}, "geometry": {"type": "Polygon", "coordinates": [[[-55.00475522805225, -10.252310089442373], [-55.00475578683124, -10.25230480219205], [-55.00475737648447, -10.252299725560114], [-55.00475993648182, -10.252295052615068], [-55.00476336712483, -10.25229096443383], [-55.004767536926785, -10.252287617492103], [-55.00477228536749, -10.25228514096946], [-55.004777431157564, -10.252283628664822], [-55.004782775877615, -10.252283140826641], [-55.004788114079034, -10.252283694271707], [-55.00479323962692, -10.2522852696556], [-55.00479795760922, -10.252287804314312], [-55.004802085187066, -10.252291202212728], [-55.00480546438249, -10.252295332215272], [-55.00480796476532, -10.252300036237742], [-55.00480949073704, -10.252305132003817], [-55.00480998418937, -10.252310425716379], [-55.004809424498646, -10.252315712961341], [-55.0048078348404, -10.252320790497578], [-55.00480527576167, -10.252325462544801], [-55.00480184511865, -10.25232955072649], [-55.00479767531633, -10.252332897668628], [-55.00479292596238, -10.252335374185918], [-55.00478778108404, -10.252336886496261], [-55.00478243636306, -10.252337374334372], [-55.004777098160794, -10.252336820889026], [-55.004771971699654, -10.25233524549914], [-55.0047672546296, -10.25233271084558], [-55.00476312705176, -10.252329312946687], [-55.004759747856696, -10.252325182943755], [-55.00475724655626, -10.252320479819309], [-55.004755720591056, -10.252315383149227], [-55.00475522805225, -10.252310089442373]]]}}, {"type": "Feature", "properties": {"layer": "PERIMETRO", "dxf_type": "LINE"}, "geometry": {"type": "LineString", "coordinates": [[-55.00272953908979, -10.250535877277644], [-55.002730388593115, -10.250400293663374]]}}, {"type": "Feature", "properties": {"layer": "PERIMETRO", "dxf_type": "LINE"}, "geometry": {"type": "LineString", "coordinates": [[-55.002798408534396, -10.250468506163486], [-55.00266151915443, -10.250467664763438]]}}, {"type": "Feature", "properties": {"layer": "PERIMETRO", "dxf_type": "CIRCLE", "radius_m": 3}, "geometry": {"type": "Polygon", "coordinates": [[[-55.00270258596717, -10.250467917189495], [-55.00270314477044, -10.250462629947986], [-55.002704735357874, -10.250457552431707], [-55.002707294449614, -10.250452879499628], [-55.0027107250904, -10.250448791340892], [-55.00271489488101, -10.250445444424678], [-55.00271964421427, -10.250442967935248], [-55.00272478905813, -10.250441456557478], [-55.00273013374336, -10.25044096874778], [-55.002735471904444, -10.250441522220168], [-55.00274059832631, -10.250443096730836], [-55.00274531534947, -10.250445631405789], [-55.00274944288031, -10.250449029322029], [-55.00275282203005, -10.250453159337646], [-55.0027553223703, -10.250457863367968], [-55.002756849211096, -10.250462960045878], [-55.00275734171916, -10.250468253749515], [-55.00275678292242, -10.250473540087413], [-55.002755192335634, -10.25047861760407], [-55.00275263324424, -10.250483290536609], [-55.002749202603454, -10.25048737869583], [-55.002745032812484, -10.250490725612426], [-55.002740284391166, -10.250493202107748], [-55.00273513863385, -10.250494713480002], [-55.00272979394203, -10.250495202193488], [-55.00272445578575, -10.250494647816968], [-55.00271933027584, -10.250493073311516], [-55.00271461233972, -10.250490538630478], [-55.002710484808894, -10.250487140713783], [-55.00270710565951, -10.250483010697751], [-55.00270460531992, -10.250478306667166], [-55.002703078479975, -10.25047320998917], [-55.00270258596717, -10.250467917189495]]]}}, {"type": "Feature", "properties": {"layer": "PERIMETRO", "dxf_type": "LINE"}, "geometry": {"type": "LineString", "coordinates": [[-55.00179940978534, -10.251252084888764], [-55.00180025974478, -10.251116501357712]]}}, {"type": "Feature", "properties": {"layer": "PERIMETRO", "dxf_type": "LINE"}, "geometry": {"type": "LineString", "coordinates": [[-55.00186827957273, -10.25118471404113], [-55.00173138996332, -10.251183872191246]]}}, {"type": "Feature", "properties": {"layer": "PERIMETRO", "dxf_type": "CIRCLE", "radius_m": 3}, "geometry": {"type": "Polygon", "coordinates": [[[-55.0017724568449, -10.251184124752257], [-55.00177301566684, -10.251178837515708], [-55.001774605355735, -10.251173760905962], [-55.00177716538009, -10.251169087990688], [-55.001780596040405, -10.251164999845649], [-55.001784765849315, -10.251161652945152], [-55.00178951428633, -10.251159176467187], [-55.00179466006225, -10.251157664208966], [-55.001800004758195, -10.251157176417152], [-55.00180534201388, -10.251157729901145], [-55.001810468433504, -10.251159305331631], [-55.001815186368766, -10.251161840026226], [-55.001819313895204, -10.251165237954012], [-55.001822693036836, -10.251169367978315], [-55.00182519336555, -10.251174072014072], [-55.001826719284914, -10.251179167784466], [-55.00182721268866, -10.251184461492212], [-55.00182665295497, -10.25118974872341], [-55.001825063261066, -10.251194826237436], [-55.00182250415533, -10.251199498254895], [-55.00181907349501, -10.251203586400406], [-55.00181490368574, -10.251206933301297], [-55.001810154335466, -10.251209409773919], [-55.001805008558684, -10.25121092203222], [-55.00179966477442, -10.251211409829573], [-55.00179432660528, -10.251210856339695], [-55.00178920018501, -10.25120928090883], [-55.001784483161984, -10.251206746219385], [-55.00178035563555, -10.25120334829113], [-55.001776976494284, -10.251199218266429], [-55.00177447524796, -10.251194515128683], [-55.00177294933511, -10.251189418454302], [-55.0017724568449, -10.251184124752257]]]}}, {"type": "Feature", "properties": {"layer": "PERIMETRO", "dxf_type": "LINE"}, "geometry": {"type": "LineString", "coordinates": [[-54.999473431476915, -10.248534034413211], [-54.999474282194875, -10.248398451052916]]}}, {"type": "Feature", "properties": {"layer": "PERIMETRO", "dxf_type": "LINE"}, "geometry": {"type": "LineString", "coordinates": [[-54.99954230096262, -10.248466664030266], [-54.9994054127151, -10.24846582142177]]}}, {"type": "Feature", "properties": {"layer": "PERIMETRO", "dxf_type": "CIRCLE", "radius_m": 3}, "geometry": {"type": "Polygon", "coordinates": [[[-54.99944647918811, -10.248466074210363], [-54.99944703894134, -10.248460787892895], [-54.99944862864886, -10.248455710394305], [-54.99945118776168, -10.24845103749334], [-54.99945461841111, -10.24844694937234], [-54.999458788197614, -10.248443602499083], [-54.99946353751415, -10.248441126056118], [-54.999468683241936, -10.248439614732192], [-54.999474026980735, -10.248439126061132], [-54.999479365087296, -10.24843968048357], [-54.99948449145285, -10.248441255036687], [-54.99948920841442, -10.248443789748741], [-54.99949333679331, -10.248447187700888], [-54.99949671496548, -10.248451317733268], [-54.99949921615538, -10.248456021782758], [-54.99950074202513, -10.248461118459268], [-54.99950123448712, -10.248466411253762], [-54.999500675641656, -10.24847169848098], [-54.99949908593479, -10.248476775979983], [-54.99949652591541, -10.248481447971901], [-54.999493096178554, -10.248485536098965], [-54.99948892547911, -10.248488882967004], [-54.99948417706883, -10.248491360319743], [-54.99947903134019, -10.248492871643766], [-54.99947368669355, -10.248493359405249], [-54.99946834949305, -10.248492805892042], [-54.999463223126845, -10.248491231338528], [-54.99945850525801, -10.248488695716505], [-54.999454377791714, -10.248485297769507], [-54.99945099870732, -10.248481167731132], [-54.99944849842498, -10.248476464590883], [-54.99944697255609, -10.248471367914258], [-54.99944647918811, -10.248466074210363]]]}}, {"type": "Feature", "properties": {"layer": "PERIMETRO", "dxf_type": "LINE"}, "geometry": {"type": "LineString", "coordinates": [[-54.99830536366926, -10.249467830105699], [-54.99830621496296, -10.249332246850361]]}}, {"type": "Feature", "properties": {"layer": "PERIMETRO", "dxf_type": "LINE"}, "geometry": {"type": "LineString", "coordinates": [[-54.99837423359416, -10.2494004600591], [-54.99823734504399, -10.249399616882867]]}}, {"type": "Feature", "properties": {"layer": "PERIMETRO", "dxf_type": "CIRCLE", "radius_m": 3}, "geometry": {"type": "Polygon", "coordinates": [[[-54.99827841160779, -10.249399869841783], [-54.998278970477735, -10.249394582621083], [-54.99828056020463, -10.249389506036778], [-54.99828311934295, -10.249384833149934], [-54.998286550017355, -10.249380745046242], [-54.998290719827345, -10.249377398192799], [-54.998295469164994, -10.249374921771404], [-54.99830061491637, -10.249373409566106], [-54.9983059595761, -10.249372921827087], [-54.99831129678534, -10.249373475361782], [-54.998316423150015, -10.249375050838879], [-54.998321141024, -10.249377585574242], [-54.99832526848515, -10.249380983535369], [-54.998328647559994, -10.249385113584307], [-54.998331147822995, -10.24938981763504], [-54.99833267368026, -10.249394913410187], [-54.998333167027866, -10.249400207112275], [-54.99833260724619, -10.249405494327613], [-54.99833101751427, -10.2494105718162], [-54.99832845838198, -10.24941524379962], [-54.99832502770756, -10.249419331903779], [-54.99832085789721, -10.249422678757616], [-54.99831610855891, -10.249425155179278], [-54.998310962806684, -10.249426667384693], [-54.99830561905861, -10.249427155129222], [-54.99830028093592, -10.249426601588665], [-54.9982951545706, -10.24942502611116], [-54.998290436696266, -10.24942249137533], [-54.99828630923512, -10.249419093413739], [-54.998282930160634, -10.249414963364403], [-54.99828042989262, -10.24941026021729], [-54.99827890404188, -10.249405163538164], [-54.99827841160779, -10.249399869841783]]]}}, {"type": "Feature", "properties": {"layer": "PERIMETRO", "dxf_type": "LINE"}, "geometry": {"type": "LineString", "coordinates": [[-54.99778752423793, -10.248850684602704], [-54.9977883756994, -10.248715101385338]]}}, {"type": "Feature", "properties": {"layer": "PERIMETRO", "dxf_type": "LINE"}, "geometry": {"type": "LineString", "coordinates": [[-54.99785639409252, -10.248783314659008], [-54.99771950585074, -10.248782471314941]]}}, {"type": "Feature", "properties": {"layer": "PERIMETRO", "dxf_type": "CIRCLE", "radius_m": 3}, "geometry": {"type": "Polygon", "coordinates": [[[-54.99776057232203, -10.248782724324206], [-54.99776113119733, -10.248777437105634], [-54.99776272184528, -10.248772359626393], [-54.997765280978015, -10.24876768764786], [-54.99776871164984, -10.248763599549488], [-54.99777288145466, -10.248760252702079], [-54.99777763079042, -10.248757775383305], [-54.997782775613864, -10.248756264082978], [-54.99778812026221, -10.248755776350675], [-54.99779345837136, -10.248756329897375], [-54.99779858472823, -10.248757904476468], [-54.99780330167019, -10.248760440115198], [-54.99780742911782, -10.24876383808047], [-54.997810808179906, -10.248767968132428], [-54.99781330843708, -10.248772671281063], [-54.997814835191456, -10.248777767966205], [-54.99781532761874, -10.248783061661836], [-54.99781476874997, -10.248788347976783], [-54.997813178102675, -10.248793425456412], [-54.99781061896461, -10.248798098339298], [-54.99780718829278, -10.24880218643814], [-54.9978030184876, -10.24880553328594], [-54.99779827006945, -10.248808009706721], [-54.99779312433256, -10.248809521001501], [-54.997787779677616, -10.248810009637621], [-54.997782441573285, -10.248809455186755], [-54.99777731612835, -10.248807880612912], [-54.99777259826778, -10.24880534587198], [-54.997768470820155, -10.248801947906246], [-54.997765091758424, -10.248797817853887], [-54.99776259150758, -10.248793113801101], [-54.997761064754066, -10.248788017115864], [-54.99776057232203, -10.248782724324206]]]}}, {"type": "Feature", "properties": {"layer": "PERIMETRO", "dxf_type": "LINE"}, "geometry": {"type": "LineString", "coordinates": [[-54.996932378004054, -10.249540742150334], [-54.996933229887624, -10.249405159009912]]}}, {"type": "Feature", "properties": {"layer": "PERIMETRO", "dxf_type": "LINE"}, "geometry": {"type": "LineString", "coordinates": [[-54.99700124818183, -10.249473372453217], [-54.99686435971578, -10.249472528692937]]}}, {"type": "Feature", "properties": {"layer": "PERIMETRO", "dxf_type": "CIRCLE", "radius_m": 3}, "geometry": {"type": "Polygon", "coordinates": [[[-54.996905426254344, -10.249472781827066], [-54.99690598605389, -10.249467495522605], [-54.99690757580763, -10.24946241804537], [-54.99691013496479, -10.249457745173299], [-54.99691356565499, -10.249453657087612], [-54.996917735477105, -10.24945031025473], [-54.99692248482274, -10.249447833855656], [-54.996927630571996, -10.249446322577464], [-54.9969329743238, -10.249445833952167], [-54.9969383124344, -10.249446388418717], [-54.99694343879489, -10.249447963012532], [-54.996948156655066, -10.249450497765968], [-54.996952284098995, -10.249453895741937], [-54.99695566315387, -10.24945802580192], [-54.99695816339491, -10.24946272985947], [-54.99695968922341, -10.249467826540839], [-54.996960181640766, -10.24947311933118], [-54.99695962274899, -10.249478406545414], [-54.9969580329959, -10.249483484023044], [-54.996955473844764, -10.249488155991692], [-54.996952043154565, -10.249492244077842], [-54.9969478733321, -10.249495590911122], [-54.996943123980124, -10.249498068214352], [-54.996937978230015, -10.249499579492637], [-54.99693263357037, -10.249500067208336], [-54.99692729636582, -10.249499513651035], [-54.99692217000468, -10.249497939056829], [-54.99691745214984, -10.249495403399042], [-54.996913324705915, -10.249492005422605], [-54.996909945651396, -10.249487875362227], [-54.996907445405334, -10.249483172208295], [-54.99690591957769, -10.249478075526829], [-54.996905426254344, -10.249472781827066]]]}}, {"type": "Feature", "properties": {"layer": "PERIMETRO", "dxf_type": "LINE"}, "geometry": {"type": "LineString", "coordinates": [[-54.99631776786948, -10.248748617226697], [-54.99631861994707, -10.248613034130884]]}}, {"type": "Feature", "properties": {"layer": "PERIMETRO", "dxf_type": "LINE"}, "geometry": {"type": "LineString", "coordinates": [[-54.99638663794844, -10.248681247649035], [-54.99624974987405, -10.248680403694454]]}}, {"type": "Feature", "properties": {"layer": "PERIMETRO", "dxf_type": "CIRCLE", "radius_m": 3}, "geometry": {"type": "Polygon", "coordinates": [[[-54.996290816295115, -10.248680656886872], [-54.996291375188136, -10.24867537057927], [-54.996292965857286, -10.248670293111548], [-54.99629552501392, -10.248665620244608], [-54.996298955700254, -10.24866153216511], [-54.996303125515325, -10.248658185339226], [-54.99630787393841, -10.248655708942065], [-54.99631301967518, -10.248654197671671], [-54.996318364325035, -10.248653709059754], [-54.996323702419616, -10.248654263533712], [-54.99632882785061, -10.248655838128684], [-54.99633354569366, -10.248658372888016], [-54.996337673120884, -10.248661770868765], [-54.99634105216014, -10.248665900932227], [-54.99634355238724, -10.24867060499183], [-54.996345078204, -10.248675701673735], [-54.99634557152487, -10.248680994468705], [-54.99634501171444, -10.248686281674827], [-54.99634342195853, -10.248691359148571], [-54.996340862807926, -10.248696031112086], [-54.996337432121585, -10.248700119192057], [-54.99633326230616, -10.248703466018332], [-54.99632851296414, -10.248705943314016], [-54.99632336813911, -10.248707454590136], [-54.996318023494005, -10.24870794229808], [-54.996312685392894, -10.248707388727746], [-54.99630755904866, -10.248705814126755], [-54.996302842123534, -10.248703278468698], [-54.9962987146963, -10.248699880487486], [-54.99629533565741, -10.248695750423625], [-54.99629283542529, -10.248691047267643], [-54.99629130869679, -10.248685950580015], [-54.996290816295115, -10.248680656886872]]]}}, {"type": "Feature", "properties": {"layer": "PERIMETRO", "dxf_type": "LINE"}, "geometry": {"type": "LineString", "coordinates": [[-54.99447863922551, -10.251056116990704], [-54.99447949228103, -10.250920534067372]]}}, {"type": "Feature", "properties": {"layer": "PERIMETRO", "dxf_type": "LINE"}, "geometry": {"type": "LineString", "coordinates": [[-54.99454751021127, -10.250988747980466], [-54.994410621301206, -10.250987903063516]]}}, {"type": "Feature", "properties": {"layer": "PERIMETRO", "dxf_type": "CIRCLE", "radius_m": 3}, "geometry": {"type": "Polygon", "coordinates": [[[-54.994451687972976, -10.250988156544643], [-54.99445224691305, -10.250982869343586], [-54.9944538376284, -10.250977791893286], [-54.99445639682861, -10.250973119953981], [-54.994459827571056, -10.250969030999762], [-54.99446399743009, -10.250965685111222], [-54.994468745905834, -10.250963207846638], [-54.99447389168508, -10.250961696614297], [-54.99447923636562, -10.250961208944497], [-54.99448457449473, -10.25096176255144], [-54.994489699945944, -10.25096333718057], [-54.99449441779413, -10.250965872873879], [-54.99449854522805, -10.250969269975617], [-54.994501924252766, -10.250973400961675], [-54.99450442446718, -10.25097810412921], [-54.99450595025676, -10.250983200815595], [-54.994506443537006, -10.250988494511427], [-54.994505883690884, -10.25099378080321], [-54.994504293888774, -10.25099885825955], [-54.994501734683226, -10.251003531103203], [-54.994498303946465, -10.25100761915399], [-54.994494134081386, -10.25101096594683], [-54.99448938469808, -10.251013442302142], [-54.99448423983057, -10.251014953540212], [-54.99447889514341, -10.25101544211383], [-54.99447355701914, -10.25101488760272], [-54.99446843065468, -10.251013312967569], [-54.99446371371305, -10.251010778183328], [-54.99445958628482, -10.25100738017722], [-54.99445620725478, -10.25100325009467], [-54.99445370704671, -10.250998546022984], [-54.99445218034539, -10.250993449330851], [-54.994451687972976, -10.250988156544643]]]}}, {"type": "Feature", "properties": {"layer": "PERIMETRO", "dxf_type": "LINE"}, "geometry": {"type": "LineString", "coordinates": [[-55.00353318265277, -10.256516777258733], [-55.003534032320516, -10.256381193627496]]}}, {"type": "Feature", "properties": {"layer": "PERIMETRO", "dxf_type": "LINE"}, "geometry": {"type": "LineString", "coordinates": [[-55.00360205349734, -10.256449406209468], [-55.00346516148186, -10.256448564662659]]}}, {"type": "Feature", "properties": {"layer": "PERIMETRO", "dxf_type": "CIRCLE", "radius_m": 3}, "geometry": {"type": "Polygon", "coordinates": [[[-55.00350622908526, -10.256448817132751], [-55.0035067878994, -10.256443530795034], [-55.0035083776104, -10.256438453274194], [-55.00351093766914, -10.256433780349836], [-55.00351436838047, -10.256429692194237], [-55.003518538255044, -10.256426345282064], [-55.003523286769855, -10.256423868791767], [-55.003528432627064, -10.256422357424924], [-55.00353377742144, -10.256421868716993], [-55.00353911567906, -10.256422423099064], [-55.003544241285326, -10.256423997609819], [-55.003548959309185, -10.256426532295785], [-55.0035530869158, -10.256429930216882], [-55.00355646612611, -10.256434060236662], [-55.00355896650938, -10.2564387642703], [-55.00356049246141, -10.256443860944893], [-55.003560985891454, -10.256449153751474], [-55.00356042615989, -10.256454440987751], [-55.00355883644954, -10.256459518508997], [-55.003556277303765, -10.256464191439411], [-55.003552846592434, -10.25646827959548], [-55.00354867671751, -10.256471626508047], [-55.00354392728942, -10.256474102993], [-55.003538782343966, -10.256475614365554], [-55.00353343755434, -10.256476102169486], [-55.003528099290186, -10.256475548691068], [-55.00352297277066, -10.256473974174304], [-55.00351825565907, -10.256471439493485], [-55.00351412805245, -10.256468041571924], [-55.003510748842494, -10.256463911551744], [-55.00350824754727, -10.256459207512245], [-55.0035067215961, -10.256454110837542], [-55.00350622908526, -10.256448817132751]]]}}, {"type": "Feature", "properties": {"layer": "PERIMETRO", "dxf_type": "LINE"}, "geometry": {"type": "LineString", "coordinates": [[-55.00481565349237, -10.252336667171672], [-55.00481650226103, -10.25220108339923]]}}, {"type": "Feature", "properties": {"layer": "PERIMETRO", "dxf_type": "LINE"}, "geometry": {"type": "LineString", "coordinates": [[-55.00483894709619, -10.252312555160103], [-55.00470205675357, -10.25231171446984]]}}, {"type": "Feature", "properties": {"layer": "PERIMETRO", "dxf_type": "CIRCLE", "radius_m": 3}, "geometry": {"type": "Polygon", "coordinates": [[[-55.00478869981284, -10.252268707150936], [-55.00478925859108, -10.252263419900427], [-55.00479084824348, -10.252258343268169], [-55.00479340823994, -10.252253670322695], [-55.004796838882044, -10.252249582140928], [-55.0048010086831, -10.252246235198598], [-55.00480575712296, -10.252243758675291], [-55.00481090290661, -10.25224224727385], [-55.00481624763167, -10.252241758531087], [-55.00482158491431, -10.252242312873769], [-55.0048267113801, -10.252243887358757], [-55.00483142936222, -10.252246422016926], [-55.004835556940044, -10.252249819914887], [-55.004838936135634, -10.252253949917096], [-55.004841436518795, -10.252258653939348], [-55.00484296249102, -10.252263749705342], [-55.004843455943984, -10.252269043417959], [-55.004842896254, -10.252274330663127], [-55.004841306596596, -10.252279408199662], [-55.00483874751875, -10.252284080247316], [-55.004835316876644, -10.252288168429535], [-55.00483114707522, -10.252291515372276], [-55.00482639771646, -10.252293992794137], [-55.00482125193193, -10.252295504195658], [-55.00481590812421, -10.252295992040064], [-55.00481056992246, -10.25229543859539], [-55.004805443456014, -10.252293864110031], [-55.004800726391814, -10.25229132855311], [-55.00479659881399, -10.252287930654669], [-55.00479321961876, -10.252283800652075], [-55.004790718317984, -10.252279097527843], [-55.00478919235229, -10.252274000857861], [-55.00478869981284, -10.252268707150936]]]}}, {"type": "Feature", "properties": {"layer": "PERIMETRO", "dxf_type": "LINE"}, "geometry": {"type": "LineString", "coordinates": [[-54.99757212061423, -10.254722825634735], [-54.99757297266565, -10.254587242484149]]}}, {"type": "Feature", "properties": {"layer": "PERIMETRO", "dxf_type": "LINE"}, "geometry": {"type": "LineString", "coordinates": [[-54.99764099201523, -10.254655456008662], [-54.997504101270586, -10.25465461209612]]}}, {"type": "Feature", "properties": {"layer": "PERIMETRO", "dxf_type": "CIRCLE", "radius_m": 3}, "geometry": {"type": "Polygon", "coordinates": [[[-54.997545168492735, -10.254654865275931], [-54.99754572739498, -10.254649578966033], [-54.99754731718095, -10.254644501490146], [-54.99754987729863, -10.254639828626164], [-54.997553307137984, -10.254635740538347], [-54.99755747794594, -10.25463239371544], [-54.997562226460865, -10.254629917315814], [-54.99756737229752, -10.25462840604322], [-54.997572717051476, -10.254627917429447], [-54.99757805433774, -10.254628471896355], [-54.9975831807818, -10.254630046496], [-54.99758789871767, -10.254632581254889], [-54.99759202622648, -10.254635979235742], [-54.997595405332945, -10.254640109299801], [-54.9975979056103, -10.254644813360517], [-54.99759943145843, -10.254649910044002], [-54.99759992479059, -10.254655202840945], [-54.99759936497091, -10.254660490049366], [-54.99759777518559, -10.254665567525644], [-54.99759521598655, -10.254670239491832], [-54.997591785228906, -10.254674328478393], [-54.99758761533887, -10.254677674403423], [-54.99758286590501, -10.254680151701573], [-54.99757772006749, -10.254681662974281], [-54.997572376230906, -10.254682150689685], [-54.997567038025494, -10.254681597120799], [-54.997561911580775, -10.254680022520747], [-54.997557194562845, -10.25467748686313], [-54.99755306613576, -10.254674089780089], [-54.99754968794794, -10.254669958817352], [-54.99754718675295, -10.25466525565463], [-54.997545660905686, -10.25466015897105], [-54.997545168492735, -10.254654865275931]]]}}, {"type": "Feature", "properties": {"layer": "PERIMETRO", "dxf_type": "LINE"}, "geometry": {"type": "LineString", "coordinates": [[-54.99921613196859, -10.256725889193403], [-54.99921698349061, -10.256590305922664]]}}, {"type": "Feature", "properties": {"layer": "PERIMETRO", "dxf_type": "LINE"}, "geometry": {"type": "LineString", "coordinates": [[-54.9992850036041, -10.256658519242382], [-54.99914811186102, -10.256657675859582]]}}, {"type": "Feature", "properties": {"layer": "PERIMETRO", "dxf_type": "CIRCLE", "radius_m": 3}, "geometry": {"type": "Polygon", "coordinates": [[[-54.999189179382704, -10.256657928880474], [-54.99918973918642, -10.256652641665587], [-54.99919132895821, -10.256647565083052], [-54.99919388816343, -10.256642892199498], [-54.99919731892418, -10.256638804100474], [-54.99920148883662, -10.25663545725291], [-54.9992062382889, -10.256632980838376], [-54.999211384156986, -10.256631469544537], [-54.99921672803525, -10.256630980904013], [-54.99922206627512, -10.256631535356332], [-54.99922719276267, -10.25663310993747], [-54.99923190983023, -10.256635644674635], [-54.99923603738247, -10.256639042642409], [-54.99923941652981, -10.256643172696952], [-54.99924191775653, -10.256647876757652], [-54.99924344364156, -10.25665297253573], [-54.999243936079935, -10.256658266233591], [-54.99924337718967, -10.25666355345436], [-54.99924178741286, -10.256668630941174], [-54.99923922730106, -10.256673302915683], [-54.999235796540304, -10.256677391015174], [-54.99923162662751, -10.256680737863134], [-54.999226878081515, -10.256683215187445], [-54.99922173221256, -10.256684726481398], [-54.999216387426436, -10.25668521421231], [-54.999211050092654, -10.256684660669254], [-54.99920592360445, -10.256683086087712], [-54.9992012056296, -10.256680550440567], [-54.99919707807737, -10.256677152472328], [-54.999193698930384, -10.25667302241739], [-54.99919119861125, -10.256668319265925], [-54.999189672732754, -10.256663222583867], [-54.999189179382704, -10.256657928880474]]]}}]}