{"type": "FeatureCollection", "name": "perimetro_georreferenciado", "crs": {"type": "name", "properties": {"name": "urn:ogc:def:crs:OGC:1.3:CRS84"}}, "properties": {"source": "8be78050_MAPA TRIBUTAÇÃO 2021 (1).dxf", "assumed_crs": "EPSG:4326", "local_crs": false, "note": "Coordenadas locais do desenho (sem CRS). Use base 'Só CAD' no mapa.", "extent": [4300.4554, 2373.7696, 8215.3349, 6186.7838], "georef": true, "transform": {"scale": 1, "rotation_deg": 0, "tx": 713717.6034368816, "ty": 8862616.121289995, "rmse_m": 0, "epsg": 31981}, "layer": "Perimetro_Georreferenciado", "source_file": "8be78050_MAPA TRIBUTAÇÃO 2021 (1)_georef.geojson", "n_features": 13}, "features": [{"type": "Feature", "properties": {"layer": "Perimetro_Georreferenciado", "dxf_type": "LINE"}, "geometry": {"type": "LineString", "coordinates": [[-54.97556293726565, -10.228728842308602], [-54.97393978650754, -10.229803647921846]]}}, {"type": "Feature", "properties": {"layer": "Perimetro_Georreferenciado", "dxf_type": "LINE"}, "geometry": {"type": "LineString", "coordinates": [[-54.97538403013607, -10.231795508695177], [-54.97703664542092, -10.23404279661977]]}}, {"type": "Feature", "properties": {"layer": "Perimetro_Georreferenciado", "dxf_type": "LINE"}, "geometry": {"type": "LineString", "coordinates": [[-54.97703664542092, -10.23404279661977], [-54.97490522278271, -10.23575152849258]]}}, {"type": "Feature", "properties": {"layer": "Perimetro_Georreferenciado", "dxf_type": "LINE"}, "geometry": {"type": "LineString", "coordinates": [[-54.97473654220385, -10.236554218783866], [-54.97517739100323, -10.237092051328947]]}}, {"type": "Feature", "properties": {"layer": "Perimetro_Georreferenciado", "dxf_type": "LINE"}, "geometry": {"type": "LineString", "coordinates": [[-54.97517739100323, -10.237092051328947], [-54.975231204648544, -10.237204435155538]]}}, {"type": "Feature", "properties": {"layer": "Perimetro_Georreferenciado", "dxf_type": "LINE"}, "geometry": {"type": "LineString", "coordinates": [[-54.975231204648544, -10.237204435155538], [-54.97674168940716, -10.23909994530426]]}}, {"type": "Feature", "properties": {"layer": "Perimetro_Georreferenciado", "dxf_type": "LINE"}, "geometry": {"type": "LineString", "coordinates": [[-54.97674168940716, -10.23909994530426], [-54.97729742469526, -10.238712865959103]]}}, {"type": "Feature", "properties": {"layer": "Perimetro_Georreferenciado", "dxf_type": "LINE"}, "geometry": {"type": "LineString", "coordinates": [[-54.97729742469526, -10.238712865959103], [-54.97869452318884, -10.240461149939431]]}}, {"type": "Feature", "properties": {"layer": "Perimetro_Georreferenciado", "dxf_type": "LINE"}, "geometry": {"type": "LineString", "coordinates": [[-54.97869452318884, -10.240461149939431], [-54.97935427764819, -10.24095436632893]]}}, {"type": "Feature", "properties": {"layer": "Perimetro_Georreferenciado", "dxf_type": "LINE"}, "geometry": {"type": "LineString", "coordinates": [[-54.97935427764819, -10.24095436632893], [-54.981030783017545, -10.23959984886702]]}}, {"type": "Feature", "properties": {"layer": "Perimetro_Georreferenciado", "dxf_type": "LINE"}, "geometry": {"type": "LineString", "coordinates": [[-54.97695672717381, -10.23073896787249], [-54.97556293726565, -10.228728842308602]]}}, {"type": "Feature", "properties": {"layer": "Perimetro_Georreferenciado", "dxf_type": "LINE"}, "geometry": {"type": "LineString", "coordinates": [[-54.982868487763376, -10.238069839072093], [-54.98204641139998, -10.237016406718944]]}}, {"type": "Feature", "properties": {"layer": "Perimetro_Georreferenciado", "dxf_type": "LINE"}, "geometry": {"type": "LineString", "coordinates": [[-54.977045257193, -10.234053335542159], [-54.974913834508435, -10.23576206746571]]}}]}