{"type": "FeatureCollection", "name": "poligonal_ieipa", "crs": {"type": "name", "properties": {"name": "urn:ogc:def:crs:OGC:1.3:CRS84"}}, "properties": {"source": "8be78050_MAPA TRIBUTAÇÃO 2021 (1).dxf", "assumed_crs": "EPSG:4326", "local_crs": false, "note": "Coordenadas locais do desenho (sem CRS). Use base 'Só CAD' no mapa.", "extent": [4300.4554, 2373.7696, 8215.3349, 6186.7838], "georef": true, "transform": {"scale": 1, "rotation_deg": 0, "tx": 713717.6034368816, "ty": 8862616.121289995, "rmse_m": 0, "epsg": 31981}, "layer": "POLIGONAL IEIPA", "source_file": "8be78050_MAPA TRIBUTAÇÃO 2021 (1)_georef.geojson", "n_features": 4}, "features": [{"type": "Feature", "properties": {"layer": "POLIGONAL IEIPA", "dxf_type": "LINE"}, "geometry": {"type": "LineString", "coordinates": [[-54.996365223464295, -10.240308193983642], [-54.99803178052984, -10.242603457526577]]}}, {"type": "Feature", "properties": {"layer": "POLIGONAL IEIPA", "dxf_type": "LINE"}, "geometry": {"type": "LineString", "coordinates": [[-54.99803178052984, -10.242603457526577], [-54.998300417727215, -10.243036629970188]]}}, {"type": "Feature", "properties": {"layer": "POLIGONAL IEIPA", "dxf_type": "LINE"}, "geometry": {"type": "LineString", "coordinates": [[-54.998300417727215, -10.243036629970188], [-54.99853285248985, -10.243406952022042]]}}, {"type": "Feature", "properties": {"layer": "POLIGONAL IEIPA", "dxf_type": "LINE"}, "geometry": {"type": "LineString", "coordinates": [[-54.999488029861524, -10.240401941453253], [-54.99935259121288, -10.239876853960764]]}}]}