{"type": "FeatureCollection", "name": "poligonal_1a_ordem", "crs": {"type": "name", "properties": {"name": "urn:ogc:def:crs:OGC:1.3:CRS84"}}, "properties": {"source": "8be78050_MAPA TRIBUTAÇÃO 2021 (1).dxf", "assumed_crs": "EPSG:4326", "local_crs": false, "note": "Coordenadas locais do desenho (sem CRS). Use base 'Só CAD' no mapa.", "extent": [4300.4554, 2373.7696, 8215.3349, 6186.7838], "georef": true, "transform": {"scale": 1, "rotation_deg": 0, "tx": 713717.6034368816, "ty": 8862616.121289995, "rmse_m": 0, "epsg": 31981}, "layer": "Poligonal_1a_Ordem", "source_file": "8be78050_MAPA TRIBUTAÇÃO 2021 (1)_georef.geojson", "n_features": 23}, "features": [{"type": "Feature", "properties": {"layer": "Poligonal_1a_Ordem", "dxf_type": "LINE"}, "geometry": {"type": "LineString", "coordinates": [[-54.99381819032472, -10.25730136738641], [-54.99214292453776, -10.25533126103052]]}}, {"type": "Feature", "properties": {"layer": "Poligonal_1a_Ordem", "dxf_type": "LINE"}, "geometry": {"type": "LineString", "coordinates": [[-54.99214292453776, -10.25533126103052], [-54.99133406161023, -10.255874098074518]]}}, {"type": "Feature", "properties": {"layer": "Poligonal_1a_Ordem", "dxf_type": "LINE"}, "geometry": {"type": "LineString", "coordinates": [[-54.99133406161023, -10.255874098074518], [-54.9910331863465, -10.255317664555442]]}}, {"type": "Feature", "properties": {"layer": "Poligonal_1a_Ordem", "dxf_type": "LINE"}, "geometry": {"type": "LineString", "coordinates": [[-54.9910331863465, -10.255317664555442], [-54.990571599786925, -10.254451033146488]]}}, {"type": "Feature", "properties": {"layer": "Poligonal_1a_Ordem", "dxf_type": "LINE"}, "geometry": {"type": "LineString", "coordinates": [[-54.990571599786925, -10.254451033146488], [-54.989702727596, -10.253604316534034]]}}, {"type": "Feature", "properties": {"layer": "Poligonal_1a_Ordem", "dxf_type": "LINE"}, "geometry": {"type": "LineString", "coordinates": [[-54.989702727596, -10.253604316534034], [-54.990619120567786, -10.253637682425495]]}}, {"type": "Feature", "properties": {"layer": "Poligonal_1a_Ordem", "dxf_type": "LINE"}, "geometry": {"type": "LineString", "coordinates": [[-54.98999198832112, -10.253886202002116], [-54.99070714052742, -10.253912240027459]]}}, {"type": "Feature", "properties": {"layer": "Poligonal_1a_Ordem", "dxf_type": "LINE"}, "geometry": {"type": "LineString", "coordinates": [[-54.990619120567786, -10.253637682425495], [-54.99140070788121, -10.253047158585774]]}}, {"type": "Feature", "properties": {"layer": "Poligonal_1a_Ordem", "dxf_type": "LINE"}, "geometry": {"type": "LineString", "coordinates": [[-54.99070714052742, -10.253912240027459], [-54.99155275983951, -10.253273337372592]]}}, {"type": "Feature", "properties": {"layer": "Poligonal_1a_Ordem", "dxf_type": "LINE"}, "geometry": {"type": "LineString", "coordinates": [[-54.99140070788121, -10.253047158585774], [-54.992191109213465, -10.25259558312835]]}}, {"type": "Feature", "properties": {"layer": "Poligonal_1a_Ordem", "dxf_type": "LINE"}, "geometry": {"type": "LineString", "coordinates": [[-54.99155275983951, -10.253273337372592], [-54.99234147908983, -10.252822722932441]]}}, {"type": "Feature", "properties": {"layer": "Poligonal_1a_Ordem", "dxf_type": "LINE"}, "geometry": {"type": "LineString", "coordinates": [[-54.992191109213465, -10.25259558312835], [-54.99400349578891, -10.251265947926353]]}}, {"type": "Feature", "properties": {"layer": "Poligonal_1a_Ordem", "dxf_type": "LINE"}, "geometry": {"type": "LineString", "coordinates": [[-54.99234147908983, -10.252822722932441], [-54.99417654434865, -10.25147645026089]]}}, {"type": "Feature", "properties": {"layer": "Poligonal_1a_Ordem", "dxf_type": "LINE"}, "geometry": {"type": "LineString", "coordinates": [[-54.99400349578891, -10.251265947926353], [-54.99557681502999, -10.253179777890002]]}}, {"type": "Feature", "properties": {"layer": "Poligonal_1a_Ordem", "dxf_type": "LINE"}, "geometry": {"type": "LineString", "coordinates": [[-54.99557681502999, -10.253179777890002], [-54.997312693247075, -10.255259228226299]]}}, {"type": "Feature", "properties": {"layer": "Poligonal_1a_Ordem", "dxf_type": "LINE"}, "geometry": {"type": "LineString", "coordinates": [[-54.997312693247075, -10.255259228226299], [-54.999657649435264, -10.25802612638007]]}}, {"type": "Feature", "properties": {"layer": "Poligonal_1a_Ordem", "dxf_type": "LINE"}, "geometry": {"type": "LineString", "coordinates": [[-54.982128619430206, -10.241040147262495], [-54.98282423387291, -10.241877886270725]]}}, {"type": "Feature", "properties": {"layer": "Poligonal_1a_Ordem", "dxf_type": "LINE"}, "geometry": {"type": "LineString", "coordinates": [[-54.9805075330782, -10.242360722127756], [-54.9812031438835, -10.2431984633698]]}}, {"type": "Feature", "properties": {"layer": "Poligonal_1a_Ordem", "dxf_type": "LINE"}, "geometry": {"type": "LineString", "coordinates": [[-54.98282423387291, -10.241877886270725], [-54.982366451569106, -10.242259074810768]]}}, {"type": "Feature", "properties": {"layer": "Poligonal_1a_Ordem", "dxf_type": "LINE"}, "geometry": {"type": "LineString", "coordinates": [[-54.982128619430206, -10.241040147262495], [-54.98182858155789, -10.241284567140156]]}}, {"type": "Feature", "properties": {"layer": "Poligonal_1a_Ordem", "dxf_type": "LINE"}, "geometry": {"type": "LineString", "coordinates": [[-54.98173719073389, -10.241359016805696], [-54.9805075330782, -10.242360722127756]]}}, {"type": "Feature", "properties": {"layer": "Poligonal_1a_Ordem", "dxf_type": "LINE"}, "geometry": {"type": "LineString", "coordinates": [[-54.98173719073389, -10.241359016805696], [-54.98182858155789, -10.241284567140156]]}}, {"type": "Feature", "properties": {"layer": "Poligonal_1a_Ordem", "dxf_type": "LINE"}, "geometry": {"type": "LineString", "coordinates": [[-54.98188040195112, -10.24264955376474], [-54.9812031438835, -10.2431984633698]]}}]}