{"type": "FeatureCollection", "name": "poligonal", "crs": {"type": "name", "properties": {"name": "urn:ogc:def:crs:OGC:1.3:CRS84"}}, "properties": {"source": "8be78050_MAPA TRIBUTAÇÃO 2021 (1).dxf", "assumed_crs": "EPSG:4326", "local_crs": false, "note": "Coordenadas locais do desenho (sem CRS). Use base 'Só CAD' no mapa.", "extent": [4300.4554, 2373.7696, 8215.3349, 6186.7838], "georef": true, "transform": {"scale": 1, "rotation_deg": 0, "tx": 713717.6034368816, "ty": 8862616.121289995, "rmse_m": 0, "epsg": 31981}, "layer": "POLIGONAL", "source_file": "8be78050_MAPA TRIBUTAÇÃO 2021 (1)_georef.geojson", "n_features": 4}, "features": [{"type": "Feature", "properties": {"layer": "POLIGONAL", "dxf_type": "LINE"}, "geometry": {"type": "LineString", "coordinates": [[-55.00614227755307, -10.254186721414703], [-55.00657403484426, -10.253831735174794]]}}, {"type": "Feature", "properties": {"layer": "POLIGONAL", "dxf_type": "LINE"}, "geometry": {"type": "LineString", "coordinates": [[-55.00481607787818, -10.252268875285601], [-55.004782593903705, -10.252312209082916]]}}, {"type": "Feature", "properties": {"layer": "POLIGONAL", "dxf_type": "LINE"}, "geometry": {"type": "LineString", "coordinates": [[-54.99830578931759, -10.249400038478178], [-54.99778794997015, -10.248782892994173]]}}, {"type": "Feature", "properties": {"layer": "POLIGONAL", "dxf_type": "LINE"}, "geometry": {"type": "LineString", "coordinates": [[-54.99778794997015, -10.248782892994173], [-54.99693280350434, -10.249473021083503]]}}]}