{"type": "FeatureCollection", "name": "q", "crs": {"type": "name", "properties": {"name": "urn:ogc:def:crs:OGC:1.3:CRS84"}}, "properties": {"source": "8be78050_MAPA TRIBUTAÇÃO 2021 (1).dxf", "assumed_crs": "EPSG:4326", "local_crs": false, "note": "Coordenadas locais do desenho (sem CRS). Use base 'Só CAD' no mapa.", "extent": [4300.4554, 2373.7696, 8215.3349, 6186.7838], "georef": true, "transform": {"scale": 1, "rotation_deg": 0, "tx": 713717.6034368816, "ty": 8862616.121289995, "rmse_m": 0, "epsg": 31981}, "layer": "q", "source_file": "8be78050_MAPA TRIBUTAÇÃO 2021 (1)_georef.geojson", "n_features": 18}, "features": [{"type": "Feature", "properties": {"layer": "q", "dxf_type": "LINE"}, "geometry": {"type": "LineString", "coordinates": [[-54.999493742180384, -10.243527263238398], [-55.003165765275455, -10.243428096752572]]}}, {"type": "Feature", "properties": {"layer": "q", "dxf_type": "LINE"}, "geometry": {"type": "LineString", "coordinates": [[-55.00319476474707, -10.243427313065107], [-55.007918443591834, -10.243299683525327]]}}, {"type": "Feature", "properties": {"layer": "q", "dxf_type": "LINE"}, "geometry": {"type": "LineString", "coordinates": [[-55.007918443591834, -10.243299683525327], [-55.00785110208652, -10.241408776555303]]}}, {"type": "Feature", "properties": {"layer": "q", "dxf_type": "LINE"}, "geometry": {"type": "LineString", "coordinates": [[-55.00785110208652, -10.241408776555303], [-55.008478032857795, -10.241396611319699]]}}, {"type": "Feature", "properties": {"layer": "q", "dxf_type": "LINE"}, "geometry": {"type": "LineString", "coordinates": [[-55.008478032857795, -10.241396611319699], [-55.00854884673654, -10.24131925462878]]}}, {"type": "Feature", "properties": {"layer": "q", "dxf_type": "LINE"}, "geometry": {"type": "LineString", "coordinates": [[-55.00854884673654, -10.24131925462878], [-55.00847845825334, -10.238050950056792]]}}, {"type": "Feature", "properties": {"layer": "q", "dxf_type": "LINE"}, "geometry": {"type": "LineString", "coordinates": [[-54.999286286452886, -10.230300451312091], [-54.99935820427372, -10.232100541489995]]}}, {"type": "Feature", "properties": {"layer": "q", "dxf_type": "LINE"}, "geometry": {"type": "LineString", "coordinates": [[-54.99935820427372, -10.232100541489995], [-54.999493742180384, -10.243527263238398]]}}, {"type": "Feature", "properties": {"layer": "q", "dxf_type": "LINE"}, "geometry": {"type": "LineString", "coordinates": [[-55.00171700485015, -10.231384542297876], [-55.00145709458118, -10.23108375896894]]}}, {"type": "Feature", "properties": {"layer": "q", "dxf_type": "LINE"}, "geometry": {"type": "LineString", "coordinates": [[-55.00145709458118, -10.23108375896894], [-55.001401435488425, -10.231044130828517]]}}, {"type": "Feature", "properties": {"layer": "q", "dxf_type": "LINE"}, "geometry": {"type": "LineString", "coordinates": [[-55.00216769206661, -10.23213660288525], [-55.002298733244984, -10.232365573509624]]}}, {"type": "Feature", "properties": {"layer": "q", "dxf_type": "LWPOLYLINE"}, "geometry": {"type": "Polygon", "coordinates": [[[-55.00211896360701, -10.232367440423195], [-55.00211208367198, -10.232137403227014], [-55.00216769206661, -10.23213660288525], [-55.002298733244984, -10.232365573509624], [-55.00211896360701, -10.232367440423195]]]}}, {"type": "Feature", "properties": {"layer": "q", "dxf_type": "LINE"}, "geometry": {"type": "LineString", "coordinates": [[-54.99943232934518, -10.23805232914273], [-54.99949372679198, -10.243525933471162]]}}, {"type": "Feature", "properties": {"layer": "q", "dxf_type": "LINE"}, "geometry": {"type": "LineString", "coordinates": [[-55.002298733244984, -10.232365573509624], [-55.00235116303915, -10.232426212484986]]}}, {"type": "Feature", "properties": {"layer": "q", "dxf_type": "LINE"}, "geometry": {"type": "LineString", "coordinates": [[-55.00235116303915, -10.232426212484986], [-55.00236892201934, -10.232446752019591]]}}, {"type": "Feature", "properties": {"layer": "q", "dxf_type": "LINE"}, "geometry": {"type": "LineString", "coordinates": [[-55.00195100383211, -10.231671914900081], [-55.001855484950326, -10.23153778525293]]}}, {"type": "Feature", "properties": {"layer": "q", "dxf_type": "LINE"}, "geometry": {"type": "LineString", "coordinates": [[-55.00117332318374, -10.230175400856906], [-54.999286286452886, -10.230300451312091]]}}, {"type": "Feature", "properties": {"layer": "q", "dxf_type": "LINE"}, "geometry": {"type": "LineString", "coordinates": [[-55.00114806252297, -10.230157132898743], [-55.00114800585153, -10.230156418449459]]}}]}