{"type": "FeatureCollection", "name": "quadra", "crs": {"type": "name", "properties": {"name": "urn:ogc:def:crs:OGC:1.3:CRS84"}}, "properties": {"source": "8be78050_MAPA TRIBUTAÇÃO 2021 (1).dxf", "assumed_crs": "EPSG:4326", "local_crs": false, "note": "Coordenadas locais do desenho (sem CRS). Use base 'Só CAD' no mapa.", "extent": [4300.4554, 2373.7696, 8215.3349, 6186.7838], "georef": true, "transform": {"scale": 1, "rotation_deg": 0, "tx": 713717.6034368816, "ty": 8862616.121289995, "rmse_m": 0, "epsg": 31981}, "layer": "Quadra", "source_file": "8be78050_MAPA TRIBUTAÇÃO 2021 (1)_georef.geojson", "n_features": 5}, "features": [{"type": "Feature", "properties": {"layer": "Quadra", "dxf_type": "CIRCLE", "radius_m": 2.61}, "geometry": {"type": "Polygon", "coordinates": [[[-54.981458521823846, -10.241628354189858], [-54.98145900812913, -10.241623755377546], [-54.981460391276926, -10.241619338395278], [-54.98146261816482, -10.241615274657304], [-54.98146560202872, -10.241611719098392], [-54.98146922884783, -10.241608807501974], [-54.98147336009957, -10.241606653805421], [-54.981477835565826, -10.241605339270535], [-54.98148248426651, -10.241604915263089], [-54.981487127237244, -10.241605396942777], [-54.98149158571952, -10.241606766929582], [-54.98149568939659, -10.241608971739348], [-54.98149927909108, -10.24161192812784], [-54.98150221773291, -10.24161552044711], [-54.98150439302828, -10.241619611509027], [-54.98150572018022, -10.241624045313928], [-54.98150614825938, -10.241628649801852], [-54.98150566195474, -10.241633248614363], [-54.981504278813155, -10.241637664693052], [-54.98150205192552, -10.241641728431377], [-54.9814990680559, -10.24164528489452], [-54.981495441242245, -10.241648195587358], [-54.981491309990005, -10.24165034928411], [-54.981486834523096, -10.241651663819072], [-54.98148218581599, -10.241652088730325], [-54.98147754285033, -10.241651606146563], [-54.98147308436756, -10.241650236159458], [-54.98146898069023, -10.241648031349339], [-54.98146539099002, -10.241645075864376], [-54.98146245235418, -10.241641482640926], [-54.98146027705931, -10.241637391578813], [-54.981458949902304, -10.241632958677714], [-54.981458521823846, -10.241628354189858]]]}}, {"type": "Feature", "properties": {"layer": "Quadra", "dxf_type": "CIRCLE", "radius_m": 2.61}, "geometry": {"type": "Polygon", "coordinates": [[[-54.982000049967304, -10.241179916471712], [-54.98200053717555, -10.24117531766251], [-54.98200192030742, -10.241170901579913], [-54.98200414627805, -10.241166836926643], [-54.9820071301317, -10.241163281360715], [-54.98201075784798, -10.2411603706658], [-54.98201488818417, -10.241158216050954], [-54.98201936364298, -10.241156901506944], [-54.9820240123378, -10.241156477490357], [-54.98202865530446, -10.241156959161225], [-54.982033113784624, -10.241158329139882], [-54.982037217455876, -10.241160534846358], [-54.98204080715804, -10.24116349032506], [-54.98204374580378, -10.241167082639903], [-54.98204592109914, -10.241171174602936], [-54.98204724826412, -10.241175607502928], [-54.98204767635188, -10.241180211991638], [-54.982047190056846, -10.241184810806722], [-54.98204580692547, -10.241189226889611], [-54.98204358004826, -10.241193290633676], [-54.98204059618889, -10.241196847103838], [-54.98203696938489, -10.241199757804713], [-54.98203283814138, -10.241201911510217], [-54.9820283626819, -10.241203226054298], [-54.98202371398067, -10.2412036509747], [-54.98201907101908, -10.241203168399752], [-54.98201461253843, -10.241201798420796], [-54.98201050977375, -10.241199593623511], [-54.98200691915903, -10.241196638138797], [-54.98200398051929, -10.241193044919774], [-54.98200180613126, -10.2411889538661], [-54.98200047896693, -10.241184520966035], [-54.982000049967304, -10.241179916471712]]]}}, {"type": "Feature", "properties": {"layer": "Quadra", "dxf_type": "CIRCLE", "radius_m": 2.61}, "geometry": {"type": "Polygon", "coordinates": [[[-54.981863791535815, -10.241826848171213], [-54.981864278748795, -10.241822249362947], [-54.981865661886985, -10.241817833281997], [-54.9818678878653, -10.241813768631008], [-54.981870871727686, -10.241810213067922], [-54.981874499453426, -10.24180730237628], [-54.981878629799425, -10.24180514776503], [-54.98188310526805, -10.24180383322477], [-54.981887753972266, -10.241803409211984], [-54.98189239694757, -10.241803890886544], [-54.98189685543528, -10.241805260868654], [-54.98190095911272, -10.241807466578178], [-54.98190454881944, -10.241810422059425], [-54.98190748838051, -10.24181401438186], [-54.98190966276418, -10.241818106340496], [-54.981910989928096, -10.241822539241035], [-54.98191141801291, -10.241827143729545], [-54.981910931713145, -10.241831742543685], [-54.981909548575445, -10.241836158624936], [-54.98190732259739, -10.241840223276276], [-54.981904337822435, -10.241843778834053], [-54.98190071100898, -10.241846689531654], [-54.98189657974993, -10.241848844137449], [-54.98189210428066, -10.241850158677774], [-54.98188745557574, -10.241850582690478], [-54.981882812599785, -10.241850101015737], [-54.981878354111586, -10.24184873103333], [-54.98187425134644, -10.241846525329114], [-54.98187066072716, -10.241843569841855], [-54.98186772207894, -10.241839977524783], [-54.98186554769575, -10.241835885565942], [-54.98186422053249, -10.241831452665332], [-54.981863791535815, -10.241826848171213]]]}}, {"type": "Feature", "properties": {"layer": "Quadra", "dxf_type": "CIRCLE", "radius_m": 2.61}, "geometry": {"type": "Polygon", "coordinates": [[[-54.98215710339293, -10.242168657927676], [-54.98215758969068, -10.242164059112692], [-54.982158972827456, -10.242159643030083], [-54.98216119971822, -10.242155578382572], [-54.982164183581794, -10.242152022816846], [-54.98216781039744, -10.242149112116559], [-54.982171941659615, -10.24214695750775], [-54.98217641713289, -10.242145642964163], [-54.98218106584261, -10.242145218948083], [-54.982185708824055, -10.242145700619462], [-54.98219016731831, -10.242147070598673], [-54.982194271002435, -10.242149276305682], [-54.98219786071574, -10.242152231784882], [-54.98220079937047, -10.24215582410017], [-54.982202974672326, -10.242159916063587], [-54.982204301841044, -10.242164348963891], [-54.98220472992967, -10.242168953452822], [-54.982204243632566, -10.242173552268019], [-54.98220286049629, -10.242177968350921], [-54.9822006336115, -10.242182032094911], [-54.9821976497422, -10.242185588564867], [-54.982194022926286, -10.242188499265454], [-54.98218989166933, -10.242190652970583], [-54.982185416195406, -10.242191967514227], [-54.982180767479264, -10.242192392434132], [-54.98217612450289, -10.242191909858663], [-54.98217166600815, -10.242190539879168], [-54.98216756231805, -10.242188335075687], [-54.98216397260474, -10.242185379596139], [-54.982161033956004, -10.242181786376674], [-54.98215885864892, -10.242177695316931], [-54.98215753148085, -10.242173262416554], [-54.98215710339293, -10.242168657927676]]]}}, {"type": "Feature", "properties": {"layer": "Quadra", "dxf_type": "CIRCLE", "radius_m": 2.61}, "geometry": {"type": "Polygon", "coordinates": [[[-54.98112680523032, -10.242491973284897], [-54.9811272924566, -10.242487374480142], [-54.981128675609064, -10.242482958404997], [-54.98113090160209, -10.242478893761895], [-54.98113388639161, -10.24247533821414], [-54.98113751321868, -10.242472427527906], [-54.98114164357732, -10.242470272928703], [-54.98114611996943, -10.242468958406677], [-54.98115076776989, -10.242468534400825], [-54.981155410751526, -10.242469016087538], [-54.98115987015541, -10.242470386086545], [-54.98116397292104, -10.242472591800292], [-54.98116756262563, -10.242475547289688], [-54.98117050218176, -10.24247913961824], [-54.98117267655789, -10.242483231580714], [-54.98117400371193, -10.242487664482663], [-54.9811744326975, -10.242492268975768], [-54.981173945471866, -10.242496867780739], [-54.981172562319884, -10.242501283856182], [-54.981170336327125, -10.242505348499634], [-54.9811673515376, -10.242508904047739], [-54.98116372471027, -10.242511814734273], [-54.981159594351126, -10.242513969333675], [-54.98115511795836, -10.242515283855777], [-54.981150469244646, -10.242515707855874], [-54.98114582717492, -10.242515226174648], [-54.98114136777055, -10.242513856175345], [-54.981137265004655, -10.242511650461244], [-54.98113367530007, -10.242508694971493], [-54.98113073574421, -10.242505102642644], [-54.98112856136858, -10.242501010679973], [-54.98112723421519, -10.24249657777795], [-54.98112680523032, -10.242491973284897]]]}}]}