{"type": "FeatureCollection", "name": "unidade", "crs": {"type": "name", "properties": {"name": "urn:ogc:def:crs:OGC:1.3:CRS84"}}, "properties": {"source": "8be78050_MAPA TRIBUTAÇÃO 2021 (1).dxf", "assumed_crs": "EPSG:4326", "local_crs": false, "note": "Coordenadas locais do desenho (sem CRS). Use base 'Só CAD' no mapa.", "extent": [4300.4554, 2373.7696, 8215.3349, 6186.7838], "georef": true, "transform": {"scale": 1, "rotation_deg": 0, "tx": 713717.6034368816, "ty": 8862616.121289995, "rmse_m": 0, "epsg": 31981}, "layer": "UNIDADE", "source_file": "8be78050_MAPA TRIBUTAÇÃO 2021 (1)_georef.geojson", "n_features": 3}, "features": [{"type": "Feature", "properties": {"layer": "UNIDADE", "dxf_type": "LINE"}, "geometry": {"type": "LineString", "coordinates": [[-54.992960693392625, -10.248002936412341], [-54.99298433479619, -10.247975387178768]]}}, {"type": "Feature", "properties": {"layer": "UNIDADE", "dxf_type": "LINE"}, "geometry": {"type": "LineString", "coordinates": [[-54.99277884675218, -10.247831733537794], [-54.99280277318507, -10.247804427424784]]}}, {"type": "Feature", "properties": {"layer": "UNIDADE", "dxf_type": "LINE"}, "geometry": {"type": "LineString", "coordinates": [[-54.99298433479619, -10.247975387178768], [-54.99280277318507, -10.247804427424784]]}}]}