{"type": "FeatureCollection", "name": "verde", "crs": {"type": "name", "properties": {"name": "urn:ogc:def:crs:OGC:1.3:CRS84"}}, "properties": {"source": "8be78050_MAPA TRIBUTAÇÃO 2021 (1).dxf", "assumed_crs": "EPSG:4326", "local_crs": false, "note": "Coordenadas locais do desenho (sem CRS). Use base 'Só CAD' no mapa.", "extent": [4300.4554, 2373.7696, 8215.3349, 6186.7838], "georef": true, "transform": {"scale": 1, "rotation_deg": 0, "tx": 713717.6034368816, "ty": 8862616.121289995, "rmse_m": 0, "epsg": 31981}, "layer": "verde", "source_file": "8be78050_MAPA TRIBUTAÇÃO 2021 (1)_georef.geojson", "n_features": 139}, "features": [{"type": "Feature", "properties": {"layer": "verde", "dxf_type": "LINE"}, "geometry": {"type": "LineString", "coordinates": [[-54.99923826461119, -10.24345827664047], [-54.99923361607904, -10.243453718472987]]}}, {"type": "Feature", "properties": {"layer": "verde", "dxf_type": "LINE"}, "geometry": {"type": "LineString", "coordinates": [[-54.99921813100359, -10.243454434008097], [-54.99921810742407, -10.243454410360968]]}}, {"type": "Feature", "properties": {"layer": "verde", "dxf_type": "LINE"}, "geometry": {"type": "LineString", "coordinates": [[-54.99920262234869, -10.243455125895327], [-54.99920259876918, -10.243455102248213]]}}, {"type": "Feature", "properties": {"layer": "verde", "dxf_type": "LINE"}, "geometry": {"type": "LineString", "coordinates": [[-54.99903071415858, -10.243493248614806], [-54.99902986607865, -10.243492418113162]]}}, {"type": "Feature", "properties": {"layer": "verde", "dxf_type": "LINE"}, "geometry": {"type": "LineString", "coordinates": [[-54.99901783044587, -10.243496514751438], [-54.99901698237165, -10.24349568334586]]}}, {"type": "Feature", "properties": {"layer": "verde", "dxf_type": "LINE"}, "geometry": {"type": "LineString", "coordinates": [[-54.99925227679362, -10.243742298980166], [-54.999250025542935, -10.243740091303508]]}}, {"type": "Feature", "properties": {"layer": "verde", "dxf_type": "LINE"}, "geometry": {"type": "LineString", "coordinates": [[-54.99900494582609, -10.24349977997799], [-54.9990040986588, -10.243498949481904]]}}, {"type": "Feature", "properties": {"layer": "verde", "dxf_type": "LINE"}, "geometry": {"type": "LineString", "coordinates": [[-54.999250866114416, -10.243756814551999], [-54.99924861486366, -10.243754606875301]]}}, {"type": "Feature", "properties": {"layer": "verde", "dxf_type": "LINE"}, "geometry": {"type": "LineString", "coordinates": [[-54.9989953292343, -10.243506249839829], [-54.99899206211304, -10.243503046113496]]}}, {"type": "Feature", "properties": {"layer": "verde", "dxf_type": "LINE"}, "geometry": {"type": "LineString", "coordinates": [[-54.999249455429286, -10.243771331027657], [-54.99924720418413, -10.243769122447066]]}}, {"type": "Feature", "properties": {"layer": "verde", "dxf_type": "LINE"}, "geometry": {"type": "LineString", "coordinates": [[-54.99908659016229, -10.243818320842216], [-54.99908628630379, -10.243818023389132]]}}, {"type": "Feature", "properties": {"layer": "verde", "dxf_type": "LINE"}, "geometry": {"type": "LineString", "coordinates": [[-54.999077535921224, -10.243825341943559], [-54.9990771649461, -10.243824978090982]]}}, {"type": "Feature", "properties": {"layer": "verde", "dxf_type": "LINE"}, "geometry": {"type": "LineString", "coordinates": [[-54.99920477329134, -10.244013699123355], [-54.99920327033877, -10.244012225517631]]}}, {"type": "Feature", "properties": {"layer": "verde", "dxf_type": "LINE"}, "geometry": {"type": "LineString", "coordinates": [[-54.999200766673624, -10.244025670443863], [-54.999199100461, -10.2440240358389]]}}, {"type": "Feature", "properties": {"layer": "verde", "dxf_type": "LINE"}, "geometry": {"type": "LineString", "coordinates": [[-54.99919676097378, -10.244037640865965], [-54.99919492967026, -10.24403584615441]]}}, {"type": "Feature", "properties": {"layer": "verde", "dxf_type": "LINE"}, "geometry": {"type": "LineString", "coordinates": [[-54.99919275435532, -10.244049612186224], [-54.999190759797386, -10.244047655571533]]}}, {"type": "Feature", "properties": {"layer": "verde", "dxf_type": "LINE"}, "geometry": {"type": "LineString", "coordinates": [[-54.99914350062863, -10.24417620555562], [-54.99914207386721, -10.244174806540196]]}}, {"type": "Feature", "properties": {"layer": "verde", "dxf_type": "LINE"}, "geometry": {"type": "LineString", "coordinates": [[-54.998926820783495, -10.24396374072043], [-54.99892498495327, -10.243961940556307]]}}, {"type": "Feature", "properties": {"layer": "verde", "dxf_type": "LINE"}, "geometry": {"type": "LineString", "coordinates": [[-54.99913806271524, -10.244186772407566], [-54.99913645364305, -10.244185194197119]]}}, {"type": "Feature", "properties": {"layer": "verde", "dxf_type": "LINE"}, "geometry": {"type": "LineString", "coordinates": [[-54.99913262480145, -10.244197339259328], [-54.999130833412806, -10.244195582757776]]}}, {"type": "Feature", "properties": {"layer": "verde", "dxf_type": "LINE"}, "geometry": {"type": "LineString", "coordinates": [[-54.99902387984845, -10.244090710245803], [-54.99901218277083, -10.244079240680929]]}}, {"type": "Feature", "properties": {"layer": "verde", "dxf_type": "LINE"}, "geometry": {"type": "LineString", "coordinates": [[-54.9990443594539, -10.244126690427386], [-54.99902938889923, -10.24411201076924]]}}, {"type": "Feature", "properties": {"layer": "verde", "dxf_type": "LINE"}, "geometry": {"type": "LineString", "coordinates": [[-54.99911631015069, -10.244229038904134], [-54.999108712852205, -10.244221589011891]]}}, {"type": "Feature", "properties": {"layer": "verde", "dxf_type": "LINE"}, "geometry": {"type": "LineString", "coordinates": [[-54.99924283906957, -10.240155773493202], [-54.99923893524081, -10.24015194576593]]}}, {"type": "Feature", "properties": {"layer": "verde", "dxf_type": "LINE"}, "geometry": {"type": "LineString", "coordinates": [[-54.999223431497704, -10.240136743109879], [-54.99921336353689, -10.240126871791398]]}}, {"type": "Feature", "properties": {"layer": "verde", "dxf_type": "LINE"}, "geometry": {"type": "LineString", "coordinates": [[-54.999236595815574, -10.24016555080204], [-54.99922640359731, -10.240155556689594]]}}, {"type": "Feature", "properties": {"layer": "verde", "dxf_type": "LINE"}, "geometry": {"type": "LineString", "coordinates": [[-54.99922523444278, -10.24015441055305], [-54.99920012713917, -10.240129791396452]]}}, {"type": "Feature", "properties": {"layer": "verde", "dxf_type": "LINE"}, "geometry": {"type": "LineString", "coordinates": [[-54.999248683501186, -10.240193302415184], [-54.99924700914242, -10.240191659628325]]}}, {"type": "Feature", "properties": {"layer": "verde", "dxf_type": "LINE"}, "geometry": {"type": "LineString", "coordinates": [[-54.99920910282658, -10.240154491200942], [-54.99917547313827, -10.240121515265454]]}}, {"type": "Feature", "properties": {"layer": "verde", "dxf_type": "LINE"}, "geometry": {"type": "LineString", "coordinates": [[-54.999238384256564, -10.240183202789314], [-54.999226485013935, -10.240171535859465]]}}, {"type": "Feature", "properties": {"layer": "verde", "dxf_type": "LINE"}, "geometry": {"type": "LineString", "coordinates": [[-54.99923284212952, -10.240193667777604], [-54.99922656643608, -10.24018751412544]]}}, {"type": "Feature", "properties": {"layer": "verde", "dxf_type": "LINE"}, "geometry": {"type": "LineString", "coordinates": [[-54.99919297029797, -10.240154571842421], [-54.999166565959335, -10.24012868011496]]}}, {"type": "Feature", "properties": {"layer": "verde", "dxf_type": "LINE"}, "geometry": {"type": "LineString", "coordinates": [[-54.99921700166488, -10.240194034048747], [-54.999213340011615, -10.240190443735118]]}}, {"type": "Feature", "properties": {"layer": "verde", "dxf_type": "LINE"}, "geometry": {"type": "LineString", "coordinates": [[-54.99917683868206, -10.240154652488712], [-54.99915765877436, -10.240135845868052]]}}, {"type": "Feature", "properties": {"layer": "verde", "dxf_type": "LINE"}, "geometry": {"type": "LineString", "coordinates": [[-54.99920116120034, -10.240194400319094], [-54.99919720748114, -10.240190524376462]]}}, {"type": "Feature", "properties": {"layer": "verde", "dxf_type": "LINE"}, "geometry": {"type": "LineString", "coordinates": [[-54.99916070615373, -10.240154733128586], [-54.99916057010789, -10.240154598510905]]}}, {"type": "Feature", "properties": {"layer": "verde", "dxf_type": "LINE"}, "geometry": {"type": "LineString", "coordinates": [[-54.999185319823354, -10.240194766583066], [-54.99918107586337, -10.24019060502262]]}}, {"type": "Feature", "properties": {"layer": "verde", "dxf_type": "LINE"}, "geometry": {"type": "LineString", "coordinates": [[-54.99916947935905, -10.240195132851875], [-54.99916494333318, -10.240190685662357]]}}, {"type": "Feature", "properties": {"layer": "verde", "dxf_type": "LINE"}, "geometry": {"type": "LineString", "coordinates": [[-54.99915363798228, -10.240195499114286], [-54.9991488117157, -10.24019076630691]]}}, {"type": "Feature", "properties": {"layer": "verde", "dxf_type": "LINE"}, "geometry": {"type": "LineString", "coordinates": [[-54.9991305016468, -10.240172812012531], [-54.999122030960145, -10.240164506171086]]}}, {"type": "Feature", "properties": {"layer": "verde", "dxf_type": "LINE"}, "geometry": {"type": "LineString", "coordinates": [[-54.9991377975182, -10.24019586538152], [-54.99913267918581, -10.240190846945046]]}}, {"type": "Feature", "properties": {"layer": "verde", "dxf_type": "LINE"}, "geometry": {"type": "LineString", "coordinates": [[-54.99913058214589, -10.240188791175887], [-54.99911312377324, -10.240171671922564]]}}, {"type": "Feature", "properties": {"layer": "verde", "dxf_type": "LINE"}, "geometry": {"type": "LineString", "coordinates": [[-54.999121956141664, -10.240196231642376], [-54.99910421659162, -10.240178836769811]]}}, {"type": "Feature", "properties": {"layer": "verde", "dxf_type": "LINE"}, "geometry": {"type": "LineString", "coordinates": [[-54.999106115677804, -10.240196597908064], [-54.99909531031651, -10.240186002526256]]}}, {"type": "Feature", "properties": {"layer": "verde", "dxf_type": "LINE"}, "geometry": {"type": "LineString", "coordinates": [[-54.999090274307164, -10.240196963263472], [-54.99908640313412, -10.240193167372858]]}}, {"type": "Feature", "properties": {"layer": "verde", "dxf_type": "LINE"}, "geometry": {"type": "LineString", "coordinates": [[-54.9992765941234, -10.240379659001592], [-54.9992708925715, -10.240374068410409]]}}, {"type": "Feature", "properties": {"layer": "verde", "dxf_type": "LINE"}, "geometry": {"type": "LineString", "coordinates": [[-54.999278381647336, -10.240397311887367], [-54.999275794818104, -10.240394774929905]]}}, {"type": "Feature", "properties": {"layer": "verde", "dxf_type": "LINE"}, "geometry": {"type": "LineString", "coordinates": [[-54.99927213860357, -10.240391190073439], [-54.99925501671721, -10.240374401018881]]}}, {"type": "Feature", "properties": {"layer": "verde", "dxf_type": "LINE"}, "geometry": {"type": "LineString", "coordinates": [[-54.99928017008951, -10.240414963874878], [-54.999277583260145, -10.2404124269174]]}}, {"type": "Feature", "properties": {"layer": "verde", "dxf_type": "LINE"}, "geometry": {"type": "LineString", "coordinates": [[-54.999261682226745, -10.240396834937249], [-54.99923914177558, -10.240374733632166]]}}, {"type": "Feature", "properties": {"layer": "verde", "dxf_type": "LINE"}, "geometry": {"type": "LineString", "coordinates": [[-54.999281957619125, -10.240432615856784], [-54.99927937078964, -10.240430078899294]]}}, {"type": "Feature", "properties": {"layer": "verde", "dxf_type": "LINE"}, "geometry": {"type": "LineString", "coordinates": [[-54.99924518596276, -10.240396559907197], [-54.99922326592151, -10.240375066239077]]}}, {"type": "Feature", "properties": {"layer": "verde", "dxf_type": "LINE"}, "geometry": {"type": "LineString", "coordinates": [[-54.99926346975541, -10.240414486919061], [-54.99925171291028, -10.240402959164882]]}}, {"type": "Feature", "properties": {"layer": "verde", "dxf_type": "LINE"}, "geometry": {"type": "LineString", "coordinates": [[-54.99928374606132, -10.240450267844295], [-54.99926787495365, -10.240434705877664]]}}, {"type": "Feature", "properties": {"layer": "verde", "dxf_type": "LINE"}, "geometry": {"type": "LineString", "coordinates": [[-54.99922911420068, -10.240396698773187], [-54.99920739098579, -10.240375397946911]]}}, {"type": "Feature", "properties": {"layer": "verde", "dxf_type": "LINE"}, "geometry": {"type": "LineString", "coordinates": [[-54.999265257278424, -10.240432139804774], [-54.99925589770326, -10.240422961633705]]}}, {"type": "Feature", "properties": {"layer": "verde", "dxf_type": "LINE"}, "geometry": {"type": "LineString", "coordinates": [[-54.99928151637926, -10.240463981122513], [-54.99926008158963, -10.240442963193038]]}}, {"type": "Feature", "properties": {"layer": "verde", "dxf_type": "LINE"}, "geometry": {"type": "LineString", "coordinates": [[-54.99921304243307, -10.24039683854227], [-54.99919151604452, -10.240375730557853]]}}, {"type": "Feature", "properties": {"layer": "verde", "dxf_type": "LINE"}, "geometry": {"type": "LineString", "coordinates": [[-54.99926566139035, -10.240464332841448], [-54.9992509267847, -10.240449885172401]]}}, {"type": "Feature", "properties": {"layer": "verde", "dxf_type": "LINE"}, "geometry": {"type": "LineString", "coordinates": [[-54.9991969697587, -10.240396977401053], [-54.99917564019079, -10.240376063162413]]}}, {"type": "Feature", "properties": {"layer": "verde", "dxf_type": "LINE"}, "geometry": {"type": "LineString", "coordinates": [[-54.9992498063959, -10.240464685463476], [-54.99923479424072, -10.240449965813118]]}}, {"type": "Feature", "properties": {"layer": "verde", "dxf_type": "LINE"}, "geometry": {"type": "LineString", "coordinates": [[-54.99918089799137, -10.240397117168538], [-54.99915976524976, -10.240376395771792]]}}, {"type": "Feature", "properties": {"layer": "verde", "dxf_type": "LINE"}, "geometry": {"type": "LineString", "coordinates": [[-54.99923395140156, -10.240465038084732], [-54.999218662609465, -10.240450046458657]]}}, {"type": "Feature", "properties": {"layer": "verde", "dxf_type": "LINE"}, "geometry": {"type": "LineString", "coordinates": [[-54.999164825311624, -10.240397256929613], [-54.999143889396265, -10.240376728374791]]}}, {"type": "Feature", "properties": {"layer": "verde", "dxf_type": "LINE"}, "geometry": {"type": "LineString", "coordinates": [[-54.99921809731989, -10.240465390710815], [-54.99920253006579, -10.240450127097793]]}}, {"type": "Feature", "properties": {"layer": "verde", "dxf_type": "LINE"}, "geometry": {"type": "LineString", "coordinates": [[-54.99914875355024, -10.240397395791613], [-54.99912801446112, -10.240377060078718]]}}, {"type": "Feature", "properties": {"layer": "verde", "dxf_type": "LINE"}, "geometry": {"type": "LineString", "coordinates": [[-54.99920224232577, -10.2404657433305], [-54.99918639752226, -10.240450207736107]]}}, {"type": "Feature", "properties": {"layer": "verde", "dxf_type": "LINE"}, "geometry": {"type": "LineString", "coordinates": [[-54.99913268087076, -10.240397535551095], [-54.999112139520435, -10.240377392685751]]}}, {"type": "Feature", "properties": {"layer": "verde", "dxf_type": "LINE"}, "geometry": {"type": "LineString", "coordinates": [[-54.99918638733178, -10.240466095949424], [-54.99917026589144, -10.240450288379233]]}}, {"type": "Feature", "properties": {"layer": "verde", "dxf_type": "LINE"}, "geometry": {"type": "LineString", "coordinates": [[-54.99911660910966, -10.240397674411502], [-54.9990962636673, -10.240377725286402]]}}, {"type": "Feature", "properties": {"layer": "verde", "dxf_type": "LINE"}, "geometry": {"type": "LineString", "coordinates": [[-54.99917053233789, -10.240466448567547], [-54.9991541333482, -10.240450369015948]]}}, {"type": "Feature", "properties": {"layer": "verde", "dxf_type": "LINE"}, "geometry": {"type": "LineString", "coordinates": [[-54.999100537343026, -10.240397814175003], [-54.99908038872684, -10.240378057891874]]}}, {"type": "Feature", "properties": {"layer": "verde", "dxf_type": "LINE"}, "geometry": {"type": "LineString", "coordinates": [[-54.99915467734412, -10.240466801184912], [-54.99913800172334, -10.240450448753583]]}}, {"type": "Feature", "properties": {"layer": "verde", "dxf_type": "LINE"}, "geometry": {"type": "LineString", "coordinates": [[-54.99909705958801, -10.24041030399448], [-54.9990645137865, -10.240378390496579]]}}, {"type": "Feature", "properties": {"layer": "verde", "dxf_type": "LINE"}, "geometry": {"type": "LineString", "coordinates": [[-54.999138823263024, -10.24046715380709], [-54.9991218691804, -10.24045052938869]]}}, {"type": "Feature", "properties": {"layer": "verde", "dxf_type": "LINE"}, "geometry": {"type": "LineString", "coordinates": [[-54.999072494458254, -10.240402115175737], [-54.99906336708438, -10.24039316531376]]}}, {"type": "Feature", "properties": {"layer": "verde", "dxf_type": "LINE"}, "geometry": {"type": "LineString", "coordinates": [[-54.99909538499917, -10.240424561231613], [-54.99907913205452, -10.240408623587909]]}}, {"type": "Feature", "properties": {"layer": "verde", "dxf_type": "LINE"}, "geometry": {"type": "LineString", "coordinates": [[-54.99912296826948, -10.240467506422872], [-54.99910573755017, -10.240450610028608]]}}, {"type": "Feature", "properties": {"layer": "verde", "dxf_type": "LINE"}, "geometry": {"type": "LineString", "coordinates": [[-54.9990937113283, -10.240438817570405], [-54.99907942570928, -10.240424810156671]]}}, {"type": "Feature", "properties": {"layer": "verde", "dxf_type": "LINE"}, "geometry": {"type": "LineString", "coordinates": [[-54.999107113281724, -10.240467858134007], [-54.99907971935826, -10.240440997629314]]}}, {"type": "Feature", "properties": {"layer": "verde", "dxf_type": "LINE"}, "geometry": {"type": "LineString", "coordinates": [[-54.99906395439247, -10.240425538451028], [-54.99906395439247, -10.240425538451028]]}}, {"type": "Feature", "properties": {"layer": "verde", "dxf_type": "LINE"}, "geometry": {"type": "LineString", "coordinates": [[-54.99909125828841, -10.240468210748231], [-54.999067795408216, -10.240445204353255]]}}, {"type": "Feature", "properties": {"layer": "verde", "dxf_type": "LINE"}, "geometry": {"type": "LineString", "coordinates": [[-54.99907540329521, -10.240468563361691], [-54.99906454078181, -10.240457912486528]]}}, {"type": "Feature", "properties": {"layer": "verde", "dxf_type": "LINE"}, "geometry": {"type": "LineString", "coordinates": [[-54.99901243292601, -10.23870563229363], [-54.99900422622011, -10.23869758479446]]}}, {"type": "Feature", "properties": {"layer": "verde", "dxf_type": "LINE"}, "geometry": {"type": "LineString", "coordinates": [[-54.999013727031446, -10.238722800351288], [-54.99899249190251, -10.23870197799873]]}}, {"type": "Feature", "properties": {"layer": "verde", "dxf_type": "LINE"}, "geometry": {"type": "LineString", "coordinates": [[-54.99901502204941, -10.238739968414565], [-54.998980758497225, -10.238706371208147]]}}, {"type": "Feature", "properties": {"layer": "verde", "dxf_type": "LINE"}, "geometry": {"type": "LineString", "coordinates": [[-54.999016027723115, -10.238756853577584], [-54.99896902508602, -10.238710765320949]]}}, {"type": "Feature", "properties": {"layer": "verde", "dxf_type": "LINE"}, "geometry": {"type": "LineString", "coordinates": [[-54.99901665154377, -10.238773363974953], [-54.998957290767656, -10.23871515852378]]}}, {"type": "Feature", "properties": {"layer": "verde", "dxf_type": "LINE"}, "geometry": {"type": "LineString", "coordinates": [[-54.99901727445175, -10.238789874366685], [-54.99894555736161, -10.238719551731721]]}}, {"type": "Feature", "properties": {"layer": "verde", "dxf_type": "LINE"}, "geometry": {"type": "LineString", "coordinates": [[-54.9990178982722, -10.238806384764025], [-54.998933823955305, -10.238723944939194]]}}, {"type": "Feature", "properties": {"layer": "verde", "dxf_type": "LINE"}, "geometry": {"type": "LineString", "coordinates": [[-54.999018522092555, -10.238822895161382], [-54.998922089636196, -10.238728338140568]]}}, {"type": "Feature", "properties": {"layer": "verde", "dxf_type": "LINE"}, "geometry": {"type": "LineString", "coordinates": [[-54.99901953230032, -10.2388397848719], [-54.99891051676638, -10.238732889617415]]}}, {"type": "Feature", "properties": {"layer": "verde", "dxf_type": "LINE"}, "geometry": {"type": "LineString", "coordinates": [[-54.9990239492696, -10.238860015652136], [-54.998899722123504, -10.238738203369598]]}}, {"type": "Feature", "properties": {"layer": "verde", "dxf_type": "LINE"}, "geometry": {"type": "LineString", "coordinates": [[-54.99902836624487, -10.238880245528492], [-54.998888927474646, -10.238743518025244]]}}, {"type": "Feature", "properties": {"layer": "verde", "dxf_type": "LINE"}, "geometry": {"type": "LineString", "coordinates": [[-54.999032784127365, -10.238900476314372], [-54.99887813283116, -10.23874883177656]]}}, {"type": "Feature", "properties": {"layer": "verde", "dxf_type": "LINE"}, "geometry": {"type": "LineString", "coordinates": [[-54.999037201103285, -10.238920706190791], [-54.998867337274795, -10.238754145521844]]}}, {"type": "Feature", "properties": {"layer": "verde", "dxf_type": "LINE"}, "geometry": {"type": "LineString", "coordinates": [[-54.99904175594435, -10.23894107159998], [-54.99889676256377, -10.238798897229085]]}}, {"type": "Feature", "properties": {"layer": "verde", "dxf_type": "LINE"}, "geometry": {"type": "LineString", "coordinates": [[-54.99904638244168, -10.238961507052133], [-54.998928781931156, -10.238846193168682]]}}, {"type": "Feature", "properties": {"layer": "verde", "dxf_type": "LINE"}, "geometry": {"type": "LineString", "coordinates": [[-54.99905100984627, -10.23898194341381], [-54.998960802214185, -10.238893490016302]]}}, {"type": "Feature", "properties": {"layer": "verde", "dxf_type": "LINE"}, "geometry": {"type": "LineString", "coordinates": [[-54.9990556363443, -10.239002378866006], [-54.99899282251163, -10.23894078595855]]}}, {"type": "Feature", "properties": {"layer": "verde", "dxf_type": "LINE"}, "geometry": {"type": "LineString", "coordinates": [[-54.999060262842704, -10.23902281431821], [-54.999024842812176, -10.2389880828032]]}}, {"type": "Feature", "properties": {"layer": "verde", "dxf_type": "LINE"}, "geometry": {"type": "LineString", "coordinates": [[-54.99907896991749, -10.239057057049818], [-54.999056862214566, -10.239035378736865]]}}, {"type": "Feature", "properties": {"layer": "verde", "dxf_type": "LINE"}, "geometry": {"type": "LineString", "coordinates": [[-54.9990977794975, -10.239091398939275], [-54.99908888253261, -10.239082675578555]]}}, {"type": "Feature", "properties": {"layer": "verde", "dxf_type": "LINE"}, "geometry": {"type": "LineString", "coordinates": [[-54.99901243292601, -10.23870563229363], [-54.99900422622011, -10.23869758479446]]}}, {"type": "Feature", "properties": {"layer": "verde", "dxf_type": "LINE"}, "geometry": {"type": "LineString", "coordinates": [[-54.999013727031446, -10.238722800351288], [-54.99899249190251, -10.23870197799873]]}}, {"type": "Feature", "properties": {"layer": "verde", "dxf_type": "LINE"}, "geometry": {"type": "LineString", "coordinates": [[-54.99901502204941, -10.238739968414565], [-54.998980758497225, -10.238706371208147]]}}, {"type": "Feature", "properties": {"layer": "verde", "dxf_type": "LINE"}, "geometry": {"type": "LineString", "coordinates": [[-54.999016027723115, -10.238756853577584], [-54.99896902508602, -10.238710765320949]]}}, {"type": "Feature", "properties": {"layer": "verde", "dxf_type": "LINE"}, "geometry": {"type": "LineString", "coordinates": [[-54.99901665154377, -10.238773363974953], [-54.998957290767656, -10.23871515852378]]}}, {"type": "Feature", "properties": {"layer": "verde", "dxf_type": "LINE"}, "geometry": {"type": "LineString", "coordinates": [[-54.99901727445175, -10.238789874366685], [-54.99894555736161, -10.238719551731721]]}}, {"type": "Feature", "properties": {"layer": "verde", "dxf_type": "LINE"}, "geometry": {"type": "LineString", "coordinates": [[-54.9990178982722, -10.238806384764025], [-54.998933823955305, -10.238723944939194]]}}, {"type": "Feature", "properties": {"layer": "verde", "dxf_type": "LINE"}, "geometry": {"type": "LineString", "coordinates": [[-54.999018522092555, -10.238822895161382], [-54.998922089636196, -10.238728338140568]]}}, {"type": "Feature", "properties": {"layer": "verde", "dxf_type": "LINE"}, "geometry": {"type": "LineString", "coordinates": [[-54.99901953230032, -10.2388397848719], [-54.99891051676638, -10.238732889617415]]}}, {"type": "Feature", "properties": {"layer": "verde", "dxf_type": "LINE"}, "geometry": {"type": "LineString", "coordinates": [[-54.9990239492696, -10.238860015652136], [-54.998899722123504, -10.238738203369598]]}}, {"type": "Feature", "properties": {"layer": "verde", "dxf_type": "LINE"}, "geometry": {"type": "LineString", "coordinates": [[-54.99902836624487, -10.238880245528492], [-54.998888927474646, -10.238743518025244]]}}, {"type": "Feature", "properties": {"layer": "verde", "dxf_type": "LINE"}, "geometry": {"type": "LineString", "coordinates": [[-54.999032784127365, -10.238900476314372], [-54.99887813283116, -10.23874883177656]]}}, {"type": "Feature", "properties": {"layer": "verde", "dxf_type": "LINE"}, "geometry": {"type": "LineString", "coordinates": [[-54.999037201103285, -10.238920706190791], [-54.998867337274795, -10.238754145521844]]}}, {"type": "Feature", "properties": {"layer": "verde", "dxf_type": "LINE"}, "geometry": {"type": "LineString", "coordinates": [[-54.99904175594435, -10.23894107159998], [-54.99889676256377, -10.238798897229085]]}}, {"type": "Feature", "properties": {"layer": "verde", "dxf_type": "LINE"}, "geometry": {"type": "LineString", "coordinates": [[-54.99904638244168, -10.238961507052133], [-54.998928781931156, -10.238846193168682]]}}, {"type": "Feature", "properties": {"layer": "verde", "dxf_type": "LINE"}, "geometry": {"type": "LineString", "coordinates": [[-54.99905100984627, -10.23898194341381], [-54.998960802214185, -10.238893490016302]]}}, {"type": "Feature", "properties": {"layer": "verde", "dxf_type": "LINE"}, "geometry": {"type": "LineString", "coordinates": [[-54.9990556363443, -10.239002378866006], [-54.99899282251163, -10.23894078595855]]}}, {"type": "Feature", "properties": {"layer": "verde", "dxf_type": "LINE"}, "geometry": {"type": "LineString", "coordinates": [[-54.999060262842704, -10.23902281431821], [-54.999024842812176, -10.2389880828032]]}}, {"type": "Feature", "properties": {"layer": "verde", "dxf_type": "LINE"}, "geometry": {"type": "LineString", "coordinates": [[-54.99907896991749, -10.239057057049818], [-54.999056862214566, -10.239035378736865]]}}, {"type": "Feature", "properties": {"layer": "verde", "dxf_type": "LINE"}, "geometry": {"type": "LineString", "coordinates": [[-54.9990977794975, -10.239091398939275], [-54.99908888253261, -10.239082675578555]]}}, {"type": "Feature", "properties": {"layer": "verde", "dxf_type": "LINE"}, "geometry": {"type": "LineString", "coordinates": [[-54.99932783594218, -10.242926044040145], [-54.999324532539944, -10.24292280484126]]}}, {"type": "Feature", "properties": {"layer": "verde", "dxf_type": "LINE"}, "geometry": {"type": "LineString", "coordinates": [[-54.99932799533717, -10.242942100521992], [-54.99932418400071, -10.24293836284747]]}}, {"type": "Feature", "properties": {"layer": "verde", "dxf_type": "LINE"}, "geometry": {"type": "LineString", "coordinates": [[-54.99932815565026, -10.242958156105576], [-54.999323835466974, -10.242953919949773]]}}, {"type": "Feature", "properties": {"layer": "verde", "dxf_type": "LINE"}, "geometry": {"type": "LineString", "coordinates": [[-54.99932831595754, -10.24297421259303], [-54.99932348602615, -10.242969476142534]]}}, {"type": "Feature", "properties": {"layer": "verde", "dxf_type": "LINE"}, "geometry": {"type": "LineString", "coordinates": [[-54.99931842192213, -10.243218893703288], [-54.99931660875969, -10.243217117183185]]}}, {"type": "Feature", "properties": {"layer": "verde", "dxf_type": "LINE"}, "geometry": {"type": "LineString", "coordinates": [[-54.99931444979221, -10.243230898685706], [-54.99931263663541, -10.243229121261674]]}}, {"type": "Feature", "properties": {"layer": "verde", "dxf_type": "LINE"}, "geometry": {"type": "LineString", "coordinates": [[-54.99931047766758, -10.243242902764115], [-54.999308665423314, -10.24324112534568]]}}, {"type": "Feature", "properties": {"layer": "verde", "dxf_type": "LINE"}, "geometry": {"type": "LineString", "coordinates": [[-54.9992934746632, -10.24327392748453], [-54.999292439743634, -10.243272912337307]]}}, {"type": "Feature", "properties": {"layer": "verde", "dxf_type": "LINE"}, "geometry": {"type": "LineString", "coordinates": [[-54.999283377356, -10.243279926166755], [-54.99928234243645, -10.243278911019503]]}}, {"type": "Feature", "properties": {"layer": "verde", "dxf_type": "LINE"}, "geometry": {"type": "LineString", "coordinates": [[-54.9992732809667, -10.24328592395031], [-54.99927224604151, -10.243284909706913]]}}, {"type": "Feature", "properties": {"layer": "verde", "dxf_type": "LINE"}, "geometry": {"type": "LineString", "coordinates": [[-54.999217862004315, -10.243311079030864], [-54.99921061392418, -10.243303972072427]]}}, {"type": "Feature", "properties": {"layer": "verde", "dxf_type": "LINE"}, "geometry": {"type": "LineString", "coordinates": [[-54.99890510191432, -10.243004402752405], [-54.998905003044946, -10.243004306328011]]}}, {"type": "Feature", "properties": {"layer": "verde", "dxf_type": "LINE"}, "geometry": {"type": "LineString", "coordinates": [[-54.99920650211419, -10.24331583879658], [-54.99920505539801, -10.243314420676807]]}}, {"type": "Feature", "properties": {"layer": "verde", "dxf_type": "LINE"}, "geometry": {"type": "LineString", "coordinates": [[-54.998646630438394, -10.242766858957829], [-54.99864402455466, -10.242764302893375]]}}, {"type": "Feature", "properties": {"layer": "verde", "dxf_type": "LINE"}, "geometry": {"type": "LineString", "coordinates": [[-54.99919514131122, -10.243320598556195], [-54.99919362113017, -10.243319107670402]]}}, {"type": "Feature", "properties": {"layer": "verde", "dxf_type": "LINE"}, "geometry": {"type": "LineString", "coordinates": [[-54.99918378142054, -10.243325358320966], [-54.99918218686207, -10.243323794663533]]}}]}